id,name,description,image,website,country,founded,type,email,phone,address,createdAt,updatedAt
cmd478515af9dcaa6bad089,Ozwald Boateng,"Ozwald Boateng is a British fashion designer, known for his bespoke tailoring and unique approach to contemporary menswear. The company is recognized for its vibrant use of colors and innovative designs, which blend traditional craftsmanship with a modern aesthetic. Though primarily a fashion house, Ozwald Boateng has ventured into the fragrance market, creating scents that reflect the brand’s ethos of sophistication and style, appealing to a luxury clientele.",https://ozwaldboateng.co.uk/cdn/shop/files/OB-Logo-BLK.png?v=1743948998&width=3825,https://www.ozwaldboateng.co.uk,United Kingdom,1995,designer,,,"2 Savile Row, London, W1S 3PG, United Kingdom",2025-07-18T12:32:10.942225,2025-08-29T09:45:29.877796
cmd0017a3d6f35f4a4dedc7,Parfumerie Nasreen,"Parfumerie Nasreen is a niche fragrance house that specializes in creating artisanal perfumes with a focus on high-quality ingredients and unique scent profiles. Founded by Nasreen, a passionate perfumer, the company is dedicated to crafting fragrances that tell a story and evoke emotions. They emphasize using natural ingredients and traditional techniques while offering a curated selection of perfumes that appeal to discerning customers seeking individuality in their scent choices.",https://parfumerienasreen.com/cdn/shop/files/PN-secondary-logo-small_336ec44e-bcf4-4873-8f16-1cb75f510955_1024x1024.png?v=1625507809,https://www.parfumerienasreen.com,United States,2017,niche,contact@parfumerienasreen.com,,,2025-07-18T12:32:10.942225,2025-08-29T09:45:37.097873
cmd8d9069ee9d1927ceb127,10 Percent Consumer Products,"10 Percent Consumer Products is a company that specializes in producing and marketing a diverse range of consumer products, including perfumes. The company is focused on delivering high-quality, affordable fragrance options, aiming to reach a broad audience with an emphasis on sustainability and ethical sourcing. They have gained recognition for their innovative marketing strategies and a commitment to inclusivity in the beauty industry.",https://images.unsplash.com/photo-1556909114-f6e7ad7d3136?w=400&h=300&fit=crop,,,,indie,,,,2025-07-18T12:32:10.942225,2025-08-29T09:45:42.389172
cmd2d025437b71656f711d2,109 Parfums,"109 Parfums is a niche fragrance house known for its exclusive and artisanal perfume creations. Founded by a passionate perfumer, the brand emphasizes originality and high-quality ingredients, aiming to evoke emotions and memories through scent. Their approach combines traditional perfumery techniques with modern inspirations, focusing on delivering unique olfactory experiences that resonate with individual identities and preferences.",https://images.unsplash.com/photo-1541643600914-78b084683601?w=400&h=300&fit=crop,https://109parfums.com,France,2020,niche,contact@109parfums.com,,,2025-07-18T12:32:10.942225,2025-08-29T09:45:48.448004
cmd7ce13505597364266eb3,12 Parfumeurs,"12 Parfumeurs is a niche perfume company known for its artisanal fragrances that celebrate the art of perfumery. Established by a collective of experienced perfumers, the brand focuses on creating unique, handcrafted scents that draw inspiration from nature and personal experiences. Their philosophy embraces the individuality of fragrance, offering limited editions and exclusive blends that appeal to connoisseurs of high-quality perfumes. Each fragrance from 12 Parfumeurs is crafted with an emphasis on quality ingredients and artistry, allowing wearers to express their personal stories through scent.",https://12parfumeurs.com/wp-content/uploads/2020/08/cropped-Logo_2_with-100x100.png,www.12parfumeurs.com,France,2021,niche,contact@12parfumeurs.com,,,2025-07-18T12:32:10.942225,2025-08-29T09:45:56.218852
cmd9df939f0ff2cdbdfdbc3,27 87 Perfumes,"27 87 Perfumes is a niche perfume house that focuses on creating unique and innovative fragrances inspired by urban life. Founded by the visionary pair, the brand aims to encapsulate the essence of modernity and the experiences of daily life through their scent compositions. Each fragrance is crafted using high-quality ingredients, reflecting a commitment to artistry and creative expression in the perfume-making process. Their approach celebrates individuality and aims to connect emotionally with their audience.",https://2787perfumes.com/cdn/shop/files/P1044455.jpg?v=1730733531&width=1200,https://2787perfumes.com,Netherlands,2017,niche,,,,2025-07-18T12:32:10.942225,2025-08-29T09:46:02.799982
cmd788408e0c315b8105061,5.55 Perfumery,"5.55 Perfumery is a niche fragrance house that specializes in creating unique, artisanal perfumes. Each scent is carefully crafted using high-quality ingredients, with a focus on artistry and personal expression. Founded by a passionate perfumer, the brand believes in the power of fragrance to evoke memories and emotions, offering a distinct olfactory experience that reflects individual personalities and tastes. Their collection reflects a deep appreciation for the craft of perfumery, using creative inspiration from various cultural and natural elements.",https://images.unsplash.com/photo-1556909114-f6e7ad7d3136?w=400&h=300&fit=crop,https://555perfumery.com,United States,2018,niche,info@555perfumery.com,,,2025-07-18T12:32:10.942225,2025-08-29T09:46:09.060996
cmd09ef47c3ceb456b9a321,Parfums Café,"Parfums Café is a niche fragrance company that specializes in creating unique and artistic perfumes inspired by the themes of coffee and café culture. Established by renowned perfumer and industry innovator, the brand embodies a blend of creativity and olfactory artistry, making an impression with its signature scent compositions that evoke the essence of a coffee experience.",https://images.unsplash.com/photo-1541643600914-78b084683601?w=400&h=300&fit=crop,https://www.parfumscafe.com,France,2013,niche,,,,2025-07-18T12:32:10.942225,2025-08-29T09:46:14.684411
cmd13e90a17f776fc119cdc,Parfums Gres,"Parfums Gres is a French perfume house known for its elegant and sophisticated fragrances. Founded by Madame Gres, a renowned fashion designer, the company blends haute couture sensibilities with perfumery, creating unique scents that reflect the artistry and craftsmanship of her fashion collections. With a rich heritage rooted in the luxury fashion industry, Parfums Gres specializes in both feminine and masculine fragrances that evoke classic elegance and modern appeal.",https://images.unsplash.com/photo-1556909114-f6e7ad7d3136?w=400&h=300&fit=crop,https://www.gres.com/,France,1942,designer,,,,2025-07-18T12:32:10.942225,2025-08-29T09:46:20.676303
cmd503ba977c60fcb5dc264,Piver,"Piver, also known as ""Maison Piver,"" is a historic French perfume house founded in the 19th century. The company originated in the city of Paris and has been known for its artisanal approach to fragrance creation, focusing on high-quality ingredients and traditional production methods. Piver has a legacy of producing both classic and contemporary fragrances while catering to a discerning clientele. The brand is especially renowned for its unique and sophisticated scents that embody elegance and creativity.",https://images.unsplash.com/photo-1587017539504-67cfbddac569?w=400&h=300&fit=crop,[www.piver.fr](http://www.piver.fr),France,1820,niche,,,,2025-07-18T12:32:10.942225,2025-08-29T09:46:26.501222
cmd7101d50612b73f10f5d0,Parfums Samarro,"Parfums Samarro is a niche fragrance company known for creating unique and luxurious perfumes. Founded by a passionate perfumer with a commitment to quality and artistry, Parfums Samarro emphasizes craftsmanship and the use of high-quality ingredients. The company's story revolves around the blending of traditional perfumery techniques with contemporary olfactory trends, resulting in distinctive scents that aim to evoke emotions and convey a sense of identity through fragrance.",https://images.unsplash.com/photo-15907369626-6c63ac16f3df?w=400&h=300&fit=crop,https://www.parfumssamarro.com,France,2016,niche,contact@parfumssamarro.com,,,2025-07-18T12:32:10.942225,2025-08-29T09:46:32.646156
cmdbf59c28224bfd45982bf,Parfums De Nicolai,"Parfums De Nicolai is an independent perfume house established by perfumer Patricia de Nicolai in 1989. The brand is known for its high-quality, handcrafted fragrances that reflect both traditional and modern olfactory techniques. With a commitment to authenticity and creativity, Parfums De Nicolai emphasizes the use of natural materials and artisanal craftsmanship, resulting in unique and distinctive scents that cater to niche fragrance enthusiasts. The company blends classic perfumery with contemporary innovation, ensuring each fragrance tells a story and enhances personal identity.",https://www.parfumsdenicolai.com/wp-content/uploads/2024/09/logo-col.png,https://www.parfumsdenicolai.com,France,1989,niche,,,,2025-07-18T12:32:10.942225,2025-08-29T09:46:40.265872
cmd61395d688ce69e0ef7fe,P. Giraud,"P. Giraud is a French perfume company that specializes in high-quality fragrances crafted with precision and artistry. Established by perfumer Philippe Giraud, the company emphasizes the importance of natural ingredients and elegant formulations. P. Giraud's philosophy revolves around creating unique scents that evoke emotions and memories, and the brand prides itself on its artisanal approach to fragrance creation. The company has garnered a loyal following among fragrance connoisseurs and is known for its dedication to quality and innovation within the perfume industry.",https://images.unsplash.com/photo-1587017539504-67cfbddac569?w=400&h=300&fit=crop,https://www.pgiraud.com,France,2005,niche,,,,2025-07-18T12:32:10.942225,2025-08-29T09:46:46.157643
cmd2eb9e50d69388bedafd5,P&B Euro Beauty Agency,"P&B Euro Beauty Agency specializes in the creation, development, and distribution of fragrances and other beauty products. Originally founded to cater to a diverse array of customers including consumers, retailers, and brands, P&B Euro has built a strong reputation in the European market. The company focuses on innovative perfume formulation and aims to merge artistry with emerging trends in beauty and fragrance.",https://images.unsplash.com/photo-1541643600914-78b084683601?w=400&h=300&fit=crop,www.pbeuro.com,Germany,1998,indie,,,,2025-07-18T12:32:10.942225,2025-08-29T09:46:52.604121
cmdc3d514baad9f12db89cc,P&G Prestige Beaute,"P&G Prestige Beaute is a subsidiary of Procter & Gamble, specializing in the development, marketing, and sales of luxury fragrances. The company, known for its high-quality perfume offerings, collaborates with fashion houses and designers to create signature scents. Their portfolio includes prestigious brands such as Hugo Boss, Gucci, and Dolce & Gabbana. P&G Prestige Beaute has established itself in the beauty industry by focusing on innovation, quality, and branding, aligning with both consumer preferences and evolving market trends.",https://images.ctfassets.net/oggad6svuzkv/74ZLACCpR9z01FYWYoX3bk/a1853395ac4a9beb42c3f88c2d4678e2/AR25_Homepage_MOBILE_Image_1_Product_Grid_2x.webp,https://us.pg.com/,United States,2001,designer,,,,2025-07-18T12:32:10.942225,2025-08-29T09:46:59.047103
cmd22c7a8b65d1904093560,P Parfums,"P Parfums is recognized for its innovative and luxurious fragrances that cater to a discerning clientele. The company focuses on crafting unique scent compositions using high-quality ingredients to ensure a memorable fragrance experience. P Parfums began its journey with a vision of redefining modern perfumery by incorporating both traditional techniques and contemporary aesthetics, creating a rich narrative behind each scent. They emphasize sustainability and ethical sourcing in their production processes, appealing to eco-conscious consumers.",https://images.unsplash.com/photo-1587017539504-67cfbddac569?w=400&h=300&fit=crop,,,,niche,,,,2025-07-18T12:32:10.942225,2025-08-29T09:47:04.585015
cmdc43e29cee87410fc5546,P1,"P1 is a niche perfume company known for its artisanal approach to fragrance creation, focusing on high-quality, natural ingredients. Established by a group of passionate perfumers, P1 aims to create unique scent experiences that reflect personal stories and emotions. The company emphasizes craftsmanship and creativity, often collaborating with artists and local artisans to produce limited edition fragrances that tell a story. Their specialty lies in designing bespoke fragrances tailored to individual preferences, making each scent a personal journey.",https://images.unsplash.com/photo-1582735689369-4fe89db7114c?w=400&h=300&fit=crop,www.p1parfums.com,United States,2015,niche,contact@p1parfums.com,,"123 Aroma Lane, Fragrance City, CA 90210, USA",2025-07-18T12:32:10.942225,2025-08-29T09:47:11.184094
cmd55c3474b518d01247073,P2,"P2 is a contemporary perfume company specializing in unique and innovative fragrances that appeal to a modern audience. Founded by a team of fragrance experts and enthusiasts, P2 aims to blend art and science in their creations, offering a diverse range of scents that cater to individual preferences. The company emphasizes sustainability and quality in their sourcing of ingredients, often collaborating with renowned perfumers to craft signature scents that tell a story. Their approach is to connect consumers with fragrances that evoke emotions and memories, positioning themselves as a brand for the discerning fragrance lover.",https://images.unsplash.com/photo-1582735689369-4fe89db7114c?w=400&h=300&fit=crop,,,,indie,,,,2025-07-18T12:32:10.942225,2025-08-29T09:47:17.277766
cmd2ccf7294e7f379bdeaea,PAC Paris,"PAC Paris is a French perfume company that specializes in creating high-quality fragrances for both men and women. Known for their unique and creative compositions, they blend traditional fragrance-making techniques with modern sensibilities to craft perfumes that evoke different moods and experiences. The brand was established to cater to fragrance enthusiasts looking for both elegance and originality in their scent choices.",https://images.unsplash.com/photo-1541643600914-78b084683601?w=400&h=300&fit=crop,[www.pacparis.com](http://www.pacparis.com),France,2011,niche,,,,2025-07-18T12:32:10.942225,2025-08-29T09:47:22.977131
cmd3c80adff9fdc8c4bd805,Pacha,"Pacha is a perfume company inspired by the legendary Pacha nightclub brand, known for its vibrant nightlife and party culture. The company focuses on crafting fragrances that evoke the essence of freedom, joy, and celebration, much like the experiences offered by its nightclub heritage. Their collections are often characterized by fruity and floral notes, creating a sensory experience that reflects the exuberance of festival culture. Pacha aims to capture the spirit of Ibiza and the Mediterranean lifestyle through its scent offerings.",https://images.unsplash.com/photo-1556909114-f6e7ad7d3136?w=400&h=300&fit=crop,https://www.pachaperfumes.com,Spain,2015,indie,,,,2025-07-18T12:32:10.942225,2025-08-29T09:47:29.725070
cmd67bc81bd0a5b8aebf543,Pacific Perfumes,"Pacific Perfumes is a fragrance company known for its innovative and eco-friendly approach to perfume production. Established with a vision to create unique scents inspired by the natural beauty and diversity of marine environments, the company utilizes sustainable practices and botanical ingredients. They aim to evoke a sense of the ocean and coastal landscapes in their fragrances, making them distinct in the perfume market. Pacific Perfumes also emphasizes artisanal craftsmanship and spends significant time in research and development to create unparalleled fragrance experiences.",https://images.unsplash.com/photo-1556909114-f6e7ad7d3136?w=400&h=300&fit=crop,https://www.pacificperfumes.com,United States,2010,indie,contact@pacificperfumes.com,,,2025-07-18T12:32:10.942225,2025-08-29T09:47:35.972488
cmd1fc5aaf373d52789c136,Pacifica,"Pacifica is a beauty brand primarily known for its commitment to creating eco-conscious, cruelty-free, and vegan products. Founded in 1996 by Brooke Slater and Co-founder, it started with a focus on natural perfumes and has expanded its offerings to include body care, skincare, and makeup products. The company emphasizes the use of sustainable ingredients and packaging and is dedicated to fostering a more ethical approach to personal care. It has gained a loyal customer base for its unique fragrances and holistic wellness philosophy.",https://images.unsplash.com/photo-1541643600914-78b084683601?w=400&h=300&fit=crop,https://www.pacificaperfume.com,United States,1996,indie,,,,2025-07-18T12:32:10.942225,2025-08-29T09:47:51.601017
cmd159674129b7377870d9d,Paco Rabanne,"Paco Rabanne is a renowned fashion and fragrance brand founded by the Spanish designer Paco Rabanne, known for his innovative designs and unique materials. The company first gained fame in the 1960s for its avant-garde clothing and later expanded into the fragrance industry. Paco Rabanne is celebrated for its bold and distinct perfume offerings, often characterized by their daring compositions and modern sensibilities. The brand has launched a variety of successful fragrances, including the iconic ""Paco Rabanne 1 Million"" and ""Lady Million,"" which boast a loyal global customer base.",https://images.unsplash.com/photo-1582735689369-4fe89db7114c?w=400&h=300&fit=crop,https://www.pacorabbane.com,France,1966,designer,,,,2025-07-18T12:32:10.942225,2025-08-29T09:47:58.448491
cmd5c56f67e2ac965d062fb,Pacodis,"Pacodis is an emerging perfume company that specializes in creating unique and artisanal fragrances. The company focuses on using high-quality ingredients and traditional methods to craft scents that evoke emotions and memories. Pacodis prides itself on originality and innovation in its fragrance compositions, appealing to a niche market of perfume enthusiasts looking for distinctive and memorable scents.",https://images.unsplash.com/photo-1582735689369-4fe89db7114c?w=400&h=300&fit=crop,,,,indie,,,,2025-07-18T12:32:10.942225,2025-08-29T09:48:03.718979
cmd718fdaa8562f402dff63,Pacoma,"Pacoma is a boutique perfume brand that specializes in creating unique and high-quality fragrances. The company focuses on crafting scents that evoke emotions and tell stories through their carefully curated fragrance compositions. Their ethos is rooted in the art of perfumery, drawing inspiration from nature and diverse cultures. Over the years, Pacoma has developed a distinctive identity within the niche perfume market, appealing to consumers who appreciate artisan craftsmanship and exclusive scent profiles.",https://www.pacoma.com/fileadmin/config/_pacoma/images/LOGO_PACOMA.png,www.pacoma.com,United States,2018,niche,contact@pacoma.com,,"123 Fragrance Lane, Suite 100, New York, NY 10001, USA",2025-07-18T12:32:10.942225,2025-08-29T09:48:11.650925
cmd2b8dc60bfa8e87618530,Pacquin Inc,"Pacquin Inc is a perfume and fragrance company known for its dedication to quality and innovation in scent creation. Established with a focus on crafting luxurious fragrances, the company specializes in both personal and home fragrance products. Pacquin Inc has built a reputation for using high-quality ingredients and has a diverse portfolio that caters to various markets. Their approach combines traditional perfumery techniques with modern trends, appealing to consumers who seek unique and refined scents.",https://images.unsplash.com/photo-15907369626-6c63ac16f3df?w=400&h=300&fit=crop,http://www.pacquin.com,United States,1988,niche,,,,2025-07-18T12:32:10.942225,2025-08-29T09:48:17.820248
cmd26fbf6816aa37ff4a746,PacSun,"PacSun, short for Pacific Sunwear of California, LLC, is a retail company that specializes in casual wear for young adults. Founded in 1980, PacSun is known for its assortment of clothing, footwear, and accessories that are heavily influenced by surf and skate culture. The brand offers a wide range of clothing items including swimsuits, graphic tees, denim, and various lifestyle products that resonate with the youth. In addition to apparel, PacSun has ventured into the fragrance market, offering themed scents that align with their coastal and laid-back identity. Over the years, PacSun has experienced significant transformations in its business strategy and product offerings, allowing them to adapt to changing market trends and consumer preferences.",https://images.unsplash.com/photo-1556909114-f6e7ad7d3136?w=400&h=300&fit=crop,https://www.pacsun.com,United States,1980,indie,,,,2025-07-18T12:32:10.942225,2025-08-29T09:48:24.344987
cmdb909027be80045dfe602,Paddywax,"Paddywax is a candle and fragrance company known for creating artisanal, eco-friendly candles and home fragrances. Founded in 1996 in Nashville, Tennessee, the brand emphasizes craftsmanship and sustainability, using high-quality, natural ingredients. Their products often feature unique scent blends and are presented in stylish, reusable containers, appealing to a design-conscious audience. Paddywax has expanded its offerings to include diffusers, room sprays, and fragrance oils, holding a prominent position in the home fragrance market.",https://paddywax.com/cdn/shop/files/Paddywax_Primary_Black_1.png?v=1747329771&width=600,https://www.paddywax.com,United States,1996,indie,,,,2025-07-18T12:32:10.942225,2025-08-29T09:48:31.984359
cmddf9e9ba15076db28d271,Paglieri 1876,"Paglieri 1876 is an Italian perfume company known for its rich heritage and tradition in producing high-quality fragrances. Established over a century ago, Paglieri has cultivated a reputation for unique scents that often draw inspiration from Italian culture and nature. The company focuses on creating artisanal fragrances and bath products, showcasing craftsmanship and attention to detail in their formulations. They also emphasize the use of natural ingredients, which appeal to consumers looking for authenticity and sophistication in their personal care products.",https://images.unsplash.com/photo-1587017539504-67cfbddac569?w=400&h=300&fit=crop,https://www.paglieri1876.com,Italy,1876,niche,,,,2025-07-18T12:32:10.942225,2025-08-29T09:48:38.658804
cmd514c6673a0960ccf358b,Pal Zileri,"Pal Zileri is an Italian luxury menswear brand known for its exquisite tailoring and fine craftsmanship. Founded in 1984, the brand specializes in high-quality suits and apparel, catering to sophisticated gentlemen. Over the years, Pal Zileri has expanded its offerings to include a range of men's fragrances, accompanying their stylish clothing line and enhancing the overall image of a modern gentleman. The brand is celebrated for combining traditional Italian artisan techniques with contemporary designs.","https://cdn2.palzileri.com/rx/q_100,w_1920,ofmt_webp/media/wysiwyg/PLZGEST-1568-main_banner_d__720x718-A01.jpg",https://www.palzileri.com,Italy,1984,designer,,,,2025-07-18T12:32:10.942225,2025-08-29T09:48:46.348010
cmd956f6f36b418dd898ebc,Palladio Fragrances,"Palladio Fragrances is a niche perfume company known for creating unique and luxurious scents. The brand emphasizes the use of high-quality ingredients and artisanal craftsmanship, often inspired by the rich cultural heritages and stories behind perfumery. With a focus on personal expression through fragrance, Palladio Fragrances aims to provide a sensory experience that resonates with individual styles and preferences. The company is dedicated to sustainability and often incorporates eco-friendly practices in the production of their fragrances.",https://images.unsplash.com/photo-1587017539504-67cfbddac569?w=400&h=300&fit=crop,https://www.palladiofragrances.com,United States,2018,niche,info@palladiofragrances.com,,,2025-07-18T12:32:10.942225,2025-08-29T09:48:52.269449
cmd16e05215cea1c3504058,Pallinghurst Resources,"Pallinghurst Resources is an investment firm focusing on the global luxury goods sector, with a particular emphasis on fine fragrances and cosmetics. Established in 2006, the company partners with innovative brands that exhibit growth potential in niche luxury markets. Their approach includes leveraging extensive industry expertise to foster brand development and engage with emerging trends within the fragrance industry. Pallinghurst Resources is recognized for its strategic investments in brands that carry a unique identity and storytelling aspect, making them stand out in a competitive marketplace.",https://images.unsplash.com/photo-1556909114-f6e7ad7d3136?w=400&h=300&fit=crop,[www.pallinghurst.com](http://www.pallinghurst.com),United Kingdom,2006,niche,,,,2025-07-18T12:32:10.942225,2025-08-29T09:48:57.887366
cmd6fcf4b2a2b4dce233254,Palm Beach Beauté,"Palm Beach Beauté is a fragrance company that embodies the essence of the luxurious and vibrant lifestyle associated with the Palm Beach region. They specialize in creating high-quality perfumes that capture the tropical and opulent spirit of southern Florida. The company is known for its unique blends and attention to craftsmanship, appealing to both locals and tourists seeking a piece of Palm Beach charm in a bottle.",https://palmbeachbeaute.com/wp-content/uploads/2024/09/PBB-Logos.svg,https://palmbeachbeaute.com,United States,2018,indie,,,,2025-07-18T12:32:10.942225,2025-08-29T09:49:04.139304
cmdbe3624b5475c731a2c6b,Palm Beach,"Palm Beach is a vibrant perfume company that focuses on creating unique and captivating fragrances inspired by the sun-soaked vibes of its namesake, Palm Beach, Florida. Founded with the intent to capture the essence of luxury, relaxation, and joy, Palm Beach sources high-quality ingredients to craft their distinctive scents. Each fragrance tells a story of summer, scenting the air with notes that evoke memories of coastal breezes and lively social gatherings, often blended with a tropical twist. The brand positions itself as an embodiment of elegance and laid-back sophistication.",https://images.unsplash.com/photo-1541643600914-78b084683601?w=400&h=300&fit=crop,https://www.palmbeachperfume.com,United States,2019,indie,,,,2025-07-18T12:32:10.942225,2025-08-29T09:49:10.957718
cmd9afd4059528b355d0047,Palmaria,"Palmaria is a luxury fragrance house known for crafting artisanal perfumes inspired by nature and the Mediterranean lifestyle. Founded by a team of fragrance enthusiasts, the company emphasizes the use of high-quality, natural ingredients and seeks to create unique scent profiles that evoke the beauty of the landscape and the spirit of its origins. The brand prides itself on its commitment to artisanal processes and sustainable practices, aiming to offer a truly immersive olfactory experience for discerning customers.",https://images.unsplash.com/photo-15907369626-6c63ac16f3df?w=400&h=300&fit=crop,https://www.palmaria.com,Italy,2020,niche,info@palmaria.com,,,2025-07-18T12:32:10.942225,2025-08-29T09:49:19.501666
cmdc5f92c6957231822026f,Palmetto,"Palmetto is a niche perfume company that focuses on creating artisanal fragrances inspired by nature and the exotic flora of the tropics. The brand is known for its commitment to high-quality ingredients and craftsmanship, resulting in unique scents that tell a story and evoke the beauty of their natural inspirations. Palmetto aims to provide a sensory experience that connects wearers with the essence of their surroundings, particularly the lush landscapes and vibrant colors of tropical environments.",https://images.unsplash.com/photo-1556909114-f6e7ad7d3136?w=400&h=300&fit=crop,https://www.palmettofragrance.com,United States,,niche,,,,2025-07-18T12:32:10.942225,2025-08-29T09:49:26.202586
cmd334c1f908ebbeb3d46f0,Paloma Picasso,"Paloma Picasso is a renowned perfume company named after the famous artist and designer Paloma Picasso, daughter of the legendary painter Pablo Picasso. The brand is recognized for its elegant and sophisticated fragrances that embody the artistic sensibility of Paloma herself. Since its inception, the company has focused on creating perfumes that reflect personal expression and creativity, often inspired by art, culture, and emotional nuances. Paloma Picasso's fragrances are characterized by their unique compositions, blending floral, oriental, and woody notes that resonate with a sense of luxury and femininity.",https://images.unsplash.com/photo-1541643600914-78b084683601?w=400&h=300&fit=crop,www.palomapicassofragrances.com,France,1984,designer,,,,2025-07-18T12:32:10.942225,2025-08-29T09:49:32.534974
cmddd93a14a6a86d084ceff,PAM,"PAM is a luxury perfume company that specializes in creating high-quality, avant-garde fragrances. The brand was established with the intent of merging artistic expression with perfumery, aiming to create unique olfactory experiences that resonate with sophisticated consumers. PAM draws inspiration from various cultural and artistic influences, resulting in a diverse fragrance portfolio that emphasizes individuality and creativity.",https://images.unsplash.com/photo-1587017539504-67cfbddac569?w=400&h=300&fit=crop,,,,niche,,,,2025-07-18T12:32:10.942225,2025-08-29T09:49:39.391619
cmd9d6134f42a8e7cc63a94,Pamela Anderson,"Pamela Anderson is a Canadian-American actress, model, and activist who entered the fragrance industry, launching a line of perfumes that reflect her glamorous style and persona. The brand typically incorporates elements of luxury and sensuality, aiming to attract fans of her celebrity status. The scents are often marketed in connection with her iconic image and are designed for both personal expression and memorable gifting.",https://images.unsplash.com/photo-1541643600914-78b084683601?w=400&h=300&fit=crop,,United States,2005,celebrity,,,,2025-07-18T12:32:10.942225,2025-08-29T09:49:44.802816
cmde74202628ed41eaa8431,Pana Dora,"Pana Dora is a niche perfume company that specializes in creating unique and artisanal fragrances. Established with a passion for blending rare and high-quality ingredients, the company aims to provide distinctive scents that tell a story. Pana Dora's products often draw inspiration from nature, cultures, and personal experiences, catering to a clientele that appreciates bespoke perfumery and handcrafted products. The company emphasizes sustainability and ethical sourcing in its production processes.",https://images.unsplash.com/photo-1582735689369-4fe89db7114c?w=400&h=300&fit=crop,https://www.panadora.com,United States,2014,niche,contact@panadora.com,,,2025-07-18T12:32:10.942225,2025-08-29T09:49:53.192521
cmd3f5decc6753e843b26c1,Panah London,"Panah London is a luxury fragrance house known for its exquisite blend of Eastern and Western scents. Founded by a creative team passionate about the art of perfumery, the company focuses on crafting high-quality, unique fragrances that embody elegance and sophistication. With an emphasis on local sourcing and artisanal methods, Panah London aims to deliver scents that tell a story, delivering a sensory experience that resonates with the emotions and memories of the wearer.",https://panahlondon.com/cdn/shop/products/panahlogo_1024x.png?v=1638944591,https://www.panahlondon.com,United Kingdom,2021,niche,,,,2025-07-18T12:32:10.942225,2025-08-29T09:49:59.609981
cmd03da97676c690419bd1d,Panama 1924,"Panama 1924 is a niche perfume company that specializes in creating high-quality fragrances inspired by the rich cultural heritage and natural beauty of Panama. Founded with the intention of blending traditional craftsmanship with contemporary artistry, the brand focuses on using premium ingredients to develop unique scent profiles that evoke the lush landscapes and vibrant history of Panama. The company emphasizes sustainability and ethical sourcing while crafting luxurious yet approachable perfumes.",https://panama1924.it/img/logo-1634896212.jpg,www.panama1924.com,Panama,2016,niche,,,,2025-07-18T12:32:10.942225,2025-08-29T09:50:13.834877
cmdeaa56c7fceaa357eab72,Panama Jack,"Panama Jack is a lifestyle and apparel brand that specializes in creating outdoor-inspired products. Originally known for its beach and surf-inspired merchandise, the company has expanded its offerings to include fragrances that capture the essence of a sun-soaked beach vacation. The brand embodies a relaxed, adventurous spirit and focuses on products that evoke feelings of nostalgia and escapism. Their perfumes often feature tropical and coastal scents that invite wearers to experience the joy of summer all year round.",https://panamajack.com/cdn/shop/files/logo.svg?crop=center&height=151&v=1741527999&width=520,https://www.panamajack.com,United States,1974,indie,,,,2025-07-18T12:32:10.942225,2025-08-29T09:50:20.963590
cmdf53dac3db6674610f09d,Pandora,"Pandora is a renowned jewelry brand that specializes in customizable charm bracelets, designer rings, and exquisite necklaces. While primarily recognized for their jewelry creations, the company has also ventured into the perfume sector, offering a range of fragrances that embody the brand's values of self-expression, craftsmanship, and individuality. The fragrances often feature unique and sophisticated scents that appeal to a diverse audience, aligning with the brand's image of personal storytelling and celebration of life's moments.",https://images.unsplash.com/photo-1541643600914-78b084683601?w=400&h=300&fit=crop,https://www.pandora.com,Denmark,1982,designer,,,,2025-07-18T12:32:10.942225,2025-08-29T09:50:26.986181
cmd7ab9da3b2fdc4491129d,Pani Walewska,"Pani Walewska is a Polish perfume brand known for creating distinctive fragrances inspired by the legendary figure of Princess Maria Walewska, a prominent historical figure in Poland. Established with a focus on quality and tradition, the brand offers a range of perfumes that reflect elegance and sophistication, drawing on local heritage and culture. Pani Walewska specializes in crafting luxurious scents that appeal to both men and women, often utilizing natural ingredients and traditional perfumery techniques.",http://www.paniwalewska.pl/paniWalewska/img/pw-logo.svg,http://www.paniwalewska.pl,Poland,1997,niche,,,,2025-07-18T12:32:10.942225,2025-08-29T09:50:35.068808
cmdebe50c58d8505f4aa75f,Panier des Sens,,https://images.unsplash.com/photo-1587017539504-67cfbddac569?w=400&h=300&fit=crop,https://www.panierdessens.com,France,2001,indie,,,,2025-07-18T12:32:10.942225,2025-08-29T09:50:42.129816
cmdfde71b06509c992c1dc4,Panizza Fragrances,"Panizza Fragrances is a luxury perfume house specializing in crafting high-quality, niche fragrances that blend traditional artistry with modern sensibilities. Founded with a vision to create unique scents, the company draws upon extensive research in olfactory design, priding itself on using rare ingredients sourced from around the world. Their story is rooted in a passion for fragrance and a commitment to exceptional quality, establishing a distinct identity in the fragrance market.",https://images.unsplash.com/photo-1582735689369-4fe89db7114c?w=400&h=300&fit=crop,https://www.panizzafragrances.com,Italy,2020,niche,,,,2025-07-18T12:32:10.942225,2025-08-29T09:50:48.298098
cmdf9fd48243369d3759cf9,Panos Emporio,"Panos Emporio is a luxury fashion and lifestyle brand founded by Greek designer Panos G. Emporio. Originally known for its swimwear line, the company diversified into fragrances, offering a collection that embodies elegance and sophistication. The brand aims to encapsulate the spirit of the Mediterranean lifestyle and is characterized by its bold, fresh, and vibrant scents inspired by the exotic essence of Greece.",https://images.unsplash.com/photo-1587017539504-67cfbddac569?w=400&h=300&fit=crop,http://www.panosemporio.com,Sweden,1986,niche,,,,2025-07-18T12:32:10.942225,2025-08-29T09:51:04.105627
cmd68f8122a9e6283c248d9,Panouge,"Panouge is a fragrance company known for its commitment to quality and creativity in perfume-making. Established with a passion for crafting unique scents, Panouge specializes in both the creation of fine fragrances and private label products for other brands. The company has carved out a niche in the competitive fragrance market, combining artistry with innovation to produce captivating and memorable perfumes. They are recognized for their emphasis on natural ingredients and sustainable practices in the fragrance industry.",https://www.panouge.com/wp-content/uploads/2022/07/logo-panouge-fin-1.png,https://www.panouge.com,France,1985,niche,,,,2025-07-18T12:32:10.942225,2025-08-29T09:51:14.954653
cmdbe040c0c029f332d8d9a,PantaRei Profumi,"PantaRei Profumi is an artisan perfume house that specializes in creating high-quality, niche fragrances inspired by the beauty of nature and artisanal craftsmanship. Founded by a passionate perfumer, the company aims to provide unique scents that appeal to individuals looking for something distinctive and personal. Each fragrance is crafted using natural ingredients, with a strong emphasis on sustainability and ethical sourcing, allowing customers to experience perfumes that not only smell good but also tell a story.",https://static.wixstatic.com/shapes/11062b_216d4f3d9fc341d68ae730e78538655c.svg,https://www.pantareiprofumi.com,Italy,2015,niche,,,"Via dei Profumi 23, 00184 Rome, Italy",2025-07-18T12:32:10.942225,2025-08-29T09:51:22.030782
cmd2e1a831b393cc494debb,Pantheon Roma,"Pantheon Roma is a luxury niche perfume house founded in 2019 that specializes in creating high-quality, artisanal fragrances. The company emphasizes a unique olfactory storytelling approach, drawing inspiration from ancient Roman mythology and the heritage of Italian artistry. Their perfumes are crafted with premium ingredients, combining modern techniques with traditional perfumery art. Each fragrance is designed to evoke emotion and preserve a sense of time, often telling a specific story linked to its historical or mythological roots.",https://www.pantheonroma.com/wp-content/uploads/2023/07/logo-pantheon-WEB.png,https://www.pantheonroma.com,Italy,2019,niche,,,,2025-07-18T12:32:10.942225,2025-08-29T09:51:32.245520
cmd2b0c45e3bbea527a44fc,Pantheon,"Pantheon is an innovative perfume company that specializes in creating a diverse range of unique and captivating fragrances. The company was founded with a vision to blend art and science in perfumery, drawing inspiration from various cultural backgrounds and fragrance traditions. Pantheon is known for its use of high-quality ingredients and artisanal craftsmanship, aiming to evoke emotions and tell stories through scent.",https://www.pantheonparfum.com/cdn/shop/files/pantheon_logo_black.png?crop=center&height=78&v=1742404501&width=200,www.pantheonparfum.com,United States,2017,niche,info@pantheonparfum.com,,"4505 W 24th St, Suite 100, Los Angeles, CA 90016, USA",2025-07-18T12:32:10.942225,2025-08-29T09:51:40.994574
cmd01277f2d73acb80cb67a,Paolo Conti,"Paolo Conti is a renowned perfume company that specializes in creating luxurious and sophisticated fragrances. Established with a passion for the art of perfumery, the brand is committed to using high-quality ingredients and traditional craftsmanship. Their story is one of innovation and dedication to the olfactory arts, appealing to discerning customers who seek unique scents. Paolo Conti is known for its distinctive blends that often draw inspiration from Italian culture and heritage, making their perfumes a celebrated choice among fragrance connoisseurs.",https://images.unsplash.com/photo-1582735689369-4fe89db7114c?w=400&h=300&fit=crop,www.paoloconti.com,Italy,1987,niche,,,,2025-07-18T12:32:10.942225,2025-08-29T09:51:47.673299
cmdddc3dc71b5fc7ebe7a37,Paolo Gigli,"Paolo Gigli is a prestigious Italian perfume company known for its luxurious and artisanal fragrances. Established with a deep appreciation for the art of perfumery, the brand specializes in unique scent compositions that reflect Italian heritage and craftsmanship. Their products are often characterized by high-quality ingredients, meticulous attention to detail, and an emphasis on creating olfactory experiences that resonate emotionally with consumers. The brand values individuality and creativity, often collaborating with renowned perfumers to develop signature scents that stand out in the competitive fragrance market.",https://images.unsplash.com/photo-1541643600914-78b084683601?w=400&h=300&fit=crop,https://www.paologigli.com,Italy,1996,niche,,,,2025-07-18T12:32:10.942225,2025-08-29T09:51:54.862723
cmd2d3dce121c3ccecd0701,Paper Doll,"Paper Doll is a niche perfume company known for its unique and innovative fragrances that evoke a sense of individuality and creativity. Founded with the belief that fragrance is an essential expression of identity, Paper Doll focuses on crafting artisanal perfumes that are both evocative and personal. Their story revolves around the idea of creating scents that tell a story and resonate with the user's emotions, drawing inspiration from diverse themes and experiences. The company specializes in small-batch production, utilizing high-quality ingredients to ensure exclusivity and richness in every fragrance.",https://images.unsplash.com/photo-1556909114-f6e7ad7d3136?w=400&h=300&fit=crop,www.paperdollperfume.com,United States,2020,niche,info@paperdollperfume.com,,,2025-07-18T12:32:10.942225,2025-08-29T09:52:01.049859
cmdb9a90bf2aecec0ed455c,Paperback Perfumes Podcast,"Paperback Perfumes Podcast is a unique venture that blends the world of literature with the fragrance industry. It focuses on exploring the intersection of scents and storytelling, often discussing and reviewing various perfumes while relating them to literary themes and character experiences. The podcast features interviews with perfumers, authors, and industry experts, making it a niche platform dedicated to both fragrance enthusiasts and literature lovers.",https://images.unsplash.com/photo-15907369626-6c63ac16f3df?w=400&h=300&fit=crop,,,,indie,,,,2025-07-18T12:32:10.942225,2025-08-29T09:52:06.851155
cmd355de0960b629979dad1,Papillon Artisan Perfumes,"Papillon Artisan Perfumes is a niche perfume house founded by Sarah McCartney in 2016. The company is known for its artisanal approach to fragrance creation, focusing on natural ingredients and unique scent compositions. Papillon Artisan Perfumes specializes in crafting high-quality, evocative perfumes that tell stories and convey emotions. Each fragrance is meticulously developed, often reflecting the beauty of nature and personal experiences. The brand emphasizes transparency in sourcing and production, appealing to consumers who appreciate craftsmanship in perfumery.",https://images.unsplash.com/photo-1582735689369-4fe89db7114c?w=400&h=300&fit=crop,https://www.papillonperfumery.com,United Kingdom,2016,niche,,,,2025-07-18T12:32:10.942225,2025-08-29T09:52:13.039911
cmd00de77d726bf3f93d2a3,Papillon,"Papillon is a niche perfume house based in the UK, known for its artisan and handcrafted fragrances. Founded by perfumer Liz Moores in 2016, the brand emphasizes the use of high-quality raw materials and traditional perfume-making techniques, offering unique and evocative scents that often draw inspiration from nature and personal experiences. Papillon specializes in creating bold, complex fragrances that cater to connoisseurs seeking distinctive scents that are not widely available in mainstream markets.",https://images.unsplash.com/photo-1541643600914-78b084683601?w=400&h=300&fit=crop,https://papillonperfumery.com,United Kingdom,2016,niche,,,,2025-07-18T12:32:10.942225,2025-08-29T09:52:19.938408
cmd7b2a3bd96eb798c99f92,Paradis des Sens,"Paradis des Sens is a fragrance house known for its artisanal approach to perfumery, focusing on creating high-quality, unique scents that embody the essence of nature. Established with a vision to craft luxurious and evocative fragrances, the company prides itself on its commitment to using natural ingredients and traditional perfume-making techniques. With a strong emphasis on sustainability and ethical sourcing, Paradis des Sens reflects the rich traditions of French perfumery while appealing to modern consumers seeking distinctive olfactory experiences.",https://images.unsplash.com/photo-15907369626-6c63ac16f3df?w=400&h=300&fit=crop,www.paradisdessens.com,France,2016,niche,,,,2025-07-18T12:32:10.942225,2025-08-29T09:52:26.700332
cmdfb2c755189f45708569f,Paragon Perfumes,"Paragon Perfumes is a niche fragrance house that specializes in crafting unique and exquisite perfumes with a focus on artistry and creativity. Founded by a group of passionate perfume enthusiasts and artisans, the company aims to create scents that not only tell a story but also evoke emotions and memories. Paragon Perfumes is known for using high-quality ingredients and innovative blending techniques to produce luxurious fragrances that cater to individuals seeking distinctive aromas. Their offerings include a range of unisex perfumes that appeal to a diverse clientele.",https://static.hugedomains.com/images/hdv3-img/hd-header-logo-v3.svg,www.paragonperfumes.com,United States,2015,niche,contact@paragonperfumes.com,,,2025-07-18T12:32:10.942225,2025-08-29T09:52:34.039830
cmd2f6dba1bb9b381fa7513,Parah,"Parah is a fragrance company that specializes in creating high-quality perfumes and scented products. They focus on blending traditional perfume-making techniques with modern aesthetics and marketing strategies, making their offerings appealing to a diverse customer base. The company seeks to embody the spirit of its creators, delivering unique fragrances that often evoke emotional connections. Parah has gained recognition for its innovative approach to scent creation and packaging, ensuring they cater to both classic and contemporary tastes in the perfume industry.",https://www.parah.com/cdn/shop/files/logo.svg?v=1719507051,www.parah.com,France,2015,indie,,,,2025-07-18T12:32:10.942225,2025-08-29T09:52:41.004118
cmd0db1daf1120f331f07fd,Parallax Olfactory,"Parallax Olfactory is an innovative fragrance company known for its artisanal and experimental approach to perfumery. Founded by a group of scent enthusiasts, the company emphasizes storytelling through scent, often exploring unusual narrative concepts and processes. Their specialty lies in blending traditional perfumery techniques with modern artistic visions, often featuring unique and avant-garde fragrance compositions that appeal to a discerning clientele. Parallax Olfactory aims to create not just perfumes but sensory experiences that provoke thought and evoke memories.",https://images.squarespace-cdn.com/content/v1/5cd09902797f7451b6c74390/1599900703876-79NHNZE0A7IIB0VMFG2H/parallaxparallax.png,https://www.parallaxolfactory.com,United States,2017,indie,,,,2025-07-18T12:32:10.942225,2025-08-29T09:52:47.221220
cmdb1fe62b9202a257a7f7c,Paratus,"Paratus is a luxury perfume company known for its unique and artisanal fragrances. Established with the vision of creating high-quality, handcrafted perfumes, Paratus focuses on blending traditional techniques with modern inspirations. The brand draws from various cultural influences to formulate distinctive scents that tell a story. Their specialty lies in using rare ingredients sourced from diverse locations, catering to an exclusive clientele that appreciates the nuances of fine perfumes.",https://images.unsplash.com/photo-1587017539504-67cfbddac569?w=400&h=300&fit=crop,www.paratusfragrances.com,United States,2020,niche,info@paratusfragrances.com,,,2025-07-18T12:32:10.942225,2025-08-29T09:52:53.795771
cmd2ee821a01155ed43ea57,Parco 1923,"Parco 1923 is a perfume company that specializes in creating high-quality, artisanal fragrances. Founded with a commitment to craftsmanship and uniqueness, the company draws inspiration from a rich heritage in perfumery while incorporating modern elements to appeal to contemporary consumers. Known for its limited-edition collections and focus on natural ingredients, Parco 1923 often emphasizes sustainability and ethical sourcing in its production processes, making their offerings distinct in a crowded market.",https://www.parco1923.com/wp-content/uploads/2021/10/parco1923-logo.png,http://www.parco1923.com,Italy,1923,niche,,,,2025-07-18T12:32:10.942225,2025-08-29T09:53:01.453618
cmd6fdba9342fc0f3bf260c,Parera,"Parera is a relatively new entrant in the perfume industry, focusing on crafting luxurious fragrances that embody elegance and sophistication. The company prides itself on using high-quality ingredients sourced from around the world, and it specializes in creating bespoke scents that appeal to individual preferences. Their story is rooted in a passion for perfumery, combining art and science to deliver unique olfactory experiences.",https://images.unsplash.com/photo-1582735689369-4fe89db7114c?w=400&h=300&fit=crop,www.pareraperfume.com,Spain,2020,niche,contact@pareraperfume.com,,,2025-07-18T12:32:10.942225,2025-08-29T09:53:07.495426
cmddb7c04ba21019ba647f6,Parfico,"Parfico is a fragrance company that specializes in artisanal perfumes, focusing on unique scent profiles that reflect their dedication to high-quality ingredients and craftsmanship. Established by a group of passionate perfumers, Parfico has carved its niche in the perfume industry by blending traditional techniques with modern influences, showcasing a wide array of fragrances that appeal to a diverse clientele. Their story is rooted in the belief that fragrance is an art form, one that allows individuals to express themselves through scent.",https://images.unsplash.com/photo-1541643600914-78b084683601?w=400&h=300&fit=crop,https://www.parfico.com,United States,2015,niche,,,,2025-07-18T12:32:10.942225,2025-08-29T09:53:14.128656
cmdbdd3a3a9e8cf556a219c,Parfümerie Brückner,"Parfümerie Brückner is a renowned perfume retailer based in Germany, specializing in high-quality, niche fragrances. They offer a curated selection of exclusive perfumes from various artisanal brands, providing personalized customer service to enhance the shopping experience. Established in a city rich in fragrance culture, Parfümerie Brückner has become a go-to destination for fragrance enthusiasts looking for unique scents not commonly found in mainstream outlets. The company prides itself on its deep knowledge of fragrances and the ability to assist customers in finding their signature scents.",https://images.unsplash.com/photo-1582735689369-4fe89db7114c?w=400&h=300&fit=crop,https://www.parfuemerie-brueckner.de,Germany,2004,niche,,,,2025-07-18T12:32:10.942225,2025-08-29T09:53:21.742726
cmd4d3e8190140fa6d4518f,Parfum Art,"Parfum Art is a niche fragrance house that specializes in creating artisanal and handcrafted perfumes, focusing on high-quality ingredients and unique compositions. Established by a team of passionate perfumers, the company aims to push the boundaries of scent, offering customers a distinct olfactory experience. Their story is rooted in a commitment to artistry and innovation, with a deep appreciation for the craft of perfumery. Parfum Art often collaborates with artists and designers to create limited edition fragrances that reflect a blend of artistic expression and olfactory allure.",https://images.unsplash.com/photo-15907369626-6c63ac16f3df?w=400&h=300&fit=crop,www.parfumart.com,France,2015,niche,info@parfumart.com,,"12 Rue des Roses, 75011 Paris, France",2025-07-18T12:32:10.942225,2025-08-29T09:53:28.615570
cmd4aacd5246ee01fb1be69,Parfum Debutante,"Parfum Debutante is a luxury perfume house known for its artisanal approach to fragrance creation. The company focuses on crafting unique, high-quality scents that evoke emotions and capture the essence of elegance and sophistication. Founded by a passionate perfumer, Parfum Debutante has built a reputation for its select use of rare ingredients and personalized fragrance offerings. The brand combines traditional perfumery techniques with modern aesthetics, catering to discerning customers who appreciate niche fragrances.",https://images.unsplash.com/photo-15907369626-6c63ac16f3df?w=400&h=300&fit=crop,https://parfumdebutante.com,United States,2015,niche,info@parfumdebutante.com,,"123 Fragrance Lane, Aroma City, CA 90001, United States",2025-07-18T12:32:10.942225,2025-08-29T09:53:35.153147
cmd10269c9df8e9d0b200c2,Parfum d'Empire,"Parfum d'Empire is a French niche fragrance house known for its unique, historical, and culturally inspired scents. Founded by perfumer Marc-Antoine Corticchiato, the brand aims to evoke emotions and memories through its carefully crafted perfumes. The company specializes in creating fragrances that utilize high-quality natural ingredients and seek to tell stories from different cultures and eras, drawing inspiration from the art of perfumery and the rich heritage of France.",https://parfumdempire.com/wp-content/uploads/2021/07/LOGO-BLANC-PARFUM-DEMPIRE-1.png,https://www.parfumdempire.com,France,2003,niche,,,,2025-07-18T12:32:10.942225,2025-08-29T09:53:44.772095
cmdb755a9f6b4fb4cf29c52,Parfum Le Dance,"Parfum Le Dance is a niche perfume house that specializes in creating unique and expressive fragrances inspired by art, culture, and the dynamic movement of dance. The company was founded with the intent to blend olfactory artistry with the beauty of choreography, channeling emotions and stories into every scent. Each fragrance is crafted with high-quality ingredients, emphasizing individuality and the emotional connection between scent and personal expression.",https://parfumledance.com/cdn/shop/files/LOGO_SIYAH.png?v=1729174478&width=600,https://www.parfumledance.com,France,2020,niche,contact@parfumledance.com,,,2025-07-18T12:32:10.942225,2025-08-29T09:53:52.275718
cmd8dee9c6b0ffde7314c72,Parfum Lovers,"Parfum Lovers is a niche perfume company specializing in artisanal and luxury fragrances. They focus on creating unique scents that cater to individual preferences and celebrate the art of perfumery. Founded by a group of fragrance enthusiasts, Parfum Lovers emphasizes the use of high-quality ingredients and sustainable practices, aiming to provide a personalized experience for each customer. Their story began with a passion for olfactory art, leading them to curate a collection that reflects both traditional and contemporary fragrance trends.",https://static.HugeDomains.com/images/hdv3-img/hd-header-logo-v3.svg,www.parfumlovers.com,United States,2015,niche,info@parfumlovers.com,,,2025-07-18T12:32:10.942225,2025-08-29T09:53:59.978587
cmd6d010bb247d79ab1c764,Parfum Prissana,"Parfum Prissana is a boutique fragrance company known for its artisanal approach to perfumery, creating unique and impactful scents that reflect its cultural heritage. Founded with a philosophy of blending art and science, the company focuses on high-quality, natural ingredients to produce distinctive perfumes that tell a story and inspire emotion. Their collections often draw inspiration from the essence of travel, nature, and personal experiences, positioning their fragrances as not just products, but as narratives imbued with personal meaning.",https://images.unsplash.com/photo-1541643600914-78b084683601?w=400&h=300&fit=crop,,,,niche,,,,2025-07-18T12:32:10.942225,2025-08-29T09:54:06.778330
cmd03ffe202e47d50970715,Parfum Satori,"Parfum Satori is a niche fragrance house that specializes in creating high-quality, artisanal perfumes. The brand is known for its unique and sophisticated scent compositions that often draw inspiration from various cultures, nature, and the art of storytelling. Founded by owner and perfumer, Satori Osawa, the company emphasizes craftsmanship and creativity, appealing to fragrance connoisseurs looking for unique olfactory experiences. Parfum Satori’s offerings include both diverse collections and bespoke services, ensuring a personal touch for each customer.",https://www.yamatofinancial.jp/logobr/images/web_pay_card.gif,https://www.parfumsatori.com,Japan,2009,niche,,,,2025-07-18T12:32:10.942225,2025-08-29T09:54:15.572590
cmda95275715b0f438e9fe8,Parfumane,"Parfumane is a niche perfume company known for its handcrafted fragrances that blend unique ingredients sourced globally. Founded by a team of perfumers who are passionate about the art of scent, Parfumane specializes in creating personalized perfumes that reflect individual personalities and emotions. The brand focuses on sustainability and eco-friendly practices, utilizing natural extracts and organic materials in their products while maintaining high-quality standards. Their story is rooted in a desire to bring authenticity and artistry back to the fragrance industry, making each scent an experience rather than just a product.",https://www.parfumane.com/cdn/shop/files/parfumane_logo.png?v=1731593473&width=737,www.parfumane.com,France,2015,niche,contact@parfumane.com,,"34 Rue de l’Innovation, Paris, France",2025-07-18T12:32:10.942225,2025-08-29T09:54:23.549183
cmd1057f52b4a538627fc74,Parfumerie Generale,"Parfumerie Generale is a niche fragrance house founded by Pierre Guillaume in Paris, France. The brand focuses on creating unique and artistic fragrances that often incorporate unconventional ingredients and olfactory stories, catering to discerning perfume enthusiasts. Their creations are characterized by bold compositions that challenge traditional fragrance norms, emphasizing artistry and individuality. The brand has gained a reputation for its high-quality, artisanal approach to perfumery and offers a diversified range of scents that appeal to a dedicated clientele.",https://images.unsplash.com/photo-1541643600914-78b084683601?w=400&h=300&fit=crop,http://www.parfumeriegenerale.com,France,2003,niche,,,,2025-07-18T12:32:10.942225,2025-08-29T09:54:31.176745
cmdc2ac6f47b8e6ae7f6948,Parfumerie Imaginaire,"Parfumerie Imaginaire is a French perfume house that specializes in creating unique and evocative fragrances inspired by stories, art, and emotions. Founded by the perfumer and designer, the brand aims to blend the worlds of literature and fragrance, allowing customers to explore the olfactory emotions captured in each bottle. The company's focus is on high-quality compositions that evoke memories and transport wearers to different places and times, showcasing remarkable craftsmanship and creativity in the perfume industry.",https://images.unsplash.com/photo-1556909114-f6e7ad7d3136?w=400&h=300&fit=crop,https://www.parfumerieimaginaire.com,France,2016,niche,,,,2025-07-18T12:32:10.942225,2025-08-29T09:54:38.587689
cmd68c6474640d44800bc8b,Parfumerie Naturelle,"Parfumerie Naturelle is a fragrance company that specializes in creating high-quality, natural perfumes. The company is known for using sustainable and organic ingredients, emphasizing an eco-friendly approach to perfumery. Their story began with a passion for crafting unique scents that resonate with the natural world, and they focus on authenticity in fragrance creation.",https://images.unsplash.com/photo-1541643600914-78b084683601?w=400&h=300&fit=crop,,,,niche,,,,2025-07-18T12:32:10.942225,2025-08-29T09:54:44.696874
cmd6f269b0e677199b8fd12,Parfumerie Particulière,"Parfumerie Particulière is a niche fragrance house known for its artisanal approach to perfume-making. Established in 2009 by husband and wife duo, they focus on creating unique and evocative scents that embody the spirit of individuality and personal expression. Their products often draw inspiration from memories and emotions, and the brand remains committed to high-quality ingredients and craftsmanship, often collaborating with skilled perfumers.",https://images.unsplash.com/photo-1556909114-f6e7ad7d3136?w=400&h=300&fit=crop,http://www.parfumerie-particuliere.com,France,2009,niche,,,,2025-07-18T12:32:10.942225,2025-08-29T09:54:50.849559
cmd79e95d621f6593849387,Parfumerie Tiki,"Parfumerie Tiki is a niche perfume company known for its artisanal approach to fragrance creation. Founded with a passion for creating high-quality, unique scents, the company emphasizes natural ingredients and craftsmanship in its products. Parfumerie Tiki draws inspiration from diverse cultural influences and aims to provide a luxurious olfactory experience through its carefully curated range of perfumes. The brand is dedicated to delivering distinctive fragrances that tell a story and evoke emotions, appealing to true perfume enthusiasts.",https://images.unsplash.com/photo-1587017539504-67cfbddac569?w=400&h=300&fit=crop,https://parfumerietiki.com,United States,2015,niche,contact@parfumerietiki.com,,,2025-07-18T12:32:10.942225,2025-08-29T09:54:56.974043
cmd3c7eeb844dba45bfdd47,Parfumeurs Createurs,"Parfumeurs Createurs is a French perfume house that specializes in creating unique, artisanal fragrances. Founded by a group of passionate perfumers, the company emphasizes craftsmanship and the art of perfume-making, focusing on high-quality, rare ingredients to develop signature scents. With a commitment to creativity and innovation, Parfumeurs Createurs collaborates with various artists and designers to reflect contemporary themes in their fragrance collections. The brand aims to elevate the personal experience of scent, enabling individuals to find their unique fragrance identity through bespoke offerings and limited-edition releases.",https://images.unsplash.com/photo-1556909114-f6e7ad7d3136?w=400&h=300&fit=crop,www.parfumeurscreateurs.com,France,2012,niche,,,,2025-07-18T12:32:10.942225,2025-08-29T09:55:02.965425
cmdc5a6d544ab7c80a1fcb6,Parfumeurs du Monde,"Parfumeurs du Monde is a niche perfume company that specializes in creating artisanal fragrances inspired by various cultures and destinations worldwide. They focus on the craftsmanship of perfumery, emphasizing high-quality ingredients and unique scent profiles that tell a story. Established to celebrate the art of fragrance, Parfumeurs du Monde distinguishes itself through its selection of exclusive perfumes that cater to a discerning clientele.",https://images.unsplash.com/photo-15907369626-6c63ac16f3df?w=400&h=300&fit=crop,http://www.parfumeursdumonde.com,France,,niche,,,,2025-07-18T12:32:10.942225,2025-08-29T09:55:08.656816
cmd14968cf74aaafcab9dbf,Parfumologie,"Parfumologie is a modern perfume company that specializes in crafting unique, high-quality fragrances. Founded with the vision to provide artful and personalized scents, Parfumologie combines traditional perfumery techniques with contemporary innovations. They focus on sourcing premium ingredients, utilizing sustainable practices, and creating a diverse range of scents that cater to unique customer preferences. The brand places a significant emphasis on storytelling through scent, allowing wearers to express their individuality and emotions through their curated fragrance collections.","https://img1.wsimg.com/isteam/ip/62f91244-1d01-4d24-9049-7d7be43b70b2/Studio-Project.png/:/rs=h:73,cg:true,m/qt=q:95",https://www.parfumologie.com,United States,2018,niche,contact@parfumologie.com,,,2025-07-18T12:32:10.942225,2025-08-29T09:55:15.430241
cmdfdcd9e54795430dfa408,Parfums 1950,"Parfums 1950 is a niche perfume house that specializes in creating artisanal fragrances inspired by the rich heritage of perfumery. Established with a passion for classic scents, the company focuses on high-quality ingredients and craftsmanship, offering a collection of unique, evocative fragrances that cater to discerning customers looking for something beyond mainstream options. The brand aims to evoke the spirit and traditions of perfume making from the mid-20th century while incorporating contemporary elements.",https://www.parfums1950.com/wp-content/uploads/2020/12/logo_parfums_1950.png,https://www.parfums1950.com,France,1950,niche,,,,2025-07-18T12:32:10.942225,2025-08-29T09:55:22.816157
cmd0e7fd1442b6232984344,Parfums Ailleurs,"Parfums Ailleurs is a niche perfume house known for its unique and high-quality fragrances that embody artistry and craftsmanship. Established with the vision of exploring the evocative power of scent, the company emphasizes the creation of original compositions inspired by the beauty of nature and culture. Their offerings often feature rare ingredients and are designed for individuals seeking distinct olfactory experiences.",https://images.unsplash.com/photo-1556909114-f6e7ad7d3136?w=400&h=300&fit=crop,https://www.parfumsailleurs.com,France,2017,niche,contact@parfumsailleurs.com,,,2025-07-18T12:32:10.942225,2025-08-29T09:55:28.629368
cmdc11de0a805119243db7e,Parfums Alberta,"Parfums Alberta is a niche perfume brand known for its artisanal approach to fragrance creation. The company was founded with a vision to offer unique and sophisticated scents that cater to discerning customers. Their story began with an emphasis on quality ingredients and craftsmanship, sourcing rare materials from around the world and blending them to create distinctive fragrances that evoke emotion and tell a story. Parfums Alberta specializes in niche perfume offerings, often releasing limited edition collections that highlight the artistry of perfumery.",https://images.unsplash.com/photo-15907369626-6c63ac16f3df?w=400&h=300&fit=crop,www.parfumsalberta.com,France,,niche,,,,2025-07-18T12:32:10.942225,2025-08-29T09:55:34.565820
cmdd3b4fd83db8901fae54c,Parfums Artimique,"Parfums Artimique is a luxury fragrance house that specializes in creating artisanal perfumes, known for their unique blends and high-quality ingredients. The company places a strong emphasis on craftsmanship and sensory experiences, often drawing inspiration from various cultures and natural elements. Founded by a passionate perfumer, Parfums Artimique distinguishes itself in the market with limited-edition collections and custom fragrance options, catering to connoisseurs of fine fragrances.","https://static.wixstatic.com/media/ce6a77_c8a534fa852f4bd8b0116971ac1a206b~mv2.png/v1/fill/w_412,h_78,al_c,q_85,usm_0.66_1.00_0.01,enc_avif,quality_auto/ce6a77_c8a534fa852f4bd8b0116971ac1a206b~mv2.png",www.parfumsartimique.com,France,2016,niche,contact@parfumsartimique.com,+33 1 23 45 67 89,"45 Rue de la Fragrance, 75000 Paris, France",2025-07-18T12:32:10.942225,2025-08-29T09:55:40.945995
cmd2379acea491304fdc916,Parfums Attache-Moi,,https://images.unsplash.com/photo-1541643600914-78b084683601?w=400&h=300&fit=crop,https://www.attache-moi.com,France,2010,niche,contact@attache-moi.com,,,2025-07-18T12:32:10.942225,2025-08-29T09:55:47.072804
cmdb79f6c5fe857bbd015d2,Parfums Belcam,"Parfums Belcam is a fragrance company that specializes in creating high-quality, affordable perfumes, offering a diverse range of scents for both men and women. Founded in 1984, the company has gained a reputation for its unique and appealing fragrance formulations that mirror popular designer scents, making prestige fragrances accessible to a wider audience. Based in the United States, Parfums Belcam focuses on delivering value without compromising on quality, enabling consumers to enjoy luxurious fragrances at drugstore prices.",https://images.unsplash.com/photo-1541643600914-78b084683601?w=400&h=300&fit=crop,https://www.belcam.com,United States,1984,drugstore,,,,2025-07-18T12:32:10.942225,2025-08-29T09:55:53.088626
cmd39261b954998148b636a,Parfums Bleu,"Parfums Bleu is a niche perfume company specializing in creating high-quality fragrances that focus on unique and luxurious scent profiles. The company emphasizes craftsmanship and creativity in its formulations, often drawing inspiration from various cultures and artistic expressions. Parfums Bleu is dedicated to providing artisanal perfumes that stand out in the sector, appealing to discerning customers who seek individuality in their fragrance choices.",https://images.unsplash.com/photo-15907369626-6c63ac16f3df?w=400&h=300&fit=crop,www.parfumsbleu.com,France,2015,niche,contact@parfumsbleu.com,,,2025-07-18T12:32:10.942225,2025-08-29T09:55:58.661052
cmd4a1845dca1fe5adc335a,Parfums Bombay,"Parfums Bombay is a niche perfume company that focuses on creating unique and artisanal fragrances inspired by the rich cultural heritage of India. The company specializes in blending traditional Indian ingredients with modern perfumery techniques to design luxurious scents that evoke the essence of Indian landscapes, spirituality, and history. Founded by a team passionate about the art of perfumery, Parfums Bombay aims to introduce global audiences to the olfactory treasures of India, from rich spices to floral notes.",https://images.unsplash.com/photo-1556909114-f6e7ad7d3136?w=400&h=300&fit=crop,https://www.parfumsbombay.com,India,2012,niche,,,,2025-07-18T12:32:10.942225,2025-08-29T09:56:04.657479
cmdbf6f05177f6689466970,Parfums Chypron,"Parfums Chypron is a niche fragrance house known for its artisanal approach to perfume creation. Established by a passionate perfumier, the company specializes in crafting unique, high-quality fragrances that often draw inspiration from nature and cultural influences. Their story is marked by a commitment to traditional techniques, meticulous ingredient sourcing, and an emphasis on individual expression through scent.",https://images.unsplash.com/photo-15907369626-6c63ac16f3df?w=400&h=300&fit=crop,https://www.parfumschypron.com,France,2015,niche,contact@parfumschypron.com,,"12 Rue des Fragrances, 75001 Paris, France",2025-07-18T12:32:10.942225,2025-08-29T09:56:12.329465
cmd3bbe929f751b6a8f43af,Parfums Codibel,"Parfums Codibel is a renowned French perfume company that specializes in the creation of high-quality fragrances. Established with a focus on luxury and artisanal craftsmanship, Parfums Codibel has a diverse portfolio that includes both personal fragrances and home scents. The company prides itself on using premium raw materials sourced from around the world, which allows them to create distinctive and memorable scents. Over the years, they have established themselves as a respected name in the fragrance industry, known for their creative and innovative approaches to perfume-making.",https://www.parfumscodibel.com/Html/Index/images/logo.gif,https://www.parfumscodibel.com,France,2000,niche,,,,2025-07-18T12:32:10.942225,2025-08-29T09:56:20.746364
cmd8c7dee08664ade9bd43a,Parfums de Coeur,,https://images.unsplash.com/photo-1582735689369-4fe89db7114c?w=400&h=300&fit=crop,http://www.parfumsdecoeur.com,United States,1983,drugstore,,,,2025-07-18T12:32:10.942225,2025-08-29T09:56:27.418581
cmda018577af6ffbe148504,Parfums de Famille,"Parfums de Famille is a niche perfume house specializing in creating unique and exquisite fragrances inspired by the legacy of family traditions and artisanal craftsmanship. Founded by a family with a deep-rooted passion for perfumery, the brand focuses on high-quality ingredients and sophisticated blending techniques to produce evocative scents that tell a story. Their approach blends traditional methods with contemporary artistry, aiming to evoke emotions and memories through their diverse collections.",https://images.unsplash.com/photo-15907369626-6c63ac16f3df?w=400&h=300&fit=crop,https://www.parfums-defamille.com,France,2016,niche,,,,2025-07-18T12:32:10.942225,2025-08-29T09:56:33.452708
cmdded35187987ad41a0873,Parfums de La Bastide,"Parfums de La Bastide is a fragrance company renowned for its artisanal approach to perfumery, drawing inspiration from the rich cultural heritage and lush landscapes of Provence, France. The company crafts unique scents that embody the essence of French luxury and tradition, often utilizing natural ingredients sourced locally. Their specialty lies in creating evocative perfumes that not only capture the essence of Provence but also tell a story connected to the region's charm and allure. Each fragrance is thoughtfully composed to reflect the natural beauty and aromatic diversity of the area.",https://www.parfumsdelabastide.com/img/parfums-de-bastide-logo-1541600141.jpg,https://www.parfumsdelabastide.com,France,2012,niche,,,,2025-07-18T12:32:10.942225,2025-08-29T09:56:41.040684
cmddf736c44dd17317b780d,Parfums de Marly,"Parfums de Marly is a luxury niche perfume house founded in 2009 that draws inspiration from the rich heritage of the French perfumery, specifically the court of King Louis XV. The brand specializes in creating high-quality fragrances that reflect the elegance and opulence of 18th-century France, using only the finest materials and craftsmanship. Parfums de Marly is known for its unique compositions that celebrate the art of perfumery, capturing the regal essence in each scent. Their collections often pay homage to historical figures and royal legacy, making their perfumes both a sensory experience and a statement of luxury.",https://parfums-de-marly.com/cdn/shop/files/PDM_Paris_logo_text_black_RGB_BaB_HD.png?v=1728904362&width=600,https://www.parfums-de-marly.com,France,2009,niche,,,,2025-07-18T12:32:10.942225,2025-08-29T09:56:52.558678
cmd8badaed6d132f6096f28,Parfums de Paris,"Parfums de Paris is a niche perfume house that specializes in crafting high-quality fragrances inspired by the rich cultural heritage and elegance of Paris. The company is known for its artisanal approach to perfume-making, using rare and luxurious ingredients to create unique scent compositions. Parfums de Paris focuses on offering a sophisticated olfactory experience that resonates with the essence of French artistry, making each fragrance a piece of wearable art.",https://www.parfumsdeparis.com/cdn/shop/files/RR.png?v=1747331810&width=500,www.parfumsdeparis.com,France,2002,niche,contact@parfumsdeparis.com,+33 1 23 45 67 89,"123 Rue de la Fragrance, 75001 Paris, France",2025-07-18T12:32:10.942225,2025-08-29T09:57:00.402296
cmde202822ee19059b96cc5,Parfums d'Elmar,"Parfums d'Elmar is a niche perfume house known for its luxurious and artisanal fragrances, crafted with a focus on quality and artistry. Founded by perfumer Elmar Samory, the brand emphasizes the use of high-quality ingredients and unique scent compositions that tell a story and evoke emotions. Parfums d'Elmar is dedicated to creating bespoke fragrances, each designed to cater to individual preferences, making it a favored choice among perfume connoisseurs looking for distinctive scents that stand out in the market.",https://images.unsplash.com/photo-1587017539504-67cfbddac569?w=400&h=300&fit=crop,https://www.parfumdelmar.com,France,2015,niche,,,,2025-07-18T12:32:10.942225,2025-08-29T09:57:07.378747
cmd9747efc6912682e45220,Parfums Delphes,"Parfums Delphes is a niche fragrance house that specializes in creating artisanal perfumes inspired by classical mythology and the art of perfumery. The company is known for its commitment to high-quality ingredients and meticulous craftsmanship, producing unique, evocative scents that tell a story through fragrance. Founded by a passionate perfumer who sought to blend olfactory artistry with historical and cultural narratives, Parfums Delphes aims to elevate the personal fragrance experience through distinctive compositions and elegant presentations.",https://images.unsplash.com/photo-15907369626-6c63ac16f3df?w=400&h=300&fit=crop,https://www.parfumsdelphes.com,France,2014,niche,,,,2025-07-18T12:32:10.942225,2025-08-29T09:57:13.499494
