id,name,description,image,website,country,founded,type,email,phone,address,createdAt,updatedAt
cmdb7614e3b6df5307a1a53,Todd Snyder,"Todd Snyder is an American fashion brand known for its modern menswear and tailored clothing. Founded by designer Todd Snyder in 2011, the company emphasizes craftsmanship and innovative design, drawing inspiration from traditional American styles while incorporating contemporary elements. The brand also offers a range of products including fragrances, showcasing a unique blend of casual sophistication and urban style. Todd Snyder’s fragrances aim to embody the essence of modern masculinity and are crafted with quality ingredients, catering to both style and individuality.",https://www.toddsnyder.com/cdn/shop/files/TS_LOGO2.svg?v=1741875261&width=300,https://www.toddsnyder.com,United States,2011,designer,,,,2025-07-18T12:32:10.942225,2025-08-29T14:45:29.678336
cmd60bf0e82a1f3666a1562,Tod's,"Tod's S.p.A. is an Italian company specializing in luxury leather goods, footwear, and accessories. Founded in 1920 by Filippo Della Valle in the Marche region of Italy, the company initially crafted handmade shoes renowned for their impeccable quality and craftsmanship. Over the years, Tod's expanded its offerings to include elegant handbags and ready-to-wear clothing, establishing itself as a prominent player in the luxury fashion market. The brand is celebrated for its classic, understated style, primarily focused on casual luxury and innovative driving shoes, particularly the Gommino style, featuring pebbled rubber soles. Tod's remains committed to Italian craftsmanship and quality, contributing to its reputation as a prestigious luxury brand.",https://images.unsplash.com/photo-1587017539504-67cfbddac569?w=400&h=300&fit=crop,[www.tods.com](http://www.tods.com),Italy,1920,designer,,,,2025-07-18T12:32:10.942225,2025-08-29T14:45:37.760645
cmd31ff93b9611b05af5372,Tokalon,"Tokalon is a perfumery brand that is dedicated to creating unique and innovative fragrances. It has gained recognition for blending high-quality ingredients to craft scents that evoke emotions and memories. The company prides itself on its artisanal approach, emphasizing the use of natural elements and sustainability in its production process. Although specific details about its founding and development are limited, Tokalon focuses on appealing to a niche market that appreciates luxury and individuality in fragrances.",https://images.unsplash.com/photo-1556909114-f6e7ad7d3136?w=400&h=300&fit=crop,https://www.tokalonperfumes.com,United States,,niche,,,,2025-07-18T12:32:10.942225,2025-08-29T14:45:44.106117
cmd8af7f55b2d7900970ada,Tokidoki,"Tokidoki is a lifestyle brand founded by Italian artist Simone Legno in 2003. The company specializes in creating colorful and quirky designs that encompass various products, including fragrances, toys, apparel, and accessories. The perfume line, developed in collaboration with prominent fragrance houses, features unique scents that reflect the playful and imaginative world of Tokidoki. The brand is known for its vibrant characters and pop culture influences, appealing primarily to a youthful audience looking for distinctive and artistic expressions in their products.",https://www.tokidoki.it/cdn/shop/files/tokidoki_header_logo_acf56b1a-61f6-4446-9dc5-5706b3287a54.png?v=1646690049&width=270,https://www.tokidoki.it,United States,2003,indie,,,,2025-07-18T12:32:10.942225,2025-08-29T14:45:51.480198
cmd93d40c4f1adc72d3efd6,Tokyo Milk,"Tokyo Milk is a unique fragrance house known for its eclectic blend of art, design, and scent. Established by French perfumer Margot Elena, Tokyo Milk offers a range of innovative perfumes, body care products, and candles that evoke a sense of whimsy and individuality. The brand is celebrated for its creative packaging and storytelling, drawing inspiration from a mix of cultures, intriguing botanicals, and artistic influences. Tokyo Milk aims to inspire customers to explore their sense of self through their diverse olfactory offerings, setting itself apart in the fragrance industry with a niche approach.",https://images.unsplash.com/photo-1541643600914-78b084683601?w=400&h=300&fit=crop,https://www.tokyomilk.com,United States,2006,niche,,,,2025-07-18T12:32:10.942225,2025-08-29T14:45:57.894128
cmd9f96f532cfe1cb4e71ee,Tola,"Tola is a luxury perfume brand specializing in high-quality, natural fragrances crafted with care and artistry. The company takes inspiration from rich cultural traditions and aims to create unique, sustainable scents that resonate with the essence of life. Founded by a founder dedicated to blending traditional and contemporary perfumery techniques, Tola is known for its use of premium raw materials and attention to detail in scent composition. Their fragrances evoke deep emotions and create lasting memories for those who wear them.",https://images.unsplash.com/photo-1582735689369-4fe89db7114c?w=400&h=300&fit=crop,www.tolaperfume.com,United States,2018,niche,info@tolaperfume.com,,,2025-07-18T12:32:10.942225,2025-08-29T14:46:04.954344
cmdd0b5f6f88a3fbb45e495,Tom Daxon,"Tom Daxon is a niche perfume house founded in 2013 that specializes in creating artisanal fragrances inspired by the world of fine art and literature. With a focus on high-quality ingredients and unique scent compositions, Tom Daxon offers a distinctive range that reflects a commitment to craftsmanship and creativity. The brand has gained a reputation for its sophisticated and modern approach to perfumery, appealing to a discerning clientele who appreciate individuality in scent.",https://images.unsplash.com/photo-1582735689369-4fe89db7114c?w=400&h=300&fit=crop,[www.tomdaxon.com](http://www.tomdaxon.com),United Kingdom,2013,niche,,,,2025-07-18T12:32:10.942225,2025-08-29T14:46:11.113635
cmdbf40c2d112f7c685e699,Tom Dixon,"Tom Dixon is a British design brand known for its innovative and contemporary approach to furniture, lighting, and accessories. Founded by renowned designer Tom Dixon in the 1980s, the company has expanded its portfolio to include a range of luxury home fragrances and perfumes. Their fragrance line is distinguished by an emphasis on the quality of materials and craftsmanship, often drawing inspiration from architectural forms and industrial design aesthetics to create unique scent experiences.",https://images.unsplash.com/photo-15907369626-6c63ac16f3df?w=400&h=300&fit=crop,https://www.tomdixon.net,United Kingdom,2002,designer,,,,2025-07-18T12:32:10.942225,2025-08-29T14:46:18.097230
cmdf2714c27ee425b738a82,Tom Ford,"Tom Ford is a renowned luxury fashion brand and fragrance house founded by designer Tom Ford. The company specializes in high-end perfumes that reflect the sophistication and richness of the Tom Ford fashion line. Launched in 2006, the fragrance division quickly gained notoriety for its bold, provocative scents and luxurious packaging. Tom Ford fragrances often draw inspiration from the designer's vision of glamour and modernity, aimed primarily at upscale consumers looking for distinctive and exceptional olfactory experiences. The brand has developed a reputation for both niche and mainstream appeal within the perfume industry, blending traditional craftsmanship with contemporary aesthetics.",https://www.tomford.com/_assets/left_image.Uuqlk7Ik_ZYqMEs.webp,https://www.tomford.com,United States,2006,designer,,,"845 3rd Avenue, New York, NY 10022, USA",2025-07-18T12:32:10.942225,2025-08-29T14:46:25.474087
cmd45374a8137171ff75142,Tom Tailor,"Tom Tailor is a German fashion and lifestyle brand founded in 1962, specializing in providing contemporary casual wear and accessories for men, women, and children. In addition to clothing, the brand has expanded into fragrances, creating a range of perfumes that embody their chic and stylish brand identity. Tom Tailor is known for combining quality with accessible price points, appealing to a broad audience seeking both comfort and trendiness in their fashion choices.",https://images.unsplash.com/photo-1587017539504-67cfbddac569?w=400&h=300&fit=crop,https://www.tom-tailor.com,Germany,1962,designer,,,,2025-07-18T12:32:10.942225,2025-08-29T14:46:51.612910
cmda8eec25859cf020f8c59,Tomas Arsov,"Tomas Arsov is a luxury perfume brand known for its unique and artistic approach to fragrance creation. The company focuses on developing high-quality scents that blend traditional perfumery techniques with modern artistry. Established in 2014, Tomas Arsov has quickly gained recognition in the fragrance industry for its dedication to craftsmanship and creativity, offering a diverse range of perfumes that appeal to connoisseurs and everyday users alike. The brand is inspired by a fusion of cultures, emotions, and aesthetic expressions, allowing for an exceptional olfactory experience.",https://images.unsplash.com/photo-1556909114-f6e7ad7d3136?w=400&h=300&fit=crop,https://www.tomasarsov.com,Bulgaria,2014,niche,,,,2025-07-18T12:32:10.942225,2025-08-29T14:47:07.792809
cmdf5a824530a10ae79e10a,Tomavicci,"Tomavicci is a fragrance company that specializes in crafting unique, high-quality perfumes with a focus on luxurious and sophisticated compositions. Established with a vision to provide both men and women with signature scents, Tomavicci aims to blend traditional perfumery techniques with modern inspirations. Their story is rooted in a passion for scent, emphasizing artistry and individuality, resulting in offerings that resonate with a discerning clientele.",https://images.unsplash.com/photo-15907369626-6c63ac16f3df?w=400&h=300&fit=crop,,,,indie,,,,2025-07-18T12:32:10.942225,2025-08-29T14:47:13.908836
cmdde831273eed44a648938,Tombstone,"Tombstone is a niche perfume company that specializes in creating unique and evocative fragrances inspired by the Wild West and Western culture. The brand draws inspiration from historical themes, using high-quality ingredients to craft scents that tell a story and evoke the spirit of the American frontier. Their product line often reflects rugged and adventurous motifs, capturing the essence of a bygone era in a modern context.",https://images.unsplash.com/photo-1582735689369-4fe89db7114c?w=400&h=300&fit=crop,https://www.tombstoneperfume.com,United States,2015,niche,contact@tombstoneperfume.com,,,2025-07-18T12:32:10.942225,2025-08-29T14:47:20.103454
cmded0921e95bc659db16dc,Tommi Sooni,"Tommi Sooni is a niche fragrance company that specializes in crafting unique and artisanal perfumes. Founded by Tommi Sooni, the brand draws inspiration from nature, art, and personal experiences, blending traditional techniques with innovative ideas to create signature scents that evoke emotion and memory. The company places a strong emphasis on quality ingredients and artistic expression in each fragrance, aiming to deliver a personal olfactory journey to its customers.",https://images.unsplash.com/photo-1582735689369-4fe89db7114c?w=400&h=300&fit=crop,www.tommisooni.com,United States,2014,niche,,,,2025-07-18T12:32:10.942225,2025-08-29T14:47:26.764719
cmdb4f5cdc9e9780d046f30,Tommy Bahama,"Tommy Bahama is an American lifestyle brand known for embodying the relaxed, tropical lifestyle. Founded in 1992, the brand specializes in a variety of products, including apparel, home furnishings, and fragrances. Their perfumes reflect the essence of an island getaway, often featuring fresh, fruity, and floral notes that evoke a laid-back, beach-inspired vibe. The company aims to transport consumers to a paradise-like experience through their products.",https://content.tommybahama.com/content/dam/tommy/global/tbr-svg/TB_Logo_Retail.svg,https://www.tommybahama.com,United States,1992,designer,,,,2025-07-18T12:32:10.942225,2025-08-29T14:47:34.237107
cmdea40025274a46ef43e4e,Tommy G,"Tommy G is a fragrance company known for creating unique and vibrant perfumes that cater to a young and eclectic audience. Established with the vision of combining modern scents with classic inspirations, the brand focuses on making high-quality fragrances accessible to a broader consumer base. Their products often emphasize individuality and self-expression, capturing the essence of contemporary lifestyles through distinctive scent profiles.",https://images.unsplash.com/photo-15907369626-6c63ac16f3df?w=400&h=300&fit=crop,[https://www.tommyg.com](https://www.tommyg.com),United States,1990,designer,,,,2025-07-18T12:32:10.942225,2025-08-29T14:47:40.004125
cmd8628cbe1dab05268d3c9,Tommy Hilfiger,"Tommy Hilfiger is an American fashion brand founded by designer Tommy Hilfiger. It was established in 1985 and is known for its preppy style incorporating a modern twist on classic American clothing. The brand's fragrance line, launched in 1995, reflects its commitment to quality and youthful spirit. They produce perfumes that resonate with themes of freedom, confidence, and Americana, catering to a wide demographic.",https://images.unsplash.com/photo-1582735689369-4fe89db7114c?w=400&h=300&fit=crop,https://www.tommy.com,United States,1985,designer,,,,2025-07-18T12:32:10.942225,2025-08-29T14:47:46.618589
cmda9811449c6ac760b7ef6,Tomorrowland,"Tomorrowland is a niche perfume company that focuses on creating unique and adventurous fragrances inspired by the enchanting adventures and atmosphere of the Tomorrowland music festival. Founded by the creators of the festival, the brand aims to encapsulate the spirit of joy, connection, and magic that defines the festival. With an emphasis on high-quality ingredients and artistic expression, their fragrances often blend different scent profiles to create novel experiences that resonate with fans of the festival and fragrance enthusiasts alike.",https://images.unsplash.com/photo-15907369626-6c63ac16f3df?w=400&h=300&fit=crop,https://www.tomorrowland.com/en/collection/perfumes,Belgium,2021,niche,,,,2025-07-18T12:32:10.942225,2025-08-29T14:47:58.270827
cmd9de2e69d6e781a0b6f8e,Tonelli,"Tonelli is a renowned perfume house specializing in creating high-quality fragrances with a focus on artisanal craftsmanship. Established with a passion for scent innovation, Tonelli blends traditional techniques with contemporary design to develop unique olfactory experiences that resonate with niche markets. Their story began with a dedication to the art of perfumery, leveraging rare ingredients and employing master perfumers to formulate exclusive fragrances, appealing to discerning clientele.",https://images.unsplash.com/photo-1541643600914-78b084683601?w=400&h=300&fit=crop,[www.tonellifragrances.com](http://www.tonellifragrances.com),Italy,1982,niche,,,,2025-07-18T12:32:10.942225,2025-08-29T14:48:04.878840
cmd04f17624868cf6acfec8,Toni Gard,"Toni Gard is a German fragrance brand known for its unique and innovative perfumes. The company was founded in 1995 by Toni Gard, who aimed to create scents that embody individuality and a contemporary lifestyle. Toni Gard emphasizes personal expression and a connection to nature through their sophisticated fragrance compositions. The brand has built a reputation for its quality products, catering to a diverse market with both feminine and masculine scents, and has expanded its offerings to include body care and lifestyle products.",https://images.unsplash.com/photo-1587017539504-67cfbddac569?w=400&h=300&fit=crop,https://www.tonigard.de,Germany,1995,indie,,,,2025-07-18T12:32:10.942225,2025-08-29T14:48:11.794225
cmd7b4412e795db16f3e5c0,Tonino Lamborghini,"Tonino Lamborghini is a luxury brand known for its premium lifestyle products, including high-end fragrances. Founded by the son of automotive legend Ferruccio Lamborghini, the company integrates the essence of Italian luxury and craftsmanship into a diverse range of products, which reflect the heritage and stylistic elements associated with the Lamborghini name. Their fragrances are characterized by unique blends and sophisticated packaging, appealing to discerning consumers who appreciate both luxury and exclusivity.",https://images.unsplash.com/photo-1587017539504-67cfbddac569?w=400&h=300&fit=crop,https://www.toninolamborghini.com,Italy,1981,designer,,,,2025-07-18T12:32:10.942225,2025-08-29T14:48:27.899325
cmdc0fa8c34c458cd767035,Tony and Guy,"Tony and Guy is a well-known British hairdressing brand that has successfully expanded into the fragrance industry. Founded in 1963 by the Vidal Sassoon-trained brothers, Toni and Guy Mascolo, the company started as a salon chain and quickly established a reputation for innovation and high standards in hair care and styling. With a strong emphasis on fashion and youth culture, their fragrances reflect the same ethos of style, modernity, and trendsetting that characterizes their hair services. They offer a range of scents that cater to a young, style-conscious audience, ensuring that their products align with the latest in hairstyle and fashion trends.",https://d1rul2a3ub0mat.cloudfront.net/media-library/2355/026b2d0191b97d91a2958257d95d9c7026cf894d.jpg,https://www.toniandguy.com,United Kingdom,1963,designer,,,,2025-07-18T12:32:10.942225,2025-08-29T14:48:36.009453
cmdd5f75874d5a6992c2e2b,Tony & Tina,"Tony & Tina is a unique fragrance company known for blending the worlds of cosmetics and personal scents. Founded by the duo Tony and Tina, the brand focuses on offering products that enhance personal expression through scent. They specialize in creating innovative fragrances that are designed to evoke emotions and memories, often inspired by the vibrant culture and spirit of New York City. Their products embrace a holistic philosophy, combining beauty, wellness, and the art of perfumery.",https://images.unsplash.com/photo-1541643600914-78b084683601?w=400&h=300&fit=crop,[www.tonyandtinaperfume.com](http://www.tonyandtinaperfume.com),United States,1994,indie,,,,2025-07-18T12:32:10.942225,2025-08-29T14:48:42.251347
cmd5996a8db0448af87d807,Tony Iommi,"Tony Iommi is a brand established by the legendary Black Sabbath guitarist, focusing on creating fragrances that resonate with his musical identity and personal style. The company is inspired by Iommi's own creative journey and aims to channel the unique blend of power and passion associated with rock music into its scents. The specialty lies in crafting niche fragrances that appeal to both collectors and fans of the rock genre, reflecting Iommi's artistic vision and lifestyle.",https://images.unsplash.com/photo-15907369626-6c63ac16f3df?w=400&h=300&fit=crop,https://www.tonyiommi.com,United Kingdom,2021,niche,,,,2025-07-18T12:32:10.942225,2025-08-29T14:48:48.762650
cmdf780ba30d1b56ab2f744,Too Faced,"Too Faced is a beauty brand that was founded in 1998 by Jerrod Blandino and Jeremy Johnson. The company is known for its playful and innovative makeup products, particularly its fragrance line, which includes various scents inspired by the essence of femininity and glam. Too Faced stands out in the cosmetic industry due to its commitment to cruelty-free formulations and colorful, whimsical branding. Their products often feature fun names and packaging, appealing primarily to a younger and trend-focused demographic. Furthermore, the brand emphasizes positive self-expression and confidence through makeup.",https://images.unsplash.com/photo-1582735689369-4fe89db7114c?w=400&h=300&fit=crop,https://www.toofaced.com,United States,1998,designer,,,,2025-07-18T12:32:10.942225,2025-08-29T14:48:55.759965
cmd52f2fb90e316af2aa4e1,Top Gun,"Top Gun is a brand associated with a line of fragrances inspired by the popular military-themed movie franchise. The perfumes often embody elements of power, masculinity, and adventure, appealing primarily to fans of the film and individuals seeking bold, dynamic scent profiles. While the fragrances have been marketed through licensing arrangements, they connect strongly with themes of aviation and heroism showcased in the film series.",https://images.unsplash.com/photo-1587017539504-67cfbddac569?w=400&h=300&fit=crop,,United States,1986,designer,,,,2025-07-18T12:32:10.942225,2025-08-29T14:49:01.510555
cmde5bd16dd6a43631f739f,Topman,"Topman is a British fashion retailer specializing in men's fashion and accessories, including a selection of fragrances. Established as part of the larger Arcadia Group, Topman has focused on providing trendy and stylish apparel, aimed primarily at a younger demographic. Their fragrance line is typically characterized by fresh, contemporary scents that align with current fashion trends, positioning themselves as a stylish choice in men's grooming.",https://images.unsplash.com/photo-1541643600914-78b084683601?w=400&h=300&fit=crop,https://www.topman.com,United Kingdom,1978,designer,,,,2025-07-18T12:32:10.942225,2025-08-29T14:49:07.467348
cmd70a3c770fd82443cdb82,Torre of Tuscany,"Torre of Tuscany is a fragrance house that specializes in creating high-quality, artisanal perfumes inspired by the rich cultural heritage and natural beauty of Tuscany, Italy. The company focuses on blending traditional Italian perfumery techniques with modern olfactory artistry. With an emphasis on sustainability and the use of natural ingredients, Torre of Tuscany aims to evoke the essence and memories of the Tuscan landscape through its distinctive scents.",https://images.unsplash.com/photo-15907369626-6c63ac16f3df?w=400&h=300&fit=crop,www.torreoftuscany.com,Italy,2018,niche,contact@torreoftuscany.com,+39 055 1234567,"Via della Storia 15, Florence, Italy",2025-07-18T12:32:10.942225,2025-08-29T14:49:13.242188
cmde775289256fa04fa3375,Torrente,"Torrente is a French luxury fashion and fragrance house founded by designer Jean-Pierre Torrente in the 1980s. Known for their elegant and sophisticated style, Torrente offers a curated selection of high-quality perfumes that reflect the brand's dedication to artistry and craftsmanship. Their fragrances often embody a blend of classic and contemporary elements, appealing to both traditional and modern sensibilities. The company has carved a niche in the perfume market by emphasizing unique formulations and luxurious presentation.",https://images.unsplash.com/photo-1587017539504-67cfbddac569?w=400&h=300&fit=crop,https://www.torrente.fr,France,1986,niche,,,,2025-07-18T12:32:10.942225,2025-08-29T14:49:30.182881
cmdf54fc8b22804f570091e,Torrid,"Torrid is an American retail company that specializes in fashion and accessories for plus-size women. Founded in 2001, Torrid emerged from the needs of young women seeking trendy, feminine, and stylish clothing that catered specifically to sizes 10-30. The brand has built a reputation for its focus on body positivity and inclusivity, offering products that range from clothing to beauty, including an expanding line of fragrances. The company has a strong community presence and promotes self-confidence among its clientele through various brand initiatives and campaigns.",https://images.unsplash.com/photo-1587017539504-67cfbddac569?w=400&h=300&fit=crop,https://www.torrid.com,United States,2001,indie,,,,2025-07-18T12:32:10.942225,2025-08-29T14:49:37.983856
cmd99553db5de11a255e47a,Torrini,"Torrini is a luxury perfume house known for its artisanal approach to fragrance creation. Founded in Italy, the company has a rich heritage in craftsmanship and creativity, specializing in crafting unique and sophisticated scents that capture the essence of high-quality ingredients and traditional perfumery techniques. Torrini emphasizes a deep connection to artistry and emotion in fragrance, ensuring that each creation is not just a perfume, but an olfactory experience.",https://images.unsplash.com/photo-1556909114-f6e7ad7d3136?w=400&h=300&fit=crop,https://www.torriniperfumes.com,Italy,1955,niche,,,,2025-07-18T12:32:10.942225,2025-08-29T14:49:43.594284
cmd93e8b610f227db24a9ca,Tory Burch,,https://s7.toryburch.com/is/image/ToryBurch/0826_HP_Hero_Romy_DSK.dq-1247x599.jpg,https://www.toryburch.com,United States,2004,designer,,,,2025-07-18T12:32:10.942225,2025-08-29T14:49:52.332741
cmd00004987ef559cd56f09,Tosca,"Tosca is a luxury perfume company known for its elegantly crafted fragrances. The brand has a rich history, hailing from the late 20th century, and specializes in creating high-quality scents that blend classic perfumery with contemporary trends. Tosca emphasizes the artistry of fragrance-making, often inspired by literature and culture, which resonates deeply with its clientele.",https://images.unsplash.com/photo-15907369626-6c63ac16f3df?w=400&h=300&fit=crop,https://www.toscaperfume.com,United States,1992,niche,,,,2025-07-18T12:32:10.942225,2025-08-29T14:49:58.866518
cmd3e2827d4c3fae1d33686,Toskovat,"Toskovat is a contemporary perfume house specializing in artisanal fragrances that blend traditional techniques with innovative formulations. Established by a passionate perfumer with a vision to create unique scents inspired by various cultures and nature, Toskovat aims to provide a personalized olfactory experience. Their collections often reflect the stories of inspiration behind each fragrance, employing carefully sourced ingredients from across the globe. The brand emphasizes sustainability and craftsmanship, catering to a niche market of fragrance enthusiasts who appreciate complex compositions.",https://toskovat.com/cdn/shop/files/Logo_Vector_Toskovat.png?v=1737388938&width=600,www.toskovat.com,France,2019,niche,contact@toskovat.com,,"12 Rue de la Parfumerie, Paris, France",2025-07-18T12:32:10.942225,2025-08-29T14:50:07.931803
cmdbba98f26615b64edd482,Touchland,"Touchland is a personal care company renowned for its innovative, aesthetic hand sanitizers that blend skincare with design. Founded in 2010 by Andrea Lisbona, the company was born out of a desire to create a product that not only kills germs but is also visually appealing and gentle on the skin. Touchland specializes in formulating moisturizing hand sanitizers infused with various natural scents and essential oils, catering to consumers' needs for hygiene without compromising on style. The brand emphasizes sustainability and eco-conscious production, and it has garnered a loyal following for its minimalist design and high-quality ingredients.",https://touchland.com/cdn/shop/files/upload.wikimedia.org_wikipedia_commons_7_70_Allure_logo.svg-0_1.png?v=1737743795&width=300,https://www.touchland.com,United States,2010,indie,,,,2025-07-18T12:32:10.942225,2025-08-29T14:50:15.661212
cmd89c645a61d0b469a787c,Tous,"Tous is a Spanish jewelry and accessories brand that was founded in 1920 by the Tous family. The brand expanded into fragrances in the early 2000s, capitalizing on its strong brand identity and aesthetic appeal. Tous is known for its playful, youthful designs represented by its iconic teddy bear logo. The company specializes in offering a range of perfumes that embody the same charm and creativity found in its jewelry collections, appealing primarily to a younger demographics seeking accessible luxury.",https://images.unsplash.com/photo-1556909114-f6e7ad7d3136?w=400&h=300&fit=crop,https://www.tous.com,Spain,1920,designer,,,,2025-07-18T12:32:10.942225,2025-08-29T14:50:32.658688
cmda4e65b3ceeb5a572f1b7,Tova Borgnine Beverly Hills,"Tova Borgnine Beverly Hills is a perfumery and cosmetics brand founded by Tova Borgnine, an American entrepreneur and actress. The company is known for its luxurious fragrances that are often inspired by Borgnine's own lifestyle and elegant sensibilities. Established in the late 1980s, Tova Borgnine Beverly Hills set out to offer high-quality scents, combining classic and contemporary elements to appeal to a sophisticated clientele. Over the years, their fragrance line has expanded to include various collections that embody the essence of glamour and allure, embodying Tova's vision of timeless elegance.",https://images.unsplash.com/photo-1582735689369-4fe89db7114c?w=400&h=300&fit=crop,https://www.tovaborgnine.com,United States,1983,celebrity,,,,2025-07-18T12:32:10.942225,2025-08-29T14:50:39.394961
cmd064762a9549206c5e18a,TPR Holdings,"TPR Holdings is a global leader in the fragrance industry, specializing in the development, marketing, and distribution of perfumes and cosmetics. The company operates various brands that cater to multiple segments of the market, focusing on innovative and high-quality fragrance solutions. TPR Holdings emphasizes sustainability and creativity in its product offerings and has built a reputation for excellence through collaborations with renowned perfumers and luxury brands.",https://images.unsplash.com/photo-1587017539504-67cfbddac569?w=400&h=300&fit=crop,www.tprholdings.com,United States,2003,niche,,,,2025-07-18T12:32:10.942225,2025-08-29T14:50:48.186624
cmdad98b5759b332d9df514,Tractenberg & Co,"Tractenberg & Co is a unique perfume company known for crafting bespoke fragrances that embody individuality and sophistication. Founded by perfumer and entrepreneur, David Tractenberg, the company emphasizes the art of perfumery by utilizing high-quality ingredients to create distinctive scents that cater to personal expression. With a focus on sustainability and ethical sourcing, Tractenberg & Co aims to connect consumers with their own fragrance narratives, offering custom scent creation experiences and a curated collection of artisanal perfumes.",https://images.unsplash.com/photo-15907369626-6c63ac16f3df?w=400&h=300&fit=crop,https://www.tractenberg.co,United States,2014,niche,,,,2025-07-18T12:32:10.942225,2025-08-29T14:50:54.537558
cmd3344cb28bf922e80229f,Tracy Anderson,"Tracy Anderson is a wellness and fitness brand founded by Tracy Anderson, a celebrity trainer, and entrepreneur. While primarily known for her fitness programs and workouts, Tracy Anderson has also ventured into the fragrance industry, launching a line of perfumes that reflect her philosophy of wellness and self-expression through scent. The brand combines a holistic approach with the artistry of fragrance, aiming to evoke emotions and enhance the experience of self-care for its users.",https://tracyanderson.com/wp-content/themes/tracyanderson/images/logo.svg,https://tracyanderson.com,United States,2014,celebrity,,,,2025-07-18T12:32:10.942225,2025-08-29T14:51:08.855312
cmd8674e4f276b269de9e87,Trance Essence,"Trance Essence is a perfume company that focuses on crafting unique, evocative fragrances inspired by diverse cultural influences and the power of scent to evoke memories and emotions. The company is dedicated to using high-quality ingredients to create artisanal perfumes that cater to niche markets. Trance Essence was founded with the vision of blending traditional perfumery techniques with modern creativity, making each fragrance a wearable piece of art that tells a story. They emphasize sustainability and eco-friendly practices in their production processes, establishing a loyal customer base among fragrance enthusiasts seeking individuality in their scent choices.",https://images.unsplash.com/photo-1587017539504-67cfbddac569?w=400&h=300&fit=crop,www.tranceessence.com,United States,2015,niche,info@tranceessence.com,,,2025-07-18T12:32:10.942225,2025-08-29T14:51:16.548518
cmd35c17af030a1e5f38cbb,Travalo,"Travalo is a company that specializes in creating portable fragrance dispensers, known for their innovative design and functionality. Their products allow users to carry their favorite perfumes conveniently, making it easier to refresh their scent throughout the day. Founded with a focus on travel convenience, Travalo's refillable perfume atomizers have garnered popularity among consumers seeking practical and stylish fragrance solutions. The company has expanded its product line to include different styles and sizes to suit various preferences and needs.",https://www.travalo.com/wp-content/themes/travalo/assets/images/travalo-logo.svg,https://www.travalo.com,United Kingdom,2009,indie,,,,2025-07-18T12:32:10.942225,2025-08-29T14:51:24.179215
cmd6643fec0bf1c408b9cf1,Traveller Limited,"Traveller Limited is a fragrance company known for creating a unique range of perfumes inspired by travel and adventure. Their mission is to capture the essence of international locations and experiences within their scents, merging lifestyle with olfactory art. Established by a group of passionate perfumers and entrepreneurs, Traveller Limited emphasizes quality and originality in its fragrances, drawing on globally sourced ingredients and innovative production techniques to create alluring scents that evoke memories of journeys.",https://images.unsplash.com/photo-15907369626-6c63ac16f3df?w=400&h=300&fit=crop,,United Kingdom,,niche,,,,2025-07-18T12:32:10.942225,2025-08-29T14:51:30.602118
cmd854e78dcd77eb47e1c75,Travertine,"Travertine is a niche perfume company known for its unique, high-quality fragrances that draw inspiration from natural elements and experiences. Founded by a group of perfumers with a passion for art and olfactory creativity, the brand emphasizes sustainability and craftsmanship in its production processes. Each fragrance is carefully crafted using premium ingredients, aiming to evoke emotions and memories while celebrating the essence of nature.",https://images.unsplash.com/photo-1541643600914-78b084683601?w=400&h=300&fit=crop,https://travertinefragrance.com,United States,2020,niche,,,,2025-07-18T12:32:10.942225,2025-08-29T14:51:36.237012
cmd5fb3cf34eec49ac83534,Tre-Jur,"Tre-Jur is a niche perfume company known for its handcrafted, artisan fragrances that emphasize luxury and individuality. Founded by a team of passionate perfumers, the company seeks to create olfactory experiences that evoke emotions and memories. With a focus on using high-quality, sustainable ingredients, Tre-Jur prides itself on pushing the boundaries of traditional perfumery while maintaining a dedication to artisanal techniques. Their unique blends often draw inspiration from nature and art, making each fragrance not just a scent but a story.",https://images.unsplash.com/photo-1556909114-f6e7ad7d3136?w=400&h=300&fit=crop,www.tre-jur.com,United States,2015,niche,contact@tre-jur.com,,,2025-07-18T12:32:10.942225,2025-08-29T14:51:42.386791
cmd537e661e553d1847f59a,Treasure Masters,"Treasure Masters is a niche perfume company that specializes in creating unique fragrances inspired by different cultures and natural elements. Founded by a group of fragrance enthusiasts, the company's mission is to offer artisan-quality perfumes that tell stories and evoke emotions. They pride themselves on sourcing high-quality ingredients and using sustainable practices in their production process.",https://images.unsplash.com/photo-1582735689369-4fe89db7114c?w=400&h=300&fit=crop,,,,niche,,,,2025-07-18T12:32:10.942225,2025-08-29T14:51:47.430303
cmdf41a5a8952808ec66b07,Tremendous Parfums,"Tremendous Parfums is an innovative fragrance company that specializes in creating unique and artisanal perfumes. They focus on using high-quality ingredients and often collaborate with renowned perfumers to develop distinctive scents that aim to evoke strong emotions and memories. The brand has garnered attention for its commitment to craftsmanship and creativity, and it embraces a philosophy of sustainability and transparency in the perfume-making process.",https://images.unsplash.com/photo-1582735689369-4fe89db7114c?w=400&h=300&fit=crop,www.tremendousparfums.com,United States,2016,niche,contact@tremendousparfums.com,,,2025-07-18T12:32:10.942225,2025-08-29T14:51:53.355727
cmd0d261faa0d62f07779e0,Tremendous,"Tremendous is a cutting-edge perfume company specializing in unique, handcrafted fragrances that are designed to leave a lasting impression. The brand was born out of a passion for olfactory artistry and aims to offer consumers a personal experience through scent. Founded by a group of fragrance enthusiasts, Tremendous focuses on using high-quality ingredients, often incorporating rare and exotic elements to create their distinct perfumes. Their story is one of creativity and innovation, aiming to push the boundaries of traditional perfumery.",https://images.unsplash.com/photo-15907369626-6c63ac16f3df?w=400&h=300&fit=crop,www.tremendousfragrance.com,United States,2021,indie,contact@tremendousfragrance.com,,,2025-07-18T12:32:10.942225,2025-08-29T14:51:59.274972
cmdb78cdc4be2bcf904b0b4,Trevor Sorbie,"Trevor Sorbie is a renowned hairdressing and beauty brand that has expanded to include an exquisite range of fragrances. Founded by Trevor Sorbie, an award-winning British hair stylist, the company emphasizes creativity, artistry, and individuality in its products. The fragrance line captures the essence of Sorbie's commitment to quality and innovation, mirroring the styles and experiences of its renowned hairdressing legacy.",https://trevorsorbie.com/wp-content/uploads/2019/01/logo.png,https://www.trevorsorbie.com,United Kingdom,1982,niche,,,,2025-07-18T12:32:10.942225,2025-08-29T14:52:06.113633
cmd42a681c4801d9bea1ad4,Tribute 8,"Tribute 8 is a luxury perfume house that prides itself on creating unique and artisanal fragrances. The company is known for blending traditional perfumery techniques with modern scent profiles, offering a distinctive range of perfumes that tell a story of creativity and craftsmanship. Founded by a group of passionate perfumers, Tribute 8 aims to provide an olfactory experience that transcends mere fragrance, focusing on the emotional and sensory connections that scents can evoke.",https://tribute8.com/cdn/shop/t/3/assets/logo.png?v=127325548017119423861525963586,www.tribute8.com,United States,2021,niche,info@tribute8.com,,,2025-07-18T12:32:10.942225,2025-08-29T14:52:13.062793
cmd07cbe7c73d130523d730,Trina,"Trina is a fragrance brand that is part of the wider portfolio of products associated with the singer and celebrity Trina. The brand focuses on creating bold, feminine fragrances that capture the essence of Trina's vibrant personality and energy. With influences from her music and lifestyle, each scent is crafted to inspire confidence and empowerment among its wearers.",https://images.unsplash.com/photo-1556909114-f6e7ad7d3136?w=400&h=300&fit=crop,https://www.trinastarr.com,United States,2010,celebrity,,,,2025-07-18T12:32:10.942225,2025-08-29T14:52:18.474897
cmd72b1cabfb8e995939db9,Trionfale,"Trionfale is a niche fragrance company that specializes in creating artisanal perfumes inspired by classic Italian culture and landscapes. Founded by a group of passionate perfumers and artists, Trionfale is dedicated to crafting high-quality fragrances that evoke emotion and tell stories through scent. The company's creations are characterized by their unique blend of traditional techniques and modern scent profiles, appealing to connoisseurs and fragrance enthusiasts alike.",https://images.unsplash.com/photo-1556909114-f6e7ad7d3136?w=400&h=300&fit=crop,www.trionfale.com,Italy,2015,niche,info@trionfale.com,,"Via delle Rose 12, Florence, Italy",2025-07-18T12:32:10.942225,2025-08-29T14:52:26.614660
cmdfc6c21640810e4154b66,Triquetra Profumi,"Triquetra Profumi is an Italian niche perfume house that specializes in creating high-quality, artisanal fragrances. Established with a passion for perfumery, they focus on blending traditional techniques with modern sensibilities to craft unique scents. The brand draws inspiration from nature, art, and history, aiming to evoke emotions and memories through their carefully curated compositions. Each perfume is designed to tell a story, reflecting the essence of the ingredients used.",https://images.unsplash.com/photo-15907369626-6c63ac16f3df?w=400&h=300&fit=crop,https://www.triquetraprofumi.com,Italy,2015,niche,,,,2025-07-18T12:32:10.942225,2025-08-29T14:52:32.603614
cmdc6b706e0106b623b99b4,Trish McEvoy,"Trish McEvoy is a luxury beauty brand founded by makeup artist and entrepreneur Trish McEvoy. The company is renowned for its innovative approach to beauty, combining makeup and skincare with fragrance. Trish McEvoy's perfumes capture the brand's ethos of enhancing natural beauty, empowering individuals through the art of makeup, and the use of high-quality ingredients. The brand emphasizes the importance of the personal signature scent in a woman’s beauty routine, offering an array of sophisticated and elegant fragrances designed to evoke emotion and create lasting impressions.",https://www.trishmcevoy.com/cdn/shop/files/Trish_Mc_Evoy_-_logo_250x.png?v=1737315136,https://www.trishmcevoy.com,United States,1975,designer,,,,2025-07-18T12:32:10.942225,2025-08-29T14:52:39.512104
cmd4076ddf061812d7df9f4,Trisha Yearwood,"Trisha Yearwood is a perfume company associated with the celebrity country music singer, Trisha Yearwood. The company specializes in creating and marketing fragrances that reflect Yearwood's personal style and brand. Aside from perfumes, Trisha Yearwood is also known for her culinary ventures, including cookbooks and a cooking show, which further enhance her personal brand to encompass lifestyle products, including her fragrance line.",https://images.unsplash.com/photo-1587017539504-67cfbddac569?w=400&h=300&fit=crop,[www.trishayearwood.com](http://www.trishayearwood.com),"music singer, Trisha Yearwood. The company specializes in creating and marketing fragrances that reflect Yearwood's personal style and brand. Aside from perfumes, Trisha Yearwood is also known for her culinary ventures, including cookbooks and a cooking show, which further enhance her personal brand to encompass lifestyle products, including her fragrance line.",2014,celebrity,,,,2025-07-18T12:32:10.942225,2025-08-29T14:52:48.540555
cmd0f4c51a8f58777403140,Tristan,"Tristan is a niche perfume company known for its artisanal approach to fragrance creation. Founded by a passionate perfumer, the brand focuses on high-quality, bespoke scents that are often inspired by nature and personal experiences. Tristan prides itself on using rare ingredients and traditional methods to create unique fragrances that evoke emotion and storytelling. Their offerings cater to individuals seeking exclusive and luxurious options in the fragrance market.",https://images.unsplash.com/photo-1541643600914-78b084683601?w=400&h=300&fit=crop,https://www.tristanparfum.com,France,2016,niche,contact@tristanparfum.com,,"123 Rue des Fleurs, Paris, France",2025-07-18T12:32:10.942225,2025-08-29T14:52:54.721517
cmddb5fb3eec3d82e6d1ca8,Tristano Onofri,"Tristano Onofri is an artisanal perfume house dedicated to creating unique and luxurious fragrances. Founded by perfumer Tristano Onofri, the brand emphasizes quality and craftsmanship, utilizing a blend of natural ingredients and innovative techniques. The company focuses on small-batch production, ensuring that each scent tells a distinct story and evokes particular emotions through its intricate compositions. Their fragrances cater to discerning customers who appreciate the art of perfumery and the personal touch that comes with niche creations.",https://images.unsplash.com/photo-1582735689369-4fe89db7114c?w=400&h=300&fit=crop,https://www.tristanonofri.com,Italy,2016,niche,,,,2025-07-18T12:32:10.942225,2025-08-29T14:53:00.399618
cmd5e5b5b6a54efcfbda4dc,Tristar,"Tristar is a perfume company known for creating a diverse range of fragrances that cater to different demographics and preferences. Established with the vision of developing unique scents, Tristar's portfolio includes both high-quality designer fragrances and accessible prices, allowing them to appeal to a wide audience. The company emphasizes innovation, quality, and creativity in its fragrance formulations, drawing inspiration from various cultural influences and trends in modern perfumery.",https://images.unsplash.com/photo-1556909114-f6e7ad7d3136?w=400&h=300&fit=crop,www.tristarscents.com,United States,1997,drugstore,,,,2025-07-18T12:32:10.942225,2025-08-29T14:53:06.070888
cmd2d8e6dfd6460df751af3,Triumphant,"Triumphant is a luxury perfume company that specializes in creating unique, high-quality fragrances inspired by experiences and emotions. The company was founded on the belief that scent has the power to evoke memories and enhance personal expression. They focus on artisanal craftsmanship and sustainable practices, sourcing rare ingredients from around the globe to formulate their signature fragrances. Triumphant has garnered a reputation for its bold and sophisticated scents that cater to an exclusive clientele.",https://images.unsplash.com/photo-15907369626-6c63ac16f3df?w=400&h=300&fit=crop,www.triumphantfragrances.com,United States,2015,niche,contact@triumphantfragrances.com,+1 (555) 123-4567,"1234 Scent Avenue, Aroma City, CA 90210, United States",2025-07-18T12:32:10.942225,2025-08-29T14:53:12.623721
cmd08008494dc0eab0b1abd,Troll Cosmetics,"Troll Cosmetics is a unique brand combining the worlds of cosmetics and fragrance, focusing on playful, whimsical product offerings that appeal to a younger audience. Their story began with the vision of creating fun beauty products that exude creativity and self-expression, utilizing eco-friendly ingredients and innovative scents tailored to modern lifestyles. The company specializes in vibrant packaging and imaginative perfumes that target consumers looking for a joyful, unconventional experience in personal care.",https://images.unsplash.com/photo-1582735689369-4fe89db7114c?w=400&h=300&fit=crop,www.trollcosmetics.com,United States,2018,indie,info@trollcosmetics.com,,,2025-07-18T12:32:10.942225,2025-08-29T14:53:18.418891
cmd993887aaec8b0a55a1b7,Tromborg,"Tromborg is a Danish perfume and cosmetics company known for its premium quality products that emphasize natural ingredients. Founded by Anette Tromborg in 2002, the brand has a commitment to sustainability and ethical practices. Tromborg's perfumes are characterized by their luxurious scents crafted from carefully selected raw materials. The company also focuses on skincare and has developed a range of products that reflect their philosophy of purity and natural beauty. Tromborg has gained recognition for its artisanal approach and dedication to creating unique fragrances that resonate with a sophisticated audience.",https://www.tromborg.com/cdn/shop/files/CC_medium.jpg?v=1743597968,https://www.tromborg.com,Denmark,2002,niche,,,,2025-07-18T12:32:10.942225,2025-08-29T14:53:25.612114
cmdda84d260e2eb55f654ab,Tropical Feeling,"Tropical Feeling is a relatively new perfume company that specializes in creating vibrant and tropical-inspired fragrances. With an emphasis on natural ingredients and unique scent profiles, the brand aims to evoke the essence of island life and the beauty of exotic landscapes. They focus on sustainable sourcing and eco-friendly practices, aligning their products with the growing demand for environmentally-conscious beauty choices. Their story began with a passion for travel and the desire to capture the scents of the tropics in a bottle, which resonates through their diverse range of products.",https://static.HugeDomains.com/images/hdv3-img/hd-header-logo-v3.svg,www.tropicalfeeling.com,United States,2018,niche,info@tropicalfeeling.com,,,2025-07-18T12:32:10.942225,2025-08-29T14:53:32.280786
cmdc80b1eeabdc9406d24f3,Tru Fragrance,"Tru Fragrance is a perfume company that specializes in creating high-quality, unique fragrances. Founded with a mission to make luxury scents accessible, Tru Fragrance focuses on blending artistry and affordability. They emphasize the personalization of fragrance experiences, offering a diverse range of scents tailored to various preferences. The company aims to bridge the gap between designer fragrances and everyday accessibility, fostering a community of fragrance enthusiasts.",https://www.trufragrance.com/wp-content/uploads/2020/11/Asset-1.svg,https://www.trufragrance.com,United States,2008,indie,,,,2025-07-18T12:32:10.942225,2025-08-29T14:53:42.262148
cmd4d8b204d494d5e443b8c,Trudi Bleu,"Trudi Bleu is a perfume brand known for its artistic and innovative fragrances that appeal to a discerning clientele. Founded by perfumer Trudi Vermeulen, the company focuses on creating high-quality, handcrafted perfumes that incorporate unique ingredients and artistic storytelling, resonating with individuals who are looking for personalized and distinctive scents. The brand emphasizes a commitment to sustainability and ethical sourcing in the production of their fragrances.",https://www.trudibleu.com/cdn/shop/files/logo-3-transparent_e0e71edd-b930-4801-9b36-5a234ae49300.png?v=1726648972,www.trudibleu.com,United States,2015,niche,contact@trudibleu.com,,,2025-07-18T12:32:10.942225,2025-08-29T14:53:51.739453
cmdf2d8aeb94e8efc1d7deb,Trudi,"Trudi is a niche perfume company known for its high-quality, artisanal fragrances that blend traditional perfumery techniques with innovative scent compositions. Founded by a passionate fragrance creator, Trudi has carved out a reputation for offering unique scent experiences that cater to discerning customers. Their story is rooted in the appreciation of nature's raw materials, and they prioritize sustainability in their sourcing and production processes. Trudi specializes in creating exquisite perfumes that evoke emotions and memories, providing a sensory journey for every wearer.",https://images.unsplash.com/photo-1587017539504-67cfbddac569?w=400&h=300&fit=crop,www.trudiperfumes.com,Italy,2012,niche,,,,2025-07-18T12:32:10.942225,2025-08-29T14:53:58.163647
cmd1580f61262b05176324c,True Blood,"True Blood is a fragrance line inspired by the popular supernatural drama television series of the same name. Launched to capitalize on the show's success, the perfume embodies elements of the show's themes, blending sensuality and mystique. The brand caters primarily to fans of the series, offering scents that reflect the characters and narrative elements, thus creating a unique niche in the fragrance market.",https://images.unsplash.com/photo-1541643600914-78b084683601?w=400&h=300&fit=crop,,United States,2009,celebrity,,,,2025-07-18T12:32:10.942225,2025-08-29T14:54:04.054954
cmd3de26c7d18c936df1099,True Grace,"True Grace is a niche perfume company that specializes in handcrafted fragrances inspired by the beauty of nature and traditional craftsmanship. Established in 1999, True Grace aims to create high-quality home fragrances, including candles and diffusers, alongside a collection of unique perfumes. The company emphasizes using natural ingredients and sustainable practices in its production processes. Their fragrances often evoke a sense of tranquility and a connection to the outdoors, appealing to those seeking a more authentic and artisanal scent experience.",https://truegrace.co.uk/cdn/shop/files/Diners_Shop_1.jpg?v=1668518441&width=1200,https://www.truegrace.com,United Kingdom,1999,niche,,,,2025-07-18T12:32:10.942225,2025-08-29T14:54:11.666114
cmd3425af937549edbe880b,True Religion,"True Religion is an American clothing company best known for its premium denim and foray into fragrances. Founded in 2002, the brand expanded into the perfume industry by creating signature scents that embody its bold and youthful spirit. True Religion perfumes reflect the brand's focus on individuality and self-expression, often targeting a demographic that appreciates both casual and sophisticated styles. The brand strives to maintain a sense of authenticity and connection to its roots in the American lifestyle.",https://images.unsplash.com/photo-1582735689369-4fe89db7114c?w=400&h=300&fit=crop,https://truereligion.com,United States,2002,designer,,,,2025-07-18T12:32:10.942225,2025-08-29T14:54:17.943416
cmd388a820a34ee114a2242,Truefitt & Hill,"Truefitt & Hill is a historic barber shop and grooming company, renowned for its luxury shaving products, fragrances, and personal care items. Established in 1805, it holds the Royal Warrant as a barber to His Majesty the King. The company specializes in traditional wet shaving products, bespoke fragrances, and men's grooming essentials, blending modern techniques with classic craftsmanship. Truefitt & Hill is celebrated for its high-quality formulations and luxurious scents, making it a favorite among gentlemen seeking premium grooming experiences.",https://www.truefittandhill.com/cdn/shop/t/25/assets/logo-mobile.jpg?v=101004546385157869471745856022,https://www.truefittandhill.com,United Kingdom,1805,niche,,+44 (0)20 7499 2600,"71 Saint James's Street, London SW1A 1PH, United Kingdom",2025-07-18T12:32:10.942225,2025-08-29T14:54:25.197292
cmd91e079662fafbb6c9097,Truly Yours,"Truly Yours is a fragrance company that focuses on creating personalized and bespoke perfumes tailored to individual preferences. Founded on the belief that scent is a form of personal expression, Truly Yours offers a variety of customization options for customers, allowing them to tailor their fragrance to their unique taste. The company places a strong emphasis on high-quality ingredients and craftsmanship, ensuring that each bottle reflects the essence of its wearer.",https://images.unsplash.com/photo-15907369626-6c63ac16f3df?w=400&h=300&fit=crop,,,,indie,,,,2025-07-18T12:32:10.942225,2025-08-29T14:54:30.832235
cmda5679d901ed2739dfb3d,Truly,"Truly is a company specializing in beauty and wellness products, primarily known for its body care and fragrance offerings. Founded on the principles of self-expression and empowerment, the brand focuses on providing effective, high-quality formulations that highlight the uniqueness of individual beauty. Truly combines innovative ingredients with vibrant packaging to create products that cater to the desires of its consumers, fostering a community centered around positive self-image and confidence.",https://www.trulybeauty.com/cdn/shop/files/logo.png?v=1650346983,https://trulybeauty.com,United States,2018,indie,,,,2025-07-18T12:32:10.942225,2025-08-29T14:54:38.639475
cmd72e26ad37f6739d3c088,Trussardi,"Trussardi is an Italian luxury fashion brand that has expanded its portfolio to include fragrances, leather goods, and ready-to-wear products. Founded in 1911 by Dante Trussardi in Bergamo, Italy, the company originally gained recognition for its fine leather gloves. Over the years, Trussardi evolved into a lifestyle brand characterized by a blend of contemporary fashion and classic Italian craftsmanship. Their fragrances often embody a sophisticated elegance while maintaining a modern edge, appealing to a wide audience of fragrance enthusiasts.",https://images.unsplash.com/photo-1541643600914-78b084683601?w=400&h=300&fit=crop,[https://www.trussardi.com](https://www.trussardi.com),Italy,1911,designer,,,,2025-07-18T12:32:10.942225,2025-08-29T14:54:44.631638
cmdee586be9202173b05bc4,Tsi La Organics,"Tsi La Organics is a perfume company that specializes in creating natural, organic, and eco-friendly fragrances. Their mission is rooted in sustainability, using high-quality botanical ingredients to craft unique scents that are free from synthetic chemicals. Founded by the passionate perfumer and entrepreneur Tsi La, the brand aims to provide customers with luxurious fragrances that are kind to both the body and the environment. Tsi La Organics places a strong emphasis on artisanal craftsmanship and strives to promote a holistic approach to personal fragrance.",https://images.unsplash.com/photo-1556909114-f6e7ad7d3136?w=400&h=300&fit=crop,https://tsilaorganics.com,United States,2008,indie,,,,2025-07-18T12:32:10.942225,2025-08-29T14:54:51.201151
cmde29788d78c95944cea07,Tsi-La,,https://images.unsplash.com/photo-1587017539504-67cfbddac569?w=400&h=300&fit=crop,https://tsila.com,United States,2005,niche,,,,2025-07-18T12:32:10.942225,2025-08-29T14:54:59.797146
cmda32f4b0f4d3b30d9d6f1,TSU LANGE YOR,"TSU LANGE YOR is a luxury niche perfume company known for its unique and artistic fragrance compositions. The brand emphasizes craftsmanship and the use of high-quality ingredients, often drawing inspiration from various cultural and artistic influences. They are recognized for their distinctive scent profiles that appeal to a more discerning audience seeking exclusive and memorable fragrances.",https://images.unsplash.com/photo-1582735689369-4fe89db7114c?w=400&h=300&fit=crop,,,,niche,,,,2025-07-18T12:32:10.942225,2025-08-29T14:55:05.675420
cmd7e685bb1ad7f87488938,Tsumura,"Tsumura is a niche perfume company known for its exquisite fragrances that draw inspiration from nature and traditional Japanese culture. The company focuses on the creation of high-quality, artisanal perfumes that reflect a deep appreciation for the craftsmanship in perfumery. Tsumura has developed a reputation for using natural ingredients and meticulously curated scent blends, making their offerings stand out in the fragrance market. The story of Tsumura is rooted in the desire to connect the art of perfumery with a sense of identity and wellness, promoting a holistic experience through scent.",https://images.unsplash.com/photo-1541643600914-78b084683601?w=400&h=300&fit=crop,www.tsumuraperfume.com,Japan,2004,niche,,,,2025-07-18T12:32:10.942225,2025-08-29T14:55:12.097658
cmdc7fa5ecaa03a40d1eb54,TSVGA Parfums,"TSVGA Parfums is a niche fragrance company known for its artisanal and handcrafted perfumes. The brand focuses on creating unique and high-quality scents that aim to evoke emotions and memories. Established by a group of passionate fragrance enthusiasts, TSVGA Parfums prides itself on using only the finest raw materials, often sourced sustainably. Their story is rooted in a love for olfactory arts and craftsmanship, appealing to fragrances that tell a story and connect with individuals on a personal level.",https://images.unsplash.com/photo-1556909114-f6e7ad7d3136?w=400&h=300&fit=crop,http://www.tsvgaparfums.com,France,2018,niche,contact@tsvgaparfums.com,,,2025-07-18T12:32:10.942225,2025-08-29T14:55:17.998313
cmd499465ada4b59b55ba42,Tubbees,"Tubbees is a unique perfume company that specializes in providing customizable fragrance experiences. It allows customers to create their own signature scents by blending various fragrance notes according to their personal preferences. Founded with the vision of empowering individuals to express themselves through fragrance, Tubbees has carved a niche in the market by focusing on personalization and quality. The company emphasizes sustainability by sourcing ingredients responsibly and offers eco-friendly packaging options. Over the years, Tubbees has gained popularity among fragrance enthusiasts looking for original and tailored olfactory experiences.",https://images.unsplash.com/photo-15907369626-6c63ac16f3df?w=400&h=300&fit=crop,www.tubbees.com,United States,2020,indie,support@tubbees.com,,,2025-07-18T12:32:10.942225,2025-08-29T14:55:24.511902
cmde6f1e01f699b48ce37a4,Tufi Duek,"Tufi Duek is a Brazilian fashion brand established by designer Tufi Duek, widely recognized for its innovative approach to haute couture. Originally gaining recognition for its women's clothing, the brand has expanded into the perfume industry, launching a range of fragrances that embody luxury and modern elegance. Tufi Duek’s perfumes often reflect the aesthetics of his fashion collections, characterized by bold design elements and high-quality ingredients. The brand appeals to a sophisticated clientele that values artistry and tradition in both fashion and fragrance.",https://d1dme4v324s2gt.cloudfront.net/Custom/Content/Themes/tufiduek/Imagens/dot.gif,https://www.tufiduek.com.br,Brazil,1983,designer,,,,2025-07-18T12:32:10.942225,2025-08-29T14:55:32.970477
cmdb48a8af7a4aa024ab32d,Tujoué,"Tujoué is a niche perfume company that specializes in creating exclusive fragrances inspired by the art of perfumery and the unique stories behind different scents. Founded by a group of passionate perfumers, Tujoué aims to offer artisanal scents that reflect individuality and personal expression. Each fragrance is crafted with a meticulous attention to detail, utilizing high-quality ingredients sourced globally, and often features limited editions that enhance the brand's exclusivity. The company emphasizes the emotional connection between scent and memory, crafting olfactory experiences that resonate with their customers' personal narratives.",https://www.tujoue.com/cdn/shop/files/BLACK_LOGO_180x.png?v=1647306972,www.tujoue.com,France,2019,niche,contact@tujoue.com,,,2025-07-18T12:32:10.942225,2025-08-29T14:55:39.872953
cmd18c3efd73528783a4348,Tulip,"Tulip is a niche perfume company that focuses on creating unique and high-quality fragrances inspired by the beauty of nature, particularly the essence of flowers. The brand is known for its artisanal approach, blending traditional perfume-making techniques with modern innovations to produce distinctive scents that tell a story. Tulip aims to evoke emotions and memories through its carefully crafted perfumes, appealing to consumers who seek personalization and exclusivity in their fragrance choices.",https://images.unsplash.com/photo-15907369626-6c63ac16f3df?w=400&h=300&fit=crop,www.tulipfragrances.com,United States,2015,niche,contact@tulipfragrances.com,,,2025-07-18T12:32:10.942225,2025-08-29T14:55:46.159337
cmd5135da480412f9fcc6ca,Tulisa,"Tulisa is a fragrance brand founded by the British singer and songwriter Tulisa Contostavlos. The company focuses on creating signature scents that reflect the personality and style of its founder. Tulisa offers a range of perfumes that appeal to a youthful audience and often feature vibrant, energetic notes that resonate with her music and public persona. The brand aims to empower individuals to express themselves through fragrance while also connecting emotionally with their consumers.",https://images.unsplash.com/photo-1582735689369-4fe89db7114c?w=400&h=300&fit=crop,,United Kingdom,2012,celebrity,,,,2025-07-18T12:32:10.942225,2025-08-29T14:55:51.720833
cmd7a0d5f3f6c3ab6674921,Tumi,"Tumi is a renowned brand primarily recognized for its premium luggage and travel accessories, including wallets and bags. The company has expanded its product line to include a range of fragrances, which align with its luxury status. Tumi fragrances encapsulate the essence of modern travel and sophistication, blending elements that appeal to a discerning clientele. Established to elevate the travel experience, Tumi's story is built on innovation, quality craftsmanship, and a commitment to creating products that enhance the journey of life.",https://images.unsplash.com/photo-1556909114-f6e7ad7d3136?w=400&h=300&fit=crop,https://www.tumi.com,United States,1975,designer,,,,2025-07-18T12:32:10.942225,2025-08-29T14:55:58.045011
cmd65e31b22ceb324e745f2,Turnbull & Asser,"Turnbull & Asser is a British luxury clothing and accessories retailer, best known for its finely crafted shirts and bespoke tailoring. Established in 1885, the company has built a strong reputation for quality and elegance, appealing to discerning customers. Turnbull & Asser is also involved in creating bespoke fragrances that reflect its heritage, combining traditional craftsmanship with sophisticated design. The brand has a history of catering to high-profile clients, including members of the British royal family.",https://turnbullandasser.com/cdn/shop/t/360/assets/ta_logo_mobile.png?v=89107762790389584501756369225,https://www.turnbullandasser.com,United Kingdom,1885,designer,,,"71-72 Jermyn Street, St. James's, London SW1Y 6PJ, United Kingdom",2025-07-18T12:32:10.942225,2025-08-29T14:56:06.895082
cmde946b09f1d66bf0cfa67,Tussy,"Tussy is a renowned perfume and deodorant brand that initially gained popularity in the mid-20th century for its innovative approach to fragrance, particularly targeted towards women. The brand is known for its classic scents and has a unique history, focusing on both personal care and the art of scent formulation. Tussy's specialty lies in providing a range of products that combine quality fragrances with effective deodorization, appealing to consumers looking for reliable daily scents.",https://images.unsplash.com/photo-1541643600914-78b084683601?w=400&h=300&fit=crop,,United States,1925,drugstore,,,,2025-07-18T12:32:10.942225,2025-08-29T14:56:13.599475
cmda3c648aa922b0d155bc1,Tuttotondo,"Tuttotondo is an Italian perfume and personal care company that specializes in creating high-quality, artisanal fragrances inspired by the regions and traditions of Italy. Founded in 2008, the brand combines natural ingredients with a focus on sustainability and craftsmanship, offering a range of products including perfumes, body care, and home fragrances. Tuttotondo emphasizes a connection to Italian culture and geography, aiming to capture the essence of Italy in their unique scent profiles.",https://images.unsplash.com/photo-1556909114-f6e7ad7d3136?w=400&h=300&fit=crop,https://www.tuttotondo.com,Italy,2008,niche,,,,2025-07-18T12:32:10.942225,2025-08-29T14:56:21.342532
cmdc8f9cafe4f48837cf0b7,Tuvache,"Tuvache is a perfume company known for its eclectic range of fragrance offerings. Founded by the Tuvache family, the brand has a rich history that dates back to its early days in the perfume industry. They are celebrated for their creative and artistic approach to fragrance creation, emphasizing quality ingredients and unique scent combinations. Tuvache specializes in producing both classic and contemporary perfumery that resonates with those seeking distinctive and memorable scents.",https://images.unsplash.com/photo-1582735689369-4fe89db7114c?w=400&h=300&fit=crop,http://www.tuvache.com,United States,1940,niche,,,"2301 West 120th Avenue, Westminster, Colorado, 80234, USA",2025-07-18T12:32:10.942225,2025-08-29T14:56:29.473606
cmd48ba4d544c0068c16e32,Tuxberg,"Tuxberg is a niche perfume company known for its artisanal approach to fragrance creation. Established by a group of perfumers with a passion for artistry and innovation, the brand focuses on crafting unique scents that tell a story and evoke emotions. Their specialty lies in using high-quality, sustainably sourced ingredients to produce olfactory compositions that are both memorable and luxurious. The company emphasizes personalization, offering bespoke fragrance services that allow clients to create their own signature scents. Tuxberg aims to challenge the mainstream perfume industry by providing thoughtful and creative alternatives that cater to discerning consumers.",https://images.unsplash.com/photo-15907369626-6c63ac16f3df?w=400&h=300&fit=crop,https://www.tuxbergperfumes.com,Netherlands,2015,niche,contact@tuxbergperfumes.com,,,2025-07-18T12:32:10.942225,2025-08-29T14:56:36.317003
cmd1683fc58ddb0ead7d79f,Twenty20 Cricket Company,"Twenty20 Cricket Company is a brand that merges the passion for cricket with fragrance. They specialize in creating perfumes that embody the energy and excitement of the sport, targeting cricket enthusiasts and fans. The company aims to celebrate the spirit of cricket through unique scent profiles, empowering individuals to express their love for the game in a distinctive way. Their story is rooted in the connection between fragrance and personal identity, making cricket a central theme in the olfactory experience they offer.",https://images.unsplash.com/photo-15907369626-6c63ac16f3df?w=400&h=300&fit=crop,,,,indie,,,,2025-07-18T12:32:10.942225,2025-08-29T14:56:43.636074
cmd4418e16ddb0cf4ead130,Twenty4Tim,"Twenty4Tim is a fragrance brand that specializes in the creation of unique and diverse perfumes. It aims to capture the essence of modern lifestyles and personal expression through its scent offerings. The company has gained recognition for its distinctive scents and commitment to quality, appealing to a contemporary audience seeking individuality in their fragrance choices.",https://images.unsplash.com/photo-1587017539504-67cfbddac569?w=400&h=300&fit=crop,www.twenty4tim.com,United States,2022,indie,contact@twenty4tim.com,,,2025-07-18T12:32:10.942225,2025-08-29T14:56:49.984801
cmdc22f9d33bdcb902e62fa,Twiggy,"Twiggy is a perfume company inspired by the iconic British model and cultural icon, Twiggy Lawson. The brand focuses on creating unique, youthful fragrances that capture the essence of the 1960s and appeal to a modern audience. Twiggy's perfumes often feature light, floral, and fruit notes, reflecting her vibrant personality and style. The company aims to evoke nostalgia while also appealing to a new generation of fragrance lovers.",https://images.unsplash.com/photo-1541643600914-78b084683601?w=400&h=300&fit=crop,www.twiggypersonalcare.com,United Kingdom,2004,niche,,,,2025-07-18T12:32:10.942225,2025-08-29T14:56:56.813421
cmd7841258638f8809d1648,Twilight Beauty,"Twilight Beauty is a perfume and cosmetics company that focuses on creating enchanting and whimsical fragrances that capture the essence of dusk and twilight. Founded by a visionary team passionate about beauty and innovation, the company emphasizes the use of unique and high-quality ingredients to craft their signature scents. Specializing in thematic and seasonal collections, Twilight Beauty aims to evoke emotion and nostalgia through its captivating perfumes and beauty products.",https://static.HugeDomains.com/images/hdv3-img/hd-header-logo-v3.svg,https://twilightbeauty.com,United States,2011,indie,,,,2025-07-18T12:32:10.942225,2025-08-29T14:57:05.384244
cmdd244690ffdc803e47dfb,Twinkle Apothecary,"Twinkle Apothecary is a small-batch, artisan perfume company that focuses on creating natural, cruelty-free fragrances and scented products. Established with a passion for organic ingredients, they emphasize the use of pure essential oils and botanical elements in their formulations. Founded by a dedicated artisan, Twinkle Apothecary aims to provide eco-friendly products that are both comforting and uplifting, ensuring that their scents positively impact the well-being of users while championing sustainability and health.",https://twinkleapothecary.com/cdn/shop/files/twinkleapothecary_test_1.png?height=100&v=1748623178,https://www.twinkleapothecary.com,United States,2015,indie,hello@twinkleapothecary.com,,,2025-07-18T12:32:10.942225,2025-08-29T14:57:15.373608
cmd5a78a0c222093ef92ae3,Twisted Lily,"Twisted Lily is a niche perfume retailer based in Brooklyn, New York, specializing in offering a curated selection of unique and high-quality fragrances from both well-known and independent perfumers. Founded by a passionate team of fragrance enthusiasts, Twisted Lily aims to provide a sensory experience that goes beyond the usual mainstream perfumes. Their expertise in scent allows them to present fragrances that tell stories and evoke emotions, making the shopping experience both personal and engaging. Their specialty lies in showcasing artisanal and hard-to-find scents that cater to diverse preferences, promoting individuality in fragrance choices.",https://twistedlily.com/cdn/shop/files/Website_Logo_-_New_600x.png?v=1668634139,https://twistedlily.com,United States,2013,niche,,,"134 Grand Street, Brooklyn, NY 11249, United States",2025-07-18T12:32:10.942225,2025-08-29T14:57:24.840366
cmd3017be2592e6bba877e4,Twisted Soul,"Twisted Soul is a contemporary fragrance company that focuses on crafting unique, artistic scents inspired by diverse narratives and experiences. Their approach to perfumery combines traditional techniques with modern aesthetics, often resulting in bold and unconventional fragrance compositions. The brand aims to evoke emotional connections and storytelling through scent, making it stand out in the crowded fragrance market.",https://images.unsplash.com/photo-1587017539504-67cfbddac569?w=400&h=300&fit=crop,https://www.twistedsoul.com,United States,2021,niche,,,,2025-07-18T12:32:10.942225,2025-08-29T14:57:32.050892
cmd1f0bfc0007265fca7a79,Tyson Fury,"Tyson Fury is a fragrance brand launched by the well-known British professional boxer, Tyson Fury. The company aims to channel Fury's larger-than-life personality and appeal into a range of signature scents that resonate with fans and consumers alike. The brand reflects a mix of boldness and charisma, with products designed to provide a personal statement for those who wear them. The fragrances are marketed as embodying the spirit and strength that Tyson Fury represents in his boxing career and personal life.",https://images.unsplash.com/photo-15907369626-6c63ac16f3df?w=400&h=300&fit=crop,https://www.tysonfuryfragrance.com,United Kingdom,2021,celebrity,,,,2025-07-18T12:32:10.942225,2025-08-29T14:57:38.720392
cmd78a03d5a4418970e7ea2,The Wertheimer Brothers,"The Wertheimer Brothers is a prominent entity in the perfume industry, known for its ownership of the iconic Chanel perfume line, particularly famous for fragrances like Chanel No. 5. The company is run by brothers Alain and Gerard Wertheimer, who are grandsons of one of the founders of the fashion house. They have played an influential role in maintaining the luxury and heritage aspects of the brand while also expanding its fragrance offerings. The Wertheimer Brothers prioritizes quality and exclusivity in their products, leveraging the historical legacy of Chanel.",https://images.unsplash.com/photo-1582735689369-4fe89db7114c?w=400&h=300&fit=crop,https://www.chanel.com,France,1924,designer,,,"135 Avenue Charles de Gaulle, 92200 Neuilly-sur-Seine, France",2025-07-18T12:32:10.942225,2025-08-29T14:57:55.873173
cmdc248da3450f70a950cf6,United Colors of Benetton,,https://www.benetton.com/on/demandware.static/Sites-UCB_us-Site/-/default/dw943a5716/maintenance/slogan.png,https://www.benetton.com,Italy,1965,designer,,,,2025-07-18T12:32:10.942225,2025-08-29T14:58:03.628524
cmd155e8e2763ca43a5859e,U Beauty,"U Beauty is a modern skincare and fragrance brand committed to creating high-quality, multifunctional beauty products. Founded on the principle of simplifying beauty routines, U Beauty offers a range of products that combine skin-enhancing technology with luxurious fragrances. Their mission revolves around empowering individuals to feel confident and beautiful while embracing their unique beauty. U Beauty emphasizes clean ingredients and responsible sourcing, making it a favorite among eco-conscious consumers.",https://ubeauty.com/cdn/shop/files/resurfacingcompound50_1.webp?v=1755879773&width=750,https://www.ubeauty.com,United States,2018,indie,,,,2025-07-18T12:32:10.942225,2025-08-29T14:58:12.230929
cmd5520293863137731688e,U.S. Polo Ass'n,"U.S. Polo Ass'n is a brand that encapsulates the spirit of the iconic sport of polo. Established in 1981, it serves as the official brand of the United States Polo Association. The company primarily markets casual wear and accessories, including a diverse range of fragrances. Their perfumes are characterized by fresh, sporty accords and are designed to appeal to active, modern consumers. U.S. Polo Ass'n draws inspiration from the rich heritage and tradition of polo while providing stylish products suitable for everyday wear.",https://uspoloassn.com/cdn/shop/files/uspa-footer-logo-dk-400px_300x.png?v=1676393358,https://www.uspoloassn.com,United States,1981,designer,,,,2025-07-18T12:32:10.942225,2025-08-29T14:58:19.868418
