id,name,description,image,website,country,founded,type,email,phone,address,createdAt,updatedAt
cmd8825c15c874516837ef2,Duran Duran,"Duran Duran is a renowned British band known for their new wave and synth-pop music, which gained immense popularity during the 1980s. As part of their brand expansion, they ventured into the perfume industry, creating signature fragrances that encapsulate the essence of their music and style. The perfumes are aimed at fans and appeal to a luxury market while reflecting the band's artistic identity and innovative spirit.",https://images.unsplash.com/photo-1587017539504-67cfbddac569?w=400&h=300&fit=crop,,United Kingdom,1978,celebrity,,,,2025-07-18T12:32:10.942225,2025-08-28T13:54:28.422204
cmd1d1da64829185d4bdffa,Durance de Provence,"Durance de Provence is a French company specializing in the creation of high-quality home fragrance and personal care products. Established in 1997, they are known for using natural ingredients and traditional craftsmanship. Their offerings include scented candles, diffusers, and body care products, often inspired by the scents of Provence, which reflect the essence of the region's rich heritage and culture. Durance de Provence takes pride in its commitment to creating eco-friendly products with an emphasis on authenticity and tradition.",https://www.durance.com/images/logo.png,https://www.durance.com,France,1997,indie,,,,2025-07-18T12:32:10.942225,2025-08-28T13:54:35.187115
cmd4337dc4a3fdd38a739d2,Durer,"Durer is an innovative perfume company specializing in artisanal, high-quality fragrances. Founded by a team of passionate perfumers, the company aims to create unique scents that evoke emotions and tell stories through fragrant artistry. Durer focuses on using natural and sustainable ingredients, often drawing inspiration from nature and traditional perfumery techniques. Their portfolio includes a range of fragrances that cater to both men and women, with an emphasis on exclusivity and craftsmanship.",https://images.unsplash.com/photo-1556909114-f6e7ad7d3136?w=400&h=300&fit=crop,www.durerparfums.com,France,2015,niche,contact@durerparfums.com,,,2025-07-18T12:32:10.942225,2025-08-28T13:54:41.965750
cmd539d0510f351855d634c,Dutal,"Dutal is a boutique perfume company known for its artisanal approach to fragrance creation. Established with a passion for olfactory art, Dutal specializes in crafting unique, high-quality scents that blend traditional perfumery techniques with modern sensibilities. The company prides itself on using a select range of natural ingredients, aiming to evoke emotions and memories through the power of scent. Their story is rooted in a commitment to quality and creativity, focusing on limited edition releases that appeal to niche fragrance enthusiasts.",https://images.unsplash.com/photo-15907369626-6c63ac16f3df?w=400&h=300&fit=crop,www.dutalperfumes.com,United States,2015,niche,contact@dutalperfumes.com,,"123 Fragrance Lane, Scent City, CA 90001",2025-07-18T12:32:10.942225,2025-08-28T13:54:49.084188
cmd100eab3c75993051378f,Duty Free Cosmetics,"Duty Free Cosmetics is a retailer specializing in the sale of cosmetic and fragrance products within the duty-free sector. The company aims to provide travelers with access to high-quality beauty products at competitive prices, taking advantage of the duty-free shopping experience primarily located in airports and other border locations. They focus on a wide range of renowned perfume brands, catering to both luxury and everyday consumers while delivering an exceptional shopping experience characterized by service and accessibility.",https://images.unsplash.com/photo-1587017539504-67cfbddac569?w=400&h=300&fit=crop,,,,indie,,,,2025-07-18T12:32:10.942225,2025-08-28T13:54:55.253444
cmd34e7617fbd08643c4a79,DuWop,"DuWop is a cosmetics company that specializes in innovative makeup and fragrance solutions. Founded in 1999, the brand gained popularity for its unique approach to beauty products which often blend unconventional concepts with effective results. DuWop is best known for its lip treatments and signature perfumes that cater to a diverse audience looking for distinguishable and high-quality beauty solutions. The company focuses on creating products that enhance individual beauty rather than conforming to trends.",https://images.unsplash.com/photo-15907369626-6c63ac16f3df?w=400&h=300&fit=crop,www.duwop.com,United States,1999,indie,,,,2025-07-18T12:32:10.942225,2025-08-28T13:55:03.542710
cmd495738439744c7e7bb73,DW Home,"DW Home is a lifestyle brand that specializes in creating a variety of home fragrance products, including scented candles, diffusers, and room sprays. Founded in 1996, the company has built a reputation for crafting high-quality, artisanal fragrances that enhance the atmosphere of any space. Their products are often characterized by unique scent combinations and elegant packaging, making them popular choices for both personal use and gifting. DW Home emphasizes the use of natural ingredients and eco-friendly practices in their manufacturing processes, contributing to their appeal in the home fragrance market.",https://www.dwhome.com/cdn/shop/files/DW_FalLCeramics_Desktop_Aug25.gif?crop=center&v=1755899822&width=2560,https://www.dwhome.com,United States,1996,indie,,,,2025-07-18T12:32:10.942225,2025-08-28T13:55:13.002873
cmd6b6d14f92f1df9158485,Dwell212,"Dwell212 is a perfume company known for its innovative and artistically crafted fragrances that reflect the essence of modern living. The brand emphasizes creating scents that evoke emotions and memories, often utilizing high-quality ingredients sourced from around the world. Dwell212 aims to cater to individuals seeking unique and personal olfactory experiences, setting itself apart with a commitment to sustainability and eco-friendly practices. Their story is rooted in a passion for perfumery that combines both tradition and contemporary sensibilities, appealing to a diverse clientele.",https://dwell212.com/cdn/shop/files/Dwell_Logo_White_98b3a275-6c99-4f70-8990-eeb29cbd1917.png?v=1721335113&width=600,http://dwell212.com,United States,,indie,,,,2025-07-18T12:32:10.942225,2025-08-28T13:55:21.796750
cmd8316571fc3cad8e0ddcf,Dzintars,,https://dzintars.lv/wp-content/uploads/2024/02/Vector.svg,https://www.dzintars.lv,Latvia,1849,indie,,,,2025-07-18T12:32:10.942225,2025-08-28T13:55:31.630929
cmdd65d305ff21191ad1012,dsm-Firmenich,"dsm-Firmenich is a leading global company specializing in the creation of fragrance and flavor solutions. The company is the result of a merger between DSM (Dutch State Mines) and Firmenich, a Swiss company known for its expertise in fragrance and flavor development. dsm-Firmenich focuses on combining innovation with sustainability to create high-quality sensory experiences in various consumer products, including perfumes, cosmetics, and food & beverage. With a rich heritage and a commitment to sustainability, the company is dedicated to enhancing people's lives through sensory experiences while minimizing environmental impact.",https://www.dsm-firmenich.com/content/dam/dsm-firmenich/logos/logo-white.svg,https://www.dsm-firmenich.com,Switzerland,2022 (merger of DSM and Firmenich),niche,,,,2025-07-18T12:32:10.942225,2025-08-28T13:55:38.861362
cmd7ad32359cc826a650319,Dusita,"Dusita is a niche perfume house founded by Pissara Umavijani, known for its exquisite craftsmanship and dedication to blending traditional perfume-making techniques with Thai cultural elements. The brand aims to evoke emotions and memories through its fragrances, often inspired by literature and poetry. Each scent is carefully crafted using high-quality ingredients, showcasing both artistic vision and a deep connection to nature. Dusita has gained recognition within the luxury fragrance community for its unique olfactory stories and artistic presentation.",https://images.unsplash.com/photo-1582735689369-4fe89db7114c?w=400&h=300&fit=crop,https://www.dusitaperfumes.com,Thailand,2016,niche,,,,2025-07-18T12:32:10.942225,2025-08-28T13:55:47.765108
cmd5e0086a594c3d05865c6,Designer Shaik,"Designer Shaik is a luxury perfume house that specializes in creating high-quality fragrances inspired by the opulence of Middle Eastern culture. Founded in the United Arab Emirates, the brand aims to blend traditional Arabian scents with modern perfumery techniques. Their perfumes are often characterized by rich, deep notes, showcasing a lavish interpretation of fragrance artistry. Designer Shaik has gained recognition for its unique and bold compositions, catering primarily to customers seeking distinctive and extravagant olfactory experiences.",https://designershaik.com/cdn/shop/files/3_320x.png?v=1678978692,http://www.designershaik.com,United Arab Emirates,2000,niche,,,,2025-07-18T12:32:10.942225,2025-08-28T13:55:55.317408
cmdd61e0e12a602685a37fd,Ōdeaur,"Ōdeaur is a niche perfume company that specializes in crafting unique, high-quality fragrances that often draw inspiration from diverse cultural elements and modern artistry. Established with a vision to redefine personal expression through scent, Ōdeaur emphasizes the artisanal approach to creating perfumes that are both sophisticated and accessible. The brand aims to appeal to a discerning clientele that seeks personalized and evocative olfactory experiences, standing out in a competitive market with its signature blends and innovative scent formulations.",https://images.unsplash.com/photo-1556909114-f6e7ad7d3136?w=400&h=300&fit=crop,https://odeaur.com,United States,2019,niche,contact@odeaur.com,,,2025-07-18T12:32:10.942225,2025-08-28T13:56:02.695377
cmd011a96e797b2cb16a30d,EDITh,"EDITh is a niche perfume company known for its artisanal and handcrafted fragrances, emphasizing individuality and personal expression through scent. The brand focuses on creating unique olfactory experiences by using high-quality natural ingredients and innovative scent compositions that reflect modern lifestyles. Founded by a team of dedicated perfumers, EDITh aims to redefine the way consumers interact with perfumes, encouraging them to explore and discover their personal scent journeys.",https://images.unsplash.com/photo-1587017539504-67cfbddac569?w=400&h=300&fit=crop,www.edithparfums.com,France,2021,niche,contact@edithparfums.com,,,2025-07-18T12:32:10.942225,2025-08-28T13:56:08.782502
cmd29bfe1ff7fc40dd7008b,ÉDIT(h),"ÉDIT(h) is a niche perfume house that specializes in creating distinctive and artisanal fragrances. The company focuses on crafting unique, high-quality scents that evoke emotions and tell stories through their compositions. ÉDIT(h) emphasizes the use of rare ingredients and innovative olfactory structures, positioning itself as a brand that celebrates individuality and sophisticated perfumery.",https://images.unsplash.com/photo-1582735689369-4fe89db7114c?w=400&h=300&fit=crop,https://www.edit-h.com,France,2017,niche,contact@edit-h.com,,,2025-07-18T12:32:10.942225,2025-08-28T13:56:34.565187
cmd6e13416c80af86a72fcb,Édouard Matisse,"Édouard Matisse is a niche perfume house known for its artistic approach to fragrance creation. Established by a group of fragrance enthusiasts who share a passion for art and olfactory experiences, the company draws inspiration from various art movements and cultural narratives, translating them into unique scents. Their specialty lies in crafting high-quality, avant-garde perfumes that resonate with artistic themes and provide a distinctive fragrance experience.",https://images.unsplash.com/photo-15907369626-6c63ac16f3df?w=400&h=300&fit=crop,http://www.edouardmatisse.com,France,2020,niche,,,,2025-07-18T12:32:10.942225,2025-08-28T13:56:41.592986
cmd5ff1fe896a253e45e8ce,Elida Fabergé,"Elida Fabergé is a fragrance company known for its heritage and connection to the iconic Fabergé brand. The company specializes in creating luxury perfumes that reflect a rich sense of artistry and craftsmanship, drawing on the history of the famous egg designs and the opulence associated with the Fabergé name. Elida Fabergé has a unique approach to fragrance development, often incorporating elements of nature and high-quality ingredients to create captivating olfactory experiences. Their story is intertwined with the legacy of Peter Carl Fabergé, who established his reputation in the late 19th century for exquisite craftsmanship, which is emulated in their perfume offerings.",https://www.faberge.com/cdn/shop/files/Ruby_Swatch_Icon_3822295b-b28f-4284-aa65-8518e0295802.jpg?v=1718103281&width=50,https://www.faberge.com,United Kingdom,2000,niche,,,,2025-07-18T12:32:10.942225,2025-08-28T13:56:48.953115
cmd9d25c767cb2eef2db468,Élixir Privé,"Élixir Privé is a niche perfume house that specializes in creating bespoke, artisanal fragrances. Founded on the principle of individuality, the company focuses on crafting unique scents that tell a story through their ingredients and blends. The brand prides itself on using high-quality materials and traditional perfumery techniques to deliver exclusive olfactory experiences to consumers.",https://images.unsplash.com/photo-15907369626-6c63ac16f3df?w=400&h=300&fit=crop,,,,niche,,,,2025-07-18T12:32:10.942225,2025-08-28T13:56:54.251120
cmdb27d0fe4b1c7310554ea,Ego,"Ego is a perfume company that specializes in creating unique, high-quality fragrances that evoke emotions and memories. The company prides itself on using premium ingredients sourced from around the world to ensure a luxurious scent experience. Ego was founded with a vision to challenge the mainstream fragrance market by offering artisanal and distinctive scents that cater to individual preferences. The brand has carved a niche for itself through innovative marketing strategies and collaborations with well-known artists, leading to a passionate customer base that appreciates the artistry of perfumery.",https://images.unsplash.com/photo-1541643600914-78b084683601?w=400&h=300&fit=crop,www.egoparfums.com,Italy,2018,niche,contact@egoparfums.com,,"Via dei Martiri 12, 10124 Torino, Italy",2025-07-18T12:32:10.942225,2025-08-28T13:57:03.557435
cmddaf771c82aefe0da11e4,Eilish,"Eilish is a fragrance line created by American singer-songwriter Billie Eilish that reflects her personal style and emotional expression. Launched in November 2021, the brand showcases a unique scent that blends notes of warm vanilla, soft spices, and rich fruits, embodying Eilish's distinctive aesthetic. The company emphasizes sustainability and inclusivity, aiming to resonate with a broad audience while offering a personal and intimate fragrance experience. Eilish aims to redefine celebrity fragrances by focusing on authentic connections with fans through their scents.",https://images.unsplash.com/photo-1582735689369-4fe89db7114c?w=400&h=300&fit=crop,https://www.billeilish.com/fragrance,United States,2021,celebrity,,,,2025-07-18T12:32:10.942225,2025-08-28T13:57:14.442526
cmde641981134567632b5dc,Eau de Boujee,"Eau de Boujee is a contemporary perfume company known for its luxurious and eclectic fragrance offerings. The brand focuses on creating unique scent profiles that resonate with modern, urban consumers who appreciate artistry in perfumery. Established as a response to the traditional fragrance market, Eau de Boujee prides itself on using high-quality ingredients and promoting an inclusive, diverse approach to scent. Their story is rooted in the desire to empower individuals through personal expression, offering a range of perfumes that cater to various tastes and preferences.",https://eaudeboujee.com/cdn/shop/files/EauDeBoujee-Logo-white_300x300.png?v=1728468867,www.eaudeboujee.com,United States,2021,indie,contact@eaudeboujee.com,,,2025-07-18T12:32:10.942225,2025-08-28T13:57:21.455217
cmdcf253d025920ca13ec63,Eau de Juice,"Eau de Juice is a fragrance brand known for its playful and youthful approach to scents. Launched in 2019, it was created with a strong focus on celebrating individuality and self-expression. The company offers a range of fruity and floral fragrances, aimed primarily at a younger audience. Eau de Juice is characterized by its vibrant packaging, which often features bold colors and cheeky names, resonating with a fun and modern aesthetic. The brand positions itself as an accessible and light-hearted choice within the fragrance market.",https://images.unsplash.com/photo-15907369626-6c63ac16f3df?w=400&h=300&fit=crop,https://www.eaudejuice.com,United States,2019,indie,,,,2025-07-18T12:32:10.942225,2025-08-28T13:57:28.464726
cmd5e5f5c64c575f6ddf402,Eau de Couvent,"Eau de Couvent is a luxury perfume brand that specializes in creating high-quality, artisanal fragrances inspired by the rich history and heritage of the art of perfumery. Founded by a group of perfumers and enthusiasts passionate about the intricate craft of fragrance-making, Eau de Couvent captures the essence of elegance and sophistication through its unique scent compositions. The brand is known for its luxurious packaging and commitment to natural ingredients, making every scent a masterpiece that evokes emotion and memory.",https://images.unsplash.com/photo-1582735689369-4fe89db7114c?w=400&h=300&fit=crop,https://www.eaude-couvent.com,France,2013,niche,,,,2025-07-18T12:32:10.942225,2025-08-28T13:57:34.661771
cmda937f066abe4d3aeee57,E. Coudray,"E. Coudray is a historic fragrance house that originated in France in the 19th century. Founded by Édouard Coudray, the company specializes in creating luxurious perfumes and scented products. Coudray is known for blending traditional French craftsmanship with an artisanal approach to fragrance development, resulting in elegant and sophisticated scents. The brand focuses on high-quality materials and time-honored techniques to deliver unique aromatic experiences. Over the years, E. Coudray has expanded its product line to include scented body care items and home fragrances, while maintaining its classic heritage.",https://images.unsplash.com/photo-15907369626-6c63ac16f3df?w=400&h=300&fit=crop,https://www.ecoudray.com,France,1825,niche,,,,2025-07-18T12:32:10.942225,2025-08-28T13:57:40.871737
cmdac93bfcb92ab45aea778,E. Marinella,"E. Marinella is an esteemed Italian company known for its luxurious ties and elegant accessories. Founded in Naples in 1914, the company has a rich heritage that embodies sophistication and Italian craftsmanship. While primarily recognized for textile products, E. Marinella has expanded into the realm of fragrances, creating signature perfumes that reflect the essence of Italian style and luxury. Their scent creations often draw inspiration from the vibrant culture and landscapes of Italy, making them unique in the fragrance market.",https://www.emarinella.eu/cdn/shop/files/marinella-logo-light.svg?v=1699972330&width=150,https://www.emarinella.com,Italy,1914,niche,,,,2025-07-18T12:32:10.942225,2025-08-28T13:57:49.536995
cmd893376f054e1a0106148,e-suitcase,"e-suitcase is a contemporary perfume company that specializes in the development and distribution of travel-friendly fragrance solutions. The company is known for its innovative approach to packaging and scents, offering refillable and portable options for fragrance lovers who are often on the move. Founded with a vision to merge practicality with luxury, e-suitcase curates a selection of unique scents for various occasions, making perfume accessible and convenient for everyone.",https://images.unsplash.com/photo-1582735689369-4fe89db7114c?w=400&h=300&fit=crop,,,,indie,,,,2025-07-18T12:32:10.942225,2025-08-28T13:57:55.178688
cmd1af85e97ffe15d83ae09,E. T. Browne Drug Co,"E. T. Browne Drug Co is a personal care company known for its high-quality, natural products. Established in 1858, the company initially focused on pharmacy products but gained recognition for its herbal formulations. Over the years, E. T. Browne transitioned to specializing in body care essentials and fragrances, with the notable introduction of its famous ""Palmers"" line, which includes a range of cocoa butter products. The brand emphasizes its commitment to sustainability, ethical practices, and the use of high-quality, naturally sourced ingredients in its formulations.",https://images.unsplash.com/photo-1582735689369-4fe89db7114c?w=400&h=300&fit=crop,https://www.etbrowne.com,United States,1858,drugstore,,,,2025-07-18T12:32:10.942225,2025-08-28T13:58:01.603219
cmd67a500e649e55fcde457,E99-EsAns,"E99-EsAns is a pioneering perfume company specializing in the creation of avant-garde fragrances that blend technology with traditional perfumery. Established by a group of passionate perfumers and technologists, E99-EsAns aims to innovate the olfactory experience by utilizing data science to analyze scent preferences and customize fragrances for individual consumers. Their story involves a commitment to sustainability and ethical sourcing of ingredients, focusing on eco-friendly practices to minimize environmental impact while delivering high-quality perfumes.",https://images.unsplash.com/photo-1541643600914-78b084683601?w=400&h=300&fit=crop,https://www.e99-esans.com,United States,2021,indie,contact@e99-esans.com,,,2025-07-18T12:32:10.942225,2025-08-28T13:58:07.771173
cmd3344fc2c1607e1b5c541,Eadward,"Eadward is a luxury perfume company that specializes in creating bespoke and handcrafted fragrances. The brand is known for its artisanal approach that combines traditional techniques with modern creativity, resulting in unique scent profiles tailored to individual preferences. Founded by master perfumers, Eadward emphasizes high-quality ingredients and sustainability, appealing to a discerning clientele that values craftsmanship and exclusivity.",https://images.unsplash.com/photo-1541643600914-78b084683601?w=400&h=300&fit=crop,www.eadwardfragrances.com,United Kingdom,2019,niche,contact@eadwardfragrances.com,,,2025-07-18T12:32:10.942225,2025-08-28T13:58:14.305688
cmdbf0ca28c6d9f9801d524,Eagle Nest Group,"Eagle Nest Group is a global player in the perfume industry, known for its innovative fragrance creations and diverse portfolio. Established with a mission to provide unique scents that evoke emotions and memories, the company focuses on enhancing personal expression through fragrance. Over the years, Eagle Nest Group has developed a reputation for quality and originality, catering to a wide audience with both refined tastes and casual preferences. Their specialty lies in crafting both mainstream and niche fragrances, making them a versatile brand in the competitive market.",https://images.unsplash.com/photo-1582735689369-4fe89db7114c?w=400&h=300&fit=crop,www.eaglenestgroup.com,United States,2002,indie,contact@eaglenestgroup.com,+1-800-555-0199,"123 Fragrance Ave, Suite 200, New York, NY 10001",2025-07-18T12:32:10.942225,2025-08-28T13:58:21.830654
cmd879a21df5ec3a66a4556,Early Modern,"Early Modern is a niche perfume company specializing in the creation of artisanal fragrances inspired by historical periods and themes. Established by a team of perfumers and historians, the brand aims to evoke emotions and stories through scent, offering unique, carefully crafted perfumes that are reminiscent of specific times in history. Their approach combines traditional perfume-making techniques with modern aesthetics, resulting in a collection that appeals to fragrance connoisseurs and those seeking distinctive olfactory experiences.",https://images.unsplash.com/photo-1582735689369-4fe89db7114c?w=400&h=300&fit=crop,www.earlymodernperfumes.com,United States,2017,niche,contact@earlymodernperfumes.com,,,2025-07-18T12:32:10.942225,2025-08-28T13:58:30.934651
cmd6d48c0088c11d303d8b0,Earth Source,"Earth Source is a perfume company dedicated to creating sustainable and eco-friendly fragrance products. Their story began with a mission to combine high-quality ingredients sourced from nature with modern perfumery techniques. Specializing in artisanal scents, Earth Source emphasizes transparency in its ingredient sourcing and production practices, appealing to environmentally conscious consumers.",https://images.unsplash.com/photo-1541643600914-78b084683601?w=400&h=300&fit=crop,www.earthsourcefragrances.com,United States,2015,indie,contact@earthsourcefragrances.com,,,2025-07-18T12:32:10.942225,2025-08-28T13:58:36.572515
cmd1f6ae0527f6b54938de2,Esas,"Esas is a forward-thinking perfume company specializing in high-quality fragrances that blend traditional perfumery techniques with modern sensibilities. Established with a vision to create unique scent experiences, Esas focuses on using natural ingredients and sustainable practices. The company's story began with a passionate founder who sought to honor the artistry of fragrance while making it accessible to a broader audience. Their specialty lies in crafting unisex perfumes that appeal to diverse preferences, often inspired by nature and various cultures.",https://images.unsplash.com/photo-1587017539504-67cfbddac569?w=400&h=300&fit=crop,https://www.esasfragrances.com,United States,2018,indie,contact@esasfragrances.com,,"123 Scent Lane, Perfume City, CA 90210",2025-07-18T12:32:10.942225,2025-08-28T13:58:43.695771
cmdfdbd9f8ef5282d0ef303,EastWest Bottlers,"EastWest Bottlers is a leading fragrance company specializing in the creation and distribution of high-quality perfumes and cosmetic products. The company is known for its innovative approach to fragrance formulation and its commitment to sourcing premium ingredients from around the world. EastWest Bottlers has established a strong presence in the global perfume market, focusing on both niche and mainstream fragrances while catering to a diverse clientele.",https://cdn11.bigcommerce.com/s-a3c0i19vl3/images/stencil/268x269/screen_shot_2019-11-12_at_8.27.02_pm_1573608442__09139.original.png,https://www.eastwestbottlers.com,United States,2005,niche,,,,2025-07-18T12:32:10.942225,2025-08-28T13:58:50.747050
cmd8ca94d99144a50b2f4bc,Eau de Space,"Eau de Space is a unique perfume company that specializes in creating fragrances inspired by the scent of outer space. Launched as a creative endeavor by a team of scientists and perfumers, the brand aimed to bring the unique olfactory experience of space exploration to the terrestrial realm. The concept emerged as part of a NASA initiative to capture the essence of what astronauts have described as the scent of space. Eau de Space's product line focuses on offering an innovative and out-of-this-world fragrance experience that appeals to both perfume aficionados and science enthusiasts alike.",https://eaudespace.com/cdn/shop/files/Eau_de_Space_Logo_Small_x60.png?v=1614313806,www.eaudespace.com,United States,2020,indie,,,,2025-07-18T12:32:10.942225,2025-08-28T13:58:57.984624
cmd3baf48ef3d2874d48c34,Eau d'Italie,"Eau d'Italie is a niche perfume house that captures the essence of the Italian landscape and culture through its fragrances. The company was founded in 2004 and draws inspiration from the natural beauty and rich history of Italy, crafting scents that evoke memories and experiences. Their specialty lies in creating unique, artisanal perfumes that reflect the charm of Italian life, often using high-quality ingredients and traditional techniques. Eau d'Italie has built a reputation for its dedication to craftsmanship and storytelling through scent, offering a range of perfumes that appeal to discerning customers looking for something beyond mainstream offerings.",https://eauditalie.com/cdn/shop/files/logo_black_110x.png?v=1656272607,https://www.eauditalie.com,Italy,2004,niche,,,,2025-07-18T12:32:10.942225,2025-08-28T13:59:06.058912
cmd5b8e90220d982ec863f2,Eau Jeune,"Eau Jeune is a French perfume company that specializes in creating youthful and vibrant fragrances. Established in the late 1980s, the brand aims to provide affordable, trendy perfumes targeting a younger audience. Their offerings are known for being energetic and playful, often packaged in bright, eye-catching designs that reflect the spirit of youth. Eau Jeune emphasizes creativity in its scent compositions, often drawing inspiration from pop culture and contemporary themes.",https://images.unsplash.com/photo-1541643600914-78b084683601?w=400&h=300&fit=crop,https://eaujeune.com,France,1989,drugstore,,,,2025-07-18T12:32:10.942225,2025-08-28T13:59:12.613187
cmd4d4694ea6396455b41cb,EAU.MG,"EAU.MG is a contemporary perfume company that specializes in creating high-quality, unique fragrances, often with a focus on sustainable and eco-friendly practices. The brand emphasizes a minimalist aesthetic and aims to offer a personalized scent experience. EAU.MG believes in the art of perfumery and often collaborates with artisans to craft their scents, ensuring attention to detail and originality.",https://images.unsplash.com/photo-1587017539504-67cfbddac569?w=400&h=300&fit=crop,https://eau.mg,United States,2020,indie,,,,2025-07-18T12:32:10.942225,2025-08-28T13:59:18.713508
cmd7e61b53ae5056d9f97fb,Eauk,"Eauk is a luxury fragrance brand that emphasizes a unique, artistic approach to perfumery. Founded on the philosophy of celebrating the beauty in individuality, Eauk's creations often feature bold and unconventional scent profiles, drawing inspiration from nature and personal experiences. Their story began with a deep passion for scent and a commitment to sustainability, with a focus on using high-quality, ethically-sourced ingredients. The company aims to craft fragrances that not only smell exquisite but also evoke emotions and memories.",https://images.unsplash.com/photo-1582735689369-4fe89db7114c?w=400&h=300&fit=crop,https://www.eauk.com,United Kingdom,2016,niche,contact@eauk.com,,,2025-07-18T12:32:10.942225,2025-08-28T13:59:25.745633
cmd84d2a146cc05b20a9249,Ebba,"Ebba is a modern perfume company that specializes in creating unique and artistic fragrances inspired by personal stories and emotions. Founded by a team of passionate perfumers and fragrance enthusiasts, Ebba aims to bridge the gap between traditional perfumery and contemporary scent experiences. The company emphasizes individuality and self-expression through their carefully crafted scents, often utilizing sustainable and ethically sourced ingredients. Their approach combines innovation with artisanal techniques, catering to a growing audience seeking niche and distinctive fragrances.",https://images.unsplash.com/photo-1582735689369-4fe89db7114c?w=400&h=300&fit=crop,[www.ebba.com](http://www.ebba.com),United States,2015,niche,,,,2025-07-18T12:32:10.942225,2025-08-28T13:59:33.747842
cmdb70eb21c02da165f910b,Eclectic Collections,"Eclectic Collections is a niche perfume company known for creating artisanal fragrances that blend unique ingredients and storytelling. Founded by a passionate group of fragrance artisans, the brand aims to celebrate individuality and diversity through scent, producing limited-edition and elevated perfumes that reflect a broad spectrum of influences and cultures. Their offerings are characterized by creative compositions and a focus on high-quality ingredients, often inspired by various artistic and cultural themes.",https://static.hugedomains.com/images/hdv3-img/hd-header-logo-v3.svg,https://www.eclecticcollections.com,United States,2018,niche,contact@eclecticcollections.com,,"1234 Fragrance Lane, Scent City, CA 90210, USA",2025-07-18T12:32:10.942225,2025-08-28T13:59:41.156992
cmd35b28cdd5f4beba031fc,Ed Hardy,"Ed Hardy is a fragrance brand that emerged from the iconic designs of tattoo artist Don Ed Hardy. The brand epitomizes a fusion of art and fashion, specializing in perfumes that reflect edgy and vibrant aesthetics inspired by Hardy's tattoo artwork. Originally gaining popularity in the early 2000s, Ed Hardy perfumes complement a lifestyle brand that encompasses clothing, accessories, and other merchandise. The brand appeals primarily to a youthful demographic and is known for its bold scents and innovative packaging that mirror its artistic roots.",https://images.unsplash.com/photo-15907369626-6c63ac16f3df?w=400&h=300&fit=crop,https://www.edhardyfragrance.com,United States,2004,designer,,,,2025-07-18T12:32:10.942225,2025-08-28T13:59:47.552976
cmdb5ef492608b448738d2e,Eddie Bauer,"Eddie Bauer is an American outdoor apparel and equipment company known for its high-quality clothing and gear, especially designed for outdoor enthusiasts. Founded by Eddie Bauer in 1920, the company originally focused on sportswear with an emphasis on outdoor activities like hiking, camping, and skiing. Over the years, it has expanded its offerings to include home products and fragrances. Eddie Bauer's specialty includes blending classic American style with functionality, catering to those who appreciate both style and durability in their outdoor apparel and lifestyle products, including a range of perfumes.",https://images.unsplash.com/photo-1587017539504-67cfbddac569?w=400&h=300&fit=crop,https://www.eddiebauer.com,United States,1920,designer,,,,2025-07-18T12:32:10.942225,2025-08-28T13:59:55.237672
cmd7b73c18c2b1b79b68262,Eddy Ford Beverly Hills,"Eddy Ford Beverly Hills is a luxury fragrance brand known for its unique and high-quality perfumes that capture the essence of sophistication and elegance. The company emphasizes craftsmanship, selecting the finest ingredients to create distinct and memorable scents. Founded in the upscale neighborhood of Beverly Hills, the brand's story revolves around blending modern luxury with classic inspirations to craft a fragrance experience that appeals to both men and women. Their specialty lies in offering a diverse range of perfumes that cater to various preferences and occasions, distinguished by their distinctive branding and upscale packaging.",https://images.unsplash.com/photo-1582735689369-4fe89db7114c?w=400&h=300&fit=crop,http://eddyford.com,United States,2017,niche,,,,2025-07-18T12:32:10.942225,2025-08-28T14:00:01.694693
cmd3aa90dd316623b1b9f1b,Eden Classics,"Eden Classics is a fragrance company that specializes in creating a wide range of affordable perfumes for both men and women. The brand focuses on delivering high-quality scents inspired by luxury designer perfumes, offering consumers an accessible alternative. Established with the commitment to making captivating fragrances widely available, Eden Classics has gained popularity for its diverse offerings which cater to various preferences and occasions.",https://images.unsplash.com/photo-1556909114-f6e7ad7d3136?w=400&h=300&fit=crop,,,,drugstore,,,,2025-07-18T12:32:10.942225,2025-08-28T14:00:07.715781
cmdb006cb0acf2c0b11501d,Eden Parfums,,https://eden.carlfeilner.com/wp-content/uploads/sites/10/2022/05/Eden-Parfums-Logo.svg,https://edenparfums.com,United Kingdom,2016,indie,support@edenparfums.com,,,2025-07-18T12:32:10.942225,2025-08-28T14:00:17.682435
cmde679b39cdc1e989f4cec,Eden Park,"Eden Park is a French brand that combines elegance and casual style, primarily known for its men's fashion line, including fragrances. The brand was inspired by the rugby culture, particularly from the famous rugby stadium in New Zealand. Founded in 1987 by Olivier and Franck Mesnel, Eden Park aims to capture a spirit of sophistication influenced by the sports and lifestyle of rugby enthusiasts. Their fragrance line reflects the same principles of style and modernity, appealing to individuals who appreciate refined yet contemporary scents.",https://www.eden-park.com/cdn/shop/files/logo.svg?v=1742891292&width=600,https://www.eden-park.fr/,France,1987,designer,,,,2025-07-18T12:32:10.942225,2025-08-28T14:00:27.875165
cmded170947f8790cdc71d6,Eden Project,"Eden Project is a renowned ecological park located in Cornwall, England, dedicated to educating the public about plants and sustainability. While primarily known for its stunning biodomes housing a variety of global ecosystems, the Eden Project has also ventured into the perfume industry. They create fragrances inspired by the natural environment, emphasizing botanical ingredients and sustainable practices. Their story is rooted in environmental consciousness, and their specialty lies in creating unique aromas that reflect the biodiversity of the plants showcased in the project.",https://www.edenproject.com/sites/default/files/files/domain-logos/EdenProjectNaturalWhite_0_3.svg,https://www.edenproject.com,United Kingdom,2001,indie,,,"Bodelva, Par, Cornwall PL24 2SG, United Kingdom",2025-07-18T12:32:10.942225,2025-08-28T14:00:35.220750
cmd8c8959cacfd85ba0b06b,Edenbridge,"Edenbridge is a niche perfume company known for its artisanal approach to fragrance creation. The brand focuses on crafting unique, high-quality scents that evoke emotional experiences and connections with their users. With a dedication to using natural ingredients and bespoke formulations, Edenbridge has cultivated a reputation for its luxurious and sophisticated offerings in a competitive market. The company prides itself on its refined aesthetics and storytelling in each fragrance, celebrating the art of perfumery through innovative designs and concepts.",https://images.unsplash.com/photo-15907369626-6c63ac16f3df?w=400&h=300&fit=crop,www.edenbridgefragrances.com,United Kingdom,2015,niche,,,,2025-07-18T12:32:10.942225,2025-08-28T14:00:42.180710
cmdd59d9d9ec4fd99e93b91,EDENISTE PARFUMS,"EDENISTE PARFUMS is a niche fragrance house dedicated to creating unique and luxurious perfumes inspired by the natural world. Founded by a team of artisans, the company focuses on craftsmanship and sustainability, using ethically sourced ingredients to create sophisticated scents that evoke a sense of nature and elegance. Their offerings cater to an audience that values quality and artistry in perfumery.",https://images.unsplash.com/photo-15907369626-6c63ac16f3df?w=400&h=300&fit=crop,https://edenisteparfums.com,France,2020,niche,contact@edenisteparfums.com,,,2025-07-18T12:32:10.942225,2025-08-28T14:00:47.624831
cmd8f3bd26047a04e8e914e,Edeniste,"Edeniste is a luxury French fragrance brand that specializes in creating artisanal perfumes using natural ingredients. The company focuses on blending contemporary scent design with the philosophy of wellness and skin benefits, creating fragrances that are not only aromatic but also boost the mood and promote well-being. Founded by the passionate perfumer Rami Mekdachi, Edeniste places an emphasis on the art of perfumery while maintaining a commitment to sustainability and eco-friendly practices. Their philosophy revolves around enhancing personal identity through unique scents that evoke emotions and memories.",https://www.edeniste.com/cdn/shop/files/Untitled_design_4_copy_200x.png?v=1648750420,https://edeniste.com,France,2018,niche,,,,2025-07-18T12:32:10.942225,2025-08-28T14:00:54.511772
cmd6d2cec39bb8e4ee26b23,Edge Beauty,"Edge Beauty is a fragrance company that specializes in creating, developing, and distributing affordable, high-quality perfumes for both consumers and retailers. Established to meet the growing demand for innovative scents in the beauty industry, Edge Beauty has built a reputation for its trendy and accessible fragrances, often collaborating with renowned designers and celebrities to create unique and appealing products. The company’s ethos focuses on delivering value through creativity and market responsiveness, providing a broad range of fragrances that cater to diverse consumer preferences.",https://scentbeauty.com/cdn/shop/files/SB-logo-withouttag-black_4295bf48-dc0e-4226-817a-1ff868576a37.png?v=1674579818&width=500,http://www.edgebeauty.com,United States,2010,drugstore,,,,2025-07-18T12:32:10.942225,2025-08-28T14:01:02.307050
cmd0d0e02727b3f7bf7deaf,Edition Perfumes,"Edition Perfumes is a luxury fragrance house that specializes in creating niche perfumes characterized by their high-quality ingredients and artisanal craftsmanship. The company tells a story of passion for perfumery, often drawing inspiration from unique concepts and artistic expressions. They focus on limited edition releases, allowing for a distinctive, exclusive appeal in the competitive perfume market.",https://images.unsplash.com/photo-1541643600914-78b084683601?w=400&h=300&fit=crop,https://www.editionperfumes.com,United States,2015,niche,,,,2025-07-18T12:32:10.942225,2025-08-28T14:01:09.343047
cmd5893d21ac4cb6b69cdf9,Editions de Parfums Frederic Malle,,https://images.unsplash.com/photo-1541643600914-78b084683601?w=400&h=300&fit=crop,https://www.fredericmalle.com,France,2000,niche,,,,2025-07-18T12:32:10.942225,2025-08-28T14:01:16.440606
cmd1d98f6a0868369362c7c,Éditions M.R,"Éditions M.R is a niche perfume house that specializes in creating unique and artisanal fragrances that reflect a blend of traditional craftsmanship and innovative scent compositions. Founded by a duo with backgrounds in fashion and art, the brand emphasizes the storytelling aspect of its scents, often inspired by literature, travel, and personal experiences. Their offerings range from audacious to subtle notes, and they focus on high-quality ingredients and limited-edition releases, making their perfumes desirable collectors’ items.",https://editionsmr.com/wp-content/plugins/revslider/sr6/assets/assets/dummy.png,https://editionsmr.com/,France,2016,niche,,,,2025-07-18T12:32:10.942225,2025-08-28T14:01:23.488679
cmd37c775ba69978b7dff6d,EDO PYPSH,"EDO PYPSH is a niche perfume company that specializes in creating unique and innovative fragrances. It is known for its artistic approach to scent creation, blending various natural and synthetic ingredients to produce distinctive olfactory experiences. The company emphasizes the story behind each fragrance, often drawing inspiration from cultural themes, art, and personal journeys, thereby offering customers a more personal connection to their products.",https://images.unsplash.com/photo-1556909114-f6e7ad7d3136?w=400&h=300&fit=crop,,,,niche,,,,2025-07-18T12:32:10.942225,2025-08-28T14:01:29.437063
cmd448e74482f9389eda12e,Edward Bess,"Edward Bess is an American luxury perfume and cosmetics brand founded by Edward Bess himself. Known for its sophisticated and elegant fragrances, the brand emphasizes quality ingredients and artisanal craftsmanship. It aims to embody timeless beauty and is recognized for its minimalist aesthetic. Edward Bess first gained attention in the beauty industry with its makeup line and later expanded into fragrance, gaining a reputation for its unique and alluring scents that appeal to a discerning clientele.",https://www.edwardbess.com/cdn/shop/t/99/assets/ico-bag.svg?v=2633928659138565971599870048,http://edwardbess.com,United States,2006,niche,,,,2025-07-18T12:32:10.942225,2025-08-28T14:01:36.296803
cmd941367abf8a195dab6ff,Edwige Fenech,"Edwige Fenech is a French perfume brand renowned for its unique and artistic fragrances that blend traditional and contemporary olfactory elements. The company draws inspiration from the historical and cultural heritage of France, crafting scents that evoke emotions and memories. Edwige Fenech is dedicated to quality and artistry, producing limited edition perfumes that cater to a niche market of fragrance enthusiasts. The brand's story is steeped in elegance and a passion for perfumery, establishing itself as a respected name in the niche segment of the perfume industry.",https://images.unsplash.com/photo-15907369626-6c63ac16f3df?w=400&h=300&fit=crop,,France,2020,niche,,,,2025-07-18T12:32:10.942225,2025-08-28T14:01:43.069918
cmdc4b21d8be556617bb286,Edwin Jagger,"Edwin Jagger is a British company dedicated to producing high-quality grooming products, including shaving supplies, skincare, and fragrances. Established in 1988, Edwin Jagger specializes in traditional wet shaving items and is renowned for its craftsmanship, particularly in creating elegant safety razors and a range of fine grooming accessories. The brand emphasizes sustainability and the use of natural ingredients in its products, appealing to both classic and modern consumers.",https://www.edwinjagger.com/wp-content/uploads/2022/09/Edwin-Jagger-Sheffield-England-logo.webp,https://www.edwinjagger.com,United Kingdom,1988,indie,,,,2025-07-18T12:32:10.942225,2025-08-28T14:01:51.852674
cmd58eb589b5e8ab0528cab,Effrontè et Evocateur,"Effrontè et Evocateur is a niche perfume house that specializes in crafting unique and artistic fragrances. Founded by a group of passionate perfumers, the brand emphasizes the evocative power of scent, drawing inspiration from art, literature, and personal experiences. Their collections often feature intricate compositions, with an aim to challenge conventional olfactory norms and engage the wearer in a sensory narrative. The company is known for its commitment to high-quality ingredients and artisan methods, producing limited edition perfumes that appeal to fragrance enthusiasts and collectors.",https://images.unsplash.com/photo-1582735689369-4fe89db7114c?w=400&h=300&fit=crop,https://www.effronteevocateur.com,France,2018,niche,contact@effronteevocateur.com,,"45 Rue des Petits Champs, 75001 Paris, France",2025-07-18T12:32:10.942225,2025-08-28T14:01:58.997951
cmdcf4ab2fa90025ad600e8,Eglė Jonaitytė Botanical Perfumes,"Eglė Jonaitytė Botanical Perfumes specializes in creating handcrafted, natural perfumes using botanical ingredients. The founder, Eglė Jonaitytė, is passionate about developing unique scent profiles that evoke emotions and memories while being environmentally friendly and sustainable. The brand emphasizes the use of organic and locally sourced materials, aiming to promote both individuality and a connection to nature in their fragrance offerings.",https://images.unsplash.com/photo-15907369626-6c63ac16f3df?w=400&h=300&fit=crop,https://www.eglėjonaitytė.com/,Lithuania,2018,indie,,,,2025-07-18T12:32:10.942225,2025-08-28T14:02:05.529666
cmda897627d437e95441f2d,Ego Facto,"Ego Facto is a niche perfume house known for its unique approach to fragrance creation, blending art and olfactory experience. Founded by a team of passionate perfumers and creatives, Ego Facto seeks to push the boundaries of traditional perfumery by focusing on storytelling and the emotions that scents can evoke. Their collections are often inspired by personal narratives and experiences, leading to compositions that are both artistic and evocative. The brand emphasizes quality, craftsmanship, and a bespoke sensibility, establishing a distinctive identity in the competitive perfume market.","https://static.wixstatic.com/media/1be55c_5f5cf8a69eb84d2cb246fed3d6ec089e~mv2.jpg/v1/fill/w_488,h_488,al_c,q_80,usm_0.66_1.00_0.01,enc_avif,quality_auto/Egofacto%20pyramide.jpg",https://www.egofacto.com,France,2015,niche,contact@egofacto.com,,,2025-07-18T12:32:10.942225,2025-08-28T14:02:13.124256
cmd4d8501515f033d317b2a,Egon von Furstenberg,"Egon von Furstenberg is a niche perfume company known for its unique and artistic fragrance creations. Founded by the designer and perfumer Egon von Furstenberg, the brand combines elements of art, culture, and personal expression in its scent offerings. The company emphasizes high-quality ingredients and craftsmanship, often drawing inspiration from nature and historical references in the development of its fragrances.",http://www.egonvonfurstenberg.com/wp-content/uploads/2019/03/logo_sito.png,http://www.egonvonfurstenberg.com,France,1980,niche,,,,2025-07-18T12:32:10.942225,2025-08-28T14:02:19.658782
cmd66d2737854b710f78d3a,EHP,"EHP, short for Essence House Productions, is a niche fragrance company specializing in crafting high-quality, artisanal perfumes. The company was founded on the principle of creating unique scent experiences that capture the essence of nature and various cultural inspirations. Their commitment to using sustainable ingredients and traditional production methods sets them apart in the perfume industry. EHP has built a loyal customer base by offering limited-edition fragrances that are thoughtfully designed and meticulously crafted, embodying both artistry and innovation.",https://images.unsplash.com/photo-1587017539504-67cfbddac569?w=400&h=300&fit=crop,https://www.ehpfragrances.com,United States,2018,niche,info@ehpfragrances.com,,,2025-07-18T12:32:10.942225,2025-08-28T14:02:26.153199
cmd7a58d80c90b2bcd3d92e,EI Solutions,"EI Solutions is a perfume company specializing in the development of customized fragrances for individuals and businesses. With a focus on providing unique and high-quality scents, the company aims to blend traditional perfumery techniques with modern technology. They cater to a diverse range of clients, offering personalized scent creation, branding solutions for beauty and lifestyle products, and a commitment to sustainability in their ingredient sourcing and packaging.",https://images.unsplash.com/photo-1556909114-f6e7ad7d3136?w=400&h=300&fit=crop,,,,indie,,,,2025-07-18T12:32:10.942225,2025-08-28T14:02:31.912099
cmdde0cc86ca56a9251f4eb,Eight & Bob,"Eight & Bob is a luxury perfume company known for its exclusive fragrances, which have historical ties to the 1930s. The brand was founded by a young French aristocrat, Albert Fouquet, who created distinct and refined scents that gained popularity among elite social circles. The story goes that the company was inspired by a chance meeting with John F. Kennedy, who requested a sample of the fragrance during a trip to Paris. Eight & Bob specializes in niche perfumes, offering limited production batches and unique scents that evoke a sense of sophistication and elegance.",https://eightandbob.com/cdn/shop/files/logo_EB_horizontal.png?v=1747752062&width=1000,https://www.eightandbob.com,France,1937,niche,,,,2025-07-18T12:32:10.942225,2025-08-28T14:02:39.729379
cmda04aa88e85efb1647355,Ein Gedi,"Ein Gedi is a fragrance and skincare company that draws inspiration from the biblical region of Ein Gedi in Israel. The company focuses on creating high-quality perfumes and skincare products that incorporate natural ingredients, with a unique emphasis on the beauty and biodiversity of the region. Their story is deeply rooted in the tradition of aromatic plants found in the Holy Land, and they aim to combine ancient knowledge with modern perfumery techniques to produce distinctive scents that evoke the essence of the landscape.",https://www.eingedi.com/logo/logonew.png,https://www.eingedi.com,Israel,1980,niche,,,,2025-07-18T12:32:10.942225,2025-08-28T14:02:46.731050
cmd6c273aa012e3e4055cda,Eisenberg & Sons,"Eisenberg & Sons is a luxury perfume house known for its high-quality fragrances, which blend artistic creativity with sophisticated craftsmanship. Founded by Joseph Eisenberg, the company emphasizes the use of premium ingredients and unique scent compositions, reflecting the brand's commitment to elegance and exclusivity. The company not only produces fragrances but also emphasizes a holistic approach to beauty, which includes skincare and cosmetics, establishing itself as a multifaceted entity in the luxury cosmetic market.",https://eisenberg.com/cdn/shop/files/1200px-VOGUE_revista_-_logo_300x.png?v=1669062507,https://www.eisenberg.com,France,2000,niche,,,,2025-07-18T12:32:10.942225,2025-08-28T14:02:53.458810
cmdcfdfddb5b1b011c8a8c3,El Cosmico hotel,"El Cosmico Hotel is a unique and eclectic accommodation experience located in Marfa, Texas. While primarily known as a hotel and cultural hub, it also features a selection of artisanal products, including a signature line of perfumes that are inspired by the surrounding desert landscape and the artistic spirit of Marfa. The hotel embodies a blending of bohemian aesthetics and local culture, offering guests a creative space that fosters artistic expression.",https://elcosmico.com/wp-content/uploads/2018/01/highdesertgood.png,https://elcosmico.com,United States,2012,indie,,(432) 729-1950,"802 S Highland Ave, Marfa, TX 79843, United States",2025-07-18T12:32:10.942225,2025-08-28T14:03:00.333856
cmdf34af55ba88f2c4756c6,El Ganso,"El Ganso is a Spanish fashion brand founded in 2004 which originally focused on menswear and was inspired by the lifestyle of British gentlemen. Over time, it has diversified its offerings to include women's clothing, accessories, and fragrances. The company is known for its colorful, playful designs that blend classic styles with contemporary influences. El Ganso aims to provide high-quality products while embodying a fun and vibrant aesthetic, making them a popular choice among fashion enthusiasts in Europe.",https://images.unsplash.com/photo-1582735689369-4fe89db7114c?w=400&h=300&fit=crop,https://www.elganso.com,Spain,2004,indie,,,,2025-07-18T12:32:10.942225,2025-08-28T14:03:07.557882
cmd18bf7079c1a2a8f09530,Electimuss,"Electimuss is a niche perfume company that specializes in crafting high-quality, bespoke fragrances. Founded by a team of passionate perfume enthusiasts, Electimuss combines traditional perfumery techniques with modern creativity, producing limited-edition scents that reflect luxury and individuality. Their exquisite formulations often draw inspiration from historical elements and cultural heritage, appealing to a clientele that seeks uniqueness and sophistication in fragrance.",https://www.electimuss.com/cdn/shop/files/Electimuss-logo-purple_7038dad6-0f9f-4e93-92a7-10eb7e3af299.webp?v=1706636687&width=362,https://www.electimuss.com,United Kingdom,2018,niche,,,,2025-07-18T12:32:10.942225,2025-08-28T14:03:14.242065
cmd51d0a7e1922004abfd27,Elegantes,"Elegantes is a perfume company that specializes in creating high-quality fragrances inspired by elegance and sophistication. The company prides itself on crafting unique scent experiences that evoke emotions and memories. Established to meet the demand for luxurious yet accessible perfumes, Elegantes combines traditional perfume-making techniques with modern aesthetics to produce memorable fragrances for diverse clientele.",https://images.unsplash.com/photo-1541643600914-78b084683601?w=400&h=300&fit=crop,www.elegantesparfums.com,France,2010,niche,info@elegantesparfums.com,+33 1 23 45 67 89,"42 Avenue des Champs-Élysées, 75008 Paris, France",2025-07-18T12:32:10.942225,2025-08-28T14:03:20.657959
cmd9aec4f60b6ffb7ab25a9,Elem,"Elem is a prominent skincare and wellness brand that focuses on the benefits of therapeutic aromas along with natural fragrances. They aim to innovate in the scent industry by integrating wellness practices with their products, creating fragrances that evoke emotional and physical benefits. Their product line often combines essential oils and natural ingredients, catering to those who seek both fragrance and well-being in their everyday routines.",https://images.unsplash.com/photo-1541643600914-78b084683601?w=400&h=300&fit=crop,https://www.elemis.com,United Kingdom,1996,indie,,,,2025-07-18T12:32:10.942225,2025-08-28T14:03:26.478086
cmd6074115919dc200e83d6,Element Experimental Aroma Lab,"Element Experimental Aroma Lab is an innovative fragrance house that specializes in the creation of unique, artistic perfumes that challenge traditional scent boundaries. The company is known for its experimental approach combining art and olfactory design, allowing the creation of personalized fragrance experiences that resonate with individuality. Founded by a team of passionate perfumers, the lab emphasizes the importance of sustainable sourcing and creativity in every formulation, often collaborating with artists and botanists to inspire their collections.",https://images.unsplash.com/photo-1582735689369-4fe89db7114c?w=400&h=300&fit=crop,www.elementexperimental.com,United States,2018,niche,contact@elementexperimental.com,,Not available,2025-07-18T12:32:10.942225,2025-08-28T14:03:32.228638
cmd523a0b91a7e70b09c87c,Elemis,"Elemis is a British skincare and wellness brand that specializes in luxury skincare products and treatments. Founded in 1988, it has developed a reputation for using the finest natural ingredients combined with advanced scientific technology to promote health and well-being. Elemis products are known for their aromatherapeutic properties and are widely used in spas and beauty outlets worldwide. The company emphasizes sustainability and ethical practices in sourcing ingredients and creating products.",https://images.unsplash.com/photo-1587017539504-67cfbddac569?w=400&h=300&fit=crop,https://www.elemis.com,United Kingdom,1988,indie,,+44 (0) 207 493 3636,"Elemis Ltd, 1st Floor, 20 St. Thomas St, London, SE1 9RS, United Kingdom",2025-07-18T12:32:10.942225,2025-08-28T14:03:39.715485
cmdef3604ef53ee3b7696fd,Elen Cosmetics,"Elen Cosmetics is a fragrance company that specializes in creating bespoke perfumes and cosmetics. The company prides itself on offering high-quality, artisan scents that often incorporate unique and rare ingredients. Established with the vision to blend art and science, Elen Cosmetics has developed a niche within the fragrance industry, catering to individuals seeking personalized olfactory experiences. Their story reflects a commitment to craftsmanship, sustainability, and a passion for the aromatic arts, making each product a reflection of the individuality of its wearer.",https://images.unsplash.com/photo-1556909114-f6e7ad7d3136?w=400&h=300&fit=crop,,,,niche,,,,2025-07-18T12:32:10.942225,2025-08-28T14:03:45.734587
cmd68c0d539f96a007bd542,Elephant & Tower,"Elephant & Tower is a perfume company known for creating unique and artisanal fragrances that celebrate the art of perfumery. Founded by a group of perfume enthusiasts, the company focuses on blending traditional techniques with contemporary inspirations to craft high-quality scents. They emphasize sustainability and ethical sourcing of ingredients, often collaborating with local artisans to bring their vision to life. Their portfolio includes a range of perfumes that cater to diverse preferences, each telling a distinct story through its composition.",https://images.unsplash.com/photo-15907369626-6c63ac16f3df?w=400&h=300&fit=crop,https://elephantandtower.com,United States,2017,niche,contact@elephantandtower.com,,,2025-07-18T12:32:10.942225,2025-08-28T14:03:51.820393
cmda273462e4f384cb90c88,Elesbé Parfumerie,"Elesbé Parfumerie is an artisan fragrance house known for its unique and complex scent compositions. Founded with a passion for olfactory artistry, the brand focuses on creating niche, high-quality perfumes that evoke emotions and tell stories through their diverse range. Elesbé employs a meticulous approach to crafting each perfume, using rare ingredients and traditional techniques to ensure an exceptional sensory experience. Their commitment to sustainability and ethical sourcing of materials further distinguishes them in the competitive fragrance industry.",https://images.unsplash.com/photo-1556909114-f6e7ad7d3136?w=400&h=300&fit=crop,www.elesbeparfumerie.com,France,2018,niche,info@elesbeparfumerie.com,,"123 Fragrance Lane, Paris, France",2025-07-18T12:32:10.942225,2025-08-28T14:03:58.301456
cmd00b5e9c1caa117434279,Elf Aquitaine,"Elf Aquitaine is a subsidiary of the Elf Group, originally involved in the petroleum industry. However, Elf Aquitaine diversified into various sectors, including cosmetics and perfumery. The company was known for creating fragrances that reflected the elegance and essence of modern life, combining traditional French perfumery techniques with innovative formulations. Their specialty lies in producing perfumes that appeal to a broad audience, often emphasizing unique scent profiles that blend natural ingredients with synthetic ones.",https://images.unsplash.com/photo-1541643600914-78b084683601?w=400&h=300&fit=crop,,France,1985,designer,,,,2025-07-18T12:32:10.942225,2025-08-28T14:04:04.191713
cmd76ac8568d46d34b6a92a,Eli Lilly & Co,"Eli Lilly & Co is a pharmaceutical company primarily focused on developing and manufacturing medications, but it does not have a specialization in the perfume industry. Founded in 1876 by Colonel Eli Lilly, the company has grown to become a global leader in biopharmaceuticals, working on key therapeutic areas including diabetes, oncology, immunology, and neurodegeneration. The company’s work includes significant research and development initiatives to innovate treatments for unmet medical needs.",https://images.unsplash.com/photo-1556909114-f6e7ad7d3136?w=400&h=300&fit=crop,https://www.lilly.com,United States,1876,indie,,,"Lilly Corporate Center, Indianapolis, IN 46285, United States",2025-07-18T12:32:10.942225,2025-08-28T14:04:10.899290
cmd490b0a232cca480dcc92,Elianto,"Elianto is a perfume and cosmetics brand recognized for its vibrant and youthful product offerings. Established in response to the growing beauty and personal care market, Elianto specializes in crafting fragrances and beauty products that appeal to a diverse, modern consumer base. The brand is known for infusing creativity and spontaneity into its fragrances, making them suitable for daily wear or special occasions. With a focus on quality and affordability, Elianto aims to enhance the beauty experience of its customers.",https://images.unsplash.com/photo-1541643600914-78b084683601?w=400&h=300&fit=crop,https://www.elianto.com.my,Malaysia,2004,indie,,,,2025-07-18T12:32:10.942225,2025-08-28T14:04:27.833316
cmdc0c1b13f0a143ab6c4fe,Elida Beauty,"Elida Beauty is a global beauty company that specializes in creating and marketing fragrances, personal care products, and household items. The company focuses on innovative solutions and sustainability within the beauty sector. Its history traces back to a commitment to high-quality ingredients and formulation, ensuring that their products are both effective and enchanting. They are known for their collaborations with various brands and celebrities, deriving inspiration from diverse cultural and aesthetic influences.",https://images.unsplash.com/photo-15907369626-6c63ac16f3df?w=400&h=300&fit=crop,https://www.elidabeauty.com,United States,2021,indie,,,,2025-07-18T12:32:10.942225,2025-08-28T14:04:36.096449
cmd18d9ab27407a584b0e13,Elida Gibbs,,https://images.unsplash.com/photo-1587017539504-67cfbddac569?w=400&h=300&fit=crop,,,,indie,,,,2025-07-18T12:32:10.942225,2025-08-28T14:04:43.209912
cmdee7aaf31accf5052fb28,Elie Saab,"Elie Saab is a renowned luxury fashion brand known for its exquisite craftsmanship and intricate designs. Founded by Lebanese designer Elie Saab in 1982, the brand initially gained prominence for its haute couture collections, which feature opulent fabrics, elaborate embroidery, and elegant silhouettes. In addition to fashion, Elie Saab has successfully expanded into the fragrance market, launching a range of perfumes that embody sophistication and femininity. The fragrances often draw inspiration from the world of haute couture, showcasing the same dedication to artistry and elegance that characterizes the brand's apparel.",https://images.unsplash.com/photo-15907369626-6c63ac16f3df?w=400&h=300&fit=crop,[https://www.eliesaab.com](https://www.eliesaab.com),Lebanon,1982,designer,,,,2025-07-18T12:32:10.942225,2025-08-28T14:04:51.252990
cmda42423b1939b0f67db3a,Elie Tahari,"Elie Tahari is a luxury fashion brand founded by designer Elie Tahari in the late 1970s. Known for its elegant designs and sophisticated aesthetic, the company initially gained recognition for its women's clothing collections. Over time, Elie Tahari expanded its product line to include fragrances, which reflect the brand's ethos of modern elegance and timeless style. The fragrance line embodies the same attention to detail and high-quality materials that characterize the clothing collections, making it a sought-after choice for consumers who appreciate luxury and sophistication.",https://www.elietahari.com/cdn/shop/files/elie_tahari_logo-V2_350x.png?v=1752679697,https://www.elietahari.com,United States,1974,designer,,,,2025-07-18T12:32:10.942225,2025-08-28T14:04:59.009891
cmdee7077023bd3885761ca,Eligia,"Eligia is a niche perfume company renowned for its artisanal approach to fragrance creation. Founded by a team of passionate perfumers, Eligia is dedicated to producing high-quality, unique scents that draw inspiration from various cultures and natural elements. The company prides itself on using sustainable and ethically sourced ingredients, creating a strong connection to the environment and promoting eco-friendly practices in the perfume industry. Their story began with a vision to redefine personal fragrance, allowing individuals to express their identity through signature scents.",https://images.unsplash.com/photo-15907369626-6c63ac16f3df?w=400&h=300&fit=crop,www.eligiafragrances.com,Italy,2015,niche,contact@eligiafragrances.com,,"Via delle Fragranze 10, Florence, Italy",2025-07-18T12:32:10.942225,2025-08-28T14:05:06.220263
cmd99a8afb3eb3d7c90253a,Elio Berhanyer,"Elio Berhanyer is a renowned Spanish fashion designer and perfumer, known for his luxurious fragrances that encapsulate the essence of haute couture. Founded in the mid-20th century, the brand has built a reputation for its unique approach to scent creation, often drawing inspiration from nature and art. Elio Berhanyer's approach to perfume is characterized by a blend of classic elegance and modernity, catering to a discerning clientele. The company also emphasizes handmade processes and the use of high-quality ingredients in their creations, aiming to deliver distinctive and memorable fragrances.",https://www.elioberhanyer.com/wp-content/uploads/2024/02/Logotipo_BERHANYER_240202.svg,https://www.elioberhanyer.com,Spain,1967,niche,,,,2025-07-18T12:32:10.942225,2025-08-28T14:05:14.394451
cmd3a4589c0e4198285d673,Élisire,"Élisire is a niche fragrance house that specializes in crafting unique, artisanal perfumes. Established by the perfumer and entrepreneur, they focus on quality ingredients and artistic expression, creating scents that tell stories and evoke emotions. Élisire is known for its meticulous attention to detail and dedication to olfactory artistry, often collaborating with renowned artists and designers to enhance the sensory experience of their fragrances.",https://elisire.com/cdn/shop/files/banner-elisire-main-premiere_f570a7b7-024e-4de3-94b5-60eadf912629_2000x.jpg?v=1698251491,https://www.elisire.com,France,2013,niche,,,,2025-07-18T12:32:10.942225,2025-08-28T14:05:20.847059
cmdf801a5e3fca658e16697,Elite Model,"Elite Model is a luxury perfume brand that stems from the renowned Elite Model Agency, which is known for its high-profile modeling representation and fashion industry connections. The perfume line focuses on capturing the essence of style and sophistication, offering fragrances that appeal to a discerning clientele. Their offerings often reflect contemporary trends while embracing classic elements, making them a popular choice within the competitive fragrance market.",https://images.unsplash.com/photo-1541643600914-78b084683601?w=400&h=300&fit=crop,,,,designer,,,,2025-07-18T12:32:10.942225,2025-08-28T14:05:26.288278
cmd0d3213f2206658032a46,Elixir Attar,"Elixir Attar is a perfume company specializing in high-quality attars and concentrated fragrances derived from natural ingredients. The company focuses on traditional perfume-making techniques, blending natural oils and essences to create unique and rich scents. Founded by passionate perfumers, Elixir Attar emphasizes authenticity, sustainability, and the art of perfumery, catering to customers who appreciate artisanal and bespoke fragrances.",https://elixirattar.com/cdn/shop/files/367527C9-D2FF-4C07-96B5-5F5D9206CAD8_130x.jpg?v=1642096559,http://www.elixirattar.com,United Arab Emirates,,niche,,,,2025-07-18T12:32:10.942225,2025-08-28T14:05:33.881537
cmd8ccb3b7ee1bbea4256fd,Elizabeth and James,"Elizabeth and James is a contemporary lifestyle brand founded by Mary-Kate and Ashley Olsen. The brand initially gained fame for its fashion offerings but later expanded into fragrances, embodying a unique blend of sophistication and a laid-back aesthetic. Their fragrances are known for being playful yet elegant, often drawing inspiration from different aspects of their lives. The brand aims to provide products that resonate with a youthful yet stylish market, making it appealing to a broad audience.",https://images.unsplash.com/photo-15907369626-6c63ac16f3df?w=400&h=300&fit=crop,https://www.elizabethandjames.com,United States,2007,designer,,,,2025-07-18T12:32:10.942225,2025-08-28T14:05:50.645218
cmd3473bc5d76c19ec44984,Elizabeth Arden Inc,"Elizabeth Arden Inc. is a renowned cosmetic, skincare, and fragrance company, established by Elizabeth Arden in the early 20th century. The brand focuses on beauty, empowerment, and the holistic approach to skincare and fragrance. They are known for their innovative formulations and luxurious products that cater to a diverse customer base. Their perfume lines are celebrated for iconic scents that reflect sophistication and elegance, such as Red Door and 5th Avenue.",https://www.elizabetharden.com/cdn/shop/files/Elizabeth_Arden_Logo_2025.svg?v=1737047469&width=230,www.elizabetharden.com,United States,1910,designer,,+1 800-326-7337,"110 E 59th St, New York, NY 10022, United States",2025-07-18T12:32:10.942225,2025-08-28T14:05:57.826749
cmdffa0d23485257cc7f7b8,Elizabeth Arden,"Elizabeth Arden is a premier American cosmetics, skincare, and fragrance company, founded by the legendary beauty entrepreneur Elsie Rodriguez Arden. Established in 1910, the company quickly made a name for itself with its innovative formulations and luxurious products. Elizabeth Arden has a rich history in the beauty industry, being one of the first to introduce the concept of a ""spa"", and known for pioneering the notion of makeup as a part of the beauty regime. The company specializes in skincare treatments, makeup, and a wide range of fragrances, appealing to a diverse base of customers globally. Signature fragrances like ""Red Door"" and ""Fifth Avenue"" exemplify the brand's commitment to elegance and sophistication.",https://www.elizabetharden.com/cdn/shop/files/Elizabeth_Arden_Logo_2025.svg?v=1737047469&width=230,https://www.elizabetharden.com,United States,1910,designer,,,"100 Park Avenue, New York, NY 10017, USA",2025-07-18T12:32:10.942225,2025-08-28T14:06:05.000967
cmdbcb44a11f2c2775c4064,Elizabeth Taylor,"Elizabeth Taylor was a renowned actress who ventured into the world of fragrances, launching her first perfume, White Diamonds, in 1991. The brand is heavily tied to her legacy and personal image, focusing on luxurious and glamorous scents. The perfumes are characterized by their rich notes, often inspired by Elizabeth's own preferences, embodying sophistication and elegance. The line has enjoyed significant commercial success, appealing to a wide demographic, especially fans of the actress and consumers seeking high-quality celebrity fragrances.",https://api.elizabethtaylor.com/wp-content/uploads/2021/04/w1921-1.jpg,https://www.elizabethtaylorfragrances.com,United States,1991,celebrity,,,,2025-07-18T12:32:10.942225,2025-08-28T14:06:12.327080
cmd51fd3c6ca64b16dd799a,Elizabeth W,"Elizabeth W is a perfume company known for its artisanal fragrances and commitment to quality ingredients. Founded by Elizabeth Wright, the brand emphasizes a blend of traditional perfume-making techniques and contemporary artistry. With a focus on creating unique, handcrafted scents, Elizabeth W aims to provide a personalized fragrance experience. The company also emphasizes the use of natural and sustainable materials, reflecting a growing trend towards eco-consciousness in the fragrance industry.",https://www.elizabethw.com/cdn/shop/files/logo_939e94f5-775a-4c1a-ab5d-f3c4d7d701bf_2000x.gif?v=1614306830,https://www.elizabethw.com,United States,2005,indie,,,"2015 9th St, Suite 2, Boulder, CO 80302, United States",2025-07-18T12:32:10.942225,2025-08-28T14:06:18.881371
cmd0d76226273221064dd40,Ella K Parfums,"Ella K Parfums is a niche perfume house founded by the entrepreneur and fragrance creator, Ella K. The company specializes in creating artisanal fragrances that blend traditional perfumery techniques with contemporary design and storytelling. The scents are inspired by various cultural elements and personal experiences, resulting in a unique olfactory experience that resonates with fragrance connoisseurs. Ella K Parfums emphasizes authenticity, quality ingredients, and craftsmanship, catering to a discerning clientele who seek distinctive scents that tell a story.",https://www.ellakparfums.com/cdn/shop/files/Discoverset_1_999fa97a-3d20-44cb-b2de-ee5e65e46d97.jpg?v=1681285014&width=625,https://ellakparfums.com,France,2017,niche,,,,2025-07-18T12:32:10.942225,2025-08-28T14:06:26.623564
cmd7eecd8fbd40ad8674fa3,Ella Mikao,"Ella Mikao is a niche perfume company known for its unique and artisanal fragrance creations that blend contemporary and traditional scent profiles. The brand was founded by a group of fragrance enthusiasts who aim to craft high-quality, small-batch perfumes that resonate with individuality and personal expression. Ella Mikao specializes in using natural ingredients, focusing on sustainability and ethical sourcing to create luxurious scents that cater to discerning clientele who appreciate the artistry behind perfumery.",https://images.unsplash.com/photo-1587017539504-67cfbddac569?w=400&h=300&fit=crop,www.ellamikao.com,United States,2018,niche,contact@ellamikao.com,,,2025-07-18T12:32:10.942225,2025-08-28T14:06:33.270781
cmdef793d181d55e675b660,Ella,"Ella is a contemporary perfume company that specializes in creating unique, lasting fragrances designed to evoke emotion and personal expression. Founded by a team of fragrance enthusiasts, Ella's story began with a passion for artistry in scent, focusing on the balance between tradition and modernity in perfume design. The company prides itself on using high-quality ingredients to craft bold and original scents that appeal to a diverse audience. Their specialty lies in offering distinct olfactory experiences that aim to resonate deeply with users.",https://images.unsplash.com/photo-15907369626-6c63ac16f3df?w=400&h=300&fit=crop,www.ellaperfumes.com,United States,2018,indie,,,,2025-07-18T12:32:10.942225,2025-08-28T14:06:40.423529
cmd55c7150beb44ac1d303f,Elle Basic,"Elle Basic is a fragrance company that focuses on delivering high-quality, uncomplicated perfumes that cater to a wide audience. Established with the vision of making luxury accessible, the company prides itself on simplicity in fragrance design and selection. Elle Basic specializes in creating versatile scents suitable for everyday wear, emphasizing fresh and clean notes that reflect a modern lifestyle.",https://images.unsplash.com/photo-1587017539504-67cfbddac569?w=400&h=300&fit=crop,www.ellebasic.com,United States,2018,indie,info@ellebasic.com,,,2025-07-18T12:32:10.942225,2025-08-28T14:06:46.194218
cmd9699b0db601ae0d61a71,Elle,"Elle is a renowned perfume brand that is associated with the Elle magazine, known for its focus on fashion and lifestyle. The brand's fragrance line captures the essence of modern femininity, celebrating elegance and sophistication while catering to a diverse consumer base. Through its perfumes, Elle offers scents that reflect the latest trends and appeal to a younger audience, positioning itself effectively in the competitive fragrance market.",https://www.elle.com/_assets/design-tokens/elle/static/images/logos/logo.2856426.svg?primary=navLogoColor,https://www.elle.com,France,,designer,,,,2025-07-18T12:32:10.942225,2025-08-28T14:06:52.564479
