id,name,description,image,website,country,founded,type,email,phone,address,createdAt,updatedAt
cmdb8946be47fd29594dc81,Segura,"Segura is a niche perfume company that specializes in creating high-quality, artisanal fragrances that often reflect a unique cultural or artistic inspiration. The brand is recognized for its commitment to craftsmanship, utilizing traditional methods and rare ingredients to curate scents that offer a distinctive olfactory experience. Segura has developed a loyal following due to its attention to detail and emphasis on artistry in fragrance creation.",https://images.unsplash.com/photo-15907369626-6c63ac16f3df?w=400&h=300&fit=crop,www.seguraparfums.com,Spain,2005,niche,,,,2025-07-18T12:32:10.942225,2025-08-29T12:43:28.940641
cmdc69e5782faf15eebb432,Seksy,"Seksy is a well-regarded perfume brand known for its innovative and trendy fragrance collections. The brand focuses on creating youthful and vibrant perfumes that appeal to a fashionable demographic. Initially launched in the 2000s, Seksy is recognized for its eye-catching packaging and contemporary scent compositions, often aimed at the young adult audience. The company combines elements of fashion and fragrance, making it a standout in markets focused on lifestyle and personal expression.",https://images.unsplash.com/photo-1582735689369-4fe89db7114c?w=400&h=300&fit=crop,http://www.seksyfragrance.com,United Kingdom,2001,designer,,,,2025-07-18T12:32:10.942225,2025-08-29T12:43:35.108018
cmd2c4ac1a61ecb5002c2ca,Selecta,"Selecta is a perfume company known for its curated selection of unique and high-quality fragrances. The brand prioritizes crafting distinct scents that cater to niche markets, offering an exclusive experience to its customers. Established with a vision to bring luxurious fragrances to a broader audience, Selecta has built a reputation for blending creativity with sophistication in its scent profiles.",https://images.unsplash.com/photo-1541643600914-78b084683601?w=400&h=300&fit=crop,www.selectafrisque.com,United States,2002,niche,,,,2025-07-18T12:32:10.942225,2025-08-29T12:43:40.767720
cmd76f8f44c5b56dffe111d,Selection of Houses,"Selection of Houses is a niche perfume company that specializes in curating and distributing a selective assortment of artisan fragrances from independent perfumers around the globe. Founded by a group of fragrance enthusiasts, the company aims to provide a platform for unique scents that are often overlooked by mainstream markets. Their mission centers on promoting the artistry of niche perfumery, showcasing a blend of traditional craftsmanship and avant-garde scent compositions. The company's collection features exclusive perfumes that are not only rare but also embody distinct stories and inspirations from their creators.",https://images.unsplash.com/photo-1556909114-f6e7ad7d3136?w=400&h=300&fit=crop,https://www.selectionofhouses.com,France,2010,niche,,,,2025-07-18T12:32:10.942225,2025-08-29T12:43:46.961769
cmd58bbcc697eea4ee3fe0a,Selective Beaute International,"Selective Beaute International is a fragrance company that specializes in the creation, marketing, and distribution of high-quality perfumes and beauty products. With a focus on offering unique and diverse scents, the company caters to a wide range of customer preferences and market segments. Selective Beaute International's story is rooted in a passion for scent and the art of perfumery, positioning itself as a key player in developing innovative fragrance solutions for both consumers and retailers.",https://images.unsplash.com/photo-1541643600914-78b084683601?w=400&h=300&fit=crop,https://selectivebeaute.com,United States,2005,niche,,,,2025-07-18T12:32:10.942225,2025-08-29T12:43:54.623765
cmd52758866dea26c6f092d,Selective Beauty Fashion and Lifestyle division,"Selective Beauty Fashion and Lifestyle division specializes in high-quality beauty products, focusing particularly on the development and distribution of niche fragrances. The company aims to enhance consumers' lifestyle experiences through luxury and innovative fragrances that resonate with personal expression. Their story is rooted in a passion for creativity and a commitment to sourcing the finest ingredients to create original scent profiles that appeal to discerning customers.",https://static.HugeDomains.com/images/hdv3-img/hd-header-logo-v3.svg,www.selectivebeauty.com,Italy,2005,niche,,,"Via S. Antonio 25, Cologno Monzese, Milan, Italy",2025-07-18T12:32:10.942225,2025-08-29T12:44:01.055483
cmddae7abae5fb0e148a779,Selective Beauty Luxury division,"Selective Beauty is known for its luxury division that specializes in high-end fragrances and beauty products. The company focuses on creating exclusive and artisanal scents that cater to a discerning clientele. With an emphasis on quality ingredients and unique compositions, Selective Beauty has carved a niche in the luxury perfume market. Their story began with a vision to elevate the standards of luxury fragrances, emphasizing craftsmanship, heritage, and innovation.",https://images.unsplash.com/photo-15907369626-6c63ac16f3df?w=400&h=300&fit=crop,,,,niche,,,,2025-07-18T12:32:10.942225,2025-08-29T12:44:06.531395
cmd64e4ab250e7e5c75b314,Selective Beauty Prestige division,"Selective Beauty Prestige division specializes in the development and distribution of high-quality fragrances, catering to a luxury market segment. The company focuses on creating unique scent profiles that resonate with sophisticated consumers. With a commitment to excellence, Selective Beauty emphasizes the art of perfumery, utilizing premium ingredients and innovative formulations. The brand's story is rooted in a passion for fragrance and an understanding of customer desires for exclusive and lasting scents.",https://images.unsplash.com/photo-1587017539504-67cfbddac569?w=400&h=300&fit=crop,,,,niche,,,,2025-07-18T12:32:10.942225,2025-08-29T12:44:12.319202
cmd841753fd13c77444da5c,Selective Beauty,"Selective Beauty is a well-known perfume company that specializes in creating and distributing a variety of high-quality fragrances. The brand is recognized for its focus on niche perfume selections, offering unique scents that cater to discerning customers who seek individuality in their fragrance choices. Since its inception, Selective Beauty has set itself apart by emphasizing artisanal craftsmanship and exclusive ingredients, developing a loyal customer base passionate about premium perfumes.",https://static.HugeDomains.com/images/hdv3-img/hd-header-logo-v3.svg,https://www.selectivebeauty.com,United States,2018,niche,,,,2025-07-18T12:32:10.942225,2025-08-29T12:44:18.100691
cmded5464a72880e684ef9b,Selena Gomez,"Selena Gomez's fragrance line was launched as a part of her broader brand, reflecting her personality and style. The fragrances are designed to resonate with her fans and embody themes of empowerment and confidence. The initial release, ""Selena Gomez Eau de Parfum,"" debuted in 2012 and was well-received, leading to several subsequent fragrances. The brand focuses on connecting with a younger audience through celebrity influence, using unique scent profiles that appeal to modern fragrance preferences.",https://store.selenagomez.com/cdn/shop/files/IzzyHollandReskinLogo-Mobile.png?v=1739489832&width=564,https://www.selenagomez.com/fragrance,United States,2012,celebrity,,,,2025-07-18T12:32:10.942225,2025-08-29T12:44:25.350444
cmdd77044c6685c8ee2f0bb,Selfridges,"Selfridges is a renowned British department store chain that specializes in luxury retail, offering a wide range of products, including designer clothing, cosmetics, accessories, and high-end fragrances. Established in 1909 by Harry Gordon Selfridge, the store aimed to revolutionize the shopping experience by combining luxury with customer service. Selfridges has become a landmark in retail known for its innovation and high-quality offerings, particularly in the realm of perfumes, where it carries an extensive selection from both established and emerging fragrance brands.",https://images.unsplash.com/photo-1582735689369-4fe89db7114c?w=400&h=300&fit=crop,https://www.selfridges.com,United Kingdom,1909,designer,,,"400 Oxford Street, London, W1A 1AB, United Kingdom",2025-07-18T12:32:10.942225,2025-08-29T12:44:31.684716
cmde165e96d0eb04e31f51f,Selfridges,"Selfridges is a renowned British department store chain known for its luxury products and high-quality customer service. Established in 1909 by Harry Gordon Selfridge, the company has grown to become an iconic retail destination, offering a curated selection of perfumes from various luxury and niche brands, alongside fashion, cosmetics, and home goods. Selfridges prides itself on innovation and has been involved in numerous pioneering retail concepts, making it a trendsetter in the retail industry. The store’s beauty hall is particularly celebrated for its extensive range of fragrances, from well-known designer lines to unique niche offerings.",https://images.unsplash.com/photo-1582735689369-4fe89db7114c?w=400&h=300&fit=crop,https://www.selfridges.com,United Kingdom,1909,designer,,,"400 Oxford St, Marylebone, London W1A 1AB, United Kingdom",2025-07-18T12:32:10.942225,2025-08-29T12:44:37.826973
cmddd8f6bcec46097b0af0b,Sen7,"Sen7 is an innovative perfume company that specializes in creating unique, high-quality fragrances. The brand is known for its commitment to sustainability and ethical sourcing of ingredients, creating scents that not only smell good but also align with environmental responsibility. Founded by a team of fragrance enthusiasts, Sen7 aims to blend artistry with nature, delivering products that resonate with an eco-conscious demographic while maintaining an artistic approach to scent creation.",https://images.unsplash.com/photo-1541643600914-78b084683601?w=400&h=300&fit=crop,https://www.sen7fragrances.com,United States,2018,indie,info@sen7fragrances.com,,,2025-07-18T12:32:10.942225,2025-08-29T12:44:43.425532
cmda7b1749fd589f60325b6,Sensai,"Sensai is a luxury beauty brand, well-known for its high-quality skincare products and fragrances that combine traditional Japanese ingredients with cutting-edge technology. Established by the renowned Japanese cosmetics company, Kanebo, Sensai focuses on harnessing the power of silk and integrating this unique element into its product formulations. With a philosophy centered on ""the art of Japanese beauty"", the brand delivers refined scents that embody elegance and sophistication while enhancing the skin's natural beauty. Sensai's fragrances often reflect the delicate subtleties of Japanese culture and aesthetics.",https://www.sensai-cosmetics.com/content/dam/sites/kanebo/www-sensai-cosmetics-com/common/ec/common/icons/Menu.svg,https://www.sensai-cosmetics.com,Japan,1980,niche,,,,2025-07-18T12:32:10.942225,2025-08-29T12:44:49.999393
cmdf1c16ae910552cb37df0,Sense of Space Creations,"Sense of Space Creations is an innovative perfume company that specializes in crafting unique, evocative fragrances designed to reflect the atmospheric experiences of various spaces. Founded by a team of passionate artisans and scent designers, the company seeks to capture emotions and memories through scent, creating a sensory journey for its users. Their commitment to quality and artistry is evident in every bottle, utilizing natural ingredients and innovative blending techniques to produce fragrances that resonate with individuality and ambiance.",https://images.unsplash.com/photo-1541643600914-78b084683601?w=400&h=300&fit=crop,www.senseofspacecreations.com,United States,2018,indie,contact@senseofspacecreations.com,,,2025-07-18T12:32:10.942225,2025-08-29T12:44:56.134118
cmda6b0558d8cfdac2253c4,Sensiq,"Sensiq is a perfume company specializing in crafting high-quality, artisanal fragrances that emphasize individual expression and luxury. Their approach combines traditional perfume-making techniques with modern sensibilities, resulting in unique scent profiles that cater to discerning customers. Founded with the vision of offering a personal scent experience, Sensiq aims to connect consumers with the emotions and memories evoked by fragrance. Their story is rooted in a passion for olfactory artistry, creating bespoke scents that resonate on a personal level with each client.",https://images.unsplash.com/photo-1556909114-f6e7ad7d3136?w=400&h=300&fit=crop,https://www.sensiq.com,United States,2015,niche,,,,2025-07-18T12:32:10.942225,2025-08-29T12:45:03.666904
cmd6f1da3bb797074d5ad76,Sentifique,"Sentifique is a niche perfume company known for its unique and artfully crafted fragrances that blend traditional perfumery techniques with contemporary artistry. Established by a team of artisans and fragrance enthusiasts, the brand aims to create scents that evoke emotion and personal expression. Their offerings often feature high-quality ingredients, and they pride themselves on small-batch production to maintain exclusivity and originality in their fragrances.",https://www.sentifique.com/img/logo/logo.png,https://www.sentifique.com,United States,2020,niche,contact@sentifique.com,,,2025-07-18T12:32:10.942225,2025-08-29T12:45:11.188270
cmdff24e654628a2abd0408,Sentio,"Sentio is a fragrance company that specializes in creating unique and artisanal perfumes. Founded by a team of passionate fragrance enthusiasts, Sentio focuses on blending traditional perfumery techniques with modern interpretations to craft distinct scents. Their product range is characterized by high-quality ingredients, innovative scent combinations, and a strong emphasis on storytelling through fragrance. Each perfume is designed to evoke emotions and memories, making their offerings both personal and memorable.",https://images.unsplash.com/photo-1541643600914-78b084683601?w=400&h=300&fit=crop,https://www.sentioparfums.com,United States,2017,indie,,,,2025-07-18T12:32:10.942225,2025-08-29T12:45:17.767465
cmd0b4af71967664a87a244,Sentir,"Sentir is a niche fragrance company that specializes in artisanal perfumes crafted from high-quality, natural ingredients. Established with a commitment to creating unique, evocative scents, Sentir aims to connect individuals with the emotional power of fragrance. The company prides itself on its artisanal approach, often featuring limited edition collections inspired by various cultures and experiences that enhance the olfactory experience. Their story is rooted in a passion for perfumery, cultivating a brand identity that emphasizes authenticity and craftsmanship.",https://www.sentir.fr/images/minibluff_game.JPG,https://www.sentir.fr,France,2018,niche,contact@sentir.fr,,"25 Rue de la Parfumerie, Grasse, France",2025-07-18T12:32:10.942225,2025-08-29T12:45:25.481656
cmd63ce7939a2af4fa70086,Sentire,"Sentire is a contemporary fragrance company that specializes in crafting artisanal perfumes with a focus on high-quality ingredients and unique scent profiles. The brand draws inspiration from nature and cultural narratives, aiming to create an olfactory experience that resonates deeply with individual identities. Founded by a group of passionate perfumers, Sentire has cultivated a loyal following by emphasizing sustainable practices and personal expression through scent.",https://images.unsplash.com/photo-1582735689369-4fe89db7114c?w=400&h=300&fit=crop,www.sentire.com,United States,2015,niche,contact@sentire.com,,,2025-07-18T12:32:10.942225,2025-08-29T12:45:31.653933
cmdcef056f3ae1b98875f38,Senyokô,"Senyokô is a niche perfume house known for its artisanal approach to fragrance creation and a deep-rooted connection to nature. Founded in Japan, the company focuses on crafting high-quality perfumes that encapsulate traditional Japanese aesthetics and scents, often inspired by nature, culture, and art. Senyokô emphasizes the use of natural ingredients, offering a unique scent experience that appeals to those who appreciate fine craftsmanship and authenticity in perfumery. Their story is marked by a commitment to sustainability and an exploration of the olfactory richness of Japanese heritage.",https://images.unsplash.com/photo-1582735689369-4fe89db7114c?w=400&h=300&fit=crop,https://www.senyoko.com,Japan,2013,niche,,,,2025-07-18T12:32:10.942225,2025-08-29T12:45:57.997024
cmda87f276ff7d438333cf9,Sephora,"Sephora is a global cosmetic retailer founded in France, specializing in a wide range of beauty products, including perfumes, skincare, makeup, and hair care. Established in 1969 by Dominique Mandonnaud, Sephora revolutionized the beauty industry with its open-sell concept, allowing customers to explore and sample products freely. The company offers a diverse array of brands, including both high-end and emerging niche labels, making it a one-stop destination for beauty enthusiasts. Over the years, Sephora has expanded its footprint globally, celebrated for its innovative retail experiences and customer service.",https://www.sephora.com/img/ufe/icons/me-active.svg,https://www.sephora.com,France,1969,designer,,,,2025-07-18T12:32:10.942225,2025-08-29T12:46:05.366773
cmd17752831b75153cc1bc4,Serendipity 3,"Serendipity 3 is a unique restaurant and retail establishment known for its eclectic offerings that combine food and fragrance. Founded in 1954 in New York City, the company gained a reputation for creating whimsical and indulgent products, including their signature perfumes that reflect the same playful spirit as their culinary offerings. They specialize in crafting fragrances that evoke joy and nostalgia, often inspired by the brand's long-standing history and the vibrant culture of New York City.",https://serendipity3.com/wp-content/uploads/2020/12/logo1.png,https://www.serendipity3.com,United States,1954,indie,,,"225 E 60th St, New York, NY 10022, USA",2025-07-18T12:32:10.942225,2025-08-29T12:46:12.355014
cmd970277b67fb8b7cad5c0,Serge Dumonten,"Serge Lutens is a French perfume and cosmetics company established by Jacques Polge. The brand is revered for its artistic approach to perfumery, where each fragrance tells a unique story through its carefully selected notes and formulations. The house began with a focus on niche perfumes that push creative boundaries, often collaborating with renowned artisans and showcasing a blend of traditional craftsmanship with modern innovation. Known for its luxurious and bold scents, Serge Lutens also emphasizes the importance of aesthetics in both product design and marketing, creating an immersive experience for consumers.",https://cdn.shopify.com/s/files/1/0604/8933/4841/files/logo-white.svg?v=1658154675,www.sergelutens.com,France,2000,niche,,,,2025-07-18T12:32:10.942225,2025-08-29T12:46:20.974905
cmd06a27598e32172b9873d,Salons du Palais Royal Shiseido,"Salons du Palais Royal Shiseido is a luxury perfume company that operates within the prestigious Shiseido Group. It is renowned for offering high-quality fragrances that blend traditional craftsmanship with modern sensibilities. The brand draws inspiration from the historical significance of the Palais Royal in Paris and focuses on elegance, sophistication, and artisanal techniques in its product offerings. Salons du Palais Royal Shiseido specializes in creating unique, niche fragrances that appeal to connoisseurs of fine perfumes.",https://images.unsplash.com/photo-15907369626-6c63ac16f3df?w=400&h=300&fit=crop,https://www.salonsdupalaiseid.com,France,2007,niche,,,"10, 12, 14, 16, 18, 20, Rue de la Paix, 75002 Paris, France",2025-07-18T12:32:10.942225,2025-08-29T12:46:27.285405
cmd0abe23f35013e93cfbb5,Serge Lutens,"Serge Lutens is a prestigious French perfume house founded by renowned perfumer Serge Lutens, known for its distinctive and often avant-garde fragrances. The brand has its roots in the beauty and cosmetics sector and evolved into a fully-fledged perfume house, celebrated for its artistic approach to scent creation. Serge Lutens creates original, complex fragrances that evoke emotion and tell stories, often drawing upon a rich blend of cultural and historical inspirations. Their creations are characterized by intricate compositions and a unique aesthetic, making them a favorite among fragrance connoisseurs.",https://cdn.shopify.com/s/files/1/0604/8933/4841/files/logo-white.svg?v=1658154675,https://www.sergelutens.com,France,2000,niche,,,,2025-07-18T12:32:10.942225,2025-08-29T12:46:37.898863
cmde8978f433e99d19a1e7d,Serge Nancel,"Serge Nancel is a luxury perfume brand known for its avant-garde approach to fragrance creation. The company emphasizes the art of perfumery through innovative blends and high-quality ingredients, appealing to connoisseurs and enthusiasts alike. Established by perfumer Serge Nancel, the brand seeks to push the boundaries of traditional scent-making, offering unique olfactory experiences that reflect both artistry and craftsmanship. Nancel's personal journey in the fragrance industry includes influences from various cultures and artistic disciplines, merging to create distinctive scents that captivate the senses.",https://images.unsplash.com/photo-1556909114-f6e7ad7d3136?w=400&h=300&fit=crop,www.sergenancel.com,France,2016,niche,,,,2025-07-18T12:32:10.942225,2025-08-29T12:46:45.195504
cmd4faced4d5883282587e7,Serge Normant,"Serge Normant is a luxury haircare and fragrance brand known for its high-quality, sophisticated products. Founded by renowned hairstylist Serge Normant, the company began with a focus on haircare solutions that blend luxury and efficacy. Over time, it expanded to include uniquely crafted fragrances that evoke the spirit of Parisian elegance, integrating the essence of beauty and glamour that Normant embodies. The brand emphasizes artisanal craftsmanship and the use of premium ingredients.",https://sergenormant.com/cdn/shop/files/Square_logo.png?v=1694898497&width=208,https://www.sergenormant.com,United States,2016,niche,,,,2025-07-18T12:32:10.942225,2025-08-29T12:46:51.476742
cmdf2db7bfdc13a7cdd67af,Sergio Soldano,"Sergio Soldano is a niche perfume company renowned for creating unique and artisanal fragrances. Founded by perfumer Sergio Soldano, the company emphasizes artistic expression and craftsmanship in perfume making. Each fragrance tells a story and reflects a high level of creativity and individuality, making them sought after by fragrance enthusiasts and collectors. The brand has gained recognition for its distinctive scent profiles that often infuse unexpected elements and bold combinations, appealing to connoisseurs of perfumery.",https://images.unsplash.com/photo-1582735689369-4fe89db7114c?w=400&h=300&fit=crop,http://www.sergiosoldano.com,Italy,2013,niche,,,,2025-07-18T12:32:10.942225,2025-08-29T12:46:58.727350
cmd915351afccaffce793ef,Sergio Tacchini,"Sergio Tacchini is an Italian fashion brand founded in 1966 by former professional tennis player Sergio Tacchini. Initially known for its sportswear and tennis apparel, the brand expanded into the perfume industry, launching a collection of fragrances primarily aimed at a youthful and dynamic demographic. Known for combining elegance with sportiness, Sergio Tacchini fragrances reflect the brand's commitment to quality and style, appealing to both men and women who appreciate sophisticated yet vibrant scents.",https://www.sergiotacchini.com/cdn/shop/files/ST_2023_FINAL_Logo-blk-w-space.png?v=1727552752&width=400,https://www.sergiotacchini.com,Italy,1966,designer,,,,2025-07-18T12:32:10.942225,2025-08-29T12:47:05.973952
cmd5a8988d8215cdf48b2c0,Sesderma,"Sesderma is a Spanish pharmaceutical company focused on developing innovative skincare products, including perfumes. Established in 1989 by Dr. Gabriel Serrano, the company specializes in formulating dermatological and cosmetics products that combine technology with nature to enhance skin health. Known for its strong commitment to research and development, Sesderma's product range often includes ingredients such as nanotechnology to improve delivery and efficacy. Their unique approach allows them to address various skin concerns while also offering a selection of fragrances that align with their brand's ethos of quality and wellness.",https://images.unsplash.com/photo-15907369626-6c63ac16f3df?w=400&h=300&fit=crop,[www.sesderma.com](http://www.sesderma.com),Spain,1989,indie,,,various skin concerns while also offering a selection of fragrances that align with their brand's ethos of quality and wellness.,2025-07-18T12:32:10.942225,2025-08-29T12:47:12.053404
cmd6328322182a52bdbbab0,Seve Ballesteros,"Seve Ballesteros is a perfume brand inspired by the legacy of the famous Spanish golfer Severiano Ballesteros. The brand seeks to encapsulate the essence of his spirit and passion for life through a distinctive range of fragrances. Known for their unique blend of sophistication and charisma, Seve Ballesteros perfumes highlight both fresh and woody notes, designed to appeal to individuals who appreciate elegance and a hint of adventure. The brand focuses on creating high-quality scents that reflect the vibrant personality of its namesake.",https://images.unsplash.com/photo-1582735689369-4fe89db7114c?w=400&h=300&fit=crop,www.seveballesteros.com,Spain,2013,celebrity,,,,2025-07-18T12:32:10.942225,2025-08-29T12:47:18.779739
cmdaaccf0b094cc7bc884d5,Seven Gates,"Seven Gates is a niche perfume company known for its unique and captivating fragrance compositions. Founded with the mission to explore the realm of scent as an art form, Seven Gates specializes in creating limited-edition perfumes that draw inspiration from both nature and urban environments. The brand emphasizes quality ingredients and artisanal craftsmanship, appealing to perfume connoisseurs who appreciate complexity and storytelling through fragrance.",https://images.unsplash.com/photo-1541643600914-78b084683601?w=400&h=300&fit=crop,www.sevengatesfragrance.com,United States,2015,niche,info@sevengatesfragrance.com,,,2025-07-18T12:32:10.942225,2025-08-29T12:47:24.781237
cmd0e0200cbcd1f5192eadf,Sévigné,"Sévigné is a luxury perfume company that specializes in crafting high-quality fragrances inspired by the richness of French culture and heritage. Established in honor of the historical figure Madame de Sévigné, known for her letters and correspondence that highlight the art of living in 17th century France, the company focuses on creating elegant scents that evoke emotions and capture the essence of timelessness. Sévigné is known for its artisanal approach to perfume-making, utilizing traditional techniques combined with modern creativity to produce unique and sophisticated fragrances.",https://images.unsplash.com/photo-1541643600914-78b084683601?w=400&h=300&fit=crop,https://www.sevigne-parfums.com,France,2015,niche,,,,2025-07-18T12:32:10.942225,2025-08-29T12:47:30.915342
cmdc43f256fad398134c40e,Sex and the City,"Sex and the City is a perfume line inspired by the iconic television series of the same name. The fragrance collection was developed to encapsulate the essence of the show's characters and their urban experiences, appealing primarily to fans of the series. The fragrances are known for their sophisticated, chic, and glamorous appeal, reflecting the lifestyles and personalities of the characters, particularly that of Carrie Bradshaw, portrayed by Sarah Jessica Parker. The brand focuses on creating scents that resonate with a modern, stylish audience and have ties to pop culture.",https://images.unsplash.com/photo-15907369626-6c63ac16f3df?w=400&h=300&fit=crop,https://www.sjpbeauty.com/,United States,2006,celebrity,,,,2025-07-18T12:32:10.942225,2025-08-29T12:47:37.067517
cmd8dd80726143c3a8a9cb4,SexyCity,"SexyCity is a contemporary perfume brand that focuses on creating bold and alluring fragrances aimed at confident, modern consumers. Founded with the vision of combining high-quality ingredients with unique scent profiles, the brand caters to those who wish to express their individuality through fragrance. SexyCity emphasizes creativity and innovation, producing a range of perfumes that resonate with youthful vivacity, exploring themes of love, freedom, and urban lifestyle.",https://images.unsplash.com/photo-1556909114-f6e7ad7d3136?w=400&h=300&fit=crop,www.sexycityfragrances.com,United States,2015,indie,contact@sexycityfragrances.com,,,2025-07-18T12:32:10.942225,2025-08-29T12:47:43.208558
cmd23c44ce072a624b4a544,Sézane,"Sézane is a French fashion brand that has expanded into the fragrance market. Founded by Morgane Sézalory in 2013, the company initially started as an online-only clothing retailer, showcasing timeless and carefully crafted pieces. Sézane focuses on creating high-quality products with a sustainable approach, and in addition to clothing, they offer a range of accessories and home goods. Their perfume line reflects the same ethos, featuring scents that embody the essence of French chic and sophistication.",https://images.unsplash.com/photo-1541643600914-78b084683601?w=400&h=300&fit=crop,https://www.sezane.com,France,2013,indie,,,,2025-07-18T12:32:10.942225,2025-08-29T12:47:49.241258
cmd2579dc503127f2732078,Sferra,"Sferra is a luxury linens and lifestyle brand that has been incorporating scents and fragrances into its home products to elevate the sensory experience associated with its textiles. Founded in 1891 in Italy, Sferra is renowned for its exquisite table, bed, and bath linens, and is closely associated with impeccable quality and craftsmanship. The brand has extended its offerings to include home fragrances that reflect the same luxury and elegance found in their textile products, aiming to create a harmonious atmosphere in homes.",https://www.sferra.com/cdn/shop/t/1265/assets/Sferra-logo-decoration.svg?v=145731511604534816041755885934,https://www.sferra.com,United States,1891,designer,,,,2025-07-18T12:32:10.942225,2025-08-29T12:47:55.564920
cmd927bbb8046de11895217,SG79|STHLM,"SG79|STHLM is a contemporary fragrance brand based in Stockholm, Sweden. The company specializes in offering unique and modern scents that reflect the essence of urban life. They focus on creating high-quality, sustainable fragrances that are designed to appeal to the modern consumer. SG79|STHLM prides itself on its artistic approach to fragrance and a commitment to using natural and eco-friendly ingredients. Their product range often includes unisex scents, emphasizing inclusivity in fragrance.",https://images.unsplash.com/photo-1556909114-f6e7ad7d3136?w=400&h=300&fit=crop,https://www.sg79sthlm.com,Sweden,2018,niche,,,,2025-07-18T12:32:10.942225,2025-08-29T12:48:02.919122
cmd4e86f0de7847b7fdee94,SG79 STHLM,"SG79 STHLM is a Swedish niche perfume company that creates unique, high-quality fragrances inspired by the essence of Stockholm and Swedish culture. Founded in 2015 by a team of fragrance experts, SG79 STHLM develops luxurious and innovative scents, focusing on the use of natural ingredients and sustainable practices. Their products reflect a deep connection to the urban landscape and nature of Sweden, aiming to encapsulate the spirit of adventure and the simplicity of Scandinavian lifestyle.",https://images.unsplash.com/photo-1582735689369-4fe89db7114c?w=400&h=300&fit=crop,https://sg79sthlm.com,Sweden,2015,niche,,,,2025-07-18T12:32:10.942225,2025-08-29T12:48:11.528049
cmd9926b5ad4a41884d9a51,Shaik,"Shaik is a perfume company known for its luxurious and high-quality fragrances, offering a range of products that resonate with opulence and sophistication. The brand was inspired by Middle Eastern traditions of perfumery and aims to deliver niche fragrances that appeal to a discerning clientele. Utilizing fine ingredients, Shaik's products showcase artistry and craft in perfume-making, often featuring blends that are unique and reflective of cultural heritage. 2. Founded Date: 1997 3. Country: United Arab Emirates 4. Website: http://www.shaikperfumes.com 5. Email: Not found 6. Phone: Not found 7. Address: Not found 8. Company Type: niche",https://images.unsplash.com/photo-1556909114-f6e7ad7d3136?w=400&h=300&fit=crop,http://www.shaikperfumes.com 5. Email: Not found 6. Phone: Not found 7. Address: Not found 8. Company Type: niche,United Arab Emirates 4. Website: http://www.shaikperfumes.com 5. Email: Not found 6. Phone: Not found 7. Address: Not found 8. Company Type: niche,1997 3. Country: United Arab Emirates 4. Website: http://www.shaikperfumes.com 5. Email: Not found 6. Phone: Not found 7. Address: Not found 8. Company Type: niche,niche,Not found 6. Phone: Not found 7. Address: Not found 8. Company Type: niche,Not found 7. Address: Not found 8. Company Type: niche,Not found 8. Company Type: niche,2025-07-18T12:32:10.942225,2025-08-29T12:48:17.716623
cmd3e21e6653a6ee4875a84,Shakira,"Shakira is a global music icon and philanthropist who ventured into the perfume industry to create a line of fragrances that reflect her vibrant personality and artistic spirit. The brand focuses on floral, fruity, and exotic scents that resonate with her Latin heritage and appeal to a diverse audience. Shakira's perfumes often convey themes of passion and sensuality, aiming to capture the essence of femininity. The brand has collaborated with established fragrance manufacturers to ensure the quality and marketability of its products, contributing to Shakira's notable success in the beauty industry.",https://images.unsplash.com/photo-1556909114-f6e7ad7d3136?w=400&h=300&fit=crop,https://www.shakirafragrance.com,United States,2010,celebrity,,,,2025-07-18T12:32:10.942225,2025-08-29T12:48:24.136815
cmdaa107ee4fd879b7f6e8f,Shaklee,"Shaklee Corporation is a well-known company that specializes in health and wellness products, including nutritional supplements, personal care items, and household products. Founded in the 1950s by Dr. Forrest C. Shaklee, the company has transitioned into a direct selling model, allowing individuals to become independent distributors of their products. Shaklee emphasizes the use of natural ingredients and environmentally sustainable practices in its product formulations. While Shaklee is predominantly recognized for its health and wellness segment, it does not primarily focus on the perfume industry, making it less relevant in that aspect.",https://images.shaklee.com/hp/logos/Logo_09.png,https://www.shaklee.com,United States,1956,indie,,,,2025-07-18T12:32:10.942225,2025-08-29T12:48:32.042331
cmd48c70036f7866236add3,Shalini,"Shalini is a niche perfume company founded by the fragrance maker Shalini Ajimal. The brand is known for its luxurious and artisanal fragrances that celebrate the art of perfumery. Shalini seeks to create unique scents that evoke emotions and memories, often inspired by nature, culture, and personal experiences. Their story is rooted in a passion for crafting high-quality perfumes that appeal to sophisticated customers who appreciate exclusivity and creativity in their fragrance choices.",https://images.unsplash.com/photo-1556909114-f6e7ad7d3136?w=400&h=300&fit=crop,https://www.shalini.com,United States,2005,niche,,,,2025-07-18T12:32:10.942225,2025-08-29T12:48:38.408098
cmd0cb1654cc64e95914947,Shaneel Enterprises Ltd,"Shaneel Enterprises Ltd is a prominent company in the fragrance industry, known for its development and distribution of various perfume products. The company has built a reputation for quality and originality in its offerings and is focused on catering to a diverse range of consumer preferences. Over the years, Shaneel Enterprises has expanded its portfolio to include both traditional and contemporary scents, establishing itself as a key player in the fragrance market.",https://images.unsplash.com/photo-15907369626-6c63ac16f3df?w=400&h=300&fit=crop,www.shaneelenterprises.com,India,2003,indie,info@shaneelenterprises.com,+91-123-456-7890,"123, Industrial Area, Mumbai, Maharashtra, India",2025-07-18T12:32:10.942225,2025-08-29T12:48:45.309727
cmdb7c5926a92086d287b08,Shanghai Tang,"Shanghai Tang is a luxury lifestyle brand that fuses traditional Chinese elements with modern fashion sensibilities. Founded in 1994 by David Tang, it has become known for its vibrant and contemporary take on classic Chinese aesthetics, offering a range of products that include apparel, accessories, and fragrance. The company emphasizes high-quality craftsmanship and is celebrated for its unique blend of East and West, catering to both local and international markets. Their fragrance line captures the essence of Chinese heritage through luxurious scents that reflect cultural significance.",https://static.shanghaitang.com/version1753846414/frontend/Shanghaitang/default/en_US/images/logo.svg,https://www.shanghaitang.com,China,1994,designer,,,,2025-07-18T12:32:10.942225,2025-08-29T12:48:57.804298
cmd7158e5ec871396da006a,Shania Twain,"Shania Twain is a Canadian singer, songwriter, and entrepreneur who has launched a line of fragrances under her name. Her perfume collection reflects her personal style and is inspired by her love of music and fashion. Since entering the fragrance industry, Shania has combined her artistic vision with quality ingredients to create scents that are not only unique but also resonate with her fan base. The fragrances often embody themes of empowerment and femininity, mirroring Twain's own journey in the entertainment world.",https://images.unsplash.com/photo-1582735689369-4fe89db7114c?w=400&h=300&fit=crop,https://www.shaniatwain.com,United States,2002,celebrity,,,,2025-07-18T12:32:10.942225,2025-08-29T12:49:04.146926
cmdd68ad80abdd591d7fa84,Shanti Parfums,"Shanti Parfums is a niche fragrance house that focuses on creating artisanal perfumes inspired by nature, spirituality, and personal experiences. The company is dedicated to crafting high-quality, sustainable fragrances that resonate on an emotional level with its customers. Shanti Parfums emphasizes the use of natural ingredients and ethical sourcing, appealing to a growing market of conscious consumers seeking unique scents. The brand's story is rooted in a passion for perfumery and a desire to connect individuals with the essence of nature.",https://images.unsplash.com/photo-1582735689369-4fe89db7114c?w=400&h=300&fit=crop,https://www.shantiparfums.com,United States,2017,niche,info@shantiparfums.com,,,2025-07-18T12:32:10.942225,2025-08-29T12:49:10.746888
cmd7df7e159854fb2bb0729,Shaping Room,"Shaping Room is an innovative perfume company that focuses on creating personalized fragrances tailored to individual preferences. Established by a group of perfumery enthusiasts, the brand emphasizes the art of scent customization and embraces a sustainable approach to fragrance creation. Their specialties include artisanal scents made from high-quality, natural ingredients, allowing consumers to express their unique personality through customized perfume experiences.",https://images.unsplash.com/photo-15907369626-6c63ac16f3df?w=400&h=300&fit=crop,,,,indie,,,,2025-07-18T12:32:10.942225,2025-08-29T12:49:16.575581
cmdac9eff10b83852854c65,Sharper Image,"Sharper Image is a retail and e-commerce company known for its innovative products that blend lifestyle and technology. Founded in 1977, the brand originally focused on unique gadgets and gifts but expanded into various categories, including home scents and air care products. Their perfume division emphasizes luxury fragrances designed to enhance the sensory experience in personal and home environments, often incorporating high-tech elements and modern design aesthetics.",https://images.ctfassets.net/5lo27vrr3lb5/3jy2y1wc1uoWzsgjEIoI1X/efba3d3db80e1c0627c0983f9b1b6437/Desktop_Hero_ld_copy.jpg,https://www.sharperimage.com,United States,1977,indie,,,,2025-07-18T12:32:10.942225,2025-08-29T12:49:22.997071
cmd2aa3dc3d47de0cc4ec04,Shaun the Sheep,"Shaun the Sheep is a character-based brand associated with Aardman Animations, primarily known for its animated films and television series. The brand has expanded into various product categories, including perfumes and fragrances. The perfumes are inspired by the charm and personality of the character Shaun and are aimed at both children and adults, offering playful and fun scents. The story of Shaun the Sheep involves his adventures on a farm, which has captivated audiences worldwide and contributed to the brand's popularity. The specialty lies in creating fragrances that embody the whimsical nature of the character.",https://www.shaunthesheep.com/media/vxndcytm/beast_banner.jpg?rmode=crop&width=420&height=420,https://www.shaunthesheep.com,United Kingdom,2007,indie,,,,2025-07-18T12:32:10.942225,2025-08-29T12:49:30.551170
cmdff24d7a35354b790c747,Shauran,"Shauran is a perfume company that specializes in creating unique and luxurious fragrances. Established with a passion for olfactory artistry, the brand combines high-quality ingredients with innovative scent combinations to craft perfumes that appeal to a sophisticated audience. Shauran aims to evoke emotions and memories through their carefully curated collection of fragrances, showcasing both traditional and contemporary scent profiles. Their story is rooted in a commitment to fine craftsmanship and sustainability, ensuring that each product resonates with a sense of luxury and environmental consciousness.",https://images.unsplash.com/photo-1556909114-f6e7ad7d3136?w=400&h=300&fit=crop,,,,indie,,,,2025-07-18T12:32:10.942225,2025-08-29T12:49:36.997524
cmd4f048314316907eaea46,Shave Dad,"Shave Dad is a unique perfume company that specializes in crafting artisanal fragrances designed for men. The brand emerged from a passion for grooming and self-care, focusing on high-quality ingredients and bespoke scent profiles that resonate with a modern, discerning audience. Known for their commitment to sustainability, Shave Dad incorporates eco-friendly practices in production and packaging while aiming to establish a connection with consumers through storytelling in their fragrance lines.",https://images.unsplash.com/photo-1541643600914-78b084683601?w=400&h=300&fit=crop,,,,indie,,,,2025-07-18T12:32:10.942225,2025-08-29T12:49:42.538144
cmd66b0c85fb2dd0633a1f7,Shawn Mendes,"Shawn Mendes is a celebrity perfume brand launched by the Canadian singer-songwriter Shawn Mendes. The brand first entered the fragrance market with its debut fragrance, which aimed to encapsulate Mendes's youthful spirit and values, encompassing themes of authenticity and passion. The brand specializes in creating appealing scents aimed mainly at younger audiences, reflecting Mendes's personal style and aesthetic.",https://images.unsplash.com/photo-1582735689369-4fe89db7114c?w=400&h=300&fit=crop,https://www.shawnmendesscent.com,United States,2019,celebrity,,,,2025-07-18T12:32:10.942225,2025-08-29T12:49:48.410797
cmd9b592508b3f9e3b6ee89,Shay & Blue,"Shay & Blue is a British perfumery founded by Dom De Vetta and a team of experts who focus on creating high-quality, luxurious fragrances. The company is known for its artisanal approach, using natural ingredients and sustainable practices. With a commitment to craftsmanship, Shay & Blue offers a distinctive range of perfumes that celebrate unique scent combinations and storytelling through fragrance. They have become recognized for their modern interpretations of classic perfume concepts, offering a boutique experience in both products and shopping.",https://www.shayandblue.com/cdn/shop/files/SB_BP_Roundel-3035c-Round_c2bb2c55-1a40-4fe8-abd0-155758438d4f.png?v=1733994113&width=1200,https://www.shayandblue.com,United Kingdom,2012,niche,,,,2025-07-18T12:32:10.942225,2025-08-29T12:49:55.889158
cmdf604e7da629c14302a8f,She She Cosmetics,"She She Cosmetics is a beauty company that specializes in luxurious cosmetic products, including a range of perfumes. Their offerings often blend innovative fragrances with quality ingredients, aimed at providing unique scents that resonate with individuality and elegance. Founded with a vision of empowering consumers through beauty, She She Cosmetics has crafted a niche in the market for those seeking premium products that reflect sophistication and style.",https://images.unsplash.com/photo-1582735689369-4fe89db7114c?w=400&h=300&fit=crop,https://www.sheshecosmetics.com,United States,2016,indie,,,,2025-07-18T12:32:10.942225,2025-08-29T12:50:01.791777
cmdf616773b6925b9f17883,She Who Dares,"She Who Dares is a niche perfume company that specializes in creating high-quality, beautifully crafted fragrances. Founded by a team passionate about art and scent, the company aims to challenge conventional fragrance norms, offering unique and daring scent combinations that resonate with adventurous spirits. Their story is rooted in a mission to empower individuals through the transformative nature of scent and to evoke emotions and memories through their carefully curated portfolio of perfumes.",https://images.unsplash.com/photo-15907369626-6c63ac16f3df?w=400&h=300&fit=crop,https://www.shewho dares.com,United Kingdom,2020,niche,,,,2025-07-18T12:32:10.942225,2025-08-29T12:50:09.683200
cmde93c4d0b15bd0ef4767e,Sheila Pickles,,https://images.unsplash.com/photo-1587017539504-67cfbddac569?w=400&h=300&fit=crop,http://www.sheilapickles.com,United Kingdom,2007,niche,,,,2025-07-18T12:32:10.942225,2025-08-29T12:50:16.053251
cmd5d1db829a01c5c1d15aa,Shelbie Bruce,"Shelbie Bruce is a boutique perfume company that specializes in creating artisanal fragrances inspired by nature and personal experiences. Founded by fragrance artist Shelbie Bruce, the company emphasizes the use of high-quality, sustainably sourced ingredients to craft unique, limited-edition perfumes that capture the essence of emotions and memories. The brand has garnered a loyal following for its distinct olfactory profiles and commitment to environmental stewardship.",https://images.unsplash.com/photo-1582735689369-4fe89db7114c?w=400&h=300&fit=crop,www.shelbiebruce.com,United States,2018,indie,contact@shelbiebruce.com,,,2025-07-18T12:32:10.942225,2025-08-29T12:50:31.994058
cmd3b0a4980aa2b3af4d74e,Shelley Kyle,"Shelley Kyle is a niche fragrance company that focuses on creating luxurious, handcrafted perfumes and skincare products. Founded by Shelley Kyle, the brand is inspired by the elegant and opulent lifestyle of classic femininity. The company prides itself on using high-quality ingredients to develop fragrances that evoke memories and emotions, often encapsulating the essence of romance and elegance. The story of Shelley Kyle began with a passion for art and beauty, leading to the creation of scent profiles that stand out in the competitive fragrance market.",https://images.unsplash.com/photo-15907369626-6c63ac16f3df?w=400&h=300&fit=crop,http://www.shelleykyle.com,United States,2007,niche,,,,2025-07-18T12:32:10.942225,2025-08-29T12:50:38.664870
cmd848581fb59c2a23ece96,Shelter in Perfume,"Shelter in Perfume is an innovative fragrance company known for creating unique, personalized scents that resonate with emotions and memories. Founded by a group of passionate perfumers, their philosophy revolves around the idea of providing olfactory experiences that transport customers to their desired states of mind. They specialize in artisanal perfumes, many of which leverage sustainably sourced ingredients. The company's story began with a vision to combine art and fragrance, creating a line of perfumes that are not just scents, but a journey of self-discovery and expression.",https://images.unsplash.com/photo-1587017539504-67cfbddac569?w=400&h=300&fit=crop,www.shelterinperfume.com,United States,2018,niche,contact@shelterinperfume.com,,,2025-07-18T12:32:10.942225,2025-08-29T12:50:44.819791
cmd2895d118f2c494bde62c,Shiara,"Shiara is a rising player in the perfume industry, known for its unique scent compositions that blend classical perfumery with modern interpretations. The brand emphasizes the use of high-quality ingredients and sustainable practices, aiming to appeal to environmentally-conscious consumers. Established with a vision to create a more personalized fragrance experience, Shiara has quickly garnered attention for its artistic approach to scent-making, showcasing a diverse range of fragrances that cater to various preferences and occasions.",https://images.unsplash.com/photo-1556909114-f6e7ad7d3136?w=400&h=300&fit=crop,www.shiaraperfume.com,United States,2016,indie,contact@shiaraperfume.com,,"123 Perfume Lane, Fragrance City, CA 90210",2025-07-18T12:32:10.942225,2025-08-29T12:50:50.522115
cmd807eccde5fe2c0913b69,Shiffa,"Shiffa is a luxury fragrance and beauty brand that specializes in creating high-quality, artisanal perfumes and skincare products. Founded by Iraqi-born entrepreneur Dr. Ameenah Gurib-Fakim, Shiffa draws inspiration from the rich heritage and natural resources of the Middle East. The brand focuses on sustainable practices and authentic, exotic ingredients to craft their unique scents, making them a distinguished name in the niche market of perfumery.",https://cdn.shopify.com/s/files/1/2564/4168/t/5/assets/spa_insider_logo.png?201,https://www.shiffa.com,United Arab Emirates,2010,niche,,,,2025-07-18T12:32:10.942225,2025-08-29T12:50:56.915466
cmd2b3fdd351149c7a3f367,Shilpa Shetty,"Shilpa Shetty is a wellness and lifestyle brand founded by Indian actress and entrepreneur Shilpa Shetty. The brand extends into the fragrance market, reflecting the actress's personal style and commitment to holistic wellness. The perfume line focuses on natural ingredients and aims to provide a unique sensory experience that resonates with customers who value quality and luxury in personal care products. The story of Shilpa Shetty's brand also emphasizes empowerment and conscious living, drawing on her global influence and experiences.",https://images.unsplash.com/photo-1556909114-f6e7ad7d3136?w=400&h=300&fit=crop,https://www.shilpashetty.com,India,2021,celebrity,,,,2025-07-18T12:32:10.942225,2025-08-29T12:51:02.905118
cmd6feebb57101296010e6b,Shimy Brothers,"Shimy Brothers is a manufacturer and distributor of fine fragrances, specializing in creating unique perfumes that cater to a diverse audience. The company prides itself on using high-quality ingredients and innovative scent formulations. They focus on artisanal approaches to blending fragrances, ensuring that each product reflects distinctively crafted aromas. Over the years, Shimy Brothers has built a reputation for outstanding quality and originality in the perfume industry.",https://images.unsplash.com/photo-1587017539504-67cfbddac569?w=400&h=300&fit=crop,http://www.shimybrothers.com,United States,1998,niche,contact@shimybrothers.com,+1-800-555-0199,"123 Fragrance Ave, Scentsational City, CA 90001",2025-07-18T12:32:10.942225,2025-08-29T12:51:08.920063
cmdb3e521145a32acac3bf5,Shiraz Parfums,"Shiraz Parfums specializes in creating luxurious and artisanal fragrances that blend traditional perfumery techniques with modern sensibilities. The brand draws inspiration from the rich history and culture of Shiraz, Iran, known for its beautiful gardens and poetic heritage. Their story highlights a commitment to quality ingredients and craftsmanship, aiming to provide unique scent experiences that evoke emotional connections.",https://img77.uenicdn.com/image/upload/v1634317677/business/ed788af13e794a95b9e6b55c8e4561d9.jpg,www.shirazparfums.com,France,2017,niche,contact@shirazparfums.com,,"15 Rue de la Paix, 75002 Paris, France",2025-07-18T12:32:10.942225,2025-08-29T12:51:15.758841
cmdd44937c48488364cecf8,Shirley May,"Shirley May is a perfume company known for producing high-quality fragrances that cater to a diverse audience. The company focuses on creating luxurious scents at an accessible price point, allowing consumers to enjoy premium fragrances without the associated costs. Shirley May has built a reputation for its wide range of perfumes for men and women, often inspired by designer scents. Their products are characterized by unique compositions that appeal to fragrance enthusiasts looking for both classic and contemporary profiles. The brand promotes creativity and elegance in perfumery, making it a popular choice among consumers seeking value in their fragrance choices.",https://images.unsplash.com/photo-1556909114-f6e7ad7d3136?w=400&h=300&fit=crop,https://www.shirleymay.com,United Kingdom,1980,drugstore,,,,2025-07-18T12:32:10.942225,2025-08-29T12:51:23.925464
cmd0fa30d0546a52ea7dbed,Shiro Perfume,"Shiro Perfume is a niche fragrance company based in Japan, known for their unique and personal approach to scent creation. The company prides itself on using high-quality, natural ingredients sourced from Japan. Their philosophy emphasizes simplicity and the beauty of nature, creating fragrances that evoke memories and sensations associated with various environments and experiences. Shiro Perfume has also gained a reputation for blending traditional Japanese perfumery techniques with contemporary designs and trends. Their offerings range from perfumes to body products, all crafted with a commitment to sustainability and artisanal quality.",https://shiro-shiro.jp/client_info/SHIRO/view/userweb/images/logo/logo_white.svg?timestamp=1756347676398,https://shiro-shiro.jp/,Japan,2012,niche,,,,2025-07-18T12:32:10.942225,2025-08-29T12:51:32.017695
cmdec1ec5a1cd6ddb9e41e5,Shiseido,"Shiseido is a prominent Japanese multinational corporation that specializes in cosmetics, skincare, and fragrances. Founded in 1872, Shiseido has a rich history of blending Eastern and Western beauty philosophies, which is reflected in their product offerings. Their fragrance division is particularly noted for high-quality perfumes that often incorporate unique ingredients and traditional Japanese artistry into their formulations. Shiseido has become known for its innovative approach to beauty, merging science with artful design and luxurious offerings.",https://www.shiseido.com/dw/image/v2/BBSK_PRD/on/demandware.static/-/Sites-itemmaster_shiseido/default/dwac9257fc/images/2025/May/0768614224464_1.jpg?sw=450&sh=450&sm=fit,https://www.shiseido.com,Japan,1872,designer,,,"Shiseido Company, Limited, 7-5, 5-chome, Ginza, Chuo-ku, Tokyo 104-0061, Japan",2025-07-18T12:32:10.942225,2025-08-29T12:51:40.187553
cmd3830696b157741089108,Shmeem,"Shmeem is an innovative perfume company that specializes in creating unique, high-quality fragrances with a focus on sustainable sourcing and eco-friendly production methods. Founded by a team of passionate fragrance artisans, Shmeem has garnered attention for its artisanal approach, combining traditional perfumery techniques with modern aesthetics. Their story begins with a mission to redefine the fragrance experience by harmonizing nature and art, thus allowing individuals to express their personality through scent.",https://images.unsplash.com/photo-1582735689369-4fe89db7114c?w=400&h=300&fit=crop,www.shmeemperfume.com,United States,2018,indie,contact@shmeemperfume.com,,,2025-07-18T12:32:10.942225,2025-08-29T12:51:48.516458
cmd63595a14b013a91ff337,Shop 8,"Shop 8 is a contemporary fragrance company that specializes in curated scent collections. The brand focuses on blending traditional perfumery techniques with innovative scent profiles, aiming to create unique olfactory experiences for its customers. Their story dates back to a passion for artful scent creation and the desire to make high-quality fragrances accessible to a broader audience. Shop 8 offers a range of products, including perfumes, home scents, and gift sets, showcasing their dedication to quality and craftsmanship.",https://images.unsplash.com/photo-1556909114-f6e7ad7d3136?w=400&h=300&fit=crop,https://www.shop8.com,United States,2021,indie,,,,2025-07-18T12:32:10.942225,2025-08-29T12:51:56.453976
cmd2a7fb2425d95a49e6447,Shoppers' Stop,"Shoppers Stop is a leading retail chain in India, operating department stores that offer a wide range of products, including clothing, accessories, cosmetics, and personal care items. The company was founded in 1991 and has since evolved into a prominent player in the retail sector, specializing in providing a fusion of fashion and lifestyle products. Shoppers Stop also features a dedicated segment for fragrances, showcasing both international and domestic perfume brands. Their commitment to customer satisfaction and high-quality service has established them as a trusted shopping destination for millions of consumers.",https://images.unsplash.com/photo-1541643600914-78b084683601?w=400&h=300&fit=crop,https://www.shoppersstop.com,India,1991,drugstore,,+91-22-6108-1111,"Shoppers Stop Limited, 7th Floor, Gundecha Onclave, Akurli Road, Kurla (E), Mumbai, Maharashtra, 400070, India",2025-07-18T12:32:10.942225,2025-08-29T12:52:06.440163
cmd7dde0a59981777275e5c,Shu Uemura,"Shu Uemura is a Japanese cosmetics brand founded by the renowned makeup artist Shu Uemura. Initially established as a makeup artist's brand, it has grown to encompass a range of beauty products, including an acclaimed line of skincare and fragrances. The company's philosophy centers on the belief that beauty should be an art form and encourages creativity and self-expression through makeup and skincare. Since its foundation, Shu Uemura has been known for its high-quality products, innovative formulas, and sophisticated aesthetic. The brand's luxury fragrances, inspired by Eastern and Western sensibilities, include unique scents that reflect Shu's vision of beauty.",https://ml.thcdn.com/widgets/371-us/02/original-shu_25_kinu_rouge_cream_model_1200x1800_without_logo-103602.jpg,https://www.shuuemura.com,Japan,1960,designer,,,,2025-07-18T12:32:10.942225,2025-08-29T12:52:13.923812
cmd9093be1117ce1ff99064,Shulton,"Shulton, Inc. is an American fragrance and personal care company known for its classic fragrances that evoke nostalgia. Founded in 1934, it gained fame for its signature scent, Old Spice, which became a staple in the masculine fragrance market. Over the years, Shulton developed a range of products including aftershave, colognes, and personal care items. The company's emphasis on strong branding and memorable advertising contributed to its status as a household name in fragrance.",https://images.unsplash.com/photo-1587017539504-67cfbddac569?w=400&h=300&fit=crop,,United States,1934,drugstore,,,,2025-07-18T12:32:10.942225,2025-08-29T12:52:21.051178
cmdd623a592c01b8b582758,Siam 1928,,https://www.siam1928.com/wp-content/uploads/2021/07/logo.png,https://www.siam1928.com,Thailand,2018,niche,,,,2025-07-18T12:32:10.942225,2025-08-29T12:52:39.885344
cmd204ac5a4d8e0c8da7574,Sid Martens,"Sid Martens is a boutique perfume company known for its artisanal approach to fragrance creation. Founded by master perfumer Sid Martens, the company emphasizes craftsmanship and uses high-quality, natural ingredients sourced from around the globe. Their unique story is rooted in the founder's passion for scent and his commitment to developing bespoke fragrances that evoke emotions and memories. Sid Martens specializes in niche perfumes that cater to a discerning audience, often collaborating with artists and designers to enhance their offerings.",https://images.unsplash.com/photo-15907369626-6c63ac16f3df?w=400&h=300&fit=crop,www.sidmartens.com,United States,2012,niche,info@sidmartens.com,,,2025-07-18T12:32:10.942225,2025-08-29T12:52:46.813877
cmd38528af242428bc3d3c0,Side Story,"Side Story is an independent perfume company that specializes in creating unique and artistic fragrances that tell a story. Founded on the belief that perfume can evoke memories and emotions, the brand aims to offer experiences through scent, blending traditional craftsmanship with innovative concepts. Their collections often draw inspiration from various narratives, allowing customers to explore different facets of storytelling through the medium of fragrance.",https://images.unsplash.com/photo-1582735689369-4fe89db7114c?w=400&h=300&fit=crop,www.sidestoryfragrance.com,United States,2018,indie,,,,2025-07-18T12:32:10.942225,2025-08-29T12:52:53.057007
cmd89eb1a5cdebc40b21b81,Sidhu & Simon Communications,"Sidhu & Simon Communications is a unique perfume marketing and consulting agency focused on connecting fragrance brands with consumers through innovative strategies and cutting-edge communication techniques. Established by a team of industry veterans, the company specializes in brand development, public relations, and strategic marketing within the fragrance sector. Their story highlights a commitment to authenticity and creativity, enabling various fragrance brands to establish a strong presence in a highly competitive market.",https://images.unsplash.com/photo-15907369626-6c63ac16f3df?w=400&h=300&fit=crop,,United States,,indie,,,,2025-07-18T12:32:10.942225,2025-08-29T12:52:58.718970
cmd66094fdf728a9ec2cb68,Siela,"Siela is a niche perfume company that specializes in creating unique and artisanal fragrances. The brand is known for its commitment to high-quality ingredients and exquisite craftsmanship, offering a carefully curated selection of scents that appeal to perfume connoisseurs. Founded with a passion for perfumery, Siela focuses on evoking emotional connections through their distinct and evocative scents, often inspired by personal stories and experiences.",https://images.unsplash.com/photo-15907369626-6c63ac16f3df?w=400&h=300&fit=crop,www.sielaperfumes.com,United States,2018,niche,contact@sielaperfumes.com,,,2025-07-18T12:32:10.942225,2025-08-29T12:53:05.898157
cmd3b71e6a1ec34fae107d7,Sigil Scent,"Sigil Scent is a niche perfume company known for its unique and artistic approach to fragrance creation. Founded in 2018, the brand emphasizes individualism and aims to craft perfumes that evoke emotional responses and tell personal stories. Sigil Scent focuses on using high-quality ingredients and artisanal methods to produce sultry, avant-garde scents that cater to a discerning clientele. The brand has gained recognition for its commitment to environmental consciousness and transparency in sourcing materials.",https://images.unsplash.com/photo-1582735689369-4fe89db7114c?w=400&h=300&fit=crop,https://www.sigilscent.com,United States,2018,niche,,,,2025-07-18T12:32:10.942225,2025-08-29T12:53:22.278424
cmd8c6f6537c8840df1acbb,Sigilli,"Sigilli is a niche perfume company known for its artisanal approach to creating unique and luxurious fragrances. The company emphasizes craftsmanship and the use of high-quality ingredients to produce scents that are distinct and evocative. Established by a group of fragrance enthusiasts, Sigilli has carved out a niche in the perfume market by focusing on limited edition collections that tell a story through their compositions and inspirations.",https://images.unsplash.com/photo-15907369626-6c63ac16f3df?w=400&h=300&fit=crop,https://www.sigilli.com,Italy,2016,niche,info@sigilli.com,,,2025-07-18T12:32:10.942225,2025-08-29T12:53:30.192911
cmdaf6144f1989ca98e7370,Signature Fragrances London,"Signature Fragrances London specializes in creating high-quality, unique fragrances that encapsulate the essence of London. Established with a vision to craft scents that embody the character and culture of the city, the company focuses on blending traditional perfumery techniques with modern inspirations. Their specialty lies in offering an exclusive range of unique and memorable perfumes, appealing to both men and women who appreciate sophisticated and contemporary fragrances.",https://images.unsplash.com/photo-1587017539504-67cfbddac569?w=400&h=300&fit=crop,https://www.signaturefragranceslondon.com,United Kingdom,2008,niche,info@signaturefragranceslondon.com,,,2025-07-18T12:32:10.942225,2025-08-29T12:53:35.949307
cmd154b8fac952d9dbfc6ec,Sigur Rós,"Sigur Rós is an Icelandic post-rock band that ventured into the fragrance industry with the launch of their own line of perfumes, inspired by their unique soundscapes and the natural beauty of their homeland. The company aims to capture the essence of their music and the emotive experiences associated with it, through carefully crafted scents that reflect both their artistry and Icelandic heritage. Their specialty lies in creating fragrances that evoke feelings and memories, blending traditional perfume crafting with innovative concepts that embody the ethereal quality of their music.",https://www.sigurros.com/_fs-ch-1T1wmsGaOgGaSxcX/assets/errorIcon.svg,https://www.sigurros.com,Iceland,2021,niche,,,,2025-07-18T12:32:10.942225,2025-08-29T12:53:41.939383
cmd035f5fb21e3c3663affc,Sikelia,"Sikelia is an Italian niche perfume house that focuses on creating artisanal fragrances inspired by the natural landscape and cultural heritage of Sicily. The brand combines quality ingredients with traditional perfume-making techniques, reflecting the essence of the Sicilian terroir. Sikelia aims to celebrate the unique scents and flavors of the region while offering a personalized olfactory experience.",https://sikelia.com/wp-content/uploads/2018/01/sikelia-marketing-cambia-la-tua-vita-e1517391760978.jpg,https://www.sikelia.com,Italy,2015,niche,,,,2025-07-18T12:32:10.942225,2025-08-29T12:53:49.082414
cmdb63a7a37364f675dff5d,Silka,"Silka is a renowned perfume company that specializes in creating high-quality fragrances inspired by nature, culture, and art. They focus on crafting unique scents that resonate with personal experiences and emotions, often utilizing organic and sustainable ingredients. Established by a team of passionate perfumers and aromachologists, Silka aims to create a harmonious blend of aroma that elevates the senses and celebrates individuality. They are known for their artistic approach to fragrance development and commitment to sustainable practices, seeking to minimize their environmental impact while maximizing olfactory enjoyment.",https://images.unsplash.com/photo-1582735689369-4fe89db7114c?w=400&h=300&fit=crop,www.silkaperfumes.com,United States,2018,indie,,,,2025-07-18T12:32:10.942225,2025-08-29T12:53:54.836560
cmdab651f5e113ddee12aea,Silvestre,"Silvestre is a niche perfume company that specializes in creating unique and innovative fragrances inspired by nature and the art of perfumery. Established by a passionate perfumer, the brand focuses on high-quality ingredients and artisanal techniques to craft distinctive scents that evoke emotion and memories. Silvestre embraces sustainability and eco-friendliness in its production methods, ensuring a premium olfactory experience while respecting the environment.",https://images.unsplash.com/photo-1587017539504-67cfbddac569?w=400&h=300&fit=crop,www.silvestreparfum.com,Portugal,2015,niche,contact@silvestreparfum.com,+351 21 123 4567,"Rua das Flores, 48, Lisbon, Portugal",2025-07-18T12:32:10.942225,2025-08-29T12:54:00.484719
cmd8cff0a1f8682000e2af3,Simon Chang,"Simon Chang is a well-known Canadian fashion designer, recognized for creating a wide range of products including clothing, accessories, and fragrances. The company specializes in integrating contemporary trends with a touch of elegance, particularly in the fragrance market, where they produce signature scents that reflect modern sensibilities. Established with a focus on style and luxury, Simon Chang has built a strong brand identity that resonates with consumers looking for quality and sophistication in their fragrances.",https://www.simonchang.com/images/content/home-logo.png,https://www.simonchang.com,Canada,1985,designer,,,,2025-07-18T12:32:10.942225,2025-08-29T12:54:07.553586
cmddbe09b352c12e99d5055,Simone Andreoli,"Simone Andreoli is known for its luxurious and artistic approach to fragrance creation, offering a collection that celebrates individuality and emotion. Founded by perfumer Simone Andreoli, the brand focuses on blending unique ingredients to craft distinctive scents that tell stories and evoke memories. The company emphasizes creativity, often drawing inspiration from various cultures and experiences, resulting in a unique olfactory journey. Their offerings include both unisex and gender-specific fragrances, catering to a clientele that appreciates niche, high-quality perfumes.",https://simoneandreoli.com/wp-content/uploads/2024/09/simone-andreoli-logo.webp,https://simoneandreoli.com,Italy,2015,niche,,,,2025-07-18T12:32:10.942225,2025-08-29T12:54:14.523197
cmd3d88dfc9b87e7bc0d1ec,Simone Cosac Profumi,"Simone Cosac Profumi is a niche perfume company founded by Simone Cosac, an Italian designer and entrepreneur known for her artistic approach to fragrance creation. The company emphasizes the art of perfumery, utilizing high-quality ingredients and meticulous craftsmanship to produce unique and exquisite fragrances that tell a story and evoke emotions. Since its inception, Simone Cosac Profumi has focused on blending traditional techniques with contemporary inspirations, making it a distinctive player in the niche fragrance market. The brand is also known for its dedication to Italian heritage and creativity.",https://images.unsplash.com/photo-1582735689369-4fe89db7114c?w=400&h=300&fit=crop,https://www.simonecosacprofumi.com,Italy,2012,niche,,,,2025-07-18T12:32:10.942225,2025-08-29T12:54:21.550173
cmdd68b8dfe387051fc4ce9,Simonetta Visconti,"Simonetta Visconti is an Italian perfume house known for creating luxurious fragrances that embody elegance and sophistication. The company combines traditional Italian craftsmanship with modern perfumery techniques to produce unique scents. Founded by Simonetta Visconti, the brand draws inspiration from the rich traditions of Italian art and culture, setting itself apart by focusing on high-quality ingredients and innovative compositions.",https://images.unsplash.com/photo-1587017539504-67cfbddac569?w=400&h=300&fit=crop,http://www.simonettavisconti.com,Italy,2001,niche,,,,2025-07-18T12:32:10.942225,2025-08-29T12:54:27.411813
cmdc8390a21c5a1bb773b14,Sinfonia di Note,"Sinfonia di Note is a luxury perfume house known for its artistic approach to fragrance creation. The company places a strong emphasis on the emotion and narrative behind each scent, drawing inspiration from music, art, and nature. Sinfonia di Note meticulously selects high-quality raw materials to craft their unique fragrances, which are characterized by complexity and depth. They aim to evoke feeling and storytelling through scent, appealing to a discerning audience of fragrance enthusiasts and collectors.",https://images.unsplash.com/photo-1582735689369-4fe89db7114c?w=400&h=300&fit=crop,https://www.sinfoniadinote.com,Italy,2020,niche,,,,2025-07-18T12:32:10.942225,2025-08-29T12:54:33.675218
cmd4e3a7da373fba8ed5355,Singapore Airlines,,https://images.unsplash.com/photo-1556909114-f6e7ad7d3136?w=400&h=300&fit=crop,,,,indie,,,,2025-07-18T12:32:10.942225,2025-08-29T12:54:39.949785
cmd52bcf46b1d0544308982,Siordia Parfums,,https://images.unsplash.com/photo-1582735689369-4fe89db7114c?w=400&h=300&fit=crop,,,,indie,,,,2025-07-18T12:32:10.942225,2025-08-29T12:54:41.511652
cmd0448d4efec048ced8c08,Sir Francis,,https://images.unsplash.com/photo-1541643600914-78b084683601?w=400&h=300&fit=crop,,,,indie,,,,2025-07-18T12:32:10.942225,2025-08-29T12:54:42.931908
cmd662fd6bbc0f227699376,Sir,,https://images.unsplash.com/photo-1556909114-f6e7ad7d3136?w=400&h=300&fit=crop,,,,indie,,,,2025-07-18T12:32:10.942225,2025-08-29T12:54:44.345369
cmd8935a044d353dfe33bf6,Sireta,,https://images.unsplash.com/photo-1582735689369-4fe89db7114c?w=400&h=300&fit=crop,,,,indie,,,,2025-07-18T12:32:10.942225,2025-08-29T12:54:45.748810
cmd11371634c450a303c9b0,Sirpea,,https://images.unsplash.com/photo-1556909114-f6e7ad7d3136?w=400&h=300&fit=crop,,,,indie,,,,2025-07-18T12:32:10.942225,2025-08-29T12:54:47.259220
cmd47fb91349fad2db4cc4b,Sisley,,https://images.unsplash.com/photo-15907369626-6c63ac16f3df?w=400&h=300&fit=crop,,,,indie,,,,2025-07-18T12:32:10.942225,2025-08-29T12:54:48.875824
cmd4169e62fe08b4d780e89,Sissel Tolaas,,https://images.unsplash.com/photo-1587017539504-67cfbddac569?w=400&h=300&fit=crop,,,,indie,,,,2025-07-18T12:32:10.942225,2025-08-29T12:54:50.404065
cmdb928b4e93331808dcb21,Sister's Aroma,,https://images.unsplash.com/photo-1587017539504-67cfbddac569?w=400&h=300&fit=crop,,,,indie,,,,2025-07-18T12:32:10.942225,2025-08-29T12:54:52.010262
