id,name,description,image,website,country,founded,type,email,phone,address,createdAt,updatedAt
cmdabfa71d1fa2a7b9062a7,Ellen Tracy,"Ellen Tracy is a fashion brand that started as a women's clothing label in 1949 and later expanded into the fragrance market. The company emphasizes contemporary elegance and style, targeting a sophisticated audience. Ellen Tracy offers a variety of perfumes and body products that reflect the brand's commitment to quality and a modern aesthetic. The fragrances have typically been marketed towards women, with a focus on lifestyle and fashion-forward consumers.",https://ellentracy.com/cdn/shop/files/Image_1_440x.png?v=1655885434,www.ellentracy.com,United States,1949,designer,,,,2025-07-18T12:32:10.942225,2025-08-28T14:07:09.893250
cmd1803199370d5fbf6b4c5,Ellie D,"Ellie D is a perfume company that focuses on creating unique, high-quality fragrances. The brand emphasizes the importance of personal expression through scent, providing a range of products designed to cater to diverse preferences. They aim to innovate within the perfume industry by combining traditional methods with modern aesthetics, creating a signature identity for their fragrances.",https://images.unsplash.com/photo-1587017539504-67cfbddac569?w=400&h=300&fit=crop,https://www.elliedfragrance.com,United States,2020,indie,,,,2025-07-18T12:32:10.942225,2025-08-28T14:07:15.838002
cmdd9f0307bdaf2b0f6eabc,Ellis Brooklyn,"Ellis Brooklyn is an indie fragrance brand founded by former beauty editor Bee Shapiro. The company focuses on creating high-quality perfumes that are both modern and accessible. The brand aims to encapsulate the essence of New York, promoting a unique storytelling approach through its scent collections, which are crafted using clean, sustainable ingredients. Additionally, Ellis Brooklyn emphasizes minimalist design in both their fragrances and packaging, reflecting contemporary aesthetics.",https://www.ellisbrooklyn.com/cdn/shop/t/242/assets/ellis-logo.svg?v=157633440487834635181755024727,https://www.ellisbrooklyn.com,United States,2015,indie,,,,2025-07-18T12:32:10.942225,2025-08-28T14:07:22.907343
cmd172edd0d8e493810d73e,Ellis,"Ellis Brooklyn is a New York-based fragrance brand that specializes in clean, sustainable perfumes. Founded by entrepreneur Bee Shapiro, the brand focuses on combining modern perfumery with eco-conscious practices. Each fragrance is crafted with natural ingredients, and the company emphasizes a commitment to being cruelty-free and avoiding harmful chemicals. The brand is known for its captivating scents and elegant packaging, reflecting a contemporary aesthetic while prioritizing environmental responsibility.",https://www.ellisbrooklyn.com/cdn/shop/t/242/assets/ellis-logo.svg?v=157633440487834635181755024727,https://www.ellisbrooklyn.com,United States,2015,niche,,,,2025-07-18T12:32:10.942225,2025-08-28T14:07:29.013908
cmd34fcbfed1f583c2aa179,Ellyn Deleith,"Ellyn Deleith is a niche perfume company known for its artisanal approach to fragrance creation. The brand focuses on crafting luxurious scents that evoke emotions and memories, using high-quality materials sourced from around the world. Founded by perfumer Ellyn Deleith, the company prides itself on sustainability and eco-friendly practices, making a significant effort to package their products in environmentally conscious ways. Their story extends from a passion for olfactory art to a commitment to excellence in the perfume industry, emphasizing individuality and personal expression through scent.",https://images.unsplash.com/photo-15907369626-6c63ac16f3df?w=400&h=300&fit=crop,www.ellyndelete.com,United States,2015,niche,contact@ellyndelete.com,,,2025-07-18T12:32:10.942225,2025-08-28T14:07:35.609223
cmdb29ee982bd4210fe77bd,Elorea,"Elorea is a luxury perfume company that specializes in creating high-quality fragrances with an emphasis on natural ingredients and artisan craftsmanship. The brand is known for its unique scent profiles inspired by exotic locations and cultural narratives, appealing to consumers who seek distinctive and elegant olfactory experiences. Elorea's story began with a passion for perfume that blends tradition with modern sensibilities, making it a notable player in the niche perfume market.",https://elorea.com/cdn/shop/files/logo_BLACK_360x.png?v=1632949447,https://www.elorea.com,United States,2020,niche,info@elorea.com,,,2025-07-18T12:32:10.942225,2025-08-28T14:07:43.176425
cmdca30d5546998e7af7f5e,Elsa Schiaparelli,"Elsa Schiaparelli is a luxury fashion and fragrance house founded by Italian designer Elsa Schiaparelli in the early 20th century. The brand is renowned for its bold, avant-garde designs and its contributions to surrealism in fashion. Schiaparelli's signature scents, known for their unique and often whimsical packaging and compositions, reflect her artistic vision and innovative spirit. The company has been reestablished after a period of dormancy and continues to produce fragrances that embody the brand's artistic heritage while appealing to modern sensibilities.",https://www.schiaparelli.com/img/menu/2025/07/shop_newin-686c02b09a128.jpg?frz-v=140,https://www.schiaparelli.com,Italy,1927,designer,,,"21 Place Vendôme, 75001 Paris, France",2025-07-18T12:32:10.942225,2025-08-28T14:07:51.654167
cmd33916753adf1cda1cac8,Elsha,"Elsha is a contemporary perfume company specializing in crafting high-quality, niche fragrances. Their story began with a passion for olfactory artistry and a commitment to using only the finest natural ingredients. By focusing on artisanal techniques and unique scent profiles, Elsha aims to create distinctive perfumes that resonate with individuals seeking personalized olfactory experiences.",https://images.unsplash.com/photo-1556909114-f6e7ad7d3136?w=400&h=300&fit=crop,www.elshaperfumes.com,United States,2015,niche,contact@elshaperfumes.com,,,2025-07-18T12:32:10.942225,2025-08-28T14:07:57.858075
cmdb8f8ce02cacb4a8bee6c,Elternhaus,"Elternhaus is a specialized perfume company that focuses on creating unique and artisanal fragrances. Founded by a family passionate about scent, they blend traditional methods with modern inspirations to craft perfumes that embody emotional connections and memories. The brand emphasizes sustainability and high-quality ingredients, positioning itself as a purveyor of niche fragrances that appeal to discerning customers looking for authenticity and originality.",https://www.elternhaus.com/wp-content/uploads/2018/11/LogoElternhaus-01.svg,www.elternhaus.com,Germany,2015,niche,info@elternhaus.com,+49 30 123456789,"Gartenstraße 20, 10115 Berlin, Germany",2025-07-18T12:32:10.942225,2025-08-28T14:08:05.436306
cmdf26a4289d3ee08342426,Elvis Jesus,"Elvis Jesus is a niche perfume brand that captures the spirit and style of rock and roll icon Elvis Presley. The company combines pop culture with fragrance, creating a line of unique scents that reflect the personality and charisma of Elvis. Their story is deeply rooted in music and fashion, celebrating the legacy of Elvis through innovative and memorable fragrances.",https://images.unsplash.com/photo-1541643600914-78b084683601?w=400&h=300&fit=crop,http://www.elvisjesus.com,United Kingdom,2009,niche,,,,2025-07-18T12:32:10.942225,2025-08-28T14:08:21.722733
cmdc73f9705bb82a80cc8db,Elyon Dubai,"Elyon Dubai is a luxury perfume house that specializes in creating high-quality, artisanal fragrances inspired by the rich cultural heritage of Dubai. Founded by a team of passionate perfumers, Elyon Dubai seeks to encapsulate the essence of the Arabian landscape, utilizing rare and distinctive ingredients sourced from the region. The brand is known for its dedication to craftsmanship, providing a diverse range of perfumes that cater to both traditional and contemporary tastes. Their offerings emphasize luxury, sophistication, and personal expression through fragrance.",https://elyondubai.com/cdn/shop/files/logo_2.2.png?v=1753098720&width=600,https://elyondubai.com,United Arab Emirates,2019,niche,contact@elyondubai.com,,,2025-07-18T12:32:10.942225,2025-08-28T14:08:28.327698
cmdb85a1359846eaa2f29ed,Elysee,"Elysee is a fragrance company that focuses on creating high-quality perfumes inspired by a blend of classic and modern scents. Established with the goal of providing luxurious fragrances at accessible prices, Elysee has gained popularity for its unique blends and commitment to using quality ingredients. The company emphasizes craftsmanship and artistry in fragrance design, catering to a diverse clientele that appreciates both elegance and sophistication in scent.",https://images.unsplash.com/photo-1582735689369-4fe89db7114c?w=400&h=300&fit=crop,https://elyseerose.com,United States,,indie,,,,2025-07-18T12:32:10.942225,2025-08-28T14:08:34.410930
cmdbedccf3578e77f4c717d,Elysees Fashion,"Elysees Fashion is a luxury perfume brand known for its elegant and high-quality fragrances that blend traditional craftsmanship with contemporary design. The company's story is rooted in a passion for fashion and fragrance, creating scents that embody sophistication and style. Elysees Fashion specializes in creating unique and memorable perfumes that cater to a discerning clientele, often drawing inspiration from Parisian culture and fashion.",https://images.unsplash.com/photo-15907369626-6c63ac16f3df?w=400&h=300&fit=crop,,,,niche,,,,2025-07-18T12:32:10.942225,2025-08-28T14:08:40.296508
cmd2be18fe414acd5ed6bc4,Elysian,"Elysian is a niche perfume company known for its artistic and high-quality fragrances. Founded by a group of passionate perfumers and scent enthusiasts, the company focuses on the concept of evoking emotions and memories through unique olfactory experiences. Their perfumes are carefully crafted using rare ingredients, embodying exquisite craftsmanship and creativity. Elysian aims to offer consumers a personal journey into the world of scent, celebrating individuality and bold expression through fragrance.",https://elysian.com/assets/images/icons/elysian_logo_2022_blue.png,https://www.elysian.com,United States,2015,niche,info@elysian.com,,,2025-07-18T12:32:10.942225,2025-08-28T14:08:48.155146
cmdc4f2077a39619e5a8599,Elysios,"Elysios is a contemporary perfume brand that seeks to blend modernity with the art of fragrance-making. Inspired by the ancient concept of Elysium, a paradise in Greek mythology, the company focuses on creating scents that evoke feelings of joy, tranquility, and sublime experiences. Elysios specializes in crafting high-quality, sophisticated fragrances that cater to a discerning clientele, with an emphasis on using ethically sourced ingredients and innovative scent profiles.",https://images.unsplash.com/photo-1556909114-f6e7ad7d3136?w=400&h=300&fit=crop,www.elysiosparfums.com,France,2019,niche,contact@elysiosparfums.com,,,2025-07-18T12:32:10.942225,2025-08-28T14:08:54.360303
cmd6a7454b2ea2fdda90470,Elytis,"Elytis is a niche perfume company that specializes in creating high-quality, artisanal fragrances inspired by nature and Greek mythology. Founded by perfumer Dimitris Loubardakis, the brand aims to encapsulate the beauty and essence of Greek landscapes and legends through unique scent compositions. Elytis emphasizes craftsmanship and originality, using carefully sourced ingredients to deliver distinctive olfactory experiences.",https://images.unsplash.com/photo-15907369626-6c63ac16f3df?w=400&h=300&fit=crop,https://www.elytis.gr,Greece,2015,niche,info@elytis.gr,,,2025-07-18T12:32:10.942225,2025-08-28T14:09:00.603489
cmd33d5a15fc856d4d7828f,Emeshel,"Emeshel is a niche perfume house known for its artisanal approach to fragrance creation. Founded with a passion for blending unique scent profiles, Emeshel emphasizes high-quality ingredients and craftsmanship. The brand's story is rooted in a desire to create personal and evocative fragrances that capture emotions and memories. They specialize in creating signature scents that resonate with a diverse clientele, drawing inspiration from various cultures and nature.",https://www.emeshel.com/images/Emeshe_Badge_Round_Pantone_431_C.svg,https://www.emeshel.com,United States,2018,niche,contact@emeshel.com,,,2025-07-18T12:32:10.942225,2025-08-28T14:09:07.129120
cmd8318e0cc8cde915931dc,Emil Élise,"Emil Élise is a fragrance specialty company that focuses on creating luxurious and artisanal perfumes. Founded by a perfumer passionate about the olfactory arts, the brand emphasizes craftsmanship, unique scent compositions, and high-quality raw materials. Emil Élise has garnered attention for its innovative approach and dedication to sustainability, making it a respected name in the niche fragrance market.",https://emilelise.com/wp-content/uploads/2022/06/EE_Wordmark_black.png,https://www.emilelise.com,United States,2018,niche,info@emilelise.com,,,2025-07-18T12:32:10.942225,2025-08-28T14:09:14.913163
cmd085b10439e95fb643440,Emilio Cavallini,"Emilio Cavallini is a luxury lifestyle brand known for its high-quality hosiery, leggings, and unique textile innovations. Founded by Italian designer Emilio Cavallini, the brand integrates fashion with Italian craftsmanship and avant-garde style. Recently, the company has expanded its product portfolio to include a signature line of perfumes that embody the brand's aesthetic, combining elegance, sophistication, and a touch of contemporary flair.",https://www.emiliocavallini.com/skin/frontend/cavallini/default/images/rw_country.jpg,https://www.emiliocavallini.com,Italy,1986,designer,,,,2025-07-18T12:32:10.942225,2025-08-28T14:09:23.365306
cmdb8b9d1a0b5966120889b,Emilio Pucci,"Emilio Pucci is an Italian fashion house founded by the designer Emilio Pucci in the mid-20th century. The brand is renowned for its vibrant prints and colorful designs that embody the essence of Italian elegance and luxury. Initially famous for its ready-to-wear clothing, the company expanded into perfume in the 1980s, creating a range of fragrances that reflect the brand's sophisticated aesthetic. Emilio Pucci's perfumes often feature floral and fruity notes, encapsulating the spirit of the Mediterranean and the allure of its designer's bold patterns.",https://images.unsplash.com/photo-1541643600914-78b084683601?w=400&h=300&fit=crop,https://www.emiliopucci.com,Italy,1947,designer,,,"Palazzo Pucci, Via de' Pucci 4, 50129 Florence, Italy",2025-07-18T12:32:10.942225,2025-08-28T14:09:30.087911
cmdb0d02de033842da43c7d,Emirates Pride,"Emirates Pride is a luxury perfume manufacturer based in the United Arab Emirates, specializing in creating high-quality, traditional Arabian and oriental fragrances. The company honors the rich heritage of perfume-making in the region, utilizing rare and high-quality ingredients sourced from around the world. Emirates Pride aims to blend contemporary fragrance trends with classic Arabian perfumery, providing customers with unique scent experiences that reflect the culture and history of the UAE.",https://emiratespride.com/wp-content/uploads/2025/05/en-logo.webp,https://www.emiratespride.com,United Arab Emirates,2000,niche,,+971 4 228 8888,"Al Bidda Tower, Sheikh Zayed Road, Dubai, UAE",2025-07-18T12:32:10.942225,2025-08-28T14:09:37.984821
cmdb823adcf209253f01828,Emma S.,"Emma S. is a luxury fragrance brand that emphasizes quality and sophistication in its product offerings. The brand focuses on creating unique, high-quality perfumes inspired by nature and personal experiences. Emma S. not only produces fragrances but also offers a range of skincare and body care products, creating a holistic approach to beauty and self-care. The brand is recognized for its meticulously crafted scents that convey emotions and evoke memories, making each fragrance a personal statement.",https://images.unsplash.com/photo-1587017539504-67cfbddac569?w=400&h=300&fit=crop,https://www.emmas.dk,Denmark,2016,indie,,,,2025-07-18T12:32:10.942225,2025-08-28T14:09:44.630048
cmd0d6053fd4f2d3c628d45,Emmanuel Levain,"Emmanuel Levain is a niche perfume house based in Paris, specializing in unique and artisanal fragrance creations. The brand is known for its commitment to high-quality ingredients and intricate scent compositions, often inspired by personal stories and emotions, aiming to evoke a deeper connection with the wearer. The company prides itself on blending traditional perfumery techniques with contemporary inspirations, resulting in exclusive fragrances that cater to discerning customers who appreciate individuality and craftsmanship.",https://images.unsplash.com/photo-1587017539504-67cfbddac569?w=400&h=300&fit=crop,https://www.emmanuellevain.com,France,2008,niche,,,,2025-07-18T12:32:10.942225,2025-08-28T14:09:50.534955
cmd2871768c72416675f162,Emor,"Emor is a fragrance company known for creating unique and high-quality perfumes that blend traditional techniques with modern olfactory trends. The company has a rich history in perfume-making, focusing on crafting artisanal scents that resonate with diverse cultures and personal experiences. Emor emphasizes authenticity and creativity in its creations, making it a distinctive player in the perfume market.",https://images.unsplash.com/photo-15907369626-6c63ac16f3df?w=400&h=300&fit=crop,,,,indie,,,,2025-07-18T12:32:10.942225,2025-08-28T14:09:56.444213
cmdb71d92e70f22346a2f33,Emossence,"Emossence is a niche perfume house that specializes in creating artisanal, handcrafted fragrances. Established with a passion for unique scent compositions, the company focuses on using high-quality ingredients sourced from around the globe. Each fragrance is meticulously crafted to evoke emotional connections and personal experiences, making Emossence stand out in the competitive perfume industry. Their story is rooted in the belief that perfume should be an experiential journey, and they take pride in creating limited edition scents that reflect the artistry of perfumery.",https://images.unsplash.com/photo-1582735689369-4fe89db7114c?w=400&h=300&fit=crop,www.emossence.com,United States,2015,niche,contact@emossence.com,,,2025-07-18T12:32:10.942225,2025-08-28T14:10:02.888389
cmdf699da9d4316a80c3d82,Emper,"Emper is a global fragrance company that specializes in creating and marketing a variety of perfumes for both men and women. Founded in 2003, Emper rapidly gained a reputation for producing high-quality, affordable fragrances that cater to diverse market preferences and demographics, often imitating popular designer scents. The company focuses on innovation and creativity in its product offerings, establishing itself as a key player in the mass-market fragrance industry.",https://images.unsplash.com/photo-15907369626-6c63ac16f3df?w=400&h=300&fit=crop,[https://www.emperfragrances.com](https://www.emperfragrances.com),United Arab Emirates,2003,drugstore,,,,2025-07-18T12:32:10.942225,2025-08-28T14:10:09.254438
cmd9f00f3d34ff97b486a24,Empire,"Empire is a niche perfume company that specializes in creating unique, high-quality fragrances inspired by different cultures and experiences. The company emphasizes artisanal craftsmanship, often using carefully sourced ingredients to produce distinctive scent profiles. Founded by a group of fragrance enthusiasts, Empire aims to elevate personal expression through olfactory art, offering a range of innovative and evocative perfumes that cater to a sophisticated clientele.",https://static.HugeDomains.com/images/hdv3-img/hd-header-logo-v3.svg,https://www.empirefragrance.com,United States,2016,niche,contact@empirefragrance.com,,,2025-07-18T12:32:10.942225,2025-08-28T14:10:15.769731
cmd37f4b0620c04f7e24cbc,Emporio Armani,"Emporio Armani is a luxury fashion brand created by Italian designer Giorgio Armani. The brand extends its presence into the fragrance market, offering a range of perfumes that reflect the modern and sophisticated style of the Emporio Armani label. Known for combining elegance with innovative designs, Emporio Armani fragrances often feature contemporary notes and blend classic aromas with modern twists. The brand targets a younger audience compared to its parent company, Armani, and emphasizes a lifestyle of contemporary elegance and refined taste.",https://images.unsplash.com/photo-15907369626-6c63ac16f3df?w=400&h=300&fit=crop,https://www.armani.com/,Italy,1982,designer,,,"Giorgio Armani S.p.A., Via Borgonuovo 21, 20122 Milan, Italy",2025-07-18T12:32:10.942225,2025-08-28T14:10:23.073989
cmd3a535459a76fb2d1f22f,En Voyage Perfumes,,https://www.envoyageperfumes.com/cdn/shop/t/10/assets/logo.png?v=136867312674575252161493673857,https://envoyageperfumes.com,United States,2013,niche,,,,2025-07-18T12:32:10.942225,2025-08-28T14:10:29.795530
cmdcc204ffbf668849c43db,Encounter Scents,"Encounter Scents is a contemporary perfume company that specializes in creating unique, high-quality fragrances. Established with a vision to blend artistry and science, the brand focuses on crafting scents that evoke emotions and memories, utilizing rare and sustainable ingredients. The company’s story is rooted in a passion for olfactory experiences, aiming to elevate everyday moments through fragrance. Encounter Scents prides itself on its innovative approach, collaborating with skilled perfumers and embracing a culture of creativity, which sets them apart in the competitive perfume market.",https://images.unsplash.com/photo-1587017539504-67cfbddac569?w=400&h=300&fit=crop,www.encounterscents.com,United States,2015,indie,contact@encounterscents.com,,,2025-07-18T12:32:10.942225,2025-08-28T14:10:36.436059
cmd7657c39348ae031ad054,Energiser,"Energiser is a brand that specializes in personal care products, including fragrances. The company is known for its fresh and invigorating scents that appeal to a youthful audience. Established with a vision to provide accessible yet quality products, Energiser has carved out a niche in the fragrance market by focusing on energy and vitality in its fragrances, catering primarily to an active lifestyle.",https://images.unsplash.com/photo-1587017539504-67cfbddac569?w=400&h=300&fit=crop,https://www.energiser.com,United States,1985,drugstore,,,,2025-07-18T12:32:10.942225,2025-08-28T14:10:42.847807
cmd4be66d93ec34282d59f0,Enfleurage,"Enfleurage is a renowned perfume company that specializes in artisan fragrances, focusing on high-quality natural ingredients and ethical sourcing. Founded in 1991 by a community of perfumers and aromatherapists, the company first gained recognition for its dedication to the tradition of perfumery and holistic practices. Enfleurage offers a curated selection of niche fragrances, essential oils, and custom blends, often inspired by the rich biodiversity and scents of nature. Their specialty lies in blending unique aroma compounds and raw ingredients to create fragrances that resonate on both emotional and sensory levels.",https://cdn11.bigcommerce.com/s-c4qax1o4df/images/stencil/original/image-manager/stickylogo-3-.png,https://www.enfleurage.com,United States,1991,niche,,,,2025-07-18T12:32:10.942225,2025-08-28T14:10:50.399653
cmd16deb31bf1d3d22b3391,Engelsrufer,"Engelsrufer is a fragrance and jewelry company based in Germany, known for its unique combination of exquisite perfumes and charming jewelry pieces inspired by the traditional sound of angels' bells. Founded with the intention of creating enchanting and emotional products, Engelsrufer designs its offerings to resonate with themes of protection, love, and connection, catering to a market that seeks both aesthetic and olfactory experiences. Their brand is characterized by rich storytelling and a focus on craftsmanship, which has helped them to develop a loyal customer base.",https://www.engelsrufer.com/images/Sweet dreams Engelsrufer banner er 2.jpg,https://www.engelsrufer.com,Germany,2012,niche,,,,2025-07-18T12:32:10.942225,2025-08-28T14:10:57.406569
cmd0c017ea9b9f33d5fef94,English Ideas,"English Ideas is a specialty perfume company that focuses on creating unique and artisanal fragrance products inspired by the rich cultural heritage of England. The brand aims to evoke the essence of English gardens and landscapes through its thoughtfully crafted scents. Each fragrance tells a story, rooted in traditional English motifs and botanicals, highlighting the country’s intricate relationship with nature. Their dedication to quality and craftsmanship, combined with a modern sensibility, positions them as a distinguished player in the niche perfume market.",https://images.unsplash.com/photo-1582735689369-4fe89db7114c?w=400&h=300&fit=crop,,"’s intricate relationship with nature. Their dedication to quality and craftsmanship, combined with a modern sensibility, positions them as a distinguished player in the niche perfume market.",,niche,,,,2025-07-18T12:32:10.942225,2025-08-28T14:11:03.551402
cmd2244cfb5d3192d5e98ad,English Laundry,"English Laundry is a fragrance company that specializes in luxury perfumes inspired by the British lifestyle and heritage. Founded by fashion designer Christopher Wicks in 2008, the brand offers a unique blend of classic elegance and contemporary style, featuring an array of fragrances for both men and women. English Laundry emphasizes quality and artistry in its products, often using premium ingredients to create distinctive scents that capture the essence of British culture. The brand has gained popularity for its sophisticated packaging and memorable fragrances, appealing to a wide audience.",https://images.unsplash.com/photo-1556909114-f6e7ad7d3136?w=400&h=300&fit=crop,https://www.englishlaundry.com,United States,2008,designer,,,,2025-07-18T12:32:10.942225,2025-08-28T14:11:10.202177
cmdda55afa872124cc63bf6,Enjoy Design,"Enjoy Design is a boutique perfume company known for its creative and artistic approach to fragrance creation. Founded by designers who sought to merge fine art and olfactory experiences, the brand emphasizes the importance of storytelling through scents. Enjoy Design specializes in crafting unique, high-quality perfumes that often draw inspiration from contemporary culture, art, and design, making each fragrance a piece of art in itself.",https://images.unsplash.com/photo-1582735689369-4fe89db7114c?w=400&h=300&fit=crop,https://www.enjoydesign.com,United States,2012,niche,,,,2025-07-18T12:32:10.942225,2025-08-28T14:11:16.871621
cmd777a00474c95dee2a683,Enrico Buccella,"Enrico Buccella is a niche perfume house known for its artisanal approach to fragrance creation. Founded by Enrico Buccella, the company began with a passion for the art of perfumery, combining traditional techniques with modern influences. Enrico Buccella specializes in crafting unique and evocative scents that draw inspiration from various cultures and personal memories, appealing to a discerning clientele that values individuality and sophisticated olfactory experiences. Each fragrance is designed to tell a story, reflecting the personal journey of the creator.",https://images.unsplash.com/photo-1541643600914-78b084683601?w=400&h=300&fit=crop,http://www.enricobuccella.com,United States,2011,niche,,,,2025-07-18T12:32:10.942225,2025-08-28T14:11:25.880171
cmdebb961b9d068a501ebe9,Enrico Coveri,"Enrico Coveri is an Italian fashion house founded in the 1970s, well-known for its vibrant and eclectic designs. The brand initially gained fame in the fashion industry with its bold clothing and accessories, eventually expanding into the fragrance sector. Enrico Coveri fragrances are characterized by their youthful, playful spirit, and often feature bright, fruity notes and floral compositions that appeal to a diverse audience. The brand seeks to convey a sense of joy and creativity, staying true to the designer's artistic vision.",https://images.unsplash.com/photo-15907369626-6c63ac16f3df?w=400&h=300&fit=crop,[www.enricocoveri.com](http://www.enricocoveri.com),Italy,1970,designer,,,,2025-07-18T12:32:10.942225,2025-08-28T14:11:32.302143
cmdbea085253191936854cf,Enrico Gi,"Enrico Gi is a luxury fragrance brand known for its unique scent compositions that blend traditional perfumery techniques with modern aesthetics. Founded by a passionate perfumer with a vision to create exquisite fragrances, the company emphasizes artisanal craftsmanship and high-quality ingredients. Enrico Gi aims to evoke emotions and memories through its evocative scents, offering a curated range of perfumes for discerning customers looking for exclusivity and sophistication. The brand has carved a niche in the market with its elegant packaging and storytelling behind each fragrance, making it a favorite among fragrance aficionados.",https://images.unsplash.com/photo-1541643600914-78b084683601?w=400&h=300&fit=crop,www.enricogi.com,Italy,2017,niche,contact@enricogi.com,,,2025-07-18T12:32:10.942225,2025-08-28T14:11:38.826892
cmd85cfa785b5e55d9e4720,Enrico Sebastiano,"Enrico Sebastiano is a niche perfume house known for its unique and artistic fragrance creations. Established with a vision to blend art with perfumery, the company focuses on crafting high-quality, original scents that tell a story and evoke emotions. With a dedication to artisanal techniques and the use of rare ingredients, Enrico Sebastiano has positioned itself as a distinctive player in the competitive perfume industry, catering to fragrance connoisseurs seeking exclusivity and depth in their olfactory experiences.",https://images.unsplash.com/photo-15907369626-6c63ac16f3df?w=400&h=300&fit=crop,https://www.enricosebastiano.com,Italy,2017,niche,,,,2025-07-18T12:32:10.942225,2025-08-28T14:11:45.378748
cmd58977e29939367993f35,Enrique Iglesias,"Enrique Iglesias is a global music icon who ventured into the perfume industry to launch his line of fragrances. Known for his romantic songs and vibrant personality, Iglesias' perfumes encapsulate his artistic essence, offering a range of scents that appeal to fans and fragrance enthusiasts alike. His fragrances typically include sensual and fresh notes, reflecting his image as a passionate and charismatic performer. The lines of perfumes often target a younger audience and are noted for their accessibility and appeal.",https://images.unsplash.com/photo-1556909114-f6e7ad7d3136?w=400&h=300&fit=crop,[https://enriqueiglesias.com](https://enriqueiglesias.com),United States,2010,celebrity,,,,2025-07-18T12:32:10.942225,2025-08-28T14:11:52.105491
cmd428ec076fe60219b1bfe,Ensar Oud,"Ensar Oud is a renowned perfume house specializing in high-quality oud and natural fragrances. Founded by Ensar Oud, the brand is known for its dedication to sourcing and creating some of the finest agarwood-based perfumes in the world. With a strong emphasis on craftsmanship and authenticity, Ensar Oud aims to connect customers with the rich traditions and exquisite scents of oud. The company has built a reputation for exclusivity, offering a limited selection of artisanal fragrances that appeal to aficionados and connoisseurs of niche perfumery.",https://www.ensaroud.com/wp-content/uploads/2022/06/Ensar-Oud-Logo-B-430w.png,https://ensaroud.com,Netherlands,2012,niche,,,,2025-07-18T12:32:10.942225,2025-08-28T14:12:04.402290
cmddf618967a3d54bfb7f37,Entre Filles,"Entre Filles is a perfume company that specializes in creating unique and evocative fragrance collections targeted towards women. Founded with a mission to celebrate individuality and femininity, their scents are designed to evoke emotions and memories, making every woman feel special and empowered. The company embraces an artisan approach to fragrance creation, often incorporating high-quality ingredients sourced from around the world. Their brand story revolves around sisterhood and connection, making it a popular choice among women who appreciate a personal touch in their perfumes.",https://images.unsplash.com/photo-1556909114-f6e7ad7d3136?w=400&h=300&fit=crop,,,,indie,,,,2025-07-18T12:32:10.942225,2025-08-28T14:12:13.525056
cmdda53a9f801886cb506f9,Envy,"Envy is a fragrance company known for its captivating scents that appeal to a broad audience. The brand was established with the goal of providing high-quality perfumes that embody inspiration and passion, often capturing the essence of various emotions and experiences. Envy has carved a niche for itself by focusing on unique compositions and appealing aesthetics that resonate with both everyday consumers and fragrance aficionados. The company is recognized for its innovative approach to scent creation and often incorporates contemporary societal themes into its brand narrative.",https://images.unsplash.com/photo-15907369626-6c63ac16f3df?w=400&h=300&fit=crop,www.envyperfume.com,United States,2000,indie,,,,2025-07-18T12:32:10.942225,2025-08-28T14:12:19.909929
cmd7dd02fa26784a13288b1,Enzolie,"Enzolie is a niche perfume house known for creating high-quality, artisanal fragrances that blend unique ingredients and innovative scent profiles. The company prides itself on craftsmanship, sourcing rare materials and employing traditional methods to produce distinctive, sophisticated scents. Established with a commitment to authenticity and artistry, Enzolie has carved out a respected place in the luxury fragrance market.",https://images.unsplash.com/photo-1587017539504-67cfbddac569?w=400&h=300&fit=crop,www.enzolie.com,France,2015,niche,,,,2025-07-18T12:32:10.942225,2025-08-28T14:12:25.580323
cmd5ec6d603a69e7403cd24,Eolie,"Eolie is a niche perfume company that specializes in creating unique, handcrafted fragrances inspired by the Mediterranean. Founded by a team of artisans and fragrance enthusiasts, Eolie combines traditional perfume-making techniques with modern scents to deliver a high-quality olfactory experience. Their story emphasizes a connection to nature, incorporating local ingredients and regional inspirations into their scent profiles. The brand is known for its artistic approach to perfumery and its commitment to sustainability.",https://eolieparfums.com/cdn/shop/files/Eolieparfums_Italia_logo.png?crop=center&height=80&v=1753110207&width=480,https://www.eolieparfums.com,Italy,2015,niche,,,,2025-07-18T12:32:10.942225,2025-08-28T14:12:33.240060
cmd56842d83459d9b10e356,EP Line,"EP Line is a perfume brand known for creating fun and playful fragrances primarily aimed at children and young adults. They focus on producing colorful, quirky packaging and appealing scents that resonate with a younger audience. The brand is recognized for its innovative marketing strategies, including collaborations with popular characters and icons, which helps them stand out in the crowded fragrance market. EP Line also offers a range of personal care products and accessories that align with their fun and youthful brand philosophy.",https://images.unsplash.com/photo-1541643600914-78b084683601?w=400&h=300&fit=crop,http://www.ep-line.com,Czech Republic,2006,indie,,,,2025-07-18T12:32:10.942225,2025-08-28T14:12:39.499312
cmddf51d6ccf897bbe00c13,Ephemera by Unsound,"Ephemera by Unsound is a conceptual perfume brand that embodies the intersection of fragrance and sound, creating unique olfactory experiences that evoke emotions and memories. The company is known for its avant-garde approach to scent, drawing inspiration from various artistic mediums, including music and visual art. Ephemera focuses on craftsmanship, using high-quality ingredients and innovative techniques to formulate its fragrances, which are designed to reflect ephemeral emotions and fleeting moments. The brand aims to redefine the experience of wearing perfume, making it an integral part of personal expression and artistry.",https://images.unsplash.com/photo-1582735689369-4fe89db7114c?w=400&h=300&fit=crop,https://www.ephemerabyunsound.com,United States,2019,niche,,,,2025-07-18T12:32:10.942225,2025-08-28T14:12:46.242822
cmdc300a30a6b1cdf7e1377,Ephemeral Dyadic,"Ephemeral Dyadic is a niche perfume company that focuses on creating unique and artisanal fragrances that evoke emotional connections and memories. The company was founded on the belief that scent is a powerful carrier of stories, with each fragrance designed to capture specific moments and experiences. Their commitment to using high-quality ingredients and sustainable practices sets them apart in the global perfume market.",https://static.wixstatic.com/media/11e6d2_66cffe3731ee45cab6e1de7d2a39392a~mv2.gif,www.ephemeraldyadic.com,United States,2019,niche,contact@ephemeraldyadic.com,,,2025-07-18T12:32:10.942225,2025-08-28T14:12:52.441492
cmdeeb1fbff0d97d2c346ab,Epicò,"Epicò is a contemporary perfume company known for its unique fragrances that blend traditional craftsmanship with modern sensibilities. The company was founded with the vision of creating high-quality, artisanal perfumes that evoke emotions and tell stories through scent. They emphasize the use of rare and sustainable ingredients, reflecting a commitment to environmental responsibility and the art of perfumery. Their specialty lies in crafting limited edition perfumes that cater to niche markets, appealing to both fragrance aficionados and casual users alike.",https://epico.com/assets/Uploads/coverbook.png,https://epico.com,Italy,,niche,,,,2025-07-18T12:32:10.942225,2025-08-28T14:13:00.251778
cmd15f17ed690997f1d7199,EPL Fragrances,"EPL Fragrances is a creative perfume company known for its unique scent profiles and the ability to customize fragrances for individual clients. Established with the vision of providing high-quality, artisanal fragrances, EPL focuses on using premium ingredients sourced from around the world to create both classic and contemporary scents. They are recognized for their innovative approach to fragrance formulation and personal scent concierge services, allowing customers to explore a deeper, more personal connection to perfume.",https://images.unsplash.com/photo-15907369626-6c63ac16f3df?w=400&h=300&fit=crop,https://www.eplfragrances.com,United States,2015,indie,,,,2025-07-18T12:32:10.942225,2025-08-28T14:13:06.458227
cmd24c992c1b004fc49eea9,Epsilon,"Epsilon is a fragrance company that specializes in creating unique and high-quality perfumes designed to cater to a diverse clientele. Established with a commitment to craftsmanship and artistry, Epsilon focuses on blending traditional perfumery techniques with modern influences. Their portfolio includes a range of scents that emphasize individuality and personal expression, often using rare and sustainably sourced ingredients to craft their fragrances.",https://images.unsplash.com/photo-1541643600914-78b084683601?w=400&h=300&fit=crop,www.epsilonfragrances.com,France,2015,niche,contact@epsilonfragrances.com,,"123 Fragrance Lane, Paris, France",2025-07-18T12:32:10.942225,2025-08-28T14:13:12.868407
cmd96c91eb6bafbe2140d1d,equality.fragrance,"Equality Fragrance is a niche perfume brand that focuses on creating scents that embody the values of diversity, inclusivity, and equality. Their story began with a mission to promote social awareness and cultural appreciation through fragrance, offering unique blends that celebrate different cultures and identities. The brand aims to connect people through shared olfactory experiences, and each fragrance is crafted to reflect the essence of the values they stand for.",https://images.unsplash.com/photo-15907369626-6c63ac16f3df?w=400&h=300&fit=crop,https://equality.fragrance,France,2020,niche,contact@equality.fragrance,,,2025-07-18T12:32:10.942225,2025-08-28T14:13:18.862046
cmdee011b44cf219f0a3795,Equivalenza,,https://equivalenza.com/cdn/shop/files/equivalenza-logo.png?v=1725002457,https://www.equivalenza.com,Spain,2013,indie,,,,2025-07-18T12:32:10.942225,2025-08-28T14:13:26.455918
cmdf7c04b98d9943ed0d72e,Erasmic,"Erasmic is a well-established brand that primarily focuses on creating high-quality grooming products, including fragrances for men. The brand has a heritage rooted in traditional shaving and personal care, offering a range of men's grooming products that embody classic simplicity and elegance. Erasmic is particularly known for its distinctive scents that cater to modern tastes while maintaining a classic appeal. The company has garnered a loyal following for its commitment to quality and value.",https://images.unsplash.com/photo-1582735689369-4fe89db7114c?w=400&h=300&fit=crop,http://www.erasmic.co.uk,United Kingdom,1910,drugstore,,,,2025-07-18T12:32:10.942225,2025-08-28T14:13:32.598259
cmdecea5a94d86927b1a0a6,Erbario Toscano,"Erbario Toscano is a prestigious Italian perfume company known for its artisanal fragrances and body care products inspired by the Tuscan landscape and lifestyle. Established with a philosophy deeply rooted in a respect for nature and tradition, their creations often incorporate natural ingredients sourced from the region. The company specializes in blending traditional Italian craftsmanship with modern sensibilities to create unique scents that capture the essence of Tuscany. They focus not only on olfactory experiences but also on the aesthetic presentation of their products, showcasing exquisite packaging and design that reflect their heritage.",https://erbariotoscano.com/cdn/shop/files/LogoET_Gold.png?height=60&v=1750665428,https://www.erbariotoscano.com,Italy,2007,indie,,,,2025-07-18T12:32:10.942225,2025-08-28T14:13:40.098867
cmdeceab30695c93244c780,Erbaviva,"Erbaviva is a company specializing in organic and eco-friendly personal care products, including a range of natural perfumes. Founded on the principles of wellness and sustainability, Erbaviva creates products designed for both effectiveness and environmental responsibility. Their story began with a focus on providing safe and effective body care products utilizing high-quality, organic ingredients. The company emphasizes handcrafted formulations that are free from synthetic chemicals, focusing instead on aromatherapy and holistic practices. Erbaviva also champions ethical sourcing and the use of renewable resources in its product offerings.",https://erbaviva.com/cdn/shop/files/erbaviva-logo.png?v=1738662986&width=360,https://www.erbaviva.com,United States,1995,indie,,,,2025-07-18T12:32:10.942225,2025-08-28T14:13:46.967112
cmd2c2eb13b460abba71a0c,Erborian,"Erborian is a skincare and cosmetic brand that integrates advanced Korean beauty techniques with French skincare innovation. Founded by Korean beauty experts Katalin Berenyi and Dr. Misha M. Kim, the brand focuses on providing high-performance products that blend natural ingredients with effective formulas. Although primarily known for its skincare line, Erborian has ventured into the fragrance realm, inspired by its heritage, emphasizing the delivery of sensory experiences through their offerings.",https://images.unsplash.com/photo-1582735689369-4fe89db7114c?w=400&h=300&fit=crop,https://www.erborian.com,France,2007,indie,,,,2025-07-18T12:32:10.942225,2025-08-28T14:13:53.526481
cmdf3c8fa81ea40e84f4a5d,ERH1012,"ERH1012 is a niche perfume company that specializes in crafting unique and artistic fragrances, focusing on storytelling through scent. Founded by a team of passionate perfumers, the company was born from a desire to explore and express emotions and ideas through olfactory art. Each scent is designed to evoke specific feelings and memories, underlined by high-quality, carefully selected ingredients. ERH1012 aims to provide a personalized fragrance experience, often involving customers in the creative process through bespoke scent consultations.",https://images.unsplash.com/photo-1556909114-f6e7ad7d3136?w=400&h=300&fit=crop,https://www.erh1012.com,United States,2012,niche,contact@erh1012.com,,,2025-07-18T12:32:10.942225,2025-08-28T14:14:00.393808
cmd691782495def5da7452b,Eric Amouyal,"Eric Amouyal is a niche perfume house known for crafting high-quality, unique fragrances that blend tradition with modern olfactory artistry. Founded by perfumer Eric Amouyal, the company emphasizes artisanal approaches and is dedicated to the creation of sophisticated scents that embody elegance and a sense of individuality. The brand has gained recognition for its innovative compositions and dedication to using premium raw materials, appealing to fragrance connoisseurs and aficionados.",https://images.unsplash.com/photo-1541643600914-78b084683601?w=400&h=300&fit=crop,https://www.ericamouyal.com,France,2015,niche,,,,2025-07-18T12:32:10.942225,2025-08-28T14:14:06.858343
cmd27b8aa7362ba5cf84fe3,Eric Buterbaugh Florals,"Eric Buterbaugh Florals is a luxury fragrance company founded by Eric Buterbaugh, a well-known floral designer and perfumer. The brand is celebrated for its artistic approach to scent, creating perfumes that capture the essence of flowers and nature. The company's story revolves around the merging of floral design and perfumery, reflecting Buterbaugh's deep appreciation for the beauty of flowers. Their specialty lies in creating unique, sophisticated fragrances inspired by the intricacies of botanicals, emphasizing artistry and quality.",https://flowers.ericbuterbaugh.com/cdn/shop/files/EB-logo_1000x1000.jpg?v=1613712078,https://www.ericbuterbaugh.com,United States,2015,niche,,,,2025-07-18T12:32:10.942225,2025-08-28T14:14:13.704961
cmdffc7c3e48e12335adaa7,Eric Tabarly,"Eric Tabarly is a niche perfume company inspired by the legacy of the famous French sailor and adventurer Eric Tabarly. Established with a passion for capturing the essence of the sea and adventure, the brand focuses on creating unique fragrances that evoke the spirit of exploration and nature. The scents often feature marine notes and natural ingredients, appealing to those who appreciate elegance and craftsmanship in perfume design.",https://images.unsplash.com/photo-1556909114-f6e7ad7d3136?w=400&h=300&fit=crop,,France,,niche,,,,2025-07-18T12:32:10.942225,2025-08-28T14:16:27.085413
cmdcb34afb49742b1262b55,Erica Elizabeth Designs,"Erica Elizabeth Designs is a boutique fragrance company specializing in high-quality, handcrafted perfumes. Founded by Erica Elizabeth, the brand emphasizes the use of natural ingredients and artisanal techniques. The company’s story is rooted in the passion for creating unique scents that evoke emotion and personal expression, aiming to provide a luxurious yet personalized fragrance experience.",https://images.unsplash.com/photo-1556909114-f6e7ad7d3136?w=400&h=300&fit=crop,https://ericaelizabethdesigns.com,United States,2016,niche,,,,2025-07-18T12:32:10.942225,2025-08-28T14:16:32.986846
cmdbf9613beecaa54a096a5,Erik Kormann,"Erik Kormann is a niche perfume company that specializes in crafting unique fragrances inspired by nature and personal experiences. The brand is known for its artisanal approach and commitment to quality, focusing on creating distinctive scents that evoke emotion and tell a story. Erik Kormann aims to provide an olfactory journey through their carefully curated fragrance collections, catering to individuals who seek exclusivity and artistry in their perfumes.",https://images.unsplash.com/photo-1587017539504-67cfbddac569?w=400&h=300&fit=crop,,,,niche,,,,2025-07-18T12:32:10.942225,2025-08-28T14:16:41.880555
cmd845c54318e66f45aa450,Erin Simpson,"Erin Simpson is a niche perfume company that specializes in crafting unique, artisanal fragrances. Founded by Erin Simpson, the brand emphasizes the artisanal approach of perfumery, focusing on high-quality ingredients and creative scent compositions. Their perfumes often tell stories or capture specific emotions, providing a personal touch in every scent. The brand has gained a reputation for innovation and originality, appealing to fragrance enthusiasts seeking something distinct from mainstream offerings.",https://images.unsplash.com/photo-1556909114-f6e7ad7d3136?w=400&h=300&fit=crop,www.erinsimpsonperfumery.com,United States,2020,niche,contact@erinsimpsonperfumery.com,,,2025-07-18T12:32:10.942225,2025-08-28T14:16:48.436914
cmd001f4bd6a555674ab7cd,Eris Parfums,"Eris Parfums is a niche perfume house that specializes in creating artisanal fragrances. Founded by Antonio Gardoni, the company is known for its unique approach to perfumery, which emphasizes storytelling through scent. The brand produces a limited range of high-quality fragrances that draw inspiration from various cultural and historical influences, creating a distinct olfactory experience. Its perfumes often feature complex compositions using rare and high-quality ingredients that appeal to connoisseurs of fine fragrances.",https://erisparfums.com/cdn/shop/files/Black_Eris_Parfums_logo_85x.png?v=1743682064,https://erisparfums.com,United States,2020,niche,,,,2025-07-18T12:32:10.942225,2025-08-28T14:17:00.787520
cmdc0f4ed6a033dad3e0e7a,Ermanno Scervino,"Ermanno Scervino is an Italian fashion brand established in 2000, known for its high-quality luxury apparel, accessories, and fragrances. The brand combines traditional Italian craftsmanship with contemporary design, making it a favorite among discerning fashion enthusiasts. It specializes in sophisticated and elegant looks that embody a blend of femininity and modernity, offering both clothing and a signature line of fragrances that reflect its chic aesthetic.",https://ermannoscervino.com/cdn/shop/files/1_1_f5e3ad04-b542-49ea-b6e8-2c21863a0ee9.jpg?v=1752155098,https://www.ermannoscervino.com,Italy,2000,designer,,,,2025-07-18T12:32:10.942225,2025-08-28T14:17:07.862150
cmd69780ea9ff7f17e79642,Ermenegildo Zegna,"Ermenegildo Zegna is an Italian luxury fashion house founded in 1910, specializing in men's clothing and accessories, including high-end perfumes. The company is known for its commitment to fine fabrics and craftsmanship, with a rich heritage that emphasizes quality and elegance. Zegna's fragrance line often merges traditional Italian sophistication with modern sensibilities, reflected in scents that appeal to discerning customers. The brand prides itself on sustainable practices and innovation in textile production, extending this philosophy to its fragrance offerings.",https://images.unsplash.com/photo-1582735689369-4fe89db7114c?w=400&h=300&fit=crop,https://www.zegna.com,Italy,1910,designer,,,"Via Roma 1, 13835 Trivero, Biella, Italy",2025-07-18T12:32:10.942225,2025-08-28T14:17:14.774165
cmd2cd7c821de3d593ec364,Erno Lazlo,"Erno Lazlo is a luxury skincare and fragrance brand founded by Hungarian dermatologist Dr. Erno Lazlo in the 1920s. The company is renowned for creating high-quality products that combine dermatological science with beauty, focusing on personalized skincare regimens. While primarily known for its skincare line, Erno Lazlo also develops sophisticated fragrances that align with its luxurious brand image, catering to an upscale clientele.",https://images.unsplash.com/photo-15907369626-6c63ac16f3df?w=400&h=300&fit=crop,https://www.ernolazlo.com,United States,1927,designer,,,,2025-07-18T12:32:10.942225,2025-08-28T14:17:21.672458
cmd61c5b0e0d760cd3c0b85,Erox Corp,"Erox Corp is a perfume company known for its development and marketing of fragrance products across various segments. Established to create a niche in the perfume market, Erox has built a reputation for its innovative packaging and marketing strategies. The company specializes in offering unique and memorable fragrances, targeting both the high-end and mid-range markets while ensuring affordability. Their story began with a vision to merge quality with accessibility in the fragrance industry, allowing a broader audience to enjoy luxurious scents without high costs.",https://images.unsplash.com/photo-1582735689369-4fe89db7114c?w=400&h=300&fit=crop,www.erox.com,United States,1990,niche,,,,2025-07-18T12:32:10.942225,2025-08-28T14:17:27.461300
cmd8e7f504ffe71c4eaf9b3,Erte,"Erte is a perfume company that draws inspiration from the artistic legacy of Romain de Tirtoff, known as Erte. The brand encapsulates the spirit of Art Deco with its luxurious fragrance creations that are often characterized by elegance and a lavish approach to scent design. Erte's perfumes are known for their intricate packaging, often featuring designs reminiscent of the 1920s and 1930s, aligning with the brand’s heritage of fine art and craftsmanship. The company aims to evoke emotions and memories through its unique sensory experiences, catering to connoisseurs of fragrance who appreciate a blend of artistry and scent.",https://images.unsplash.com/photo-1582735689369-4fe89db7114c?w=400&h=300&fit=crop,http://www.erteperfumes.com,United States,1989,niche,,,,2025-07-18T12:32:10.942225,2025-08-28T14:17:34.033073
cmda747453c5dd282f2c272,Escada Beaute Group,"Escada Beaute Group is a renowned perfume company known for its luxurious fragrances inspired by the brand's fashion collection. Established in 1990, the brand has built a reputation for its vibrant and sophisticated scents that often reflect seasonal trends and avant-garde style. Escada is particularly famous for its fruity-floral fragrances, crafted to embody elegance and femininity. They leverage their expertise in fashion to release collections that harmonize with their apparel lines, making them a staple in the premium fragrance market.",https://www.escada.com/cdn/shop/files/ESCADA-combined-logo-web.png?v=1733775154&width=4051,https://www.escada.com,Germany,1990,designer,,,,2025-07-18T12:32:10.942225,2025-08-28T14:17:45.455137
cmd6ed8a259c20462b1287a,Escada,"Escada is a luxury fashion brand that was founded in Germany in 1978. Initially known for its women's clothing line, the company later expanded into the fragrance market. Escada's perfumes are known for their vibrant, fruity, and floral scents, often embodying a sense of fun and femininity. Their fragrances often reflect the latest fashion trends, making them appealing to a fashionable audience. The brand is also renowned for its seasonal limited editions and creative collaborations that evoke a summer escapade spirit.",https://www.escada.com/cdn/shop/files/ESCADA-combined-logo-web.png?v=1733775154&width=4051,https://www.escada.com,Germany,1978,designer,,,,2025-07-18T12:32:10.942225,2025-08-28T14:17:52.116881
cmd899c369ccc71ae06b310,Escala,"Escala is a perfume company known for its unique approach to fragrance creation. The brand specializes in crafting high-quality perfumes that evoke specific emotions and memories, blending traditional perfumery techniques with modern flair. Escala focuses on using sustainably sourced ingredients, emphasizing craftsmanship and artistry in their products. The company prides itself on offering a boutique experience, allowing customers to discover scents that resonate personally with them.",https://images.unsplash.com/photo-1582735689369-4fe89db7114c?w=400&h=300&fit=crop,,,,indie,,,,2025-07-18T12:32:10.942225,2025-08-28T14:18:00.471128
cmd0281bb94b5b267897634,Escentric Molecules,"Escentric Molecules is a niche fragrance house founded by perfumer Geza Schoen. The brand is celebrated for its innovative approach to scent-making, characterized by the use of minimalist compositions and single-note molecules. Escentric Molecules gained international acclaim for its two flagship fragrances, Molecule 01 and Escentric 01, which emphasize specific aroma chemicals rather than traditional perfume ingredients. The brand’s philosophy revolves around the idea that scent can enhance individuality and personal expression.",https://www.escentric.com/cdn/shop/files/em-footer-logo.svg?v=1731569820,https://www.escentric.com,Germany,2006,niche,,,,2025-07-18T12:32:10.942225,2025-08-28T14:18:06.961073
cmdbd4a3b27fd837274d585,Escents,"Escents is a retailer specializing in natural and organic personal care products, including fragrances. Founded with a vision to promote wellness through nature, the company offers a variety of essential oils, perfume oils, and wellness-related products. They prioritize sustainability and ethical sourcing in their product lines, catering to consumers looking for eco-friendly alternatives in the perfume industry.",https://images.unsplash.com/photo-1556909114-f6e7ad7d3136?w=400&h=300&fit=crop,https://www.escents.com,Canada,1997,indie,,,,2025-07-18T12:32:10.942225,2025-08-28T14:18:12.584348
cmd721774ac454f3147314d,Escentual,"Escentual is a UK-based online retailer specializing in a wide range of fragrance and beauty products. Established in 2000, the company primarily focuses on providing customers with a curated selection of designer and niche perfumes, skincare, and cosmetics from around the world. Escentual aims to deliver quality products at competitive prices, alongside a strong emphasis on customer service and satisfaction. The brand is also recognized for its dedication to offering exclusive deals and promotions.",https://cdn.shopify.com/static/images/flags/gb.svg?width=26,https://www.escentual.com,United Kingdom,2000,indie,,,,2025-07-18T12:32:10.942225,2025-08-28T14:18:19.960783
cmd386ed44cf65becbe4a58,Escentuals,"Escentuals is a prominent online retailer specializing in fragrances, skincare, and beauty products. Founded with a passion for delivering high-quality products and a wide selection, Escentuals embodies the fusion of luxury and accessibility. The company focuses on providing customers with a unique shopping experience, showcasing both well-known brands and niche perfumes, ensuring that every fragrance enthusiast can find something that resonates with them. Through exceptional customer service and a keen eye for trends, Escentuals has built a reputation as a go-to destination for fragrance lovers.",https://images.unsplash.com/photo-1587017539504-67cfbddac569?w=400&h=300&fit=crop,https://www.escentuals.com,United States,2000,indie,,,,2025-07-18T12:32:10.942225,2025-08-28T14:18:26.008384
cmdf7443a37dd1f3b350846,Esencias Juvenal,"Esencias Juvenal is a renowned perfume company specializing in the creation of high-quality fragrance products. Established with a passion for scent and olfactory art, they have built a legacy of crafting unique formulations and aromatic blends that appeal to diverse tastes. The company is known for its deep understanding of fragrance composition, drawing on traditional methods and modern innovation to deliver memorable olfactory experiences.",https://images.unsplash.com/photo-1556909114-f6e7ad7d3136?w=400&h=300&fit=crop,http://esenciasjuvenal.com,Mexico,1996,indie,,,,2025-07-18T12:32:10.942225,2025-08-28T14:18:32.691198
cmd7b792fc2881e9980f54f,Esika,"Esika is a cosmetics and fragrance brand that is part of the Belcorp group, known for its wide range of beauty products, including perfumes, cosmetics, and skincare. Founded in 1967, Esika focuses on providing quality and affordable products tailored to the needs and preferences of Latin American consumers. The company emphasizes empowerment and self-expression through its offerings and aims to enhance the beauty experiences of its customers.",https://images.unsplash.com/photo-15907369626-6c63ac16f3df?w=400&h=300&fit=crop,https://www.esika.com,Peru,1967,drugstore,,,,2025-07-18T12:32:10.942225,2025-08-28T14:18:49.120326
cmd4ff6b761b3713d244783,Esmark,"Esmark is a perfume company that focuses on creating unique and high-quality fragrances. They are known for their artisanal approach to scent development, often using rare ingredients sourced from around the world. The brand emphasizes a strong connection to nature and sustainability in their production process, appealing to consumers who value eco-friendly practices and distinctive olfactory experiences. Esmark's narrative is built on a passion for perfumery that blends traditional craftsmanship with modern sensibilities, making their products sought after by fragrance enthusiasts.",https://images.unsplash.com/photo-1541643600914-78b084683601?w=400&h=300&fit=crop,,,,indie,,,,2025-07-18T12:32:10.942225,2025-08-28T14:18:55.417281
cmd5cb397a24010d9cd170f,Esmé of Paris,"Esmé of Paris is a luxury perfume house known for its elegant and sophisticated fragrances that combine both traditional craftsmanship and modern sensibilities. Established to create unique olfactory experiences, the brand draws inspiration from the romantic essence of Paris, offering a range of perfumes that cater to discerning clients who appreciate high-quality ingredients and artisanal production techniques. Esmé of Paris aims to evoke emotions and memories through its scents, appealing to individuals looking for personal expression through fragrance.",https://images.unsplash.com/photo-1541643600914-78b084683601?w=400&h=300&fit=crop,https://www.esmeofparis.com,France,2020,niche,,,,2025-07-18T12:32:10.942225,2025-08-28T14:19:01.571769
cmde0e4026c66b82e60c00e,ESPA,"ESPA is a luxurious lifestyle brand specializing in the development of natural and holistic skincare and fragrance products. Founded in 2000 by Sue Harmsworth, ESPA aims to create a balance of effectiveness and relaxation, drawing on botanical ingredients, aromatherapy, and innovative formulations. The company is known for its spa-quality products, which include a range of perfumes that reflect the essence of well-being and tranquility, emphasizing a harmonious connection with nature.",https://www.espaskincare.com/images?url=https://static.thcdn.com/widgets/135-en/12/original-New_Page-124212.png&format=webp&auto=avif&width=1920&fit=cover,https://www.espaskincare.com,United Kingdom,2000,indie,,,,2025-07-18T12:32:10.942225,2025-08-28T14:19:08.285873
cmd95b19e164abb8719fbc1,Esperienze Olfattive,"Esperienze Olfattive is an Italian niche perfume house known for creating unique, artisanal fragrances that draw inspiration from the rich cultural heritage and landscapes of Italy. Founded by a group of passionate perfumers and artists, the company focuses on blending traditional Italian craftsmanship with contemporary olfactory art. Each fragrance is meticulously crafted using high-quality ingredients, aiming to evoke emotions and memories through scents that celebrate the essence of different Italian experiences.",https://www.esperienzeolfattive.com/images/loader.gif,https://www.esperienzeolfattive.com,Italy,2010,niche,,,,2025-07-18T12:32:10.942225,2025-08-28T14:19:16.137915
cmd7021f4c48c4a5d314099,Esprit Magazine,"Esprit Magazine is primarily known as a publication focusing on lifestyle, fashion, and beauty, which includes content related to perfume and fragrance reviews. While not a perfume company in the traditional sense, it influences the fragrance industry through its editorial content and collaborations with various brands. The magazine provides insights into the latest trends in perfumes and promotes various fragrance lines through features and exclusive articles.",https://images.unsplash.com/photo-1582735689369-4fe89db7114c?w=400&h=300&fit=crop,www.espritmagazine.com,United States,1984,indie,,,,2025-07-18T12:32:10.942225,2025-08-28T14:19:22.889576
cmd52a70285355fa139ab00,Esprit,"Esprit is a global lifestyle brand that offers a wide range of products, including clothing, accessories, and fragrances. Founded in the 1960s, the company has established itself as a pioneer of casual, colorful fashion, with an emphasis on quality and European-inspired styling. Their fragrance line complements their fashion offerings, presenting scents that embody the essence of a relaxed yet stylish lifestyle. Esprit aims to capture the spirit of freedom and individuality in their fragrances, appealing to a broad audience through timeless and modern olfactory experiences.",https://www.esprit.com/assets/37d1c37e-3b67-4cf6-b2ea-f07c3ad5f1fc-ClmRnIU5.png,https://www.esprit.com,Germany,1968,designer,,,,2025-07-18T12:32:10.942225,2025-08-28T14:19:29.636175
cmd892cbff81ee92bfdd089,Esquire,"Esquire is a brand that produces both fragrances and grooming products inspired by the lifestyle and sophistication of modern men. Launched in collaboration with established fragrance houses, Esquire aims to convey a sense of elegance and refinement through its scents, often leveraging its reputation as a style and culture authority. Their fragrances typically feature a blend of classic and contemporary notes to appeal to a diverse male demographic.",https://www.esquire.com/_assets/design-tokens/esquire/static/images/logos/logo.20861e6.svg?primary=navLogoColor,https://www.esquire.com,United States,2000,designer,,,,2025-07-18T12:32:10.942225,2025-08-28T14:19:35.599360
cmd271ebf1ec9dc80b789d1,Esscentual Alchemy,"Esscentual Alchemy is a niche perfume company known for its artisanal approach to fragrance creation. Established by a team of passionate perfumers, the brand focuses on blending unique ingredients sourced from around the globe to create distinct scents that tell a story. With a commitment to craftsmanship and creativity, their offerings include a range of limited edition fragrances that appeal to connoisseurs and fragrance enthusiasts alike. The company is dedicated to sustainability and often incorporates eco-friendly practices in their production processes.",https://images.unsplash.com/photo-15907369626-6c63ac16f3df?w=400&h=300&fit=crop,https://www.esscentualalchemy.com,United States,2019,niche,info@esscentualalchemy.com,,,2025-07-18T12:32:10.942225,2025-08-28T14:19:41.567348
cmd8c4de23763b82a6bc160,Esscentual Brands,"Esscentual Brands is a fragrance company specializing in creating and curating unique and high-quality fragrances. Founded with a passion for scent and an expertise in the perfume industry, Esscentual Brands focuses on innovative fragrance design, leveraging both traditional perfumery techniques and modern trends. The company aims to deliver exceptional olfactory experiences through a range of original scents and exclusive collections, catering to diverse consumer preferences while emphasizing artistic expression in perfumery.",https://images.unsplash.com/photo-1556909114-f6e7ad7d3136?w=400&h=300&fit=crop,www.esscentualbrands.com,United States,2005,niche,,,,2025-07-18T12:32:10.942225,2025-08-28T14:19:48.051718
cmd3d60963fba7c6196e3bf,Esse Strikes the Notes,"Esse Strikes the Notes is a niche perfume company that focuses on creating unique and artisanal fragrances inspired by music and emotions. Their story began with a passion for olfactory creativity and a desire to translate feelings into scents. They specialize in high-quality, handcrafted fragrances that evoke specific memories and atmospheres, offering a personal experience with each product.",https://images.unsplash.com/photo-1541643600914-78b084683601?w=400&h=300&fit=crop,https://www.essestrikesthenotes.com,United States,2018,niche,contact@essestrikesthenotes.com,,,2025-07-18T12:32:10.942225,2025-08-28T14:19:54.662670
cmd227e968837c908f3ffd8,Essence of Beauty,"Essence of Beauty is a fragrance brand known for providing a diverse range of perfumes and personal care products. It is particularly recognized for its position in the drugstore market, offering affordable scents to consumers. The brand emphasizes accessibility and variety, catering to a wide audience with its selection of everyday fragrances.",https://images.unsplash.com/photo-1556909114-f6e7ad7d3136?w=400&h=300&fit=crop,https://www.essenceofbeauty.com,United States,,drugstore,,,,2025-07-18T12:32:10.942225,2025-08-28T14:20:10.444091
cmdc9243515b4f9ed90df9a,Essence of Jerusalem,"Essence of Jerusalem is a perfume company known for its unique fragrances that blend traditional Middle Eastern scents with contemporary elements. The company was inspired by the rich cultural heritage and aromas of Jerusalem, offering customers an olfactory experience that connects them to the city's historical and spiritual significance. Their specialties include handcrafted perfumes that often feature natural ingredients sourced from the region, reflecting a commitment to authenticity and quality.",https://images.unsplash.com/photo-1587017539504-67cfbddac569?w=400&h=300&fit=crop,https://www.essenceofjerusalem.com,United States,,niche,,,,2025-07-18T12:32:10.942225,2025-08-28T14:20:16.822198
cmd543fc1373c9ca252bdfc,Essence PR,"Essence PR is a public relations and marketing company that specializes in the beauty and fragrance industry. With a focus on creating strategic campaigns, they work closely with brands to enhance their market presence and storytelling. Their mission involves leveraging unique marketing strategies to connect each brand with its target audience, fostering relationships with media and influencers to drive success.",https://images.squarespace-cdn.com/content/v1/5dbad1662ec1aa6475251247/1577458181771-OGYB759P96OIXS7BN11R/thumbnail_ESSENCE-PR-LOGO-update.png,www.essencepr.com,United States,2010,indie,,,,2025-07-18T12:32:10.942225,2025-08-28T14:20:23.032966
cmd53f4873e57f8f0995251,Essence,"Essence is a brand that primarily focuses on providing a range of beauty products, including fragrances that cater to young consumers. Initially popular for its affordable makeup and beauty accessories, Essence has expanded to include a selection of perfumes that aim to embody fun, vibrant, and youthful scents. The brand emphasizes inclusivity and accessibility in its offerings, fostering a strong connection with its primarily young audience. Their mission revolves around celebrating individuality and empowering self-expression through affordable beauty products.",https://images.unsplash.com/photo-1587017539504-67cfbddac569?w=400&h=300&fit=crop,https://www.essence.eu,Germany,2002,drugstore,,,,2025-07-18T12:32:10.942225,2025-08-28T14:20:29.945291
cmdb2231f9193e13138deb8,Essential Faith,"Essential Faith is a perfume company that focuses on creating fragrances that inspire and uplift the spirit. The brand emphasizes the use of natural ingredients and aims to develop scents that resonate with personal beliefs and emotions. Essential Faith was founded with the mission to create an olfactory experience that fosters connection and inner peace, and it often incorporates themes of spirituality and mindfulness into their scent profiles.",https://images.unsplash.com/photo-1582735689369-4fe89db7114c?w=400&h=300&fit=crop,,,,indie,,,,2025-07-18T12:32:10.942225,2025-08-28T14:20:35.789645
cmdbbfa777a443a5925be07,Essential Garden,"Essential Garden is a fragrance line known for its focus on creating garden-inspired scents that evoke the beauty and essence of nature. Originally aimed at offering affordable yet high-quality perfumes, the brand emphasizes floral, fruity, and herbal notes that reflect the diversity of a garden. Over the years, Essential Garden has established a following among consumers seeking enchanting fragrances that provide an escape into the natural world while being easy on the budget.",https://images.unsplash.com/photo-15907369626-6c63ac16f3df?w=400&h=300&fit=crop,,,,indie,,,,2025-07-18T12:32:10.942225,2025-08-28T14:20:42.105227
cmd754f9dcb154af8ba2718,Essential Parfums,"Essential Parfums is a niche fragrance house based in France, dedicated to creating high-quality, sustainable perfumes. The brand emphasizes the use of natural materials and artisanal methods, aiming to provide a luxurious olfactory experience while keeping affordability in mind. Each creation reflects a story and is crafted with the intent of offering a personal journey through scent. Established by a team of passionate perfumers and creatives, Essential Parfums is known for its minimalist approach to packaging, allowing the scents themselves to take center stage.",https://cdn.shopify.com/s/files/1/0864/7206/5366/files/Parfum_100ML_Bois_Imperial.png?v=1734951000&width=100&height=148&crop=center,https://www.essentialparfums.com,France,2019,niche,,,,2025-07-18T12:32:10.942225,2025-08-28T14:20:50.085462
cmd4bbeb4ef62b4b5d297e0,Essentially Me,"Essentially Me is a fragrance company that focuses on creating customizable and personal signature scents for individuals. The company was founded with the idea that fragrance is a deeply personal experience, and they provide a platform for customers to explore and create their own unique fragrances. The brand combines high-quality ingredients with an innovative approach, allowing customers to mix and match accords to craft a scent that truly represents their identity and preferences. Their offerings cater to a wide audience, emphasizing individuality and creativity in fragrance.",https://images.unsplash.com/photo-1587017539504-67cfbddac569?w=400&h=300&fit=crop,https://essentiallyme.com,United States,2019,indie,,,,2025-07-18T12:32:10.942225,2025-08-28T14:20:56.917195
cmd2c4d0f2675808fba133a,Essenza Nobile,"Essenza Nobile is a German perfume retailer that specializes in niche and luxury fragrances. Established in 2014, the company offers a carefully curated selection of high-quality perfumes from various niche brands, showcasing olfactory artistry beyond mainstream offerings. With a focus on unique scents and exclusivity, Essenza Nobile has become a prominent name in the niche perfume industry, providing both local and international customers access to rare fragrances that emphasize individuality and sophistication.",https://images.unsplash.com/photo-1582735689369-4fe89db7114c?w=400&h=300&fit=crop,https://www.essenza-nobile.de/,Germany,2014,niche,info@essenza-nobile.de,+49 (0) 6123 887 290,"Steinweg 10, 61250 Usingen, Germany",2025-07-18T12:32:10.942225,2025-08-28T14:21:04.060268
cmd3e08f87b4883c01d1278,Essenze di Mezzanotte,"Essenze di Mezzanotte is a niche perfume company known for its artisanal approach to fragrance creation. The company specializes in crafting unique, high-quality perfumes inspired by Italian heritage and the transformative power of scent. They focus on using rare and luxurious ingredients to create distinctive olfactory experiences that evoke emotions and memories. Founded by a group of passionate perfumers, Essenze di Mezzanotte emphasizes creativity and individuality in the fragrance market, appealing to a dedicated clientele who appreciate exclusive perfumes.",https://images.unsplash.com/photo-1541643600914-78b084683601?w=400&h=300&fit=crop,www.essenze-di-mezzanotte.com,Italy,2018,niche,contact@essenze-di-mezzanotte.com,,,2025-07-18T12:32:10.942225,2025-08-28T14:21:11.518218
