id,name,description,image,website,country,founded,type,email,phone,address,createdAt,updatedAt
cmdffe42815c37989c24850,Harvey Nichols,"Harvey Nichols is a luxury department store group based in the United Kingdom. Founded in 1831, the company has evolved into a leading retailer of exclusive designer fashion, beauty products, and gourmet food. Harvey Nichols offers a curated selection of perfume brands, ranging from established fragrance houses to niche perfumers, allowing customers to find unique scents not commonplace in other retail environments. Known for its upscale atmosphere and exceptional customer service, the store frequently collaborates with perfume brands for exclusive launches and limited editions.",https://images.unsplash.com/photo-1556909114-f6e7ad7d3136?w=400&h=300&fit=crop,https://www.harveynichols.com,United Kingdom,1831,designer,,,"109 - 125 Knightsbridge, London SW1X 7RJ, United Kingdom",2025-07-18T12:32:10.942225,2025-08-28T16:25:08.578013
cmd2b8b4d95610a089d12a4,Harvey Prince,"Harvey Prince is a niche perfume company known for its unique and artisanal fragrances that emphasize the importance of natural ingredients. Established with the vision of creating luxury scents that evoke emotional connections, the brand aims to deliver captivating perfumes that stand out in the market. The company's story began with the founders' desire to revolutionize the fragrance industry by offering high-quality products without the excessive markups seen in traditional luxury brands. As a specialty company, Harvey Prince focuses on innovation within scent creation, appealing to a diverse clientele who appreciate distinctive aromas.",https://images.unsplash.com/photo-1582735689369-4fe89db7114c?w=400&h=300&fit=crop,https://www.harveyprince.com,United States,2009,niche,,,,2025-07-18T12:32:10.942225,2025-08-28T16:25:15.592718
cmd865dafccba90f194931e,Hattie Carnegie,"Hattie Carnegie is a historic fashion and fragrance brand, originally founded in New York City in the early 1900s. Known for its elegant designs and notable contributions to women's fashion, the company ventured into the perfume industry, creating fragrances that reflected the sophisticated style of the times. Hattie Carnegie's perfumes often embody classic floral and aromatic notes, attracting those who appreciate timeless elegance. The brand is associated with high-quality products and has maintained a level of prestige, appealing to consumers seeking a touch of luxury.",https://images.unsplash.com/photo-1541643600914-78b084683601?w=400&h=300&fit=crop,,United States,1909,designer,,,,2025-07-18T12:32:10.942225,2025-08-28T16:25:21.380316
cmd8116bd03cd82d2736b90,Haught Perfumes,"Haught Perfumes is a niche fragrance company known for its artisanal perfumes that blend unique ingredients and innovative scent compositions. The company was founded with a mission to create high-quality and original fragrances that evoke emotions and tell stories through scent. Their products focus on craftsmanship, personalization, and sustainability, catering to a discerning clientele that appreciates the art of perfumery.",https://images.unsplash.com/photo-15907369626-6c63ac16f3df?w=400&h=300&fit=crop,https://www.haughtperfumes.com,United States,2015,niche,info@haughtperfumes.com,,,2025-07-18T12:32:10.942225,2025-08-28T16:25:28.468265
cmd0718b8508a1de288fb41,Haugron Cientifical,"Haugron Cientifical is a cutting-edge perfume company specializing in the fusion of scientific innovation with luxury fragrance design. Established with a vision to revolutionize the perfume industry, the company incorporates advanced olfactory research and eco-friendly practices to create unique scents that cater to a diverse clientele. Their story begins with a passion for fragrances combined with a deep understanding of chemistry, leading them to develop perfumes that not only provide delightful aromas but also focus on sustainability and skin compatibility.",https://images.unsplash.com/photo-1541643600914-78b084683601?w=400&h=300&fit=crop,www.haugroncientifical.com,Spain,2018,niche,info@haugroncientifical.com,+34 9123 4567,"Avenida de la Ciencia, 23, 28021 Madrid, Spain",2025-07-18T12:32:10.942225,2025-08-28T16:25:36.763310
cmd79c7f68445308b402dad,Haunt,"Haunt is an indie perfume company that specializes in creating unique, artisan fragrance products. Founded by a team of passionate scent enthusiasts, the brand focuses on developing evocative perfumes that draw from storytelling and emotional experiences, often influenced by literature, nature, and personal narratives. Haunt prides itself on using high-quality ingredients while promoting an environmentally conscious approach to fragrance creation, catering to consumers looking for niche, handmade scents. The brand offers a range of perfumes, body oils, and scented products, targeting individuals who appreciate and seek out distinctive olfactory experiences.",https://images.unsplash.com/photo-1587017539504-67cfbddac569?w=400&h=300&fit=crop,https://hauntperfumes.com,United States,2019,indie,contact@hauntperfumes.com,,,2025-07-18T12:32:10.942225,2025-08-28T16:25:43.218368
cmd7d4a05b1606d94b1538b,Haus of Darling Perfumier,"Haus of Darling Perfumier is a modern niche perfume company known for its artisanal approach to fragrance creation. Founded with a passion for unique scents, the brand specializes in small-batch productions that emphasize high-quality ingredients and innovative scent profiles. The company's story revolves around the philosophy of celebrating individuality through personalized fragrances, often inspired by nature and personal experiences.",https://images.unsplash.com/photo-1582735689369-4fe89db7114c?w=400&h=300&fit=crop,https://hausofdarling.com,United States,2019,niche,info@hausofdarling.com,,"123 E. Aroma St., Perfume City, CA 90210",2025-07-18T12:32:10.942225,2025-08-28T16:25:49.555358
cmd8ecc42937eacdebfbcd6,Haus of Gloi,"Haus of Gloi is an indie fragrance company based in the United States that specializes in handcrafted perfumes and body care products. Founded by husband and wife duo, Haus of Gloi emphasizes the use of high-quality ingredients, often blending natural and synthetic elements to create unique, layered scents. Their story began with a passion for fragrance, leading them to develop their distinctive line of products characterized by whimsical and imaginative scents inspired by various themes. The brand focuses on inclusivity and sustainability, employing environmentally friendly practices where possible.",https://www.hausofgloi.com/cdn/shop/files/New_Tan_Banner_MK2_4000x.jpg?v=1724512298,https://hausofgloi.com,United States,2011,indie,,,,2025-07-18T12:32:10.942225,2025-08-28T16:25:56.457354
cmdb9ff109980e5765175e0,Haute & Chic,"Haute & Chic is a luxury fragrance house that specializes in creating bespoke perfumes tailored to individual preferences. Founded by industry veterans with a passion for olfactory artistry, the brand emphasizes quality ingredients and artisanal craftsmanship. Their story began with a vision to redefine personal scent through unique, handcrafted formulas that resonate with the wearer's personality and style. Haute & Chic is known for its exclusive collections and collaborations with renowned perfumers, making it a sought-after name in the niche perfume market.",https://images.unsplash.com/photo-15907369626-6c63ac16f3df?w=400&h=300&fit=crop,www.hauteandchic.com,France,2015,niche,contact@hauteandchic.com,+33 1 23 45 67 89,"12 Rue de la Parfumerie, 75001 Paris, France",2025-07-18T12:32:10.942225,2025-08-28T16:26:09.793863
cmd14fea8ec8f1a48c87e82,Haute Fragrance Company,"Haute Fragrance Company specializes in creating high-quality, niche fragrances that emphasize artistry and creativity. Founded by the renowned fragrance expert, the company has a diverse portfolio of luxury scents that cater to an exclusive market. Their dedication to unique compositions and premium ingredients places them as a distinctive player in the world of perfumery, often collaborating with well-known perfumers and designers to develop compelling fragrances that resonate with consumers seeking personalized scent experiences.",https://images.unsplash.com/photo-15907369626-6c63ac16f3df?w=400&h=300&fit=crop,www.hautefragrancecompany.com,United States,2013,niche,,,,2025-07-18T12:32:10.942225,2025-08-28T16:26:15.854730
cmd394d34d67b763c67b7c5,Haute Oud,"Haute Oud is a luxury perfume company that specializes in creating high-quality, artisanal fragrances inspired by the rich heritage of Middle Eastern perfumery. Founded by a passionate perfumer with a deep appreciation for traditional scent-making techniques, Haute Oud combines rare ingredients with innovative craftsmanship to deliver unique olfactory experiences. The brand is known for its emphasis on oud, a precious resin that is central to Middle Eastern fragrance culture, and offers a range of niche perfumes that cater to both men and women, celebrating the art of perfumery through its distinctive compositions.",https://images.unsplash.com/photo-1582735689369-4fe89db7114c?w=400&h=300&fit=crop,,,,niche,,,,2025-07-18T12:32:10.942225,2025-08-28T16:26:22.466709
cmdc26240ff9826322858ed,Havenhollow,"Havenhollow is a perfume company dedicated to capturing the essence of serene landscapes and natural elements through their unique scent formulations. Founded by a group of fragrance enthusiasts, the company aims to provide an immersive olfactory experience that transports customers to tranquil and mystical environments. Their specialization lies in crafting artisanal, small-batch perfumes that emphasize sustainability and the use of high-quality, ethically sourced ingredients.",https://static.HugeDomains.com/images/hdv3-img/hd-header-logo-v3.svg,www.havenhollow.com,United States,2018,niche,info@havenhollow.com,,,2025-07-18T12:32:10.942225,2025-08-28T16:26:29.634921
cmd3f650e30cb71da390768,Hawaiian Tropic,"Hawaiian Tropic is primarily known for its sun care products, including sunscreens and tanning oils. The brand was founded on the principles of combining quality and performance for sun protection while also enhancing the tanning experience. Over the years, it has expanded its offerings to include fragrant body oils, which are infused with tropical scents. Hawaiian Tropic emphasizes a fun, beach-inspired lifestyle, and its products often appeal to those looking for a sun-soaked, outdoor experience. The company gained a significant following due to its strong marketing strategies focusing on the allure of the tropics and summer.",https://images.unsplash.com/photo-1582735689369-4fe89db7114c?w=400&h=300&fit=crop,[https://www.hawaiiantropic.com](https://www.hawaiiantropic.com),United States,1969,drugstore,,,,2025-07-18T12:32:10.942225,2025-08-28T16:26:36.107154
cmd0da6e7b4b8018999323e,Hawkins & Brimble,"Hawkins & Brimble is a British skincare and fragrance company specializing in men's grooming products. Founded on the principles of combining quality natural ingredients with innovative formulations, they produce a range of products including colognes, shaving creams, and skincare items. The brand is inspired by traditional British apothecary styles and focuses on creating effective and stylish grooming products that cater to the modern man.",https://www.hawkinsandbrimble.com/cdn/shop/files/HAWKINS_LOGO_CORE_Straight_Strap-WO_270x.png?v=1665562842,https://www.hawkinsandbrimble.com,United Kingdom,2016,indie,,,,2025-07-18T12:32:10.942225,2025-08-28T16:26:44.121426
cmd3b2b903c325c13049212,Hawthorne,"Hawthorne is a fragrance company that specializes in personalized scents tailored to individual preferences and lifestyles. Founded in 2018 by brothers Nick and Dan Hwang, Hawthorne focuses on creating a unique and modern approach to fragrance selection through its online platform. Customers take a brief quiz that assesses their personal style and preferences, which helps the company curate a selection of bespoke fragrances for them. Their specialty lies in combining high-quality ingredients with a contemporary marketing approach, catering particularly to the millennial and Gen Z market.",https://hawthorne.co/cdn/shop/files/all-chrome-2a_800x.jpg?v=1743432492,https://www.hawthorne.co,United States,2018,indie,,,,2025-07-18T12:32:10.942225,2025-08-28T16:26:50.738071
cmdcf859baf12d68365dcdb,Hayari Parfums,"Hayari Parfums is a French niche fragrance house that specializes in creating luxurious and sophisticated perfumes. Founded by the renowned perfumer Hadrien Hayari, the brand is known for its artisanal craftsmanship and the use of high-quality ingredients. Each fragrance tells a unique story and embodies the elegance of French perfumery, appealing to connoisseurs of fine scents and those seeking exclusive fragrances. Their collection features a diverse array of olfactory experiences that aim to evoke emotions and memories, showcasing the creativity and artistry behind perfumery.",https://images.unsplash.com/photo-1582735689369-4fe89db7114c?w=400&h=300&fit=crop,https://www.hayariparfums.com,France,2011,niche,,,,2025-07-18T12:32:10.942225,2025-08-28T16:26:57.032848
cmd0a0499af7f2c9673ef5e,Hayley Kiyoko,"Hayley Kiyoko is a perfume brand associated with the actress and singer Hayley Kiyoko, known for her contributions to LGBTQ+ representation in media. The company focuses on creating scents that resonate with youthful energy and positivity, often inspired by Kiyoko's personal experiences and artistic expressions. The perfumes aim to embody themes of love, individuality, and self-acceptance, reflecting Kiyoko's brand identity and values.",https://images.unsplash.com/photo-15907369626-6c63ac16f3df?w=400&h=300&fit=crop,https://hayleykiyoko.com,United States,2021,celebrity,,,,2025-07-18T12:32:10.942225,2025-08-28T16:27:03.675726
cmdb50489513191fb06696a,Headspace,"Headspace is a perfume company that focuses on creating conceptual fragrances designed to evoke emotional responses and memories through scent. The brand emphasizes a modern approach to perfumery, combining the art of scent creation with insights from psychology and well-being. Headspace promotes mindfulness and mental wellness through its offerings, making fragrance a tool for enhancing the user’s emotional experience. The company’s unique narrative combines its expertise in aroma science with an understanding of individual preferences and emotional states, ultimately crafting a diverse range of perfumes that aim to uplift and inspire.",https://images.unsplash.com/photo-15907369626-6c63ac16f3df?w=400&h=300&fit=crop,https://headspace.com/perfume,United States,2020,niche,,,,2025-07-18T12:32:10.942225,2025-08-28T16:27:11.226467
cmd6a843cd0d1e7ec03102e,Health & Beauty Focus,"Health & Beauty Focus is a company that specializes in creating innovative health and beauty products, including a range of perfume offerings. Their emphasis is on natural ingredients and environmentally friendly practices, catering to a health-conscious consumer base. The company focuses on providing high-quality formulations designed to enhance wellness and beauty through the senses. Their story involves a commitment to sustainability and wellness, appealing to consumers who are looking for products that are not only effective but also align with their personal values.",https://images.unsplash.com/photo-1541643600914-78b084683601?w=400&h=300&fit=crop,http://www.healthandbeautyfocus.com,United States,2011,indie,,,,2025-07-18T12:32:10.942225,2025-08-28T16:27:17.081917
cmddba18e354a894ddeb09d,Healthpoint Ltd,"Healthpoint Ltd is a multinational company specializing in the development and production of personal care and hygiene products, including fragrances. Founded with a commitment to health and wellness, they emphasize the use of natural ingredients and innovation in their formulations. The company has built a reputation for quality and efficacy in their offerings.",https://images.unsplash.com/photo-1541643600914-78b084683601?w=400&h=300&fit=crop,www.healthpointltd.com,United Kingdom,2007,indie,,,,2025-07-18T12:32:10.942225,2025-08-28T16:27:22.740405
cmd356109544028fcce55a5,Heaven's Alchemy,"Heaven's Alchemy is a niche perfume company that focuses on crafting unique and high-quality fragrances. Their philosophy revolves around the idea of blending nature's finest elements to create olfactory experiences that evoke emotions and memories. Founded by a passionate perfumer, the company has quickly gained a reputation for its bespoke and artisanal fragrances, often inspired by spirituality and the natural world. Each scent is carefully formulated to celebrate the art of perfumery through sustainable practices and natural ingredients, appealing to consumers seeking more personalized and exclusive scent options.",https://static.HugeDomains.com/images/hdv3-img/hd-header-logo-v3.svg,https://www.heavensalchemy.com,United States,2019,niche,,,,2025-07-18T12:32:10.942225,2025-08-28T16:27:30.405701
cmdc689dfd3785eb8d5ec26,Hecht's,"Hecht's is a perfume and fragrance retailer known for its variety of personal care products, including perfumes and colognes. Originally starting as a department store, the brand has established itself in the fragrance community through its dedicated selection of both mainstream and niche fragrances, catering to a wide audience. Hecht's focuses on providing an exceptional shopping experience with an emphasis on customer service and product knowledge.",https://images.unsplash.com/photo-1556909114-f6e7ad7d3136?w=400&h=300&fit=crop,,United States,1897,drugstore,,,,2025-07-18T12:32:10.942225,2025-08-28T16:27:36.157526
cmd8ccbeba014218870b6ef,Hed Kandi,"Hed Kandi is a UK-based lifestyle brand and record label that expanded its offerings into fragrances. Originating from the dance music scene, the company is known for its vibrant and glamorous image, reflecting the energetic and upbeat nature of its music. Hed Kandi's fragrance line captures the spirit of party culture, often appealing to a younger audience who associate the brand with luxury and celebration. Their specialty lies in creating perfumes that embody trends and emotions related to nightlife and social events.",https://www.hedkandi.com/media/1223/hedkandi-youtube.png?anchor=center&mode=crop&width=4&height=3&rnd=133649879280000000,www.hedkandi.com,United Kingdom,1999,niche,,,,2025-07-18T12:32:10.942225,2025-08-28T16:27:43.074834
cmdd2bcb2358f15c6c659e2,Hedgren,"Hedgren is a global brand known for its innovative and stylish travel accessories, including a range of perfumes. Founded in Belgium, the company has built its reputation on creating functional yet fashionable products that cater to the on-the-go lifestyle of modern consumers. Hedgren combines quality materials with contemporary design, making its offerings both practical and aesthetically pleasing. Over the years, the brand has expanded into the fragrance market, offering a variety of perfumes that reflect its commitment to quality and style.",https://hedgren.com/cdn/shop/files/hedgren_logo_black.webp?v=1748613646&width=595,https://www.hedgren.com,Belgium,1988,indie,,,,2025-07-18T12:32:10.942225,2025-08-28T16:27:49.785310
cmd282e4a720f3e7ef97b2a,Hedonik,,https://static.HugeDomains.com/images/hdv3-img/hd-header-logo-v3.svg,https://www.hedonik.com,France,2014,niche,,,,2025-07-18T12:32:10.942225,2025-08-28T16:27:56.407777
cmd5a9cf9fb2c2d2b2a7414,Hedyeh Tehrani,"Hedyeh Tehrani is a Persian perfume company that specializes in crafting artisanal fragrances inspired by the rich cultural heritage of Iran. The brand emphasizes the use of high-quality natural ingredients, focusing on traditional Persian scents and aesthetics while blending modern fragrance-making techniques. With a commitment to sustainability and authenticity, Hedyeh Tehrani creates unique olfactory experiences that reflect the essence of Persian art and history. The company aims to resonate with both local and international markets, showcasing the beauty of Persian perfumery.",https://images.unsplash.com/photo-1582735689369-4fe89db7114c?w=400&h=300&fit=crop,,Iran,,niche,,,,2025-07-18T12:32:10.942225,2025-08-28T16:28:02.886043
cmd81084496c8197a94dbe1,Heeley,,https://images.unsplash.com/photo-1582735689369-4fe89db7114c?w=400&h=300&fit=crop,https://www.heeleyparfum.com,France,2006,niche,,,,2025-07-18T12:32:10.942225,2025-08-28T16:28:08.984428
cmd865579b0e3b43b6f6850,Hei Poa,"Hei Poa is a French perfume company known for its range of natural and Polynesian-inspired fragrances and skincare products. The brand is rooted in the rich culture of Tahiti and uses traditional ingredients such as monoi oil and floral extracts derived from the region. Hei Poa focuses on conveying the essence of the island lifestyle through its scents, which are celebrated for their exotic aroma and connection to nature. Established in the 1970s, the company has become synonymous with sun, sea, and the allure of Polynesian beauty.",https://images.unsplash.com/photo-15907369626-6c63ac16f3df?w=400&h=300&fit=crop,https://www.heipoa.com,France,1979,indie,,,,2025-07-18T12:32:10.942225,2025-08-28T16:28:25.077188
cmd91e992077977cc352487,Heidi Klum,"Heidi Klum is a multi-faceted lifestyle brand founded by supermodel and television personality Heidi Klum. Known primarily for her work in fashion, Klum has expanded her influence into the fragrance industry, launching a range of perfumes that resonate with her brand image of glamour and sophistication. The company focuses on creating fragrances that embody creativity, femininity, and strength, appealing to a wide audience looking for signature scents. Each fragrance often reflects Klum's personal style and the spirit of modern women.",https://images.unsplash.com/photo-15907369626-6c63ac16f3df?w=400&h=300&fit=crop,https://www.heidiklum.com,United States,2000,celebrity,,,,2025-07-18T12:32:10.942225,2025-08-28T16:28:33.671318
cmd9fcc6e5fbaaa15aa01d4,Heinz Glas,"Heinz Glas is a prominent manufacturing company specializing in the production of glass containers and packaging for the fragrance industry. Established in 1622, they have a rich history of craftsmanship and innovation. They cater to some of the world's leading fragrance brands, with expertise in creating exquisite, custom-designed bottles that enhance the aesthetic appeal and protective qualities of perfumes. Their commitment to sustainability and high-quality standards has positioned them as a trusted partner for many brands in the realm of fragrance and cosmetics.",https://images.unsplash.com/photo-1582735689369-4fe89db7114c?w=400&h=300&fit=crop,https://www.heinzglas.com,Germany,1622,niche,,+49 9281 860,"Heinrich-Hertz-Straße 7, 95111 Rehau, Germany",2025-07-18T12:32:10.942225,2025-08-28T16:28:41.191018
cmda2b067a8675bc3795bb2,hej:pure,"hej:pure is a contemporary fragrance brand that focuses on clean and sustainable perfume options. Founded on the principles of minimalism and purity, the company emphasizes the use of high-quality, natural ingredients designed to create unique and evocative scents while maintaining ecological integrity. Their story revolves around a commitment to transparency in sourcing and a dedication to reducing environmental impact, making them a distinguished player in the niche fragrance market.",https://images.unsplash.com/photo-1582735689369-4fe89db7114c?w=400&h=300&fit=crop,https://hejpure.com,Germany,2018,niche,,,,2025-07-18T12:32:10.942225,2025-08-28T16:28:49.279977
cmdcc2592537da65e24f45d,Helan,"Helan is an Italian perfume company that specializes in the creation of high-quality fragrances inspired by the rich history and culture of Italy. Established with a focus on using natural, sustainable ingredients, Helan aims to blend traditional craftsmanship with modern fragrance techniques. The company is well-known for its commitment to artisanal production methods, creating a range of perfumes that reflect the diversity of Italian landscapes and heritage. Helan's products also include skincare and personal care items, highlighting their dedication to holistic beauty.",https://images.unsplash.com/photo-1587017539504-67cfbddac569?w=400&h=300&fit=crop,https://www.heland.com,Italy,1984,niche,,,,2025-07-18T12:32:10.942225,2025-08-28T16:28:55.894326
cmda2daca0a9f8344edcb42,Helen of Troy,"Helen of Troy Limited is a global company that designs, manufactures, and markets a wide range of personal care items, including perfumes and fragrances. The company is known for its innovative beauty products and strong brand presence across various markets. Helen of Troy was founded in the 1960s and has since developed a portfolio that includes diverse beauty and grooming brands, focusing on enhancing consumer lifestyles through quality personal care products. The company's commitment to growth and acquiring established brands has positioned it as a significant player in the beauty and personal care industry.",https://images.unsplash.com/photo-1582735689369-4fe89db7114c?w=400&h=300&fit=crop,https://www.helenoftroy.com,United States,1968,drugstore,,+1-915-225-8000,"5001 Statesman Drive, El Paso, Texas 79924, United States",2025-07-18T12:32:10.942225,2025-08-28T16:29:02.747125
cmd9e634708881f77d1119b,Helena Rubinstein,"Helena Rubinstein was a pioneering figure in the beauty industry, recognized for her innovative approach to skincare and cosmetics. Founded in the early 20th century, the company initially focused on high-quality skincare products and has since expanded its offerings to include a range of luxurious perfumes. The brand is known for its commitment to research and development, blending art and science in its beauty products, and has gained a loyal following for its sophisticated fragrances that often encapsulate the spirit of elegance and femininity.",https://images.unsplash.com/photo-1556909114-f6e7ad7d3136?w=400&h=300&fit=crop,https://www.helena-rubinstein.com,France,1902,designer,,,,2025-07-18T12:32:10.942225,2025-08-28T16:29:29.322179
cmdc6d3d78edf433e6f5ef4,Helena Vera Fragrances,"Helena Vera Fragrances is a fragrance company that specializes in the creation of high-quality perfumes and scents inspired by nature and classic fragrance traditions. The brand is known for its signature blends that incorporate natural ingredients and artisanal methods. Helena Vera aims to cater to a discerning clientele looking for unique and sophisticated fragrances that evoke emotion and create lasting impressions. The company emphasizes sustainability and ethical sourcing in its production practices, ensuring that every fragrance tells a story and reflects the beauty of the world around us.",https://images.unsplash.com/photo-15907369626-6c63ac16f3df?w=400&h=300&fit=crop,,,,indie,,,,2025-07-18T12:32:10.942225,2025-08-28T16:29:35.142927
cmde2763ff78572b718767a,Helene Cordier,"Helene Cordier is a specialized perfume house known for its artisanal fragrances that emphasize natural ingredients and traditional craftsmanship. The company prides itself on creating unique scent profiles that tell a story, drawing inspiration from various cultural elements and personal experiences. Since its inception, Helene Cordier has aimed to blend modern aesthetics with timeless fragrance traditions, catering to a discerning clientele seeking exclusive and innovative perfumes.",https://images.unsplash.com/photo-1541643600914-78b084683601?w=400&h=300&fit=crop,www.helene-cordier.com,France,2015,niche,contact@helene-cordier.com,,,2025-07-18T12:32:10.942225,2025-08-28T16:29:42.487840
cmd634b7e8561bff33b1206,Helene Curtis,"Helene Curtis is a perfume and cosmetic company that focuses on providing quality personal care products. Originally founded in 1944, the company has a long-standing heritage in developing innovative fragrances and beauty solutions. Helene Curtis is known for its dedication to the science of scent and skin care, producing a range of products that appeal to various consumer demographics.",https://images.unsplash.com/photo-1587017539504-67cfbddac569?w=400&h=300&fit=crop,,United States,1944,drugstore,,,,2025-07-18T12:32:10.942225,2025-08-28T16:29:47.929173
cmd70ac71fc5e06c00e74b7,Helène d'Arcy,"Helène d'Arcy is a niche perfume company known for its unique and artisanal fragrance creations. The brand was founded with the intention of capturing the essence of French perfumery through innovative blends and high-quality ingredients. Their story is rooted in a passion for scent, artistry, and the emotional connection that fragrances can evoke. Specializing in limited edition releases and bespoke fragrances, Helène d'Arcy emphasizes personal expression and individualism in their perfume offerings.",https://images.unsplash.com/photo-1556909114-f6e7ad7d3136?w=400&h=300&fit=crop,https://www.helenedarcy.com,France,2010,niche,contact@helenedarcy.com,,,2025-07-18T12:32:10.942225,2025-08-28T16:29:54.265714
cmd5655225ae83de78cec61,Helene Fischer,"Helene Fischer is a renowned German singer and entertainer who has expanded her brand into the perfume industry. Known for her successful music career, she launched her fragrance line to connect with her fans on a more personal level, offering signature scents that embody her personality and artistic vision. The fragrance collection typically features floral and fruity notes, aligning with the contemporary preferences of her audience while representing her essence as an artist.",https://images.unsplash.com/photo-15907369626-6c63ac16f3df?w=400&h=300&fit=crop,https://www.helene-fischer.com,Germany,2018,celebrity,,,,2025-07-18T12:32:10.942225,2025-08-28T16:30:01.472177
cmddcbd6c003d17ec57e626,Hellenist,"Hellenist is a perfume company that specializes in creating unique and luxurious fragrances inspired by the rich heritage and culture of ancient Greece. Drawing on the mythology and history of the Hellenistic era, Hellenist combines high-quality ingredients to craft scents that evoke timeless elegance and sophistication. The brand aims to provide an olfactory experience that transports users to the enchanting landscapes of Greece, merging tradition with modern perfumery techniques.",https://hellenistparfums.com/cdn/shop/files/logo_on_light.svg?v=1718961374&width=365,www.hellenistparfums.com,Greece,2018,niche,info@hellenistparfums.com,,,2025-07-18T12:32:10.942225,2025-08-28T16:30:09.477081
cmd69aeec2020ca4bc975c9,Hellman's,Hellman's is primarily known for its mayonnaise and other food products; it does not operate as a perfume company. There is no prominent perfume line associated with Hellman's.,https://images.unsplash.com/photo-1587017539504-67cfbddac569?w=400&h=300&fit=crop,https://www.hellmanns.com,United States,1913,indie,,,,2025-07-18T12:32:10.942225,2025-08-28T16:30:14.985422
cmdaa0c9d1994ddc51115b8,Hello Stranger,"Hello Stranger is a unique perfume company that focuses on creating bespoke fragrances tailored to individual preferences. Established with the mission of enhancing personal expression through scent, the brand is known for its artisanal approach, utilizing high-quality ingredients to craft distinctive perfumes that evoke emotion and memories. Their story began with a passion for olfactory experiences and a desire to connect people through smell, offering an intimate and personalized fragrance journey.",https://images.unsplash.com/photo-1556909114-f6e7ad7d3136?w=400&h=300&fit=crop,,,,indie,,,,2025-07-18T12:32:10.942225,2025-08-28T16:30:20.722321
cmd42d839ac302c35d05902,Helmut Lang,"Helmut Lang is a fashion brand founded by Austrian designer Helmut Lang in 1986, known for its minimalist aesthetic and innovative approach to both fashion and scent. The company initially gained recognition for its avant-garde designs and has since expanded into the fragrance market, creating unique and high-quality perfumes that align with its ethos of modern elegance and understated luxury. The fragrances often reflect the brand's forward-thinking vision, emphasizing simplicity and sophistication.",https://images.unsplash.com/photo-1582735689369-4fe89db7114c?w=400&h=300&fit=crop,https://www.helmutlang.com,United States,1986,designer,,,,2025-07-18T12:32:10.942225,2025-08-28T16:30:28.077001
cmd7c868e48e6ab7388a48d,Héloïse de V,"Héloïse de V is a French perfume house that specializes in creating unique and high-quality fragrances inspired by the artistry of perfumery. Founded by perfumer Héloïse Llorente, the company is known for its commitment to craftsmanship, using only the finest natural ingredients to create complex and evocative scent compositions. The brand emphasizes a narrative through scent, drawing inspiration from personal experiences and memories, with each fragrance telling a distinct story. Héloïse de V caters to a discerning clientele looking for niche offerings that stand apart from mass-market perfumes.",https://images.unsplash.com/photo-1556909114-f6e7ad7d3136?w=400&h=300&fit=crop,https://heloisedev.com,France,2018,niche,contact@heloisedev.com,,,2025-07-18T12:32:10.942225,2025-08-28T16:30:37.841532
cmdf4157255cf1b31ebc70c,Helsinki Perfume Club,"Helsinki Perfume Club is a niche fragrance company that specializes in creating unique and artistic perfumes. The company aims to celebrate the artistry and craftsmanship behind perfumery by offering distinctive scents that reflect the culture and spirit of Helsinki. Founded by a group of passionate perfumers, Helsinki Perfume Club combines natural ingredients with innovative techniques to produce high-quality fragrances that stand out in the market. Their story is one of creativity, boldness, and a deep connection to the local environment, which influences their scent profiles.","https://img1.wsimg.com/isteam/ip/daa6ceaf-443c-444b-a0cd-e46807acf63b/88-_GLC2741.jpeg/:/cr=t:0%25,l:0%25,w:100%25,h:100%25/rs=h:500,cg:true",https://helsinkiperfumeclub.com,Finland,2018,niche,contact@helsinkiperfumeclub.com,,,2025-07-18T12:32:10.942225,2025-08-28T16:30:44.404040
cmdaa5d679bfbf970f21856,Hema,"Hema is a Dutch retail company that specializes in affordable household goods, clothing, and cosmetics, including a variety of personal care products and fragrances. Founded in 1926, the company has developed a reputation for offering quality products at value prices, focusing on innovative and stylish designs. Hema's fragrance line aims to provide customers with accessible yet appealing scents, reflecting their brand ethos of simplicity and modernity.",https://www.hema.nl/on/demandware.static/Sites-HemaNL-Site/-/default/dw610bec1d/images/logo.svg,https://www.hema.nl,Netherlands,1926,drugstore,,,,2025-07-18T12:32:10.942225,2025-08-28T16:30:51.926137
cmd36a36752e28d94590c4b,Hemas,"Hemas Holdings PLC is a leading player in the fast-moving consumer goods (FMCG) sector in Sri Lanka, with significant operations in the healthcare, personal care, and hygiene products markets. Founded in the early 1950s, Hemas has developed a strong portfolio of brands across various categories, including its fragrance and personal care offerings. The company specializes in creating high-quality products that resonate with the Sri Lankan market's diverse consumer preferences. Over the years, Hemas has leveraged both local and international partnerships to enhance its product lines and expand its reach within the perfume segment, catering to emerging trends and consumer demands.",https://hemas.com/assets/images/logo/hemas-logo-white.png,https://www.hemas.com,Sri Lanka,1951,designer,,,,2025-07-18T12:32:10.942225,2025-08-28T16:31:00.703371
cmd6657371a585a69f7081c,Hemingway Accoutrements,"Hemingway Accoutrements is a niche fragrance company that specializes in creating high-quality perfumes inspired by the works and life of American author Ernest Hemingway. The brand focuses on drawing from Hemingway's adventurous spirit and literary heritage, aiming to capture the essence of his experiences in fragrance form. Their products are often crafted with a storytelling approach, offering unique olfactory experiences that resonate with Hemingway's passions and journeys.",https://images.unsplash.com/photo-1587017539504-67cfbddac569?w=400&h=300&fit=crop,https://hemingwayaccoutrements.com,United States,2014,niche,,,,2025-07-18T12:32:10.942225,2025-08-28T16:31:07.947368
cmd881084b91f6cc7353f79,Hendley Perfumes,"Hendley Perfumes is an American niche fragrance house that focuses on creating artisanal perfumes, emphasizing unique olfactory experiences crafted from high-quality ingredients. Founded by a passionate perfumer, the company embodies a philosophy of artistry and craftsmanship, with each scent inspired by personal narratives and shared moments. They specialize in small-batch production, allowing for creativity and individual expression in each fragrance, providing a more intimate and authentic experience to their clientele.",https://images.squarespace-cdn.com/content/v1/5409058be4b0e5142540f607/f74a7742-5335-4ec5-9566-3bf4797f13de/hendley_header_10-21.jpg?format=1000w,https://www.hendleyperfumes.com,United States,2016,niche,,,,2025-07-18T12:32:10.942225,2025-08-28T16:31:15.495998
cmdc998c630a8b9dbbe06fb,Henkel,"Henkel is a global leader in the consumer and industrial sectors, operating mainly in the fields of beauty care, home care, adhesive technologies, and laundry care. Founded in 1876, Henkel has a rich history that began with a focus on producing and selling household goods, particularly washing agents and soap. Over the years, the company has expanded its product portfolio and has developed strong expertise in developing perfumes and fragrances, particularly through its Beauty Care segment. Henkel is known for its commitment to sustainability and innovation within the beauty sector, offering a range of fragrance products that cater to diverse consumer preferences.",https://www.henkel.com/resource/blob/737324/1129f40d0df611e51758a0d35e6cab78/data/henkel-logo-standalone-svg.svg,https://www.henkel.com,Germany,1876,drugstore,,+49 211 797 0,"Henkel AG & Co. KGaA, 40191 Düsseldorf, Germany",2025-07-18T12:32:10.942225,2025-08-28T16:31:24.114889
cmd1318f225307c7cb32de7,Henny Faire Co.,"Henny Faire Co. is a perfumery focused on creating unique, high-end fragrances that blend artisanal craftsmanship with sustainable ingredients. Established by fragrance enthusiasts, the company prides itself on small-batch production, ensuring each scent embodies stories and emotions through carefully selected notes. Their specialty lies in providing bespoke fragrances that cater to individual preferences, making them popular among niche fragrance lovers.",https://images.unsplash.com/photo-1541643600914-78b084683601?w=400&h=300&fit=crop,,,,niche,,,,2025-07-18T12:32:10.942225,2025-08-28T16:31:29.975982
cmde69c2c4fa4186eeef249,Henri Bendel,"Henri Bendel was a luxury lifestyle brand known for its upscale high-fashion accessories, including handbags, jewelry, and fragrances. Founded in 1895 by Henri Bendel, the brand was originally established in New York City, where it became famous for its distinct brown-and-white striped boxes. The brand offered a unique blend of avant-garde fashion and beauty products and was considered a pioneer in the retail landscape. Its fragrance line, often inspired by the elegance of its fashion products, contributed significantly to its identity as a luxury retailer. The company operated flagship stores and earned a loyal clientele until its closure in 2019, marking the end of its retail presence but not entirely extinguishing its legacy in luxury fragrance.",https://images.unsplash.com/photo-1587017539504-67cfbddac569?w=400&h=300&fit=crop,,United States,1895,designer,,,,2025-07-18T12:32:10.942225,2025-08-28T16:31:38.087328
cmd398d52638aee54bb6dba,Henri d'Orléans,"Henri d'Orléans is a niche perfume brand that combines the rich heritage of the Orléans royal family with contemporary perfumery art. The company is known for its use of high-quality ingredients and traditional crafting techniques, resulting in unique and sophisticated fragrances that draw inspiration from history, nature, and the elegance of French royal culture. Launched by the descendant of the Orléans family, the brand aims to create luxurious scent experiences for a discerning clientele.",https://images.unsplash.com/photo-15907369626-6c63ac16f3df?w=400&h=300&fit=crop,https://www.henridorleans.com,France,2018,niche,,,,2025-07-18T12:32:10.942225,2025-08-28T16:31:44.715194
cmde6c5720e65b4fcbbe538,Henri Garceau,"Henri Garceau is a perfume company known for creating high-quality fragrances that combine traditional craftsmanship with modern sensibilities. Founded by Henri Garceau, the brand has a deep passion for scent creation and aims to evoke emotions and memories through their unique perfume compositions. The company emphasizes artisanal techniques, sourcing of fine ingredients, and a meticulous blending process to ensure the originality and richness of each fragrance. Over the years, Henri Garceau has cultivated a niche following among fragrance enthusiasts, celebrating the art of perfumery.",https://images.unsplash.com/photo-1582735689369-4fe89db7114c?w=400&h=300&fit=crop,,,,niche,,,,2025-07-18T12:32:10.942225,2025-08-28T16:31:51.065598
cmdad84ca8baf1a283865dc,Henrik Vibskov,"Henrik Vibskov is a Danish fashion designer known for his innovative and artistic approach to ready-to-wear clothing, accessories, and fragrances. Established in 2001, the brand emphasizes a unique blend of fashion, art, and performance, offering a distinctive range of perfumes that reflect Vibskov's avant-garde aesthetic and deep understanding of scent. The company gained recognition for its creative storytelling through fragrance, often inspired by various cultural elements and artistic movements.",https://images.unsplash.com/photo-1556909114-f6e7ad7d3136?w=400&h=300&fit=crop,https://www.henrikvibskov.com,Denmark,2001,niche,,,,2025-07-18T12:32:10.942225,2025-08-28T16:31:58.108912
cmd1e6592e4616a72c6bd0f,Henry Cotton's,"Henry Cotton's is a fashion brand that extends into the fragrance industry, known for its sophisticated and classic scents. Originally associated with high-quality casual and smart-casual clothing, the brand has diversified into offering perfumes that capture the essence of timeless elegance and modern lifestyle. Through meticulous craftsmanship and attention to detail, Henry Cotton's aims to embody the spirit of adventure and tradition in their fragrance products, appealing to discerning consumers who value quality and sophistication.",https://images.unsplash.com/photo-1541643600914-78b084683601?w=400&h=300&fit=crop,,Italy,1976,designer,,,,2025-07-18T12:32:10.942225,2025-08-28T16:32:03.971435
cmdf774e8468e65631321c9,Henry Dunay,"Henry Dunay is a distinguished name in the world of luxury perfumes, known for its unique and sophisticated fragrance offerings. The brand was founded by renowned American jeweler Henry Dunay, who later expanded his creative vision to include perfume. With a focus on artistry and luxury, their fragrances often reflect the elegance and craftsmanship associated with jewelry design, offering an exceptional olfactory experience that caters to discerning clientele.",https://images.unsplash.com/photo-1541643600914-78b084683601?w=400&h=300&fit=crop,[http://www.henrydunay.com](http://www.henrydunay.com),United States,1998,niche,,,,2025-07-18T12:32:10.942225,2025-08-28T16:32:10.036702
cmd5435cdb73578fa100dda,Henry Jacques,"Henry Jacques is a high-end niche perfume house renowned for its artisanal approach to fragrance creation. Established in 1975 by the master perfumer Henry Jacques, the company specializes in bespoke fragrances, offering personalized scent experiences that cater to individual preferences. The brand is recognized for its exquisite craftsmanship, utilizing rare and luxurious ingredients, and its commitment to the art of perfumery. Henry Jacques operates a boutique in Paris and has garnered a loyal clientele seeking unique, handcrafted scents that are often limited in production, ensuring exclusivity and personalization.",https://images.unsplash.com/photo-1582735689369-4fe89db7114c?w=400&h=300&fit=crop,https://www.henryjacques.com,France,1975,niche,,,,2025-07-18T12:32:10.942225,2025-08-28T16:32:16.944119
cmdca359c3b5115702c90fb,Henry Rose,"Henry Rose is a fragrance company founded by actress Michelle Pfieffer in 2019. The brand was created with the belief that consumers deserve transparency in their fragrance ingredients, leading to the development of perfumes free from harmful chemicals and synthetic additives. Each scent offered by Henry Rose is crafted from safe, sustainable components, embodying a commitment to both quality and eco-friendliness. The company stands out for its approach to clean beauty, appealing to consumers who prioritize wellness and ethical sourcing.",https://henryrose.com/cdn/shop/files/650x360_Nav_Dropdown_v1.jpg?v=1753974674&width=480,https://www.henryrose.com,United States,2019,indie,,,,2025-07-18T12:32:10.942225,2025-08-28T16:32:23.838587
cmda7343ac1cf6c399d4454,Herb Alpert,"Herb Alpert is a multifaceted artist known for his contributions to music and the arts, and he has expanded his creative endeavors into the perfume industry. The company is recognized for creating fragrances that capture the essence of passion and self-expression, much like his music. His perfumes combine unique ingredients that evoke personal memories and emotions. Herb Alpert's journey into the fragrance business is part of a larger vision to merge creativity with personal scent experiences.",https://herbalpert.com/wp-content/uploads/2017/04/logo_horizontal.png,https://herbalpert.com,United States,2018,indie,,,,2025-07-18T12:32:10.942225,2025-08-28T16:32:30.646215
cmd7e66c329fc48f4a56752,Herba,"Herba is a contemporary perfume company specializing in eco-friendly and sustainable fragrances. Founded by a team of passionate perfumers and botanical enthusiasts, the brand emphasizes the use of natural ingredients sourced from renewable resources. Their story is built on a commitment to reducing environmental impact while providing unique scents that evoke the essence of nature. Herba aims to create an intimate connection between wearers and the natural world through their thoughtfully crafted products.",https://images.unsplash.com/photo-15907369626-6c63ac16f3df?w=400&h=300&fit=crop,www.herbaperfumes.com,United States,2018,indie,contact@herbaperfumes.com,,,2025-07-18T12:32:10.942225,2025-08-28T16:32:37.257169
cmd073c4cb2887f055cbeb4,Herbalife,"Herbalife is a global nutrition and wellness company that offers a range of products including dietary supplements and personal care items, but it is not primarily focused on perfume. Founded in 1980, the company promotes a healthy lifestyle and is best known for its meal replacement shakes, energy drinks, and various nutrition-related products. Herbalife markets its products through a multi-level marketing model, and while they may have some personal care offerings, fragrance is not a core part of their business.",https://www.herbalife.com/dmassets/global-reusable-assets/brandmark-logo/h1-header-logo.png,https://www.herbalife.com,United States,1980,indie,,,"800 W. Olympic Blvd., Los Angeles, CA 90015, United States",2025-07-18T12:32:10.942225,2025-08-28T16:32:45.965542
cmd04b277665a55516350f2,Herban Cowboy,"Herban Cowboy is a sustainable personal care brand specializing in vegan and cruelty-free perfumes. Founded on the principles of using natural ingredients and promoting eco-conscious practices, the company aims to provide customers with high-quality, environmentally friendly products that do not compromise on fragrance or performance. Herban Cowboy embodies the spirit of adventure and the outdoors, appealing to consumers looking for unique scents that reflect a natural lifestyle.",https://herbancowboy.com/cdn/shop/files/VOGUE_black.png?v=1744268413&width=1020,https://herbancowboy.com,United States,2003,indie,,,,2025-07-18T12:32:10.942225,2025-08-28T16:32:55.391618
cmd283ee2960c3edf8f96fa,Herbcraft Perfumery,"Herbcraft Perfumery specializes in creating unique, artisan fragrances using natural ingredients and sustainable practices. Founded by a group of fragrance enthusiasts with a passion for botanical perfumery, the company emphasizes the connection between scent and well-being, offering a range of handcrafted perfumes that reflect their commitment to environmental responsibility and holistic living.",https://images.squarespace-cdn.com/content/v1/5b203d1c620b85c5cd2c8d3e/1543647196472-6995CHXLAA9P5YR97YHB/MGarcia+HerbcraftPerfumery_sticker+09202017.png,https://herbcraftperfumery.com,United States,2015,indie,contact@herbcraftperfumery.com,,,2025-07-18T12:32:10.942225,2025-08-28T16:33:02.710313
cmd690641e897ff5bb409db,Herbert Frommen,"Herbert Frommen is a well-regarded perfume manufacturer known for its high-quality fragrance creations. Founded in Germany, the company focuses on crafting unique and luxurious perfumes using rare ingredients and traditional methods. With a passion for the art of perfumery, Herbert Frommen emphasizes the individuality of each scent, creating perfumes that cater to discerning customers seeking exclusivity and elegance. The brand is characterized by its innovative compositions and attention to detail, making it a sought-after name in the niche perfume sector.",https://images.unsplash.com/photo-1556909114-f6e7ad7d3136?w=400&h=300&fit=crop,www.herbertfrommen.com,Germany,2010,niche,,,,2025-07-18T12:32:10.942225,2025-08-28T16:33:08.908797
cmd18bd92f16677917cf895,Hercules Man,"Hercules Man is a niche perfume company that focuses on creating unique and high-quality fragrances for men. The brand prides itself on craftsmanship, often utilizing rare ingredients and traditional methods to produce scents that evoke strength, elegance, and masculinity. The story behind Hercules Man revolves around the pursuit of creating an olfactory experience that embodies the spirit of a modern hero, intertwining mythology with contemporary lifestyle. The company specializes in offering bespoke scent creations, catering to discerning customers who appreciate individuality and artistry in perfumery.",https://images.unsplash.com/photo-1541643600914-78b084683601?w=400&h=300&fit=crop,[www.herculesman.com](http://www.herculesman.com),United States,2015,niche,,,,2025-07-18T12:32:10.942225,2025-08-28T16:33:15.545461
cmde828e0637a2b87899fd0,Herdahl-Thorsing,"Herdahl-Thorsing is a luxury perfume company known for its handcrafted, artisanal fragrances. Established by two fragrance enthusiasts, it focuses on blending traditional perfumery techniques with modern innovations to create unique scents. Their specialty lies in developing signature fragrances that tell a story, often inspired by nature and personal experiences. The company emphasizes sustainability and the use of high-quality, natural ingredients, appealing to a discerning clientele seeking exclusivity and authenticity in their fragrance choices.",https://images.unsplash.com/photo-1587017539504-67cfbddac569?w=400&h=300&fit=crop,www.herdahlthorsing.com,Norway,2015,niche,contact@herdahlthorsing.com,,,2025-07-18T12:32:10.942225,2025-08-28T16:33:22.391678
cmd46b7e5506681b851ae02,Heretic Parfums,"Heretic Parfums is an American perfume company known for crafting unique niche fragrances that blend unconventional ingredients to create bold olfactory experiences. Founded by perfume industry veteran Douglas Bender and inspired by sustainable practices and artistic expression, Heretic Parfums emphasizes natural ingredients and cruelty-free formulations. The brand challenges traditional perfume norms by offering unapologetically raw and evocative scents, often drawing from themes of nature, personal experiences, and avant-garde art. Through its artisan approach, the company has cultivated a loyal following among fragrance enthusiasts seeking individuality in their scent choices.",https://images.unsplash.com/photo-1582735689369-4fe89db7114c?w=400&h=300&fit=crop,https://www.hereticparfums.com,United States,2016,niche,,,,2025-07-18T12:32:10.942225,2025-08-28T16:33:28.877069
cmdc2648128d0e04a35baec,Hermès,"Hermès is a French luxury goods manufacturer established in 1837, renowned for its high-quality craftsmanship in leather, lifestyle accessories, and ready-to-wear fashion. The company began as a harness and saddle workshop catering to the needs of the carriage trade. Over the years, it expanded into fragrance, launching its first perfume, ""Calèche,"" in 1969. Hermès is known for its exclusive, elegantly crafted scents, reflecting the brand's commitment to luxury, sophistication, and artisanal craftsmanship. Their fragrances often draw inspiration from nature and convey a sense of timeless elegance.",https://images.unsplash.com/photo-1556909114-f6e7ad7d3136?w=400&h=300&fit=crop,https://www.hermes.com,France,1837,designer,,,"24 Rue du Faubourg Saint-Honoré, 75008 Paris, France",2025-07-18T12:32:10.942225,2025-08-28T16:33:37.954937
cmd5a77c288cf530507e90a,Hermetica,"Hermetica is a niche perfume company that specializes in creating unique fragrances inspired by the concept of alchemy. Founded by the renowned perfumer John Molloy, Hermetica combines high-quality sustainable ingredients with innovative technology to craft perfumes that are designed to be both eco-friendly and luxurious. The brand focuses on deep exploration of scent, using alcohol-free formulations housed in elegant glass bottles. Their story is grounded in a commitment to sustainability and a scientific approach to fragrance creation, appealing to a discerning audience that values both artistry and environmental responsibility.",https://images.unsplash.com/photo-1582735689369-4fe89db7114c?w=400&h=300&fit=crop,https://hermeticalab.com,France,2018,niche,,,,2025-07-18T12:32:10.942225,2025-08-28T16:33:45.874721
cmd5c5cb993756a8c929743,Hershey's,"Hershey's is primarily known as a leading chocolate manufacturer; however, it has ventured into creating scented products such as candles and cosmetics that reflect its brand essence. The company focuses on bringing sweet, nostalgic fragrances that capture the essence of its renowned chocolates and candies. Founded in 1894 by Milton S. Hershey, the company has established a rich legacy in the confectionery industry and continues to innovate beyond traditional sweets into the realm of aromatic experiences.",https://www.thehersheycompany.com/content/dam/hershey-corporate/images/icons/the-hershey-company-logo-color-header.png,www.thehersheycompany.com,United States,1894,drugstore,,,"19 East Chocolate Avenue, Hershey, PA 17033, United States",2025-07-18T12:32:10.942225,2025-08-28T16:33:53.130635
cmd13863e2a29ca60a11ab7,Hervé Gambs,"Hervé Gambs is a French perfume house that specializes in crafting unique and luxurious fragrances. Founded by Hermé Gambs, the company emphasizes the art of crafting scents that are inspired by nature, memories, and the culture around them. Their products range from perfumes to scented accessories and home fragrances, with a focus on artisanal quality and elegance. Hervé Gambs has gained a reputation for its creative approach to perfumery, often blending traditional techniques with contemporary aesthetics.",https://images.unsplash.com/photo-1541643600914-78b084683601?w=400&h=300&fit=crop,https://www.hervegambs.com,France,2009,niche,,,,2025-07-18T12:32:10.942225,2025-08-28T16:33:59.729995
cmd359a1ce8d68cd92e6f7e,Hervé Léger,"Hervé Léger is a luxury fashion brand known primarily for its body-conscious bandage dresses. Founded by designer Hervé Léger in 1985, the brand incorporates the principles of haute couture into its products, transcending beyond clothing into the realm of fragrance. The line of perfumes was introduced in the later years, reflecting the brand’s commitment to a chic and sophisticated aesthetic. The fragrances are characterized by their sensuality, high quality, and complementary nature to the brand’s distinctive apparel line.",https://herveleger.com/cdn/shop/files/logo_265x.png?v=1660913708,https://www.herveleger.com,United States,1985,designer,,,,2025-07-18T12:32:10.942225,2025-08-28T16:34:07.571477
cmd7809720b6b3192737a2d,Hescanas,"Hescanas is a luxury perfume house that specializes in crafting high-quality, artisanal fragrances. The company was founded by a passionate perfumer who aimed to create scents that capture emotions and memories, drawing inspiration from nature and global cultures. Hescanas takes pride in using rare and sustainable ingredients, focusing on unique compositions that tell a story through scent. They have quickly gained a reputation for their innovative blends and attention to detail, offering a personalized experience for fragrance enthusiasts.",https://images.unsplash.com/photo-1556909114-f6e7ad7d3136?w=400&h=300&fit=crop,www.hescanas.com,France,2018,niche,contact@hescanas.com,+33 1 23 45 67 89,"12 Rue de la Fragrance, 75001 Paris, France",2025-07-18T12:32:10.942225,2025-08-28T16:34:14.452700
cmd0480291f548fdd90c8a7,Hexennacht,"Hexennacht is a niche perfume company known for crafting unique, artisanal fragrances that often draw inspiration from mystical and historical themes. Founded by a group of fragrance enthusiasts, the company emphasizes the use of high-quality ingredients and complex scent profiles, catering to a clientele that values individuality and creativity in their perfume choices. The brand's identity is rooted in a blend of tradition and modernity, seeking to evoke personal stories and emotions through scent.",https://images.unsplash.com/photo-1556909114-f6e7ad7d3136?w=400&h=300&fit=crop,https://hexennacht.com,United States,2018,niche,contact@hexennacht.com,,,2025-07-18T12:32:10.942225,2025-08-28T16:34:32.250074
cmd28521973e878a00a5055,Hexy,"Hexy is an innovative perfume company known for its unique, playful approach to fragrance. Founded with the vision to create scents that resonate with personal emotions and experiences, Hexy harnesses the art of storytelling through its olfactory creations. The company emphasizes sustainability and ethical sourcing, using high-quality ingredients while minimizing its environmental impact. Their specialty lies in crafting limited edition fragrances that blend contemporary design with artistic expression, appealing to a modern audience that values individuality in scent.",https://images.unsplash.com/photo-1556909114-f6e7ad7d3136?w=400&h=300&fit=crop,https://www.hexyfragrance.com,United States,2018,indie,contact@hexyfragrance.com,,"123 Scent Lane, Fragrance City, CA 90210, USA",2025-07-18T12:32:10.942225,2025-08-28T16:34:38.996501
cmda2e257e7fcd0602f7f4e,Heymountain,"Heymountain is a niche perfume company specializing in crafting fragrances inspired by nature and fantasy. Established in 2010, they focus on creating unique, high-quality perfumes using natural ingredients. The brand emphasizes sustainability, eco-friendliness, and artistic expression in its products, catering to a clientele that appreciates individuality and artisanal craftsmanship. The story of Heymountain is rooted in a desire to offer fragrances that ignite the imagination and connect users with the enchanting elements of the world around them.",https://www.heymountain.com/documents/logo/logo.jpg,https://www.heymountain.com,Germany,2010,niche,,,,2025-07-18T12:32:10.942225,2025-08-28T16:34:46.301356
cmd43cefb4aecf839e2ccd5,Heyoka Frankincense,"Heyoka Frankincense is a niche perfume company known for its unique approach to fragrance creation utilizing the aromatic properties of natural frankincense. The brand focuses on artisanal and handcrafted perfumes that evoke a connection to nature and spiritual wellness. Founded by a passion for sensory experiences and the rich history of frankincense, the company aims to provide high-quality, sustainable fragrances that cater to a discerning audience.",https://images.unsplash.com/photo-1582735689369-4fe89db7114c?w=400&h=300&fit=crop,https://www.heyokafrankincense.com,United States,,niche,,,,2025-07-18T12:32:10.942225,2025-08-28T16:35:02.333653
cmd6efa4d947ad8be0e43b4,Hi Wildflower,"Hi Wildflower is a niche perfume company that focuses on creating unique and evocative fragrances inspired by the natural world. The brand emphasizes the connection between scent and personal experience, crafting intentionally designed perfumes that evoke emotion and memory. Their philosophy revolves around using high-quality, sustainable ingredients sourced thoughtfully to produce a product that reflects a commitment to both artistry and environmental consciousness.",https://hiwildflower.com/wp-content/uploads/2024/11/hiwildflower.com_logo.png,https://www.hiwildflower.com,United States,2018,niche,,,,2025-07-18T12:32:10.942225,2025-08-28T16:35:11.780762
cmd807d7397ec107d8c4483,hideAWAY,"hideAWAY is a contemporary perfume company specializing in unique, unisex fragrances that evoke a sense of escape and adventure. Founded by a team of fragrance enthusiasts, the brand focuses on using high-quality ingredients that are ethically sourced to create scents that tell a story and transport the wearer to a different place. hideAWAY emphasizes individuality and personal expression through their curated scent collections, appealing to a diverse customer base looking for distinctive olfactory experiences.",https://images.unsplash.com/photo-1587017539504-67cfbddac569?w=400&h=300&fit=crop,https://www.hideawayperfume.com,United States,2019,indie,contact@hideawayperfume.com,,,2025-07-18T12:32:10.942225,2025-08-28T16:35:18.793869
cmd0b605cd5af0ac496eb39,Hierbas de Ibiza,"Hierbas de Ibiza is a perfume company known for capturing the essence of the Ibiza island through their unique fragrance selections. The brand focuses on creating high-quality niche perfumes that reflect the natural scents and cultural heritage of Ibiza, often incorporating botanical ingredients endemic to the region. Founded by a team of perfumers who are passionate about the island's flora, Hierbas de Ibiza combines traditional perfume-making techniques with modern inspirations to produce distinct fragrances that appeal to a diverse clientele.",https://hierbasdeibiza.com/wp-content/uploads/logo_Hierbas_filigrs.png,https://www.hierbasdeibiza.com,Spain,2016,niche,,,,2025-07-18T12:32:10.942225,2025-08-28T16:35:29.303422
cmdf425322e6eb81773f2f8,Highgrove,"Highgrove is a luxury fragrance company that specializes in creating high-quality, natural perfumes inspired by the rich botanical gardens at Highgrove House, the residence of His Royal Highness The Prince of Wales. Established with a focus on sustainability and environmental responsibility, Highgrove sources its ingredients ethically and utilizes artisanal methods to develop unique scents that reflect the beauty of the gardens. The company embodies a dedication to craftsmanship, luxury, and the harmony of nature, providing a distinct olfactory experience with each scent.",https://www.highgrovegardens.com/cdn/shop/files/HG_MASTER_TCrown_FULL_WEB_GOLD_GREEN-2_330x.png?v=1673523740,https://www.highgroveshop.com/,United Kingdom,2012,niche,,,"Highgrove House, Pitchcombe, Stroud, Gloucestershire, GL6 6TA, United Kingdom",2025-07-18T12:32:10.942225,2025-08-28T16:35:36.882137
cmd3d76ace2f4f32d20110b,Highland Lilac of Rochester,"Highland Lilac of Rochester is a specialty perfume company known for crafting unique and artisanal fragrances inspired by the natural beauty of their surroundings. Established in Rochester, New York, the company focuses on using quality ingredients to create rich, evocative scents that celebrate the essence of lilacs, among other floral notes. The brand is renowned for its commitment to detail, incorporating local themes and seasonal fragrances into their collections.",https://highlandlilac.com/cdn/shop/files/new_logo_alt_300x300.png?v=1613540154,http://www.highlandlilac.com,United States,2003,niche,,,,2025-07-18T12:32:10.942225,2025-08-28T16:35:44.101999
cmda486b284f6df6dbc50c2,Highland Partners,"Highland Partners is an innovative perfume company that specializes in creating unique, high-quality fragrances inspired by nature and memorable experiences. The company's story began with a deep passion for perfume craftsmanship and creativity, leading to a portfolio of scents that resonate with personal stories and emotions. Their specialty lies in sourcing rare ingredients and blending them to create distinct olfactory experiences that appeal to connoisseurs and casual users alike.",https://images.unsplash.com/photo-1582735689369-4fe89db7114c?w=400&h=300&fit=crop,,,,indie,,,,2025-07-18T12:32:10.942225,2025-08-28T16:35:49.673697
cmdd65bd86eaa1aa430b4cd,Hikayat,"Hikayat is a perfume company that specializes in crafting high-quality fragrances inspired by Middle Eastern heritage. Established with a passion for presenting luxurious scents, Hikayat aims to blend traditional and contemporary fragrance elements. The company focuses on creating artisanal perfumes using premium ingredients sourced from around the world, reflecting the rich history and culture of the region.",https://hikayatperfumes.com/wp-content/uploads/2025/07/Logo-BT-e1752650721687.png,http://www.hikayatperfumes.com,United Arab Emirates,2015,niche,,,,2025-07-18T12:32:10.942225,2025-08-28T16:35:58.634703
cmdb704fc8ded7d5c115232,Hilary Duff,"Hilary Duff's perfume brand is a collection of fragrance products created and endorsed by the American singer, actress, and entrepreneur Hilary Duff. The brand gained recognition for its youthful and vibrant scents that resonate with a younger audience. Hilary Duff launched her first fragrance, ""With Love... Hilary Duff,"" in 2006, which was well-received and led to a series of additional scents that embody her personal style and lifestyle. The fragrances are often marketed as both fun and feminine, appealing to fans of Duff as well as consumers looking for trendy fragrances.",https://images.unsplash.com/photo-15907369626-6c63ac16f3df?w=400&h=300&fit=crop,,United States,2006,celebrity,,,,2025-07-18T12:32:10.942225,2025-08-28T16:36:05.351467
cmd1ad0e1f1ef692273ec5f,Hilde Soliani Profumi,"Hilde Soliani Profumi is an independent Italian perfume house founded by the perfumer Hilde Soliani. Known for creating unique and artistic fragrances, the company specializes in artisanal perfumes that blend traditional craftsmanship with innovative olfactory creations. Hilde Soliani draws inspiration from her personal experiences and travels, translating them into scent compositions that tell a story. The brand is characterized by its emphasis on quality ingredients and a commitment to the art of perfumery.",https://hildesoliani.com/wp-content/uploads/2020/11/cropped-bicchieri.jpg,https://www.hildesoliani.com,Italy,2006,indie,,,,2025-07-18T12:32:10.942225,2025-08-28T16:36:14.085280
cmdfc44898ca9ca2b1feb4f,Hildegard Braukmann,"Hildegard Braukmann is a German perfume and cosmetics company, renowned for its innovative approach to skincare and perfume formulation. The company began its journey focusing on personal care products inspired by nature, with a strong emphasis on high-quality ingredients and holistic health. Founded by Hildegard Braukmann, the brand embodies her vision of combining beauty with well-being, resulting in a diverse range of products that cater to various skin types and preferences. Over the years, Hildegard Braukmann has established itself as a trusted name in the beauty industry, particularly well-regarded for its expert formulations and sustainable practices.",https://www.hildegard-braukmann.de/media/image/5d/55/85/braukmann.png,https://www.hildegard-braukmann.de,Germany,1966,niche,,,,2025-07-18T12:32:10.942225,2025-08-28T16:36:21.689759
cmd538b0b4952630d9cecf2,Hillwood,"Hillwood is a luxury perfume company that specializes in creating high-quality, artisanal fragrances. Founded by a group of passionate perfumers, the brand focuses on crafting unique scents that combine traditional techniques with contemporary artistry. Hillwood's fragrances are known for their intricate compositions and premium ingredients, highlighting the beauty of nature in their design and appeal. The company aims to create a personal connection for each wearer through evocative scents that tell a story.",https://images.unsplash.com/photo-15907369626-6c63ac16f3df?w=400&h=300&fit=crop,www.hillwoodfragrances.com,United States,2016,niche,contact@hillwoodfragrances.com,,,2025-07-18T12:32:10.942225,2025-08-28T16:36:28.018451
cmda8617d89a9078b535b70,HIM,"HIM is a niche perfume company that specializes in creating high-quality, unique fragrances designed for men. Founded by a team of passionate perfumers, HIM aims to redefine male scents through innovative blends and sustainable practices. The brand emphasizes sophistication and individuality, working with both traditional and modern scent profiles to appeal to contemporary men seeking distinctive fragrances.",https://images.unsplash.com/photo-1582735689369-4fe89db7114c?w=400&h=300&fit=crop,www.himfragrance.com,United States,2018,niche,contact@himfragrance.com,,,2025-07-18T12:32:10.942225,2025-08-28T16:36:33.775265
cmdc44f4cbfdb119b93c92f,Hima Jomo,"Hima Jomo is an innovative perfume company known for its unique and exotic fragrances that often draw inspiration from nature and cultural diversity. The company emphasizes the quality of ingredients and artisan craftsmanship, catering to a discerning clientele that appreciates niche fragrances with a story. Founded by a passionate perfume creator, Hima Jomo has carved out a space in the industry by focusing on sustainability and ethical sourcing of raw materials, which is reflected in their product line.",https://himajomo.com/wp-content/uploads/2022/01/HIMAJOMO-LOGOparisH-noir-1.svg,https://www.himajomo.com,United States,2019,niche,contact@himajomo.com,,,2025-07-18T12:32:10.942225,2025-08-28T16:36:48.066177
cmd57f31712a81998ee3105,Hind Al Oud,"Hind Al Oud is a premium perfume company specializing in the creation and distribution of high-quality oriental and Western-style fragrances. Established in the United Arab Emirates, the brand is renowned for its exquisite blends that often feature natural ingredients, including traditional Arabic oils and other exotic materials. Hind Al Oud has a rich heritage connected with the art of perfumery, combining advanced techniques with traditional practices to produce scents that reflect the cultural essence of the Middle East. The company aims to preserve the legacy of Oud and create a unique olfactory experience for its customers worldwide.",https://images.unsplash.com/photo-15907369626-6c63ac16f3df?w=400&h=300&fit=crop,https://www.hindaloud.com,United Arab Emirates,2010,niche,,+971 4 340 2077,"Al Quoz 1, Dubai, United Arab Emirates",2025-07-18T12:32:10.942225,2025-08-28T16:36:56.133644
cmd747aff9d6db03d649f74,Hip,"Hip is a contemporary fragrance house that specializes in creating unique and innovative perfumes. The company was founded with the vision of reimagining the fragrance experience, introducing scents that resonate with modern lifestyles and aesthetics. Their product lines focus on authenticity, sustainability, and artistic expression, often collaborating with various artists to design their packaging and scent profiles. Hip aims to disrupt traditional perfume conventions by offering vibrant and unconventional fragrances that appeal to a younger, trend-savvy demographic.",https://images.unsplash.com/photo-1582735689369-4fe89db7114c?w=400&h=300&fit=crop,www.hipfragrance.com,United States,2020,indie,contact@hipfragrance.com,,,2025-07-18T12:32:10.942225,2025-08-28T16:37:01.886362
cmd1f530c759976d39b1a2f,Hiram Green,"Hiram Green is a niche perfume company known for its artisanal approach to fragrance creation. Founded by Hiram Green, the company specializes in crafting high-quality, natural perfumes using sustainable and ethically sourced ingredients. Their unique story revolves around creating fragrances that honor the artistry of perfumery while maintaining a commitment to eco-friendly practices. Hiram Green's perfumes are celebrated for their complexity and depth, appealing to discerning customers who appreciate non-commercial, sophisticated scents.",https://hiramgreen.com/cdn/shop/files/Hiram_Green_with_logo_-_1250x150px_X_400x.png?v=1666800539,https://www.hiramgreen.com,Netherlands,2014,niche,,,,2025-07-18T12:32:10.942225,2025-08-28T16:37:08.878655
cmd2228a5bf4ed94846edd2,Hiroko Koshino,"Hiroko Koshino is a multifaceted fashion and lifestyle brand established by Japanese designer Hiroko Koshino, known for her innovative designs that fuse traditional Japanese aesthetics with modern sensibilities. The brand has expanded into various fields, including fashion, accessories, and fragrances. With a commitment to artistry and quality, Hiroko Koshino offers perfumes that embody elegance and sophistication, reflecting the designer's unique vision and cultural heritage.",https://www.hirokokoshino.com/_wp/wp-content/themes/hirokokoshino2019/images/img_top_logo01.png,https://www.hirokokoshino.com,Japan,1985,designer,,,,2025-07-18T12:32:10.942225,2025-08-28T16:37:17.014240
cmd1d3bd20caa12ef59ca6b,Histoires de Parfums,"Histoires de Parfums is a niche perfume company known for its unique approach to fragrance creation, where each scent is inspired by a historical figure or moment in time. Founded by Gérald Ghislain in 2000, the brand aims to tell stories through aromatic compositions. The perfumes are designed to evoke emotions and are crafted with high-quality ingredients, showcasing a blend of art and olfactory expertise. Each fragrance is presented in a storytelling format, reflecting the heritage and history behind the scent.",https://www.histoiresdeparfums.com/cdn/shop/files/HdP_logo-blanc.png?v=1711374782&width=1000,https://www.histoiresdeparfums.com,France,2000,niche,,,,2025-07-18T12:32:10.942225,2025-08-28T16:37:24.305672
cmd31d50766020cd2e450f1,Histoires d'Eaux,"Histoires d'Eaux is a niche perfume company that specializes in creating artisanal fragrances inspired by stories and experiences. Founded by the perfumer and creative director, the brand is known for its unique storytelling approach to fragrance, drawing on travels, memories, and environments to create distinct olfactory experiences. They emphasize quality ingredients and craftsmanship in their perfume production, appealing to connoisseurs who appreciate depth and artistry in scent.",https://images.unsplash.com/photo-1541643600914-78b084683601?w=400&h=300&fit=crop,https://www.histoires-de-eaux.com,France,2000,niche,,,,2025-07-18T12:32:10.942225,2025-08-28T16:37:30.233116
cmdb0e4643a9a00125a44fc,Historiae,"Historiae is a niche French perfume house that focuses on creating high-quality fragrances inspired by historical narratives and olfactory traditions. Established to celebrate the heritage and stories behind scent, Historiae offers a unique collection that emphasizes the art of perfumery while drawing from the rich tapestry of history. Each fragrance evokes a particular era or moment, crafted with the finest materials sourced from around the globe. The brand prides itself on artistry and storytelling, aiming to transport wearers through time with each scent.",https://images.unsplash.com/photo-15907369626-6c63ac16f3df?w=400&h=300&fit=crop,https://historiae.fr,France,2014,niche,,,,2025-07-18T12:32:10.942225,2025-08-28T16:37:38.364431
cmd98974cd5c2f9517cba33,History in Drops,"History in Drops is a niche perfume company that specializes in creating artisanal fragrances inspired by historical events, people, and places. The brand aims to weave stories of the past into captivating scents, making each fragrance a unique olfactory journey. Their perfumes are crafted with high-quality ingredients and embody a sense of nostalgia and sophistication, appealing to connoisseurs and individuals seeking distinctive scents that tell a story.",https://images.unsplash.com/photo-1582735689369-4fe89db7114c?w=400&h=300&fit=crop,www.historyindrops.com,United States,2020,niche,contact@historyindrops.com,,,2025-07-18T12:32:10.942225,2025-08-28T16:37:45.117665
cmde65e79fc808746a4c0f5,Hoechst,"Hoechst was a German multinational conglomerate that produced chemicals, pharmaceuticals, and fragrances. Founded in 1863, the company originally focused on dye and chemical production but eventually expanded into the fragrance industry, becoming known for its innovations in synthetic fragrance materials. Hoechst played a significant role in the development of modern perfumery, providing raw materials and ingredients that are essential for contemporary fragrance creation. Their expertise made them a significant player in the global perfume market until significant changes in the 1990s and 2000s altered their structure and operations, leading to their eventual merger and transformation within larger entities.",https://images.unsplash.com/photo-1582735689369-4fe89db7114c?w=400&h=300&fit=crop,,Germany,1863,designer,,,,2025-07-18T12:32:10.942225,2025-08-28T16:37:51.606888
