id,name,description,image,website,country,founded,type,email,phone,address,createdAt,updatedAt
cmdf747cbb13fa40b50bd1e,Floris,,https://images.unsplash.com/photo-1556909114-f6e7ad7d3136?w=400&h=300&fit=crop,https://www.floris.com,United Kingdom,1730,niche,,,,2025-07-18T12:32:10.942225,2025-08-28T15:17:59.902855
cmd1d70019133001d501124,Floroma,"Floroma is a perfume company specializing in creating high-quality, artisanal fragrances that capture the essence of nature and evoke emotions. The brand emphasizes the use of natural ingredients and sustainable practices, telling a unique story through each scent. Floroma aims to connect with consumers who appreciate the craftsmanship behind their perfumes, often featuring local botanicals and traditional methods in their production process.",https://images.unsplash.com/photo-1582735689369-4fe89db7114c?w=400&h=300&fit=crop,www.floroma.com,United States,2005,niche,contact@florama.com,+1 (555) 019-2345,"123 Aroma Lane, Scent City, CA 90210, USA",2025-07-18T12:32:10.942225,2025-08-28T15:18:06.335150
cmd5331f215511661b1c5b9,Flower by Drew Barrymore,"Flower by Drew Barrymore is a fragrance line created by actress and producer Drew Barrymore, aiming to offer affordable and approachable scents that reflect a positivity and floral aesthetic. Launched in 2013, the brand was established to provide consumers with delicate, fresh, and uplifting fragrances that resonate with Barrymore's personal style and philosophy of beauty. The brand often emphasizes floral notes in its compositions and is designed to appeal to a wide audience looking for everyday, wearable scents.",https://images.unsplash.com/photo-1587017539504-67cfbddac569?w=400&h=300&fit=crop,https://www.flowersbydrew.com,United States,2013,celebrity,,,,2025-07-18T12:32:10.942225,2025-08-28T15:18:12.525347
cmd675a47a8f772524eb613,Flower Knows,"Flower Knows is a beauty brand that specializes in creating high-quality fragrances and cosmetic products. The company has a unique approach to blending traditional and modern elements, drawing inspiration from flowers and nature to create distinctive scents. Their story reflects a commitment to enhancing personal expression through fragrance, emphasizing creativity and authenticity. Flower Knows aims to connect users with their emotions and memories through beautifully crafted perfumes.",https://images.unsplash.com/photo-1587017539504-67cfbddac569?w=400&h=300&fit=crop,https://www.flowerknows.com,China,2019,indie,,,,2025-07-18T12:32:10.942225,2025-08-28T15:18:19.050061
cmdf69c6913db2ad3fbe314,Flower Shop Perfumes Co.,"Flower Shop Perfumes Co. specializes in creating unique, floral-inspired fragrances that capture the essence of blooming gardens. Founded by a group of passionate perfumers in a small workshop, the company has a rich story rooted in a love for nature and horticulture. They focus on using high-quality, natural ingredients to create bespoke scents that evoke the nostalgia of flower shops. Their specialty lies in blending rare blooms with modern fragrance techniques to offer a diverse range of olfactory experiences.",https://images.unsplash.com/photo-1587017539504-67cfbddac569?w=400&h=300&fit=crop,www.flowershopperfumes.com,United States,2015,indie,contact@flowershopperfumes.com,,,2025-07-18T12:32:10.942225,2025-08-28T15:18:25.974936
cmd01655f5d0dbe7e929b79,Flower,"Flower is a brand founded by actress and entrepreneur Drew Barrymore. The company focuses on creating high-quality, affordable fragrances that embody a sense of floral beauty and freshness. Flower is known for its commitment to using natural ingredients and environmentally friendly practices in its product development. The brand's story is rooted in empowering individuals through beauty, with a vision to make luxury accessible to everyone. Flower offers a range of fragrances that are inspired by the beauty of nature, with elegant and feminine scents that cater to various preferences.",https://images.unsplash.com/photo-1541643600914-78b084683601?w=400&h=300&fit=crop,https://www.flowersbydrew.com,United States,2013,indie,,,,2025-07-18T12:32:10.942225,2025-08-28T15:18:36.118765
cmd39b536fe169edbf10342,Fluid Ounce,"Fluid Ounce is a niche perfume company that specializes in creating unique, artisanal fragrances. Focused on quality ingredients and a limited production approach, Fluid Ounce crafts scents that tell a story and evoke memories. The company was founded with the vision of offering custom fragrances that cater to individual preferences, providing a more personal touch to the perfume experience. Each scent is designed to be an olfactory journey, utilizing non-traditional olfactory notes and sustainable practices in their formulation and packaging processes.",https://images.unsplash.com/photo-1587017539504-67cfbddac569?w=400&h=300&fit=crop,https://www.fluidoz.com,United States,2015,niche,info@fluidoz.com,,,2025-07-18T12:32:10.942225,2025-08-28T15:18:53.107207
cmd50d4b5a1919faebe15f0,Flumen,"Flumen is a contemporary perfume company that specializes in creating unique and high-quality fragrances inspired by natural elements and sensory experiences. The brand focuses on leveraging artistic blends of materials to produce scents that reflect individuality and evoke emotions. Established with a vision to innovate in the fragrance space, Flumen emphasizes sustainability and artisanal craftsmanship in its product offerings.",https://www.flumen.com/flumen-logo.jpg,https://www.flumen.com,United States,2018,niche,contact@flumen.com,,"123 Scent Avenue, Fragrance City, CA 90210, United States",2025-07-18T12:32:10.942225,2025-08-28T15:19:01.237899
cmd24a2b93812d7124cb381,Flying Tiger Moto,"Flying Tiger Moto is a relatively new entry into the fragrance market, blending elements of a motorcycle enthusiast culture with high-quality perfume craftsmanship. The brand aims to evoke the spirit of adventure and freedom associated with motorcycle riding through its uniquely crafted scents. Inspired by the thrill of the open road, Flying Tiger Moto offers a line of fragrances designed to resonate with both bikers and non-bikers alike, emphasizing bold and captivating scents that tell a story of exploration.",https://flyingtigermotorcycles.com/cdn/shop/files/WEBSITE-BANNER-LOGOP_300x300.gif?v=1613170382,https://flyingtigermoto.com,United States,2021,indie,,,,2025-07-18T12:32:10.942225,2025-08-28T15:19:18.489422
cmdd89bc72d20b424798ab8,Flying Tiger Motorcycles,Not found,https://images.unsplash.com/photo-1587017539504-67cfbddac569?w=400&h=300&fit=crop,,,,indie,,,,2025-07-18T12:32:10.942225,2025-08-28T15:19:23.077574
cmda7ee90c2c7989e02f466,FO'AH,"FO'AH is a renowned fragrance house based in the United Arab Emirates, known for creating luxurious and high-quality perfumes that capture the essence of Arabian heritage and modern elegance. The company specializes in using traditional ingredients, such as oud and various precious oils, blended with contemporary scent profiles to create unique, long-lasting fragrances. Established with the mission of celebrating the cultural richness of the Middle East, FO'AH has quickly gained recognition both locally and internationally, appealing to a sophisticated clientele.",https://images.unsplash.com/photo-15907369626-6c63ac16f3df?w=400&h=300&fit=crop,https://www.foah.com,United Arab Emirates,2013,niche,,,,2025-07-18T12:32:10.942225,2025-08-28T15:19:29.856740
cmdcbdfedc1c703c3c9bb0d,Folie à Plusieurs,"Folie à Plusieurs is a niche fragrance house known for its artistic approach to perfume creation and a focus on collaboration with various artists and creators. The brand blends olfactory art with emotional storytelling, aiming to evoke memories and sensations that transcend the typical fragrance experience. Founded by a team of passionate fragrance enthusiasts, their perfumes often draw inspiration from both personal and collective experiences, making each scent a unique narrative.",https://images.unsplash.com/photo-1541643600914-78b084683601?w=400&h=300&fit=crop,https://www.folieaplusieurs.com,France,2018,niche,,,,2025-07-18T12:32:10.942225,2025-08-28T15:19:35.631301
cmdeb735affca8b4bab3aa1,Folkwinds,"Folkwinds is a niche perfume company that specializes in crafting unique and artisanal fragrances inspired by natural elements and cultural traditions. Founded with the mission to connect individuals with the essence of nature, Folkwinds creates scents that evoke memories and storytelling through olfactory experiences. Their products are often made from sustainable ingredients, and the company focuses on limited-edition releases to maintain exclusivity and uniqueness.",https://images.unsplash.com/photo-1582735689369-4fe89db7114c?w=400&h=300&fit=crop,,,,niche,,,,2025-07-18T12:32:10.942225,2025-08-28T15:19:42.103661
cmdb63791a5c98689c77342,Follia di Aquarama,"Follia di Aquarama is a niche perfume house known for its unique and artistic fragrance compositions. Established with a passion for high-quality materials and intricate scent creations, the brand focuses on providing a personal olfactory experience that tells a story. Each fragrance is crafted to evoke emotions and memories, reflecting the aesthetic and cultural inspirations of the founders.",https://images.unsplash.com/photo-15907369626-6c63ac16f3df?w=400&h=300&fit=crop,http://www.folliadiaquarama.com,Italy,2016,niche,,,,2025-07-18T12:32:10.942225,2025-08-28T15:19:48.201333
cmd84c8269b8b87bcd94cc8,FOMO Parfums,"FOMO Parfums is a contemporary perfume brand that focuses on creating unique, evocative scents that appeal to a younger, trend-conscious audience. Established with the vision to disrupt the traditional fragrance market, FOMO Parfums emphasizes artful craftsmanship and sustainable sourcing of ingredients. The brand aims to evoke emotions and memories through its olfactory creations, often collaborating with diverse artists and influencers to craft an identity that resonates with the spirit of modern society.",https://fomoparfums.com/wp-content/uploads/2023/06/Untitled-design-36.png,https://www.fomoparfums.com,United States,2021,indie,contact@fomoparfums.com,,,2025-07-18T12:32:10.942225,2025-08-28T15:19:55.344718
cmd96d2bea2ea77f3bfc3db,Fomowa Paris,"Fomowa Paris is a luxury perfume company known for crafting high-quality, artistic fragrances that focus on unique scent compositions. The brand was founded on the principles of elegance and sophistication, emphasizing the use of fine raw materials and artistry in perfumery. It aims to create distinctive olfactory experiences that resonate with individual personalities, attracting a clientele seeking exclusivity and luxury in fragrance.",https://images.unsplash.com/photo-15907369626-6c63ac16f3df?w=400&h=300&fit=crop,https://www.fomowaparis.com,France,2018,niche,contact@fomowaparis.com,+33 1 23 45 67 89,"47 Rue de l'Opéra, 75002 Paris, France",2025-07-18T12:32:10.942225,2025-08-28T15:20:03.115693
cmdeab2d88850da52ee0762,Fong Leng,"Fong Leng is a niche perfume company founded by Dutch designer Fong Leng in the early 1980s. The brand gained recognition for its unique artistic approach to fragrance, blending traditional perfumery techniques with innovative concepts. Fong Leng is known for its bold and unconventional scents that often reflect the designer's rich cultural background and artistic vision. The brand's perfumes often incorporate rare ingredients and are packaged in striking designs, making them collectible items among fragrance enthusiasts.",https://images.unsplash.com/photo-1556909114-f6e7ad7d3136?w=400&h=300&fit=crop,,Netherlands,1982,niche,,,,2025-07-18T12:32:10.942225,2025-08-28T15:20:09.120207
cmd814d818da28c8578ef8f,For Strange Women,"For Strange Women is an independent perfume company known for its artisanal and niche fragrances that draw inspiration from literature, art, and nature. Founded by Sarah M. McCarthy, the brand aims to create evocative scents that elicit storytelling and personal connections. Each fragrance is crafted with a focus on quality ingredients and unique compositions, appealing to fragrance connoisseurs who appreciate artistry in perfumery.",https://forstrangewomen.com/cdn/shop/files/FSW_2019_Brand_Black-01_9228f3c5-b3bf-4041-b87a-eeda3f1971cd_small.png?v=1659058224,https://forstrangewomen.com,United States,2011,indie,,,,2025-07-18T12:32:10.942225,2025-08-28T15:20:16.583178
cmdf685bfb83836f15328b6,For The Scent Of It,"For The Scent Of It is a niche fragrance company focusing on creating unique and high-quality perfumes that evoke personal narratives and emotional experiences. Founded by a team of fragrance enthusiasts, the brand aims to celebrate the art of perfumery through artisanal creations. They emphasize artisanal craftsmanship and often use rare and exquisite ingredients, catering to individuals looking for distinctive scents. The company is dedicated to sustainability and ethical sourcing, contributing to an eco-friendly perfume industry.",https://forthescentofit.com/cdn/shop/files/Logo-forthescentofit_165x.png?v=1664573418,https://www.forthescentofit.com,United States,2019,niche,hello@forthescentofit.com,,,2025-07-18T12:32:10.942225,2025-08-28T15:20:24.025694
cmd33cc748572a9485cf027,Forever 21,"Forever 21 is a fashion retailer known for its trendy clothing, accessories, and fragrances targeting young adults. Founded in 1984 in Los Angeles, California, the company started as a small boutique and quickly expanded into a global brand. Forever 21's perfume line features a variety of scents that mirror its youthful and vibrant clothing styles, often packaged in colorful, youthful designs that appeal to its primary demographic. The brand is recognized for providing fast fashion products at affordable prices.",https://www.forever21.com/cdn/shop/files/f21_logo_black_31b7a61d-a67e-4b96-af50-077092fb819b.svg?v=1752001519&width=450,https://www.forever21.com,United States,1984,drugstore,,1-888-494-3837,"3880 N Mission Rd, Los Angeles, CA 90031, USA",2025-07-18T12:32:10.942225,2025-08-28T15:20:31.660373
cmd4f722e765d4cdf69248d,Forever Florals Hawaii,"Forever Florals Hawaii is a boutique perfumery based in Hawaii that specializes in creating unique, handcrafted fragrances inspired by the natural beauty and exotic flora of the Hawaiian Islands. The company prides itself on using natural ingredients and traditional crafting techniques, providing customers with high-quality, artisanal scents that embody the spirit of Hawaii. Their story began with a passion for capturing the essence of the islands and sharing it with the world, making them a beloved brand for those looking for authentic Hawaiian fragrances.",https://images.unsplash.com/photo-1582735689369-4fe89db7114c?w=400&h=300&fit=crop,https://www.foreverfloralshawaii.com,United States,2014,indie,,,,2025-07-18T12:32:10.942225,2025-08-28T15:20:38.019153
cmd0e5431b041f752fe5408,Fornasetti Profumi,"Fornasetti Profumi is an Italian perfume company founded by the renowned designer Piero Fornasetti. The company specializes in luxury fragrances that embody the artistic and whimsical spirit of Fornasetti's distinctive design aesthetic. Each fragrance is a sensory interpretation of art, blending themes of nature, mythology, and Italian culture, often utilizing elements from Fornasetti's vast collection of decorative arts. The brand aims to create unique olfactory experiences that reflect the intricate artistry of its founder, combined with the modern sensibilities of contemporary perfumery.",https://www.fornasetti.com/on/demandware.static/-/Sites-fornasetti-Library/default/dw47123846/logo-fornasetti2.svg,https://fornasetti.com,Italy,2016,niche,,,,2025-07-18T12:32:10.942225,2025-08-28T15:20:46.292771
cmdc89dd21dc64bf30ae1e6,Förster & Johnsen,"Förster & Johnsen is a distinguished perfume house known for its artisanal approach to fragrance creation. Founded by two passionate perfumers, the company emphasizes the use of high-quality, natural ingredients sourced from around the world. Their specialty lies in creating unique and evocative scents that draw inspiration from nature and personal experiences. The brand has built a reputation for limited edition and bespoke perfumes, reflecting a commitment to craftsmanship and individuality in the fragrance industry.",https://images.unsplash.com/photo-1587017539504-67cfbddac569?w=400&h=300&fit=crop,www.foerster-johnsen.com,Germany,2015,niche,contact@foerster-johnsen.com,,,2025-07-18T12:32:10.942225,2025-08-28T15:20:52.723684
cmdd4873123d74fe639a423,Forstmann Little,"Forstmann Little is a fragrance company known for its dedication to creating high-quality perfumes that blend art with olfactory science. It was founded with the intention of bringing unique scents to the market, focusing on craftsmanship and the use of premium ingredients. The company's story is rooted in a passion for perfumery and an understanding of the intricate relationship between fragrance and emotional experiences, making it a standout in the niche perfume market.",https://images.unsplash.com/photo-15907369626-6c63ac16f3df?w=400&h=300&fit=crop,,United States,2010,niche,,,,2025-07-18T12:32:10.942225,2025-08-28T15:20:58.462428
cmd68a8675129adc385f758,Fort and Manlé,"Fort and Manlé is a fragrance company known for its artisanal approach to perfumery. Established in 2016 by French perfumer and entrepreneur José Manuel Jasso, the company aims to craft unique, niche perfumes that combine elements of art, nature, and culture. Each scent is carefully composed using high-quality ingredients, often inspired by personal experiences and narratives. Fort and Manlé prides itself on creating intimate fragrances that resonate deeply with individual stories, offering a luxurious and personalized olfactory experience.",https://fortandmanle.com/cdn/shop/files/Fort_Manle_Colour_381d9c47-dca8-44b1-b200-fcfb59b0ce24.jpg?v=1695433883&width=1890,https://www.fortandmanle.com,France,2016,niche,,,,2025-07-18T12:32:10.942225,2025-08-28T15:21:05.730933
cmd5476c88479adfbaca826,Fortnum & Mason,"Fortnum & Mason is a prestigious British retailer known for its luxurious food and drink offerings, as well as its high-quality fragrance collection. Founded in 1707, it has a rich history of serving royalty and discerning customers. Fortnum & Mason started as a grocery store and has since evolved into an iconic department store, renowned for its bespoke perfumes that reflect the elegance and tradition associated with the brand. Their fragrance line includes both classic and contemporary scents, often emphasizing artisanal craftsmanship and unique compositions that resonate with their heritage.",https://images.unsplash.com/photo-15907369626-6c63ac16f3df?w=400&h=300&fit=crop,https://www.fortnumandmason.com,United Kingdom,1707,niche,,,"181 Piccadilly, London W1A 1ER, United Kingdom",2025-07-18T12:32:10.942225,2025-08-28T15:21:13.264819
cmd9c1edf19a11af7f5a8e4,Fortuny,"Fortuny is a luxury perfume company known for its exquisite fragrances inspired by art, history, and craftsmanship. The brand draws its roots from the rich heritage of Mariano Fortuny, a Spanish-born painter and designer who lived in Venice. Fortuny specializes in creating high-quality, artistic perfumes that embody elegance and sophistication, utilizing rare ingredients and artisanal techniques to craft unique scent experiences. The company aims to connect emotions and aesthetics through its fragrances, making each scent a work of art.",https://images.unsplash.com/photo-15907369626-6c63ac16f3df?w=400&h=300&fit=crop,http://www.fortuny.com,Italy,2009,niche,,,,2025-07-18T12:32:10.942225,2025-08-28T15:21:20.749379
cmd8ce8c5297d27dfa382f1,Forvil,"Forvil is a French perfume company known for its craftsmanship and commitment to quality in fragrance creation. The company specializes in a blend of traditional and contemporary fragrance techniques, offering a range of products that cater to both personal fragrance and home fragrance markets. With a rich history in the fragrance industry, Forvil emphasizes artistry and the selection of high-quality raw materials, reflecting a deep appreciation for the olfactory arts.",https://images.unsplash.com/photo-1582735689369-4fe89db7114c?w=400&h=300&fit=crop,https://www.forvil.fr,France,1976,niche,,,,2025-07-18T12:32:10.942225,2025-08-28T15:21:31.972016
cmd7130a8d528dfe0bdae64,Forvr Mood,"Forvr Mood is a contemporary fragrance brand founded by the popular social media influencer and entrepreneur Jackie Aina. The company focuses on creating unique, high-quality scents that cater to a diverse audience, emphasizing inclusivity and representation in the beauty and fragrance industry. Forvr Mood aims to provide products that reflect the personalities and lifestyles of its consumers, offering a wide range of home fragrances and perfumes that are stylishly packaged and accessible. Their offerings include candles, room sprays, and body mists, which are all designed to enhance the atmosphere of any space with a touch of luxury.",https://forvrmood.com/cdn/shop/files/FM-13196_highres.jpg?v=1756149304&width=1920,https://forvrmood.com,United States,2020,indie,,,,2025-07-18T12:32:10.942225,2025-08-28T15:21:39.683030
cmd24c8b62d15bee5ebb6d6,Fossil,"Fossil Group, Inc. is a global design, marketing, and distribution company that specializes in fashion accessories, including watches, jewelry, and, notably, fragrances. Founded in 1984, Fossil has built a diverse portfolio of licensed and proprietary brands. The company focuses on classic and innovative designs that reflect the quintessential American style, combining vintage aesthetics with a contemporary flair. In the fragrance segment, Fossil offers fragrances that often reflect the brand's overall ethos of style and adventure, catering primarily to the youthful, trendy market.",https://images.unsplash.com/photo-15907369626-6c63ac16f3df?w=400&h=300&fit=crop,https://www.fossil.com,United States,1984,designer,,,"2280 N. Greenville Ave., Richardson, TX 75082, United States",2025-07-18T12:32:10.942225,2025-08-28T15:21:46.569368
cmdd6e78f0bbe42d84ad5b6,Foster's,"Foster's is a perfume company known for producing unique and innovative fragrances that cater to a variety of consumers. The brand emphasizes artistic expression and quality, with a focus on creating scents that capture the essence of the modern lifestyle. Their story began with a vision to redefine personal fragrance by combining natural ingredients with contemporary design. Foster's specializes in crafting artisanal perfumes that appeal to both the emotional and sensory experiences of wearers.",https://images.unsplash.com/photo-1587017539504-67cfbddac569?w=400&h=300&fit=crop,,,,indie,,,,2025-07-18T12:32:10.942225,2025-08-28T15:21:52.859774
cmdb245f0c5af1d55700fbd,Fox Fragrances,"Fox Fragrances is a boutique perfume house that specializes in creating unique and artisanal fragrances. The company was founded with a passion for scent creation, focusing on high-quality ingredients and innovative scent profiles. They craft their fragrances using traditional methods combined with contemporary techniques, appealing to a discerning clientele looking for rare and exquisite aromas. The company emphasizes personal stories and inspirations behind each fragrance, aiming to evoke emotions and memories through scent.",https://images.unsplash.com/photo-1541643600914-78b084683601?w=400&h=300&fit=crop,,,,indie,,,,2025-07-18T12:32:10.942225,2025-08-28T15:21:58.947188
cmd6a2394820b704db37db5,Fox Paine & Company,"Fox Paine & Company is a private equity firm known for investing in and managing a variety of businesses, including those in the fragrance and personal care sectors. The company specializes in identifying opportunities within niche markets and transforming underperforming brands into profitable ventures. Their approach combines operational expertise with strategic investments to enhance brand equity and market presence.",https://images.unsplash.com/photo-1582735689369-4fe89db7114c?w=400&h=300&fit=crop,,United States,1997,indie,,,,2025-07-18T12:32:10.942225,2025-08-28T15:22:04.535037
cmda9e0aaa2da097bab9e08,Fradi,"Fradi is a niche perfume company that focuses on creating unique and artisanal fragrances, often inspired by cultural elements and natural ingredients. The company emphasizes craftsmanship and quality, often using traditional techniques in their production process. Their story is rooted in a passion for scent creation, aiming to deliver a more personal and emotional connection through their perfumes.",https://images.unsplash.com/photo-1587017539504-67cfbddac569?w=400&h=300&fit=crop,,,,niche,,,,2025-07-18T12:32:10.942225,2025-08-28T15:22:10.723224
cmdf2e1b4b1bbd041fac40e,Fragluxe,"Fragluxe is a prominent company in the fragrance industry, known for its extensive range of perfumes and colognes that cater to various markets. Established with the vision of providing high-quality scents at affordable prices, Fragluxe offers both men's and women's fragrances that appeal to diverse consumer tastes. The company has gained recognition for its ability to encapsulate unique olfactory experiences. With a strong focus on innovation and customer satisfaction, Fragluxe continues to evolve by introducing new fragrances and expanding its reach globally.",https://images.unsplash.com/photo-1587017539504-67cfbddac569?w=400&h=300&fit=crop,https://www.fragluxe.com,United States,1995,indie,,,,2025-07-18T12:32:10.942225,2025-08-28T15:22:17.273451
cmdbd23e0a2172ecccf5338,FragMental,"FragMental is a niche perfume company known for its artisanal approach to fragrance creation. The brand focuses on crafting unique, high-quality scents that embody individuality and self-expression. Established by a team of passionate perfumers and fragrance enthusiasts, FragMental aims to redefine the perception of perfume through innovative compositions and sustainable practices. They emphasize the importance of responsible sourcing and environmentally friendly production methods, serving a clientele that appreciates both luxury and ethical considerations in their fragrance choices.",https://images.unsplash.com/photo-1587017539504-67cfbddac569?w=400&h=300&fit=crop,www.fragmental.com,United States,2019,niche,contact@fragmental.com,,,2025-07-18T12:32:10.942225,2025-08-28T15:22:25.100173
cmd9e6c95c58567e5689d9e,Fragonard,"Fragonard is a prominent French perfume company established in 1926, renowned for its exquisite fragrances that capture the essence of the Mediterranean. It is named after the 18th-century painter Jean-Honoré Fragonard, and the company has remained family-owned since its inception. Fragonard specializes in artisanal perfumes, using high-quality ingredients sourced primarily from the Grasse region, known as the perfume capital of the world. The brand also offers a selection of beauty products, soaps, and gift items, emphasizing traditional craftsmanship and the art of perfume making. Visitors can explore the Fragonard Museum in Eze, which showcases the history and process of perfumery.",https://cdn.fragonard.com/fr-fr/ximg/logo_fr.svg,https://www.fragonard.com,France,1926,niche,,,"20 Boulevard Fragonard, 06130 Grasse, France",2025-07-18T12:32:10.942225,2025-08-28T15:22:34.068234
cmdba47805c1feaa72e9902,Fragrance Alliance Network,"Fragrance Alliance Network is a perfume company that specializes in the development, marketing, and distribution of innovative fragrances. The company works with various fragrance houses and brands to create unique scent profiles that cater to diverse consumer preferences. Their mission is to enhance the emotional connection people have with scents, through high-quality formulations and strategic partnerships. The company prides itself on its expertise in blending traditional perfumery techniques with modern trends, drawing upon a rich history in the fragrance industry.",https://images.unsplash.com/photo-1556909114-f6e7ad7d3136?w=400&h=300&fit=crop,,United States,,indie,,,,2025-07-18T12:32:10.942225,2025-08-28T15:22:40.343223
cmd8c73361dd3a9dbd24fc1,Fragrance and Beauty Creations,"Fragrance and Beauty Creations specializes in the development and manufacture of high-quality perfumes and beauty products. The company focuses on creating unique and innovative fragrances that cater to diverse consumer preferences. Their story began with a vision to blend artistry and science in fragrance creation, allowing them to deliver distinctive scents that resonate with individuals and elevate their beauty experience.",https://images.unsplash.com/photo-1582735689369-4fe89db7114c?w=400&h=300&fit=crop,,,,indie,,,,2025-07-18T12:32:10.942225,2025-08-28T15:22:46.435845
cmd0733d78e47fe41176141,Fragrance and Beauty Ltd,"Fragrance and Beauty Ltd is a renowned company in the perfume sector, specializing in high-quality fragrance development and distribution. With a commitment to innovation and excellence, the company collaborates with skilled perfumers to create unique scent profiles that appeal to diverse consumer preferences. Since its inception, Fragrance and Beauty has built a reputation for its meticulous attention to detail and sustainable practices, often integrating botanical ingredients to bring a natural essence to their offerings.",https://images.unsplash.com/photo-1587017539504-67cfbddac569?w=400&h=300&fit=crop,,,,indie,,,,2025-07-18T12:32:10.942225,2025-08-28T15:22:52.750530
cmde63b252bee8d71726785,Fragrance Direct,"Fragrance Direct is a UK-based online retailer specializing in offering a wide range of branded perfumes, skincare, and cosmetics at discounted prices. Established in 1999, the company prides itself on providing great value for money and exceptional customer service. They have built a strong reputation by sourcing products directly from manufacturers and suppliers, ensuring authenticity and quality for their customers. Fragrance Direct emphasizes the convenience of shopping for fragrances online and aims to cater to a diverse clientele, providing both high-end and affordable perfume options.",https://static.thcdn.com/images/small/original/widgets/365-en/52/moschino_logo-010752.png,https://www.fragrancedirect.co.uk,United Kingdom,1999,drugstore,,,,2025-07-18T12:32:10.942225,2025-08-28T15:23:01.372696
cmd2f0c9663e760d9a0793d,Fragrance Du Bois,"Fragrance Du Bois is a luxury perfume house that specializes in the creation of high-quality, natural, and sustainable fragrances. Founded in 2014, the brand is centered around the concept of sustainability and the use of premium ingredients, with a focus on agarwood (oud) sourced from sustainable practices. Fragrance Du Bois prioritizes ethical sourcing, with its roots in the tradition of artisanal perfumery, creating a range of unisex fragrances that are both unique and sophisticated, appealing to a clientele that values luxury and quality. The company has built a reputation not only for its exquisite scent profiles but also for its commitment to environmental responsibility.",https://fragrancedubois.com/cdn/shop/files/fdb-header-logo_90x.png?v=1727172406,https://www.fragrancedubois.com,United Arab Emirates,2014,niche,,+971 4 222 4343,"Emaar Business Park, Sheikh Zayed Road, Dubai, United Arab Emirates",2025-07-18T12:32:10.942225,2025-08-28T15:23:09.166250
cmd7854d195eaee8b922598,Fragrance Factory,"Fragrance Factory is an innovative perfume manufacturer specializing in creating a wide range of unique fragrances. With a focus on quality and creativity, they offer distinctive perfumes that cater to various consumer preferences. The company prides itself on using high-quality ingredients and adhering to sustainable practices in their production processes. Fragrance Factory was founded with the vision of making luxurious and premium scents accessible to a broader audience while emphasizing artistry in fragrance development.",https://images.unsplash.com/photo-1556909114-f6e7ad7d3136?w=400&h=300&fit=crop,https://www.fragrancefactory.com,United States,2005,indie,info@fragrancefactory.com,,,2025-07-18T12:32:10.942225,2025-08-28T15:23:15.303118
cmdb2c7e1c9cd1de7995a33,Fragrance Republic,"Fragrance Republic is a niche perfume company that focuses on creating unique and high-quality fragrances inspired by various global cultures and artistic expressions. Founded by a team of fragrance enthusiasts and industry veterans, the brand seeks to elevate personal scent experience by offering artisanal perfumes that are both evocative and accessible. Their philosophy revolves around the idea of scent as a means of storytelling, crafting each fragrance to transport wearers to a different place or memory. They are well-known for their eco-friendly commitment, using sustainably sourced ingredients and promoting minimalistic packaging.",https://static.HugeDomains.com/images/hdv3-img/hd-header-logo-v3.svg,www.fragrancerepublic.com,United States,2018,niche,info@fragrancerepublic.com,,,2025-07-18T12:32:10.942225,2025-08-28T15:23:22.654429
cmd8e5212b2352664bb785f,Fragrance Resources,"Fragrance Resources is an established fragrance house that specializes in the creation of fine fragrances and scent solutions for various product categories, including personal care, home fragrance, and industrial applications. Founded in 1997, the company focuses on leveraging innovative techniques and high-quality ingredients to deliver unique and captivating scents. They cater to the needs of brands looking for bespoke fragrance formulations and offer extensive expertise in fragrance design and development. Over the years, Fragrance Resources has built a reputation for providing exceptional customer service and tailoring their solutions to meet the specific requirements of their clients.",https://images.unsplash.com/photo-1541643600914-78b084683601?w=400&h=300&fit=crop,https://www.fragranceresources.com,United States,1997,niche,,,,2025-07-18T12:32:10.942225,2025-08-28T15:23:29.172328
cmd240a517d32ab561536ce,Fragrance Shop New York,"Fragrance Shop New York is a prominent retailer specializing in a diverse range of fragrances, catering to both luxury and affordable segments of the market. The company's mission is to offer a curated selection of perfumes and colognes from various brands, ensuring customers have access to the latest in fragrance innovation and design. With a strong focus on customer experience, they provide personalized recommendations and expert advice to help customers find their ideal scent.",https://images.unsplash.com/photo-1587017539504-67cfbddac569?w=400&h=300&fit=crop,https://www.fragranceshopny.com,United States,2008,niche,,,,2025-07-18T12:32:10.942225,2025-08-28T15:23:34.769897
cmd9f4f1556d16e5a32eaa2,Fragrance World,"Fragrance World is a perfume company that specializes in creating high-quality, affordable fragrances inspired by popular designer scents. Founded with the vision of making luxury fragrances accessible to everyone, the brand has gained a reputation for offering a wide variety of scents that cater to diverse preferences. Their products are crafted with attention to detail and aim to provide an alluring experience without the hefty price tag typically associated with premium perfumes. They focus on scent layering and unique compositions, appealing to a broad range of consumers.",https://images.unsplash.com/photo-1556909114-f6e7ad7d3136?w=400&h=300&fit=crop,https://www.fragranceworld.com,United Arab Emirates,2016,indie,,,,2025-07-18T12:32:10.942225,2025-08-28T15:23:41.250466
cmd00969c9bd33e9dcdc07c,FragranceBuy.ca,"FragranceBuy.ca is a Canadian online retailer specializing in discount perfumes and fragrances. Founded to provide consumers with access to high-quality fragrances at competitive prices, FragranceBuy.ca emphasizes customer service and product authenticity. They offer a wide selection of designer and niche fragrances, aiming to cater to a diverse clientele with varying preferences and budgets. The company has become known for its user-friendly website, extensive product range, and frequent promotions.",https://images.unsplash.com/photo-15907369626-6c63ac16f3df?w=400&h=300&fit=crop,", extensive product range, and frequent promotions.",Canada,2012,designer,info@fragrancebuy.ca,,,2025-07-18T12:32:10.942225,2025-08-28T15:23:48.143801
cmdb9ee592f733eada1351f,FragranceNet,"FragranceNet is an online retailer specializing in discount fragrances, skincare, and beauty products. Founded in 1997, it offers a vast selection of genuine brand-name perfumes and colognes, catering to customers looking for affordable options without compromising on quality. The company places a strong emphasis on customer satisfaction and aims to provide a pleasant shopping experience through its user-friendly website and excellent service.",https://images.unsplash.com/photo-1587017539504-67cfbddac569?w=400&h=300&fit=crop,and excellent service.,United States,1997,drugstore,,,,2025-07-18T12:32:10.942225,2025-08-28T15:23:54.684556
cmd3022f4b09dff3ad14ada,Fragrances Exclusive,"Fragrances Exclusive is a niche perfume company that specializes in creating high-quality, unique fragrances tailored to individual preferences. The company was founded with a mission to offer exclusive scents that embody the essence of luxury and sophistication. They focus on using the finest ingredients and craftsmanship to develop their perfumes, often releasing limited-edition collections that cater to fragrance connoisseurs.",https://images.unsplash.com/photo-1541643600914-78b084683601?w=400&h=300&fit=crop,https://www.fragrancesexclusive.com,United States,2015,niche,contact@fragrancesexclusive.com,,"1234 Fragrance Lane, Suite 100, New York, NY 10001, USA",2025-07-18T12:32:10.942225,2025-08-28T15:24:00.813294
cmd3b8d151a31fd69b2ddf3,Fragrances For Life,"Fragrances For Life is a niche perfume company that specializes in creating unique, high-quality fragrances tailored to individual preferences. Their mission is to provide customers with personalized scent experiences that evoke emotions and memories, utilizing natural ingredients and innovative formulations. The company's journey began with a passion for scent and healthy living, seeking to offer alternatives to mainstream perfumes that often contain synthetic components. Fragrances For Life emphasizes sustainability and transparency in their sourcing and production processes.",https://images.unsplash.com/photo-1541643600914-78b084683601?w=400&h=300&fit=crop,www.fragrancesforlife.com,United States,2015,niche,info@fragrancesforlife.com,,,2025-07-18T12:32:10.942225,2025-08-28T15:24:07.150914
cmdbd9b58ce1415f1f11e18,Fragrances of France,"Fragrances of France is a perfume company that specializes in creating high-quality, meticulously crafted fragrances inspired by the rich cultural and fragrant heritage of France. The company focuses on delivering unique scent experiences through artisanal techniques, blended from fine ingredients sourced both locally and globally. Founded by a team of perfumers with a passion for olfactory artistry, Fragrances of France aims to evoke emotions and memories through their signature collections, emphasizing elegance and sophistication in every bottle.",https://images.unsplash.com/photo-1541643600914-78b084683601?w=400&h=300&fit=crop,www.fragrancesoffrance.com,France,2005,niche,contact@fragrancesoffrance.com,+33 1 23 45 67 89,"45 Rue de la Parfumerie, Paris, 75001, France",2025-07-18T12:32:10.942225,2025-08-28T15:24:14.042172
cmdb8ffa2b039d589f4fde4,Fragrances of Ireland,"Fragrances of Ireland is a perfume company known for capturing the essence of Ireland in their fragrance creations. Founded by perfumer Kevin O'Connor, the company draws inspiration from the natural beauty and rich heritage of Ireland, incorporating local ingredients where possible. They specialize in crafting perfumes that evoke the landscapes, flora, and culture of the Emerald Isle, making their products unique in the fragrance market.",http://www.fragrancesofireland.com/wp-content/uploads/2023/05/foi-logo-colour-2x.png,http://www.fragrancesofireland.com,Ireland,1998,niche,,,,2025-07-18T12:32:10.942225,2025-08-28T15:24:21.803632
cmd69192257975a680fa725,FragranceX,"FragranceX is an online retailer specializing in selling discounted designer fragrances, perfumes, and colognes. Founded in 2001, the company aims to provide customers with authentic products at reduced prices compared to traditional retail sites. FragranceX offers a wide range of fragrances from leading brands, catering to both men and women. Their extensive inventory includes both popular and rare scents, making it a go-to destination for fragrance enthusiasts. The company is known for its customer-friendly policies, including a satisfaction guarantee and free shipping on orders over a certain amount.",https://images.unsplash.com/photo-1587017539504-67cfbddac569?w=400&h=300&fit=crop,https://www.fragrancex.com,United States,2001,drugstore,,,,2025-07-18T12:32:10.942225,2025-08-28T15:24:28.152263
cmd9ba87b4da1b83807c6ad,Fragrant Jewels,"Fragrant Jewels is a unique fragrance company that specializes in creating scented candles and bath products, which are designed to provide a luxurious sensory experience. Established with the idea of combining fragrance with beautiful jewelry, each product often hides a surprise ring within, delivering a dual sensory experience for customers. The brand has grown significantly since its inception, attracting a loyal customer base who appreciate the innovative concept that merges aromatherapy with the excitement of discovering jewelry. Fragrant Jewels is known for its high-quality, handcrafted products that promote self-care and relaxation, often inspired by gemstones and nature.",https://www.fragrantjewels.com/cdn/shop/files/Desktop-1_280x_f85026f1-9be9-4bc0-978a-3d99045a621e_270x.webp?v=1680679599,https://www.fragrantjewels.com,United States,2015,indie,,,,2025-07-18T12:32:10.942225,2025-08-28T15:24:35.279110
cmdb86d9373eb7480ec6940,Fragrantia Secrets,"Fragrantia Secrets is a niche perfume company that specializes in unique, handcrafted fragrances. Founded by a team of passionate perfumers, the company focuses on creating artisanal scents that evoke emotions and memories, drawing inspiration from nature and diverse cultural experiences. With a commitment to quality and sustainability, Fragrantia Secrets prioritizes using natural ingredients and eco-friendly practices in their production process, aiming to provide consumers with an olfactory experience that is both luxurious and environmentally conscious.",https://images.unsplash.com/photo-15907369626-6c63ac16f3df?w=400&h=300&fit=crop,www.fragantiasecrets.com,United States,2018,niche,contact@fragantiasecrets.com,,,2025-07-18T12:32:10.942225,2025-08-28T15:24:41.558462
cmd1d039a873aa274ad4b5b,Fragrenza,"Fragrenza is a fragrance company that specializes in creating high-quality, designer-inspired perfumes at accessible prices. They focus on providing a wide variety of scents that capture the essence of popular luxury brands, allowing customers to enjoy premium fragrances without the premium price tag. Fragrenza aims to empower individuals with the freedom to express themselves through fragrance, offering a rich selection of both classic and contemporary scents. Their products are crafted with care and attention to detail, using a variety of raw materials that are both ethically sourced and environmentally friendly.",https://www.fragrenza.com/cdn/shop/files/fragrenza-logo_cd1c6a25-ec95-474f-97c2-cb0bc538ffee.png?v=1663623927&width=600,https://fragrenza.com,United States,2016,indie,,,,2025-07-18T12:32:10.942225,2025-08-28T15:24:49.644039
cmdb7ed2467fa44f1b5fa1a,Fragrifert,"Fragrifert is a dedicated manufacturer of high-quality fragrances and aroma chemicals. With a focus on innovation and sustainability, Fragrifert specializes in creating a wide range of perfumes for both personal and home use. The company prides itself on utilizing advanced technology and natural ingredients to produce unique scent profiles. Founded with the vision to cater to the evolving tastes of consumers, Fragrifert has established a reputation for excellence in the fragrance industry over the years.",https://images.unsplash.com/photo-1556909114-f6e7ad7d3136?w=400&h=300&fit=crop,www.fragrifert.com,France,1982,niche,info@fragrifert.com,,"15 Rue des Fragrances, 75011 Paris, France",2025-07-18T12:32:10.942225,2025-08-28T15:24:56.061583
cmdeb2e8838b42aacc04092,Fralab,"Fralab is a private label and bespoke fragrance manufacturer based in Italy. Established with a focus on high-quality and innovative olfactory creations, they cater to a diverse clientele in the fragrance industry, producing perfumes for various brands. Their expertise lies in blending traditional craftsmanship with modern technology to create unique scents that resonate with consumers. Fralab prides itself on sustainable practices and a commitment to using quality raw materials, ensuring that each fragrance tells a story.",https://static.HugeDomains.com/images/hdv3-img/hd-header-logo-v3.svg,https://www.fralab.com,Italy,2010,indie,,,,2025-07-18T12:32:10.942225,2025-08-28T15:25:03.044943
cmd35dfed2d6e2d8df03d07,Frama,,https://images.unsplash.com/photo-1582735689369-4fe89db7114c?w=400&h=300&fit=crop,https://frama.dk,Denmark,2014,niche,,,,2025-07-18T12:32:10.942225,2025-08-28T15:25:10.359625
cmd2f8b85869f5a6c9b8ab9,Frances Denney,,https://images.unsplash.com/photo-1587017539504-67cfbddac569?w=400&h=300&fit=crop,,United States,1941,niche,,,,2025-07-18T12:32:10.942225,2025-08-28T15:25:16.439030
cmd0a125e7c1df802baac9c,Frances Marie,"Frances Marie is an artisanal perfume house known for creating unique, handcrafted fragrances that emphasize the use of natural and sustainable ingredients. Founded by Frances Marie, the company aims to offer an olfactory experience that tells a story, reflecting the beauty of nature and the art of perfumery. Specializing in bespoke scents, Frances Marie works closely with clients to develop personalized perfumes that cater to individual preferences and distinct identities, making their products a perfect choice for consumers seeking something beyond mass-market offerings.",https://images.unsplash.com/photo-1556909114-f6e7ad7d3136?w=400&h=300&fit=crop,www.francesmarie.com,United States,2015,niche,contact@francesmarie.com,,,2025-07-18T12:32:10.942225,2025-08-28T15:25:23.374687
cmdfde7ed3fe4b20753209f,Frances May,"Frances May is an independent perfume company founded in 2016 that specializes in creating unique, artisanal fragrances. The brand focuses on sustainability and uses high-quality, ethically sourced ingredients in their formulations. Inspired by the founder's personal experiences and a desire to craft scents that evoke emotions and memories, Frances May prioritizes transparency in their processes and aims to foster a connection between the consumer and the fragrance.",https://www.francesmay.com/cdn/shop/files/frances-may-logo_bb7371b8-d262-4308-af4d-96dd44004122.png?crop=center&height=300&v=1660167107&width=300,https://www.francesmay.com,United States,2016,indie,,,,2025-07-18T12:32:10.942225,2025-08-28T15:25:30.068617
cmd94f6f4bb84ed4b5288f2,Frances Rothschild,"Frances Rothschild is a boutique perfume house that specializes in the creation of unique, high-quality fragrances. The company embodies luxury and artistry in perfume-making, often focusing on the intricate blend of rare ingredients with artistic inspiration, which allows them to produce distinctive scents that cater to a discerning clientele. Founded by Frances Rothschild, the brand is known for its commitment to craftsmanship and innovation in the fragrance industry.",https://images.unsplash.com/photo-1541643600914-78b084683601?w=400&h=300&fit=crop,,,,niche,,,,2025-07-18T12:32:10.942225,2025-08-28T15:25:35.772664
cmdefb6c5c8b1a07ddfd407,Frances Valentine,"Frances Valentine is a luxury lifestyle brand founded by fashion designer Kate Spade and her husband Andy Spade. The company specializes in handbags, accessories, and fragrances that reflect a playful and timeless aesthetic. The brand embodies a blend of sophistication and whimsy, showcasing vibrant colors, unique patterns, and high-quality materials. Initially focused on bags and accessories, Frances Valentine expanded its product range to include a carefully curated line of fragrances that encapsulate the brand's spirit of joy and individuality.",https://francesvalentine.com/cdn/shop/files/Frame_830x.png?v=1657841165,https://francesvalentine.com,United States,2016,designer,,,,2025-07-18T12:32:10.942225,2025-08-28T15:25:42.962187
cmd11f59f22938820812132,Francesca Bianchi,"Francesca Bianchi is an Italian niche perfume house known for its artistic and unconventional fragrances. Founded by Francesca Bianchi, the company focuses on creating unique scents that reflect her distinct vision and passion for perfumery. The brand emphasizes high-quality raw materials and craftsmanship in all its creations, aiming to evoke emotions and memories through scent. Francesca Bianchi's perfumes often feature bold, complex compositions that challenge traditional norms and invite wearers to explore their aromatic experiences.",https://images.unsplash.com/photo-1541643600914-78b084683601?w=400&h=300&fit=crop,https://www.francescobianchi.com,Italy,2016,niche,,,,2025-07-18T12:32:10.942225,2025-08-28T15:25:50.077596
cmd046c9afee71ac7cde8ab,Francesca dell'Oro,"Francesca dell'Oro is a niche perfume house known for its artisanal approach to fragrance creation. Established by perfumer Francesca Dell'Oro, the company emphasizes the use of high-quality natural ingredients and craftsmanship in their unique olfactory compositions. The brand is celebrated for its sophisticated and distinctive scents that often draw inspiration from nature and art, providing customers with a sensory experience that transcends traditional perfumery.",https://images.unsplash.com/photo-1587017539504-67cfbddac569?w=400&h=300&fit=crop,www.francescadelloro.com,Italy,2017,niche,,,,2025-07-18T12:32:10.942225,2025-08-28T15:25:56.647672
cmdcce18d6318198d0c5d84,Francesca's,"Francesca's is a specialty retail company that offers a curated selection of women's clothing, accessories, and home décor. Known for its vibrant and trendy collections, Francesca's has expanded its product offerings over the years to include a line of fragrances that aligns with its feminine and chic brand image. The company creates a unique shopping experience focused on customer engagement and personalized service, reflecting its commitment to quality and style.",https://cdn11.bigcommerce.com/s-wn2v0pw28v/images/stencil/252x45/francescas_grey_252x42_1692201755__62020.original.png,https://www.francescas.com/,United States,1999,indie,,,,2025-07-18T12:32:10.942225,2025-08-28T15:26:07.257876
cmd08d1fb8d4a8fb6bc1528,Francesco Smalto,"Francesco Smalto is a luxury fashion brand known for its high-end menswear and accessories, including fragrances. Established in Paris, the brand focuses on fine tailoring and sophisticated designs. Its perfume line complements the spirit of elegance and style that the brand embodies, appealing to a discerning clientele seeking luxury and sophistication in their fragrance choices.",http://www.francescosmalto.com/__ovh/common/img/logo-white.png,http://www.francescosmalto.com,France,1962,designer,,,"12 Rue de la Paix, 75002 Paris, France",2025-07-18T12:32:10.942225,2025-08-28T15:26:13.956054
cmda498e991c315e5653d6a,Francisco Betrian,"Francisco Betrian is a specialized perfumery brand known for its high-quality artisanal fragrances. Established with a passion for capturing scents that tell stories, the company focuses on creating unique olfactory experiences by combining traditional techniques with modern creativity. Their perfumes often reflect cultural influences and are designed to evoke emotions and memories, making them distinct in the perfume industry.",https://images.unsplash.com/photo-1582735689369-4fe89db7114c?w=400&h=300&fit=crop,http://franciscobetrian.com,Spain,2015,niche,,,,2025-07-18T12:32:10.942225,2025-08-28T15:26:19.751990
cmd86105a950d57a0eacca0,Franck & Fils,"Franck & Fils is a perfume manufacturer known for its dedication to artisanal craftsmanship and quality materials in the fragrance industry. The company specializes in creating unique scents that reflect traditional perfumery techniques while incorporating innovative elements. With a focus on luxury and exclusivity, Franck & Fils caters to a discerning clientele looking for distinctive fragrances that embody sophistication and elegance. The company has built a reputation for its exquisite blends and attention to detail, providing an authentic olfactory experience for its customers.",https://images.unsplash.com/photo-15907369626-6c63ac16f3df?w=400&h=300&fit=crop,,France,1920,niche,,,,2025-07-18T12:32:10.942225,2025-08-28T15:26:25.464068
cmd74ba5f30c3033d120eb8,Franck Boclet,"Franck Boclet is a niche perfume house founded by the French designer Franck Boclet, who is known for his elegant and unique approach to fragrance. The brand is recognized for creating luxurious and distinctively styled perfumes that draw inspiration from music, art, and the eclectic Parisian lifestyle. Each fragrance tells a story, often reflecting an emotional journey or specific theme, catering to a sophisticated clientele that appreciates avant-garde creations and high-quality ingredients.",https://franckboclet.com/wp-content/uploads/2019/02/logo_Franck_Boclet_BLANC.png,https://franckboclet.com,France,2012,niche,,,,2025-07-18T12:32:10.942225,2025-08-28T15:26:33.462550
cmdef542715da9a775c4be7,Franck Muller,"Franck Muller is primarily known for its luxury watchmaking, but the company has also made strides in the perfume industry with a selection of unique and exclusive fragrances. Established by the eponymous Swiss master watchmaker Franck Muller, the brand has built a reputation for creativity and innovation in both timepieces and aromas. Franck Muller’s fragrances often reflect the brand's commitment to craftsmanship and uniqueness, embodying artistry reminiscent of their timepieces. The story of the company intertwines opulence and sophistication, targeting a clientele that appreciates high-end luxury products.",https://images.squarespace-cdn.com/content/v1/56a9e12ac647ad08eb4453c7/1571039610015-2NS36IUA34CCAD1UE3KJ/Franck+Muller.png?format=1500w,https://www.franckmuller.com,Switzerland,1991,niche,,,,2025-07-18T12:32:10.942225,2025-08-28T15:26:40.185492
cmd2dfb384cc835f7ae339f,Franck Namani,"Franck Namani is a niche perfume house known for creating unique and sophisticated fragrances. Established by French perfumer Franck Namani, the brand specializes in blending traditional techniques with contemporary trends to craft scents that evoke emotions and memories. The company prides itself on using high-quality ingredients sourced globally, and each fragrance is designed to tell a story, connecting deeply with its audience. Their approach focuses on artisanal craftsmanship and a personal touch in each fragrance creation.",https://www.francknamani.com/cdn/shop/files/logo-franck-namani-default_5ed1bf73-01b9-4d06-a69d-21e18893e380.svg?v=1717577886&width=236,https://francknamani.com,France,2012,niche,,,,2025-07-18T12:32:10.942225,2025-08-28T15:26:47.112642
cmd0c9dd6e9101f2bba52d1,Franck Olivier,"Franck Olivier is a French perfume brand known for its unique and diverse fragrance offerings. Founded by the designer Franck Olivier, the company has carved a niche in the fragrance industry by providing a wide range of perfumes characterized by their sophistication and quality. Over the years, Franck Olivier has developed a reputation for creating both women's and men's fragrances that appeal to various tastes. The brand often incorporates artistic and creative elements into its scents, making each fragrance a work of art that reflects the personal style of the wearer.",https://franckolivier.fr/wp-content/uploads/2022/01/logo-franck_olivier_294x148-294x100.png,https://www.franckolivier.com,France,1998,designer,,,,2025-07-18T12:32:10.942225,2025-08-28T15:26:57.542013
cmd018c7d323cc187533387,François Delì,"François Delì is an emerging perfume house known for its artisanal approach to fragrance creation, specializing in unique and compelling scent compositions that evoke emotional experiences. Focused on sourcing high-quality raw materials, the company prides itself on sustainability and ethical practices, allowing customers to indulge in luxury scents while being conscious of their impact on the environment. Founded by master perfumer François Delì, the brand draws inspiration from both classic techniques and modern sensibilities, aiming to create fragrances that tell a story.",https://images.unsplash.com/photo-1587017539504-67cfbddac569?w=400&h=300&fit=crop,www.francoisdeliperfumes.com,France,2018,niche,contact@francoisdeliperfumes.com,,"12 Rue des Fragrances, Grasse, Provence-Alpes-Côte d'Azur, France",2025-07-18T12:32:10.942225,2025-08-28T15:27:04.536945
cmd2d8b3fccc9163ac48df5,Françoise de Gaulle,"Françoise de Gaulle is a French perfume company established by the granddaughter of former French President Charles de Gaulle. The company specializes in creating high-quality, artisanal fragrances that reflect the elegance and sophistication of French perfumery. Their unique offerings combine classic craftsmanship with contemporary sensibilities, aiming to evoke emotions and memories through scent.",https://images.unsplash.com/photo-1541643600914-78b084683601?w=400&h=300&fit=crop,https://www.francoisedegaulle.com,France,2007,niche,,,,2025-07-18T12:32:10.942225,2025-08-28T15:27:20.347610
cmd0cc024cb9cc3f4f67ca1,Frank Apple,"Frank Apple is a fragrance company known for creating unique, artisan perfumes inspired by various elements of nature and everyday life. Their approach often blends traditional fragrance-making techniques with modern elements, aiming to evoke specific emotions and memories through scent. The brand emphasizes sustainability and ethical sourcing of ingredients, and often involves storytelling in their scent development, making each fragrance a narrative experience.",https://images.unsplash.com/photo-1582735689369-4fe89db7114c?w=400&h=300&fit=crop,,,,indie,,,,2025-07-18T12:32:10.942225,2025-08-28T15:27:26.149466
cmdb915b237a4e45a7621e5,Frank Chigano,"Frank Chigano is a niche perfume house known for its unique and artistic approach to fragrance creation. The company often focuses on blending unconventional ingredients to craft scents that evoke specific emotions and stories, catering to a sophisticated and discerning clientele. Frank Chigano emphasizes the artistry of perfumery and strives to create limited edition fragrances that reflect individual creativity and expression.",https://images.unsplash.com/photo-1587017539504-67cfbddac569?w=400&h=300&fit=crop,http://www.frankchigano.com,United States,2016,niche,,,,2025-07-18T12:32:10.942225,2025-08-28T15:27:32.129742
cmd315dc5a9a51a3fb35d88,Frank Los Angeles,"Frank Los Angeles is a niche perfume company known for its unique and artistically inspired fragrances. Founded by Frank Voelkl, the company focuses on crafting scents that reflect the vibrant culture and aesthetics of Los Angeles. With a commitment to quality and creativity, Frank Los Angeles aims to connect customers with the essence of the city through innovative scent compositions that often incorporate unexpected notes and themes.",https://images.unsplash.com/photo-1582735689369-4fe89db7114c?w=400&h=300&fit=crop,https://franklosangeles.com,United States,2012,niche,,,,2025-07-18T12:32:10.942225,2025-08-28T15:27:38.824472
cmdefa4e0ac1aa2395051fc,Frank Payne,"Frank Payne is a luxury perfume house known for its artistic and artisan approach to fragrance creation. The company was founded with the aim of capturing emotions and memories through unique scent compositions. Frank Payne specializes in high-quality, handcrafted perfumes that often evoke a sense of nostalgia and personal storytelling in their designs. The brand emphasizes the use of carefully selected raw materials and traditional perfume-making techniques, setting itself apart as a purveyor of bespoke fragrances that cater to a discerning clientele.",https://images.unsplash.com/photo-1541643600914-78b084683601?w=400&h=300&fit=crop,www.frankpayneparfums.com,United States,2015,niche,,,,2025-07-18T12:32:10.942225,2025-08-28T15:27:45.121446
cmd98d89690115a0c2ff8a8,Frankie Dettori,"Frankie Dettori is a perfume brand that embodies the spirit of the famous Italian jockey, known for his charisma and style. The brand focuses on creating unique fragrances that capture the essence of elegance and excitement, much like Dettori's own persona. With a passion for high-quality ingredients and artistry, Frankie Dettori offers a collection of perfumes designed to appeal to a wide audience, emphasizing sophistication and luxury.",https://images.unsplash.com/photo-15907369626-6c63ac16f3df?w=400&h=300&fit=crop,https://www.frankiedettoriparfumes.com,United Kingdom,2019,celebrity,,,,2025-07-18T12:32:10.942225,2025-08-28T15:27:51.344986
cmd30d4538be7a6c07625df,Frapin,"Frapin is a French fragrance house that originates from the family company established in the 13th century, primarily focused on producing Cognac. The brand ventured into the world of perfumery in recent years, merging their heritage with a modern approach to scent creation. Frapin specializes in niche perfumes that reflect the rich history and terroir of the Cognac region, often utilizing high-quality ingredients to craft perfumes that evoke the essence of luxury and tradition. Their fragrance collection features artisanal craftsmanship and a narrative depth that intertwines with the brand's storied past.",https://images.unsplash.com/photo-1587017539504-67cfbddac569?w=400&h=300&fit=crop,https://www.frapin.com,France,2004,niche,,,,2025-07-18T12:32:10.942225,2025-08-28T15:27:58.668232
cmd67f8e48046585f8f3b46,Frassaï,"Frassaï is an artisanal perfume house that specializes in creating high-quality, niche fragrances. Founded by a group of passionate perfumers and creative individuals, the brand draws inspiration from diverse cultural and sensorial experiences to craft their unique scents. They focus on using high-quality raw materials and emphasize the artistry involved in perfumery. Frassaï is characterized by their approach to storytelling through fragrance, allowing users to connect with the emotions and memories that each scent evokes.",https://frassai.com/cdn/shop/files/Frassai_Ajedrez_logo.png?v=1747885274&width=3840,https://frassai.com,Argentina,2014,niche,,,,2025-07-18T12:32:10.942225,2025-08-28T15:28:05.493101
cmdf44bc5179289f656edb8,Frater Perfumes,"Frater Perfumes is an artisanal fragrance company dedicated to creating unique and high-quality perfumes that embody individuality and artistry. Their story began with a passion for scent and a desire to offer a personal touch to fragrance. Specializing in niche perfumes, they focus on using carefully sourced ingredients to craft complex and evocative fragrances that appeal to discerning customers looking for something beyond mainstream offerings.",https://frater.com/cdn/shop/files/FRATER_GOLD_WORDMARK_8c490e3f-1b3a-49c1-86e8-fb88e3efdb4a_140x.png?v=1658894586,www.fraterperfumes.com,United States,2012,niche,contact@fraterperfumes.com,,,2025-07-18T12:32:10.942225,2025-08-28T15:28:12.625251
cmd9388ddfb093aea6ab6d9,Frau Tonis,"Frau Tonis is a niche perfume company based in Berlin, Germany, known for its unique and artistic fragrances that embody the spirit of the city. Founded by Antje and Jan Kutzke in 2012, the brand's philosophy revolves around creating high-quality, handmade perfumes that tell stories and evoke emotions. Frau Tonis specializes in crafting individual scents with a focus on artisanal quality, offering both a short-limited collection and a customizable scent experience for customers, allowing them to create their own personal fragrances.",https://images.unsplash.com/photo-1587017539504-67cfbddac569?w=400&h=300&fit=crop,https://www.frautonis.com,Germany,2012,niche,,,,2025-07-18T12:32:10.942225,2025-08-28T15:28:19.182169
cmd0599ebedc02b60465b3d,Frazer Parfum,"Frazer Parfum is a luxury perfume company known for creating exquisite and high-quality fragrances that often draw inspiration from diverse cultural elements and rich historical narratives. Established by a team of passionate perfumers and fragrance enthusiasts, the brand focuses on craftsmanship, blending unique ingredients to craft distinctive scents. Their vision is to connect emotional experiences with olfactory creations, elevating the art of perfumery to new heights. Frazer Parfum has positioned itself as a niche player in the fragrance market, appealing to consumers looking for unique and artisanal perfumes.",https://frazerparfum.com/cdn/shop/files/806px-Africa_stub_icon.svg_9230bda2-a226-403c-8718-bb1e76f757f9.png?height=20&v=1614333084,https://frazerparfum.com,United Kingdom,2018,niche,,,,2025-07-18T12:32:10.942225,2025-08-28T15:28:27.587210
cmdebdddc2fe0db0f593b28,Fred Hayman,"Fred Hayman is a renowned perfume company that specializes in creating luxurious fragrances. Established in the 1980s, the brand is best known for its signature scent, ""Hollywood,"" which captures the glamour and essence of Los Angeles. Fred Hayman himself was a pivotal figure in the development of niche marketing within the fragrance industry and has been described as a pioneer. The company is committed to crafting high-quality, sophisticated scents that appeal to a discerning clientele.",https://images.unsplash.com/photo-1587017539504-67cfbddac569?w=400&h=300&fit=crop,https://www.fredhayman.com,United States,1985,niche,,,,2025-07-18T12:32:10.942225,2025-08-28T15:28:34.814238
cmd628e472b807d82998cfa,Fred Segal,"Fred Segal is a well-known American retail boutique operating in the luxury segment. Established originally in the 1960s in Los Angeles, the brand has become synonymous with a unique blend of high fashion, distinctive style, and lifestyle products including a notable line of fragrances. Fred Segal boutiques offer a curated selection of luxury apparel, accessories, and personal care products, reflecting its roots in California's laid-back, yet stylish culture. The fragrance line captures the essence of the brand’s identity—effortlessly chic and trendy, often inspired by the zest of the California lifestyle.",https://images.unsplash.com/photo-1541643600914-78b084683601?w=400&h=300&fit=crop,https://www.fredsegal.com,United States,1961,designer,,,"500 Broadway, Los Angeles, CA 90013, United States",2025-07-18T12:32:10.942225,2025-08-28T15:28:44.225770
cmd9972834a247b3a00f4a9,Freda'D,"Freda'D is a niche perfume company known for its unique and artistic fragrance creations. Founded by a group of perfumers and fragrance enthusiasts, the brand emphasizes quality and craftsmanship, often using rare and exquisite ingredients to craft their scents. They aim to appeal to a discerning clientele by providing exclusive, hand-crafted perfumes that tell a story through their aromas. The brand has gained recognition for its innovative approach and dedication to the fragrance arts.",https://images.unsplash.com/photo-1541643600914-78b084683601?w=400&h=300&fit=crop,[www.fredad.com](http://www.fredad.com),France,2020,niche,,,,2025-07-18T12:32:10.942225,2025-08-28T15:28:50.213183
cmdc29f424279caab304875,Freddie Albrighton,"Freddie Albrighton is a niche perfume house known for its artisanal approach to fragrance creation. Founded by perfumer Freddie Albrighton, the brand emphasizes craftsmanship, individuality, and a luxurious olfactory experience. The company draws inspiration from various cultures and natural elements, resulting in unique, evocative scents. Each fragrance is designed to tell a story and connect with emotions, making them appealing to perfume aficionados looking for distinctive and unexpected aromas. The brand has gained a reputation for blending traditional techniques with contemporary creativity, appealing to a discerning clientele.","https://static.wixstatic.com/media/41c2fa_91188304be3f4bdcbe47c31907affecb~mv2.jpg/v1/fill/w_940,h_440,al_c,q_85,usm_0.66_1.00_0.01,enc_avif,quality_auto/62E2FB17-91C2-451B-8888-F8FD8DF4CBC6_edited.jpg",https://freddiealbrighton.com,United Kingdom,2014,niche,,,,2025-07-18T12:32:10.942225,2025-08-28T15:28:57.612156
cmded713e7d0c45db7f40dc,Frederic Fekkai,"Frederic Fekkai is a renowned luxury hair care and fragrance brand founded by French hairstylist Frédéric Fekkai. The company originally gained fame for its high-quality hair care products inspired by the beauty of the French Riviera, and it has since expanded into the fragrance sector, embodying sophisticated scents that resonate with the brand's luxurious ethos. The brand's philosophy centers around enhancing natural beauty and providing salon-quality results to the consumer.",https://images.unsplash.com/photo-15907369626-6c63ac16f3df?w=400&h=300&fit=crop,https://www.fredericfekkai.com,United States,1995,designer,,,,2025-07-18T12:32:10.942225,2025-08-28T15:29:06.571861
cmd4440ea6896c5cf6c07e8,Frédéric Haldimann,"Frédéric Haldimann is a niche perfume company specializing in the creation of artisanal and bespoke fragrances. Founded by perfumer Frédéric Haldimann, the brand is known for its unique approach to scent composition, focusing on high-quality ingredients and innovative blending techniques. The company values craftsmanship and offers a personalized experience for customers looking for unique, luxury scents that stand out in the industry. The story of Frédéric Haldimann is deeply rooted in a passion for perfumery and a commitment to the art of fragrance, which sets it apart from mass-market brands.",https://images.unsplash.com/photo-1587017539504-67cfbddac569?w=400&h=300&fit=crop,http://www.frederichaldimann.com,Switzerland,2009,niche,,,,2025-07-18T12:32:10.942225,2025-08-28T15:29:14.008585
cmd0658989e482043b53a80,Frederick's of Hollywood,"Frederick's of Hollywood is a renowned lingerie and lifestyle brand that was founded in 1947 by Frederick Mellinger. The company gained fame for its innovative approach to women's intimate apparel, particularly with the introduction of the 'push-up' bra. In addition to lingerie, the brand has expanded to offer fragrances, costume jewelry, and other lifestyle products. It is celebrated for its bold designs and sultry marketing, targeting a confident, daring female clientele. Over the decades, Frederick's of Hollywood has adapted to changing trends, reaffirming its place as a prominent name in the fashion industry.",https://www.fredericks.com/cdn/shop/files/FOH_MainLogo_GoldFoil_Brightened.png?v=1695761776&width=220,https://www.fredericks.com,United States,1947,designer,,,,2025-07-18T12:32:10.942225,2025-08-28T15:29:20.935750
cmd1d69d22133621d67963b,Freedom Marketing Group,"Freedom Marketing Group is a company that specializes in providing marketing solutions for the fragrance industry, focusing on both creativity and strategy. The company aims to elevate perfume brands through innovative marketing techniques and consumer engagement. They work with both established and emerging brands to enhance their market presence and appeal to target audiences.",https://images.unsplash.com/photo-1541643600914-78b084683601?w=400&h=300&fit=crop,,,,indie,,,,2025-07-18T12:32:10.942225,2025-08-28T15:29:27.798834
cmdf75dd97ab01b2faa96f6,Freeshape,"Freeshape is a contemporary perfume company that emphasizes individuality and self-expression through its unique fragrance creations. Established with a vision to blend artistic scent formulations with a minimalist aesthetic, Freeshape focuses on crafting high-quality perfumes that resonate with modern consumers. The company aims to elevate daily experiences with fragrances that reflect personal identity and mood.",https://www.freeshape.com/images/aaa_logo_big.gif,www.freeshape.com,United States,2018,indie,contact@freeshape.com,,"123 Aroma Lane, Los Angeles, CA, 90001",2025-07-18T12:32:10.942225,2025-08-28T15:29:33.721587
cmd1cef6cfcd2593b3f737b,Freeze 24-7,"Freeze 24-7 is a skincare and fragrance company that focuses on creating high-quality beauty products. Founded with the mission to provide effective solutions to combat the signs of aging, the brand emphasizes innovation and luxury. Their specialty lies in offering products that deliver immediate results in the realm of skincare, including fragrances that are designed to complement their range of beauty solutions. Over the years, Freeze 24-7 has earned a reputation for its focus on skin vitality and enhancement.",https://images.unsplash.com/photo-1556909114-f6e7ad7d3136?w=400&h=300&fit=crop,https://freeze247.com,United States,2004,indie,,,,2025-07-18T12:32:10.942225,2025-08-28T15:29:40.046570
cmda729164d4a7b6e57c366,French Arabian Perfumes,"French Arabian Perfumes is a renowned fragrance company that specializes in high-quality perfumes and oud-based products. Established in the heart of the Middle East, the company blends traditional Arabian scent composition with contemporary perfume-making techniques, aiming to create unique and luxurious fragrances. With a deep understanding of perfume heritage, French Arabian Perfumes takes pride in sourcing natural ingredients and crafting exclusive collections that appeal to a global audience. The company has become a key player in promoting Arabian perfumery and has a reputation for its exquisite and lasting scents.",https://images.unsplash.com/photo-15907369626-6c63ac16f3df?w=400&h=300&fit=crop,https://www.frencharabian.com,United Arab Emirates,2008,niche,,+971 4 347 5555,,2025-07-18T12:32:10.942225,2025-08-28T15:29:49.740044
cmd2af8906b56d6ed0dfc57,French Avenue,"French Avenue is a luxury perfume company specializing in artisanal fragrances, inspired by the rich heritage and elegance of French perfumery. The company's story began with a passionate team of perfumers and fragrance enthusiasts who sought to recreate the charm of France's romantic avenues through scent. Their specialty lies in crafting unique, high-quality scents that evoke emotions and memories, using traditional methods combined with modern innovation.",https://images.unsplash.com/photo-1541643600914-78b084683601?w=400&h=300&fit=crop,,France,,niche,,,,2025-07-18T12:32:10.942225,2025-08-28T15:29:56.395872
cmd9d402e916a2022ac961b,FCUK,"FCUK (French Connection United Kingdom) is a British fashion retailer known for its trendy clothing and accessories, which also includes a line of perfumes. Launched in the 1990s, FCUK's fragrance collection complements its fashion offerings, targeting a young, fashion-conscious audience. Their perfumes are characterized by contemporary and edgy branding, aligning with the bold and distinctive style of the brand.",https://www.frenchconnection.com/cdn/shop/files/AW25_Workwear_MM_077b8f10-8639-4a89-b45a-cff213db5df0.jpg?v=1754565198&width=300,https://www.frenchconnection.com/,United Kingdom,1972,designer,,,,2025-07-18T12:32:10.942225,2025-08-28T15:30:05.213982
