id,name,description,image,website,country,founded,type,email,phone,address,createdAt,updatedAt
cmdf3df94e0065ba92e95e5,Adrienne Vittadini,"Adrienne Vittadini is a fashion brand known for its chic and sophisticated women’s apparel and accessories, including a distinct line of fragrances. The company was founded by designer Adrienne Vittadini in the 1970s and rose to prominence for its elegant designs that fused American and European styles. Over the years, Adrienne Vittadini expanded its product offerings to include a variety of fragrances that encapsulate the essence of its fashion ethos, focusing on elegance and timeless appeal.",https://images.squarespace-cdn.com/content/v1/59fc9bee64b05f6207ef2591/1509727662689-CISZ0VE5HD36R48IGRHZ/AV_Main_Logo_Black.png?format=1500w,http://www.adriennevittadini.com,United States,1979,designer,,,,2025-07-18T12:32:10.942225,2025-08-28T08:38:13.897703
cmde31f310ba02587899531,Adscenture,"Adscenture is a niche perfume company specializing in unique and artisanal fragrances that aim to capture the essence of various emotions and experiences. Founded by a group of perfume enthusiasts, Adscenture seeks to push the boundaries of traditional perfumery by using unconventional ingredients and methods. Their story began with a passion for storytelling through scent, allowing customers to embark on olfactory journeys that resonate with their personal experiences.",https://images.unsplash.com/photo-1582735689369-4fe89db7114c?w=400&h=300&fit=crop,www.adscenture.com,United States,2018,niche,contact@adscenture.com,,,2025-07-18T12:32:10.942225,2025-08-28T08:38:21.158024
cmdedd6d31e793268b56ef0,Advent International,"Advent International is a global private equity firm specializing in investments across various sectors, including consumer products, which encompasses the perfume and fragrance industry. Founded in 1984, the firm has a rich history of acquiring and growing companies, leveraging its expertise to enhance brands in their portfolio, including those within the beauty and personal care segments. Advent focuses on driving innovation and scalability, aiming to elevate the companies it partners with through strategic investments and operational enhancements.",https://images.unsplash.com/photo-1556909114-f6e7ad7d3136?w=400&h=300&fit=crop,https://www.adventinternational.com,United States,1984,indie,,,,2025-07-18T12:32:10.942225,2025-08-28T08:38:28.049230
cmd1a530072f3882fbb964f,Aedes de Venustas,"Aedes de Venustas is a niche perfume house known for its high-quality fragrances that blend artistry with meticulous craftsmanship. Founded by Robert Gerstner and Jeremy Bensimon in 2012, the brand originated from the renowned Aedes de Venustas boutique in New York City, which has been a destination for perfume enthusiasts since its inception in 1995. The company specializes in creating original scents that evoke emotions and experiences, often inspired by art, culture, and the beauty of nature. Each fragrance is carefully curated using premium ingredients, and the brand is celebrated for both its unique compositions and sophisticated packaging.",https://www.aedes.com/cdn/shop/files/aedes_logo_web.png?v=1675363842&width=1737,https://www.aedes.com,United States,2012,niche,,,,2025-07-18T12:32:10.942225,2025-08-28T08:38:36.068397
cmddc6bd321086a5f4b5272,Aeir,"Aeir is a contemporary perfume company that focuses on creating unique, sensory experiences through fragrance. The brand was founded with the vision of crafting high-quality scents that bridge the gap between nature and modernity. Aeir prides itself on using sustainably sourced ingredients and innovative fragrance technology, creating perfumes that evoke personal connections and memories. The story of Aeir is centered around the concept of abstract and evolving scents that resonate with individual personalities, emphasizing the art and craft of perfumery.",https://images.unsplash.com/photo-1582735689369-4fe89db7114c?w=400&h=300&fit=crop,,,,niche,,,,2025-07-18T12:32:10.942225,2025-08-28T08:38:42.997432
cmd128e075b790d83d5560b,Æmium,"Æmium is a niche perfume company known for its artisanal approach to fragrance creation. The brand emphasizes natural ingredients and sustainability, crafting unique and evocative scents that tell a story. Founded by a team of passionate perfumers, Æmium combines traditional techniques with modern innovation to create high-quality perfumes that cater to a discerning clientele looking for individuality and authenticity in their fragrance choices.","https://static.wixstatic.com/media/820b61_ecc5cb036cad443a9d0a99deba6277b2~mv2.png/v1/crop/x_0,y_17,w_1016,h_445/fill/w_178,h_78,al_c,q_85,usm_0.66_1.00_0.01,enc_avif,quality_auto/logo%20ajust%C3%A9.png",https://www.aemium.com,United States,2020,niche,contact@aemium.com,,,2025-07-18T12:32:10.942225,2025-08-28T08:38:51.283340
cmdca7de31580336529620a,Aeon Perfume,"Aeon Perfume is a niche fragrance house known for its unique and artistic scent compositions. The brand focuses on creating high-quality perfumes that blend traditional perfumery techniques with modern inspirations. Established by a team of passionate fragrance enthusiasts, Aeon Perfume emphasizes the importance of storytelling in their scents, aiming to evoke emotions and memories through carefully crafted fragrances. The company prides itself on using premium ingredients and often collaborates with renowned perfumers to deliver innovative and captivating fragrances that stand out in the market.",https://images.unsplash.com/photo-1541643600914-78b084683601?w=400&h=300&fit=crop,www.aeonperfume.com,United States,2018,niche,contact@aeonperfume.com,,,2025-07-18T12:32:10.942225,2025-08-28T08:38:58.444884
cmdc8ccfc017e1ea51030fe,Aer Scents,"Aer Scents is a niche perfume brand known for its innovative approach to scent-making, emphasizing high-quality, sustainable ingredients. The company aims to craft unique fragrances that evoke emotions and memories, drawing inspiration from nature and art. Founded by a team of passionate fragrance designers, Aer Scents focuses on artisanal production methods and exclusive scent profiles, catering to an audience looking for distinctive and personalized olfactory experiences.",https://images.squarespace-cdn.com/content/v1/60893f6f7791636e0f08a071/1621328307347-XBQ11C406SNBD6A59H0B/AER.png?format=1500w,https://aerscents.com,United States,2017,niche,info@aerscents.com,,,2025-07-18T12:32:10.942225,2025-08-28T08:39:05.338731
cmd6844e332cf5a58c0b2f5,Aerin,"Aerin is a heritage brand founded by Aerin Lauder, the granddaughter of Estée Lauder. The company specializes in luxurious fragrances and lifestyle products that draw inspiration from Aerin's personal experiences and travels. Aerin’s perfumery art is characterized by an emphasis on quality and a feminine aesthetic, blending classic elegance with modern sophistication. The brand aims to create signature scents that evoke memories and emotions, appealing to individuals seeking both luxury and timeless style.",https://www.aerin.com/static/version1753702803/frontend/Aerin/theme/en_US/images/logo.svg,https://www.aerin.com,United States,2013,designer,,,,2025-07-18T12:32:10.942225,2025-08-28T08:39:11.884438
cmd4dde0d3e9778dc03e3ca,Aeronot,"Aeronot is a contemporary perfume house known for its innovative approach to fragrance creation, intertwining modern perfumery techniques with inspirations drawn from the natural world and aeronautics. The brand focuses on crafting unique scents that evoke emotions and memories, utilizing high-quality ingredients sourced sustainably. Their story began with a vision to bring the art of perfumery to new heights, combining both science and creativity to deliver olfactory experiences that are both memorable and sophisticated.",https://images.unsplash.com/photo-1541643600914-78b084683601?w=400&h=300&fit=crop,,,,indie,,,,2025-07-18T12:32:10.942225,2025-08-28T08:39:18.407514
cmd97e40f7d5f9d6797affd,Aeropostale,"Aeropostale, Inc. is an American retail company that is primarily known for its trendy casualwear, accessories, and fragrances aimed at young adults and teenagers. Founded in 1987, the brand caters to a youthful audience with a focus on comfort and style. They have developed a range of fragrances that reflect the fun and vibrant nature of the Aeropostale brand, appealing to their target market through fresh, youthful scents.",https://images.unsplash.com/photo-1582735689369-4fe89db7114c?w=400&h=300&fit=crop,https://www.aeropostale.com,United States,1987,designer,,,,2025-07-18T12:32:10.942225,2025-08-28T08:39:26.610846
cmddef7da4f24090094baee,Aesop,"Aesop is an Australian skincare company renowned for its high-quality botanical-based skin, hair, and body care products. Founded in Melbourne in 1987, Aesop has garnered a reputation for its commitment to using plant-based ingredients, essential oils, and no artificial fragrances in its formulations. The company emphasizes sustainability and ethical sourcing of materials, producing items that are not only effective but also environmentally friendly. Aesop is also known for its minimalistic and aesthetically pleasing packaging, along with its distinctive store designs that reflect a unique brand identity. Over the years, Aesop has expanded its product line to include a curated selection of fragrances, further showcasing its expertise in scent creation while maintaining its focus on quality and design.",https://www.aesop.com/u1nb1km7t5q7/5eeO1SfsevMNKIXcesn9eK/dc75354f429ed9f43f175d9762241069/Apple_Pay_logo.svg,https://www.aesop.com,Australia,1987,niche,,,,2025-07-18T12:32:10.942225,2025-08-28T08:39:35.244266
cmd0c07bc5be56ab815b345,Aether Arts,"Aether Arts is a perfume company that specializes in crafting niche fragrances that incorporate natural and sustainable ingredients. The company focuses on artisanal perfume creation, blending traditional techniques with innovative olfactory exploration. Their story reflects a commitment to artistry in fragrance, often inspired by the olfactory experiences of nature and everyday life. Aether Arts aims to create unique scent experiences that resonate with personal identity and emotional connection.",https://images.unsplash.com/photo-1587017539504-67cfbddac569?w=400&h=300&fit=crop,https://aetherarts.com,United States,2014,niche,,,,2025-07-18T12:32:10.942225,2025-08-28T08:39:42.617227
cmda86548de938fe1f7444a,Aether,"Aether is a niche perfume company that specializes in crafting high-quality, artisanal fragrances. The brand focuses on using natural ingredients to create unique scent profiles that evoke emotions and memories. Founded by a team of passionate fragrance enthusiasts, Aether prides itself on its commitment to sustainability and ethical sourcing practices. The company’s story is rooted in a desire to promote the art of perfumery, celebrating the creativity and craftsmanship behind each fragrance.",https://images.unsplash.com/photo-1582735689369-4fe89db7114c?w=400&h=300&fit=crop,https://www.aetherperfume.com,United States,2017,niche,,,,2025-07-18T12:32:10.942225,2025-08-28T08:39:49.598294
cmd005777140621bf3b7d23,Aether Parfums,"Aether Parfums is a niche perfume house based in the United States known for its innovative and artistic approach to fragrance creation. Founded by perfumer and entrepreneur, the brand aims to merge the art of perfumery with sustainability and unique storytelling. Aether Parfums focuses on crafting high-quality, original scents that often draw inspiration from nature and the emotions tied to various experiences. Their fragrances are characterized by the use of natural ingredients and an emphasis on ethical sourcing.",https://aetherparfums.com/cdn/shop/files/aether-parfums-logo-white-on-transparent.svg?v=1719561305&width=600,https://aetherparfums.com,United States,2018,niche,,,,2025-07-18T12:32:10.942225,2025-08-28T08:39:56.368137
cmdea865be7dd143d15ffe2,Affinessence,"Affinessence is a niche perfume house established to create luxurious and artistic fragrances that emphasize the quality of raw materials and the expertise of artisans. The brand focuses on small-scale production, allowing for unique, personalized creations that tell a story through scent. Founded by a passionate perfumer, Affinessence aims to bridge the gap between traditional perfumery and contemporary design, catering to discerning customers who appreciate individuality and craftsmanship.",https://www.affinessence.com/wp-content/themes/Bodega/images/logo-affinessence-black.svg,https://www.affinessence.com,France,2010,niche,,,,2025-07-18T12:32:10.942225,2025-08-28T08:40:05.326487
cmdb056274ef34a6f981bc0,Affliction,"Affliction is an American lifestyle brand known for its roots in the tattoo and motorcycle culture, initially gaining popularity through their graphic t-shirts and apparel. The brand has expanded into the fragrance industry, offering a line of perfumes that reflect its edgy, rebellious spirit. Affliction's fragrances are characterized by bold, distinctive scents aimed at individuals who enjoy expressing their individuality and lifestyle through their choice of fragrance.",https://www.afflictionclothing.com/cdn/shop/files/AFFLICTION-PORT-BLK.png?v=1740685558&width=500,https://www.afflictionclothing.com,United States,2005,indie,,,,2025-07-18T12:32:10.942225,2025-08-28T08:40:12.967510
cmd5489946cb65a4ddfd8db,Afnan,"Afnan Perfumes is a Middle Eastern fragrance company that specializes in creating high-quality, unique perfumes inspired by Arabian and oriental fragrance traditions. Established in 2005, the brand combines traditional perfume-making techniques with modern elements, offering a range of eau de parfums, oil-based fragrances, and more. Afnan has gained recognition for its distinctive scents that reflect the rich cultural heritage of the region, catering to a clientele that appreciates luxurious and exotic fragrances.",https://images.unsplash.com/photo-1556909114-f6e7ad7d3136?w=400&h=300&fit=crop,https://www.afnanperfumes.com,United Arab Emirates,2005,niche,,,,2025-07-18T12:32:10.942225,2025-08-28T08:40:22.199645
cmdca00cc608545a75bd8ce,African Pride,"African Pride is a perfume company that specializes in creating fragrances that celebrate African heritage and culture. The brand focuses on using natural ingredients sourced from the African continent to craft unique scents. They aim to tell stories through their fragrances, highlighting the richness of African traditions and landscapes. African Pride also emphasizes sustainability and supports local communities through ethical sourcing practices.",https://images.unsplash.com/photo-1587017539504-67cfbddac569?w=400&h=300&fit=crop,https://africanpride.com,South Africa,2012,indie,,,,2025-07-18T12:32:10.942225,2025-08-28T08:40:32.591125
cmd2e00090c3219ab376a8f,Afrique Parfum,"Afrique Parfum is a perfume company that focuses on crafting high-quality fragrances inspired by the rich cultural heritage and diverse ingredients of Africa. The brand aims to celebrate African identity through unique scents that reflect the continent's natural beauty and traditions. Afrique Parfum began with a vision to offer both luxury and affordable options, bringing a sense of exotic elegance to the global perfume market.",https://images.unsplash.com/photo-1582735689369-4fe89db7114c?w=400&h=300&fit=crop,,,,indie,,,,2025-07-18T12:32:10.942225,2025-08-28T08:40:38.951504
cmd46dd63fbc3bde4868e39,Afta,"Afta is a contemporary perfume company that specializes in creating unique and affordable fragrances. Established with a belief that luxury scents should be accessible to everyone, Afta focuses on providing high-quality products made with carefully selected ingredients. The brand combines traditional perfumery techniques with modern design aesthetics, appealing to today's fragrance enthusiasts seeking both distinctiveness and affordability.",https://images.unsplash.com/photo-1541643600914-78b084683601?w=400&h=300&fit=crop,www.afta.com,United States,2021,indie,contact@afta.com,,,2025-07-18T12:32:10.942225,2025-08-28T08:40:45.593246
cmd207d6362383e6a4691e6,Aftelier,"Aftelier is a niche perfume company founded by Mandy Aftel, who is a pioneer in the field of natural perfumery. The company specializes in crafting artisanal fragrances using high-quality natural ingredients, emphasizing individuality and authenticity. Aftelier focuses on creating unique scent experiences that are both evocative and deeply personal. The story of Aftelier began in the late 1990s when Mandy began exploring the world of scent creation, leading to her passion for developing perfumes that celebrate the essence of nature. The company also publishes educational materials on natural perfumery, further establishing its role as a leader in the fragrance community.",https://www.aftelier.com/v/vspfiles/assets/images/newcc_logos.png,https://www.aftelier.com,United States,1997,niche,,,,2025-07-18T12:32:10.942225,2025-08-28T08:40:54.143670
cmd9606979746dc03dd91d2,After Six,"After Six is a perfume company that specializes in creating unique and high-quality fragrances that embody elegance and sophistication. The brand has carved a niche in the fragrance market by focusing on artisanal production and the use of luxurious ingredients, appealing to discerning customers looking for distinctive scents. Their story is characterized by a commitment to quality and craftsmanship, often inspired by classic themes and modern aesthetics.",https://images.unsplash.com/photo-1582735689369-4fe89db7114c?w=400&h=300&fit=crop,,,,indie,,,,2025-07-18T12:32:10.942225,2025-08-28T08:41:00.525300
cmd8fb06b3672c4c660a899,Agar Aura,"Agar Aura is a specialized perfume company that focuses on creating high-quality, artisanal fragrances, primarily leveraging the unique qualities of agarwood (oud). Founded by enthusiasts of traditional Eastern perfumery, the company emphasizes natural ingredients and sustainability. Their story revolves around the deep cultural heritage of oud and the art of crafting perfumes that evoke both tradition and modernity. Agar Aura prides itself on producing complex and luxurious scents that cater to a niche market, featuring unique blends that celebrate the rich, woody character of agarwood.",https://www.agaraura.com/images/navlogo.png,https://www.agaraura.com,United States,2014,niche,,,,2025-07-18T12:32:10.942225,2025-08-28T08:41:07.574244
cmdfee8a2748e787ec66ced,Agar Olfactory,"Agar Olfactory is a niche perfume house known for creating unique and evocative scents that incorporate high-quality raw materials. The company emphasizes artisanal craftsmanship and seeks to create fragrances that tell a story and evoke a sense of place. Established by a collective of passionate perfumers, Agar Olfactory aims to resonate with connoisseurs of fragrance who appreciate the complexities and subtleties of scent. Their specialty lies in the exploration of rich, exotic ingredients, particularly agarwood (oud), which is at the heart of many of their compositions.",https://images.unsplash.com/photo-1556909114-f6e7ad7d3136?w=400&h=300&fit=crop,https://www.agarolfactory.com,United States,2018,niche,contact@agarolfactory.com,,,2025-07-18T12:32:10.942225,2025-08-28T08:41:14.803259
cmd6759d94d66088ccca617,Agarscents Bazaar,"Agarscents Bazaar is a perfume company specializing in the creation of high-quality, unique fragrance blends. Founded with the intent to promote the rich tradition of agarwood, or oud, the company sources its ingredients from sustainable practices and offers a diverse range of perfumes that cater to various preferences. Agarscents Bazaar takes pride in its artisanal craftsmanship and aims to elevate the fragrance experience by combining traditional methods with contemporary sensibilities.",https://www.agarscentsbazaar.com/cdn/shop/files/header-slide_ecd4ff26-c195-4ef0-a2de-8377e16b6982.jpg?v=1613667179&width=3840,http://www.agarscentsbazaar.com,United States,2012,niche,,,,2025-07-18T12:32:10.942225,2025-08-28T08:41:22.358802
cmd21bd78596fdb90959f0d,Agarthi,"Agarthi is a niche perfume house specializing in luxury fragrances crafted from high-quality, natural ingredients. Founded with the mission to create artisanal perfumes that embody the essence of cultural heritage and tradition, Agarthi draws inspiration from diverse sources, including nature and ancient practices. Each fragrance is meticulously created to evoke emotions and tell a unique story, offering a sensory experience that transports wearers to distinct places and times.",https://images.unsplash.com/photo-1541643600914-78b084683601?w=400&h=300&fit=crop,www.agarthi-perfumes.com,France,2018,niche,contact@agarthi-perfumes.com,,"47 Rue de la Parfumerie, Paris, France",2025-07-18T12:32:10.942225,2025-08-28T08:41:29.531480
cmdc808cd4828d5b3636f59,Agatha Brown,"Agatha Brown is a niche perfume company known for creating unique and artisanal fragrances inspired by natural elements and personal experiences. The company focuses on small-batch production, allowing for a high level of craftsmanship and individuality in each scent. Established by a passionate perfumer, Agatha Brown aims to evoke specific memories and emotions through their thoughtfully crafted perfume collections, catering to customers who appreciate distinct fragrances with a story behind them.",https://images.unsplash.com/photo-1582735689369-4fe89db7114c?w=400&h=300&fit=crop,www.agathabrownfragrances.com,United States,2018,niche,info@agathabrownfragrances.com,,,2025-07-18T12:32:10.942225,2025-08-28T08:41:37.741940
cmd4f325f00cdbc06e6ee73,Agatha Paris,"Agatha Paris is a French fashion and accessories brand known for its elegant and whimsical designs. Established in the heart of Paris, the company cleverly merges the worlds of jewelry and fragrance, offering a unique collection of perfumes that reflect the brand's stylish ethos. Agatha Paris first gained popularity with its jewelry lines and began expanding into the fragrance market to complement its existing accessories, providing customers with a complete sensory experience tied to the brand's aesthetic. Their specialty lies in creating perfumes that embody the charm and spirit of Paris, often inspired by the lifestyle and culture associated with the city.",https://www.agathaparis.com/on/demandware.static/Sites-AG-COM-Site/-/default/dw9356b8dc/images/logo-agatha.svg,https://www.agathaparis.com,France,1974,designer,,,,2025-07-18T12:32:10.942225,2025-08-28T08:41:45.827524
cmd6ecbd757fab49867a70c,Agatha Ruiz de la Prada,"Agatha Ruiz de la Prada is a Spanish fashion designer known for her vibrant, whimsical designs and unique style. Founded in the early 1980s, the company initially gained recognition in the fashion industry, expanding into fragrances in the 1990s. The brand is celebrated for its playful use of color and patterns, and its perfumes often reflect the same joyful aesthetic found in her clothing collections, capturing a spirit of happiness and creativity.",https://www.agatharuizdelaprada.com/cdn/shop/files/logo4.png?v=1742472817&width=836,https://www.agatharuizdelaprada.com,Spain,1980,designer,,,,2025-07-18T12:32:10.942225,2025-08-28T08:41:53.481946
cmd572e0968372e18ded003,Agatho,"Agatho is a niche perfume house that focuses on creating unique, artisan fragrances inspired by nature and various cultural elements. Founded by a passionate perfumer with a vision to offer high-quality scents, Agatho emphasizes craftsmanship and artistry in scent formulation. Their collections often feature rare ingredients, and each fragrance tells a story, connecting the wearer to different experiences and emotions. The brand's identity is deeply rooted in a commitment to sustainability and ethical sourcing, making it a favored choice among eco-conscious consumers and perfume enthusiasts alike.",https://static.HugeDomains.com/images/hdv3-img/hd-header-logo-v3.svg,www.agatho.com,France,2015,niche,contact@agatho.com,,,2025-07-18T12:32:10.942225,2025-08-28T08:42:00.790138
cmd609fb96d6e9225831000,Agence de Parfum,"Agence de Parfum is a niche perfume company that specializes in crafting unique, high-quality fragrances with a focus on artistic expression and innovative scent profiles. Founded by a team of fragrance designers and olfactory specialists, the company aims to connect consumers with the emotional and sensory experiences of perfume. Their story is rooted in a passion for perfumery as an art form and a commitment to using premium ingredients, often drawing inspiration from diverse cultures and nature. Agence de Parfum is known for its limited-edition releases and collaborations with renowned artisans.",https://images.unsplash.com/photo-1587017539504-67cfbddac569?w=400&h=300&fit=crop,https://www.agencedeparfum.com,France,,niche,,,,2025-07-18T12:32:10.942225,2025-08-28T08:42:09.678773
cmdeffddb81c401b6bd90f5,Agence LOVE,"Agence LOVE is a contemporary perfume company that specializes in creating unique, artisanal fragrances inspired by emotions and experiences. Founded with the vision of combining art and scent, their approach emphasizes storytelling and personal connection through olfactory experiences. The brand has gained recognition for its innovative scent compositions, often collaborating with artists and creatives to develop fragrances that resonate on a personal level.",https://images.unsplash.com/photo-1541643600914-78b084683601?w=400&h=300&fit=crop,www.agencelove.com,France,2017,niche,contact@agencelove.com,,,2025-07-18T12:32:10.942225,2025-08-28T08:42:16.535223
cmdcd1071da31f4dec59852,Agent Provocateur,"Agent Provocateur is a luxury lingerie and fragrance brand founded in 1994 by Joseph Corré and Serena Rees. The brand is renowned for its provocative and playful designs, aiming to celebrate femininity and sensuality. Agent Provocateur expanded from lingerie into the fragrance market in the early 2000s, creating a line of sophisticated and seductive perfumes that align with their brand ethos. Their fragrances prominently feature rich, exotic notes and are designed to evoke sensual experiences, offering a distinctive olfactory signature that complements their lingerie products.",https://images.unsplash.com/photo-1541643600914-78b084683601?w=400&h=300&fit=crop,https://www.agentprovocateur.com,United Kingdom,1994,niche,,,,2025-07-18T12:32:10.942225,2025-08-28T08:42:24.488460
cmd1d701cd3769f194b7074,Aggarwal Group,,https://static.HugeDomains.com/images/hdv3-img/hd-header-logo-v3.svg,http://www.aggarwalgroup.com,India,1997,niche,,,,2025-07-18T12:32:10.942225,2025-08-28T08:42:33.273740
cmd8bbcc5b3262176ec7f06,Agilex,"Agilex is a leading fragrance development company specializing in the creation and manufacturing of high-quality fragrance products. Founded in 1996, Agilex operates in the fragrance supply chain, offering services that include aroma chemical production, custom fragrance creation, and packaging solutions. The company aims to meet the evolving demands of the perfume industry while maintaining a commitment to innovation and sustainability. Agilex prides itself on its expertise in using cutting-edge technology and sourcing raw materials from ethical suppliers.",https://images.unsplash.com/photo-1556909114-f6e7ad7d3136?w=400&h=300&fit=crop,https://www.agilexflavors.com,United States,1996,indie,,,,2025-07-18T12:32:10.942225,2025-08-28T08:42:40.143901
cmddcb9f104f9d2d59c4add,Agnel,"Agnel is a niche perfume company that focuses on creating distinctive and high-quality fragrances. Founded by a group of passionate perfumers, the brand places emphasis on craftsmanship and the art of perfume-making. Their creations are characterized by unique scent profiles that often incorporate natural ingredients and innovative compositions, catering to a discerning clientele looking for both luxury and individuality in their fragrance choices. The story of Agnel is rooted in a commitment to olfactory artistry and an exploration of rare and exotic materials.",https://images.unsplash.com/photo-15907369626-6c63ac16f3df?w=400&h=300&fit=crop,www.agnelparfums.com,France,2015,niche,contact@agnelparfums.com,+33 1 23 45 67 89,"12 Rue des Fragrances, 75001 Paris, France",2025-07-18T12:32:10.942225,2025-08-28T08:42:47.421301
cmd2e29f5a4c32b92eaff9a,Agnès b.,"Agnès b. is a French fashion designer and businesswoman known for her casual elegance and unique blend of art and fashion. The company was founded in 1983 and is renowned for its high-quality garments and accessories inspired by the arts. Agnès b. has expanded into the world of fragrances, creating scents that capture the essence of the brand's innovative spirit and aesthetic style. The fragrances often reflect a blend of modern and classic elements, resonating with those who appreciate artistic design.",https://www.agnesb.com/on/demandware.static/Sites-Agnesb-eu-Site/-/default/dw28ad40de/images/logo-small.svg,https://www.agnesb.com,France,1983,designer,,,"6 Rue de la Verrerie, 75004 Paris, France",2025-07-18T12:32:10.942225,2025-08-28T08:42:56.078269
cmd48d366e691d715c56ca2,Agnes,"Agnes is a French perfume house known for creating unique and artisanal fragrances that emphasize quality and craftsmanship. Established on principles of creativity and individual expression, the company focuses on blending traditional perfumery techniques with modern inspirations to create memorable scents. Agnes often collaborates with various artists and designers to produce limited edition fragrances that reflect contemporary culture and art.",https://images.unsplash.com/photo-1556909114-f6e7ad7d3136?w=400&h=300&fit=crop,www.agnesparfums.com,France,2015,niche,,,,2025-07-18T12:32:10.942225,2025-08-28T08:43:02.586751
cmd159d0a2157b3b624a8d2,Agonist,"Agonist is a Swedish niche perfume house that was founded in 2008 by creative duo Niclas Lydeen and Jeremy C. G. Rømer. Specializing in unique and artistic fragrances, Agonist aims to create perfumes that are inspired by the beauty of nature and the rich history of Sweden. Their collections focus on high-quality craftsmanship, with an emphasis on sustainability and intriguing storytelling behind each scent. They have gained recognition for their innovative approach to fragrance design and have a loyal following among perfume enthusiasts.",https://images.unsplash.com/photo-1587017539504-67cfbddac569?w=400&h=300&fit=crop,https://www.agonistperfumes.com,Sweden,2008,niche,,,,2025-07-18T12:32:10.942225,2025-08-28T08:43:10.477481
cmd9e2a54f03200f6c4337e,Agra,"Agra is a perfume company known for its unique and diverse range of fragrances. Established by a group of passionate perfumers, Agra focuses on blending cultural influences with high-quality ingredients to create distinctive scents that resonate with various demographics. The company emphasizes sustainability and ethical sourcing in its production processes, ensuring that every fragrance reflects a commitment to environmental responsibility. Additionally, Agra has gained recognition for its innovative approach to fragrance layering and personalization, allowing consumers to tailor scents to their individual preferences.",https://images.unsplash.com/photo-1541643600914-78b084683601?w=400&h=300&fit=crop,,,,indie,,,,2025-07-18T12:32:10.942225,2025-08-28T08:43:17.430590
cmdc74456c405b4f7615ab3,Agraria,"Agraria is a premium home fragrance company founded in San Francisco in 1970. The brand specializes in luxurious, high-quality fragrances for both home and personal use, including diffusers, candles, and body products. Agraria is well-known for its unique blend of aromatic scents sourced from around the world, with a focus on craftsmanship and attention to detail. Their story is rooted in a passion for bringing the richness of nature's fragrances into everyday spaces.",https://agrariahome.com/cdn/shop/files/Logo.jpg?v=1616041724,https://www.agrariahome.com,United States,1970,niche,,,,2025-07-18T12:32:10.942225,2025-08-28T08:43:25.532541
cmd49bf9d20b663bda1a4ea,Agua de Baleares,"Agua de Baleares is a niche perfume company that draws inspiration from the natural beauty and cultural heritage of the Balearic Islands in Spain. The company focuses on creating unique and high-quality fragrances that evoke the scents and experiences of the Mediterranean landscape. Their specialty lies in blending traditional perfumery techniques with modern artistry, resulting in signature scents that reflect the essence of the islands. Founded by artisans passionate about their culture, Agua de Baleares aims to offer a sensory journey through their carefully crafted perfumes.",https://aguadebaleares.com/wp-content/uploads/2022/05/logo3-2.png,http://www.aguadebaleares.com,Spain,2015,niche,,,,2025-07-18T12:32:10.942225,2025-08-28T08:43:37.250467
cmd161950062cec9dad7984,Água de Cheiro,"Água de Cheiro is a Brazilian perfume company that specializes in creating a wide range of fragrances, body care products, and cosmetics. Founded in the 1980s, the brand has established itself by emphasizing the use of high-quality ingredients and unique scents that cater to the Brazilian market. Their products are known for their vibrant packaging and have a focus on both luxury and accessibility. Água de Cheiro has developed a reputation for offering innovative, diverse fragrance options that resonate particularly well with local consumers and celebrate Brazilian culture.",https://img.irroba.com.br/filters:fill(transparent):quality(80)/aguaeiaa/catalog/banners-absinto-feminino/absinto-fem-desktop.png ,https://www.aguadecheiro.com.br,Brazil,1984,indie,,,,2025-07-18T12:32:10.942225,2025-08-28T08:43:51.363445
cmd8e7518ac0de0078c1174,Agustin Davila,"Agustin Davila is a niche perfume company renowned for creating artisanal fragrances that draw inspiration from diverse cultures and personal experiences. The brand emphasizes craftsmanship and quality, utilizing carefully selected ingredients to produce unique scent profiles. Founded by Agustin Davila, the company seeks to tell stories through each fragrance, encouraging wearers to connect on a deeper level with the essence of their chosen scent.",https://images.unsplash.com/photo-15907369626-6c63ac16f3df?w=400&h=300&fit=crop,https://www.agustindavila.com,United States,2020,niche,,,,2025-07-18T12:32:10.942225,2025-08-28T08:43:58.781746
cmd3736bae730adfadb37a7,Agustin Reyes,"Agustin Reyes is a niche perfume brand known for its exquisite fragrances that strive to capture the essence of natural ingredients. With a focus on artisanal production techniques and a deep appreciation for olfactory artistry, the brand offers a curated selection of perfumes that are unique and often inspired by the personal journey and experiences of its founder, Agustin Reyes. The company emphasizes quality over quantity and aims to provide a luxurious sensory experience through its scents.",https://images.squarespace-cdn.com/content/v1/5207d48de4b0f09210e945d8/1448741411830-I67TCDIUX06G1TOKMJ4X/ARlogo1-01.png?format=1500w,www.agustinreyes.com,United States,2015,niche,,,,2025-07-18T12:32:10.942225,2025-08-28T08:44:06.301644
cmd35f4cbd6964559e1e217,Ahava,"Ahava is a skincare and cosmetic company that specializes in products derived from the minerals and natural resources of the Dead Sea in Israel. Founded in 1988, Ahava focuses on producing high-quality skincare products, utilizing the therapeutic properties of mineral-rich mud and salt from the Dead Sea. The brand is well known for its commitment to environmental sustainability and offers a range of products that include face creams, body lotions, and facial cleansers. Ahava emphasizes a natural approach, with many of its products being free from certain harsh chemicals, making them suitable for sensitive skin.",https://www.ahava.com/cdn/shop/files/Menu_Banners.png?crop=center&height=214&v=1717322385&width=308,https://www.ahava.com,Israel,1988,indie,,,,2025-07-18T12:32:10.942225,2025-08-28T08:44:14.490779
cmda2cca5448b44dd3f1943,Ahmed al Maghribi,"Ahmed al Maghribi is a renowned perfume company that specializes in creating high-quality Arabic fragrances. Founded with a mission to express the rich heritage of Middle Eastern perfumery, the company combines traditional methods with modern techniques to craft unique scent profiles. They focus on using natural ingredients, often drawing inspiration from the diverse culture and history of the Arab world. Ahmed al Maghribi has established itself as a significant name in the niche perfume market, catering to both local and international clients who appreciate luxury and authenticity in fragrance.",https://www.ahmedalmaghribi.com/_next/image?url=%2Fassets%2Fimages%2Fabout%2Fahmed-logo.png&w=256&q=75,www.ahmedalmaghribi.com,Morocco,2014,niche,info@ahmedalmaghribi.com,,,2025-07-18T12:32:10.942225,2025-08-28T08:44:24.963662
cmd6270a46afcaf704fc3c7,Ahmed Soliman,"Ahmed Soliman is a perfume company that specializes in creating fine fragrances and traditional Arabian oud. Established with a passion for perfumery, the company draws upon the rich heritage of Arabic scent-making, blending classic techniques with modern innovation to craft unique, high-quality perfumes. Their product offerings often include bespoke services, allowing customers to create personalized fragrances that resonate with individual tastes and cultural significance.",https://images.unsplash.com/photo-1582735689369-4fe89db7114c?w=400&h=300&fit=crop,,,,niche,,,,2025-07-18T12:32:10.942225,2025-08-28T08:44:31.771116
cmda933798854f875668881,Aholic,"Aholic is a niche perfume company that focuses on creating unique, artisanal scents inspired by cultural and natural elements. Founded by a group of fragrance enthusiasts, the brand emphasizes quality and craftsmanship, curating a collection that reflects personal stories and emotions. Their specialty lies in offering limited-edition perfumes that often feature rare ingredients, and they are dedicated to sustainable practices in sourcing and production.",https://images.unsplash.com/photo-1541643600914-78b084683601?w=400&h=300&fit=crop,www.aholicperfumes.com,United States,2020,niche,hello@aholicperfumes.com,,,2025-07-18T12:32:10.942225,2025-08-28T08:44:38.758811
cmd1e49faedaf8fd600ba63,Ahsan,"Ahsan is a perfume company known for its commitment to creating high-quality fragrances that blend traditional elements with modern sensibilities. The company specializes in crafting unique scents inspired by various cultures and experiences. Ahsan emphasizes the use of natural ingredients and artisanal methods in its production process, appealing to connoisseurs who appreciate bespoke fragrances and the stories behind them.",https://assets.superlander.com/newimages/mu-logo.png,https://www.ahsan.com,United Arab Emirates,2010,niche,,,,2025-07-18T12:32:10.942225,2025-08-28T08:44:47.272082
cmdcbd97609edca24b6e7ed,Ahuja,"Ahuja is a perfume company known for its unique and high-quality fragrance offerings. Their journey began with a dedication to capturing the essence of life through scent, focusing on carefully sourced ingredients and traditional perfumery techniques. Ahuja specializes in creating elegant and luxurious perfumes that cater to a diverse clientele, blending artistry with craftsmanship to produce captivating scents. They emphasize individuality and creativity, making their fragrances distinct in a saturated market.",https://images.unsplash.com/photo-1582735689369-4fe89db7114c?w=400&h=300&fit=crop,,,,indie,,,,2025-07-18T12:32:10.942225,2025-08-28T08:44:53.683725
cmdca1e0c775eac3fc09d6d,Ai Monasteri,"Ai Monasteri is a niche perfume house that specializes in creating artisanal fragrances inspired by historical and culturally rich themes. Their story begins with a passion for combining exceptional quality ingredients with ancient craftsmanship, leading to unique scent profiles that tell a story. Each fragrance is meticulously crafted, embodying the essence of its intended concept, making the brand a favorite among enthusiasts seeking authenticity and depth in their scent choices.",https://images.unsplash.com/photo-15907369626-6c63ac16f3df?w=400&h=300&fit=crop,https://www.aimonasteri.com,Italy,2020,niche,,,,2025-07-18T12:32:10.942225,2025-08-28T08:45:01.580831
cmd6d9df1d48c39052c46fd,Aid Laboratories,"Aid Laboratories is a perfume company that specializes in the development and production of fragrance products. The company is known for its commitment to innovative formulations and high-quality ingredients, focusing on creating scents that cater to a variety of preferences and occasions. Established with the intention to bridge science and art in perfumery, Aid Laboratories seeks to provide both original and inspired scents for consumers, while emphasizing sustainability and ethical practices in their production processes.",https://images.unsplash.com/photo-15907369626-6c63ac16f3df?w=400&h=300&fit=crop,,,,indie,,,,2025-07-18T12:32:10.942225,2025-08-28T08:45:08.630077
cmd43d6fd7901c13aa215bb,Aidees,"Aidees is a perfume brand that specializes in creating unique and innovative fragrances tailored to modern consumers. With a strong focus on quality and craftsmanship, Aidees offers a range of artisanal perfumes that embody sophistication and individuality. The company prides itself on using high-quality ingredients and sustainable practices, catering to an audience that values both luxury and environmental consciousness. The brand aims to evoke emotions and memories through its scent creations, ensuring each fragrance tells a story.",https://images.unsplash.com/photo-1582735689369-4fe89db7114c?w=400&h=300&fit=crop,www.aidees.com,United States,2021,niche,contact@aidees.com,,,2025-07-18T12:32:10.942225,2025-08-28T08:45:15.797988
cmd12ea9178791cca7bb71a,Aigner,"Aigner is a luxury fashion brand known for its high-quality leather goods, accessories, and perfumes. Founded by designer Etienne Aigner in 1950 in Germany, the brand has made a name for itself in the luxury segment, combining craftsmanship with sophisticated design. Aigner’s fragrance line includes distinct scents that reflect the brand's elegant and classic style, appealing to a discerning clientele.",https://images.unsplash.com/photo-1556909114-f6e7ad7d3136?w=400&h=300&fit=crop,https://www.aigner.com,Germany,1950,designer,,,,2025-07-18T12:32:10.942225,2025-08-28T08:45:22.728068
cmdfff2ecd19444846acdb1,Aime,"Aime is a French perfume company that emphasizes natural ingredients and artisanal craftsmanship in the creation of its fragrances. Founded with a vision of offering clean, luxurious scents, Aime blends tradition with modern sensibilities, appealing to consumers who prioritize both quality and sustainability. The company prides itself on forming strong connections between the fragrance experience and the emotions they evoke, ensuring each scent tells a unique story.",https://images.unsplash.com/photo-1582735689369-4fe89db7114c?w=400&h=300&fit=crop,https://www.aime.fr,France,2019,indie,,,,2025-07-18T12:32:10.942225,2025-08-28T08:45:30.125982
cmd1afb8535a898994b4d69,Aimée de Mars,"Aimée de Mars is a French niche fragrance house founded in 2016 by Aimée de Mars, who was inspired by her love for nature and art. The company specializes in creating luxurious, handcrafted perfumes using high-quality ingredients, often drawing from organic sources. Each fragrance is a reflection of Aimée's personal philosophy of perfumery, focusing on individuality, emotional expression, and the beauty of natural elements. Their offerings include a range of unique and evocative scents that appeal to an audience looking for something beyond mainstream fragrances.",https://images.unsplash.com/photo-15907369626-6c63ac16f3df?w=400&h=300&fit=crop,https://www.aiméedemars.com,France,2016,niche,,,,2025-07-18T12:32:10.942225,2025-08-28T08:45:37.617996
cmdc8bdeea2f1163cfbdd35,Aimee PR,"Aimee PR is a modern perfume company that specializes in creating unique and innovative fragrances. Known for blending art and science, the company crafts perfumes that reflect individuality and personal expression. Aimee PR's story began with a vision to make quality fragrances accessible to everyone, emphasizing artisanal methods and sustainable practices in sourcing ingredients. Their specialty lies in launching limited-edition scents and collaborating with emerging artists to promote creativity in the perfume industry.",https://images.unsplash.com/photo-1541643600914-78b084683601?w=400&h=300&fit=crop,https://www.aimeepr.com,United States,2019,indie,,,,2025-07-18T12:32:10.942225,2025-08-28T08:45:45.205016
cmd98b29af76550cb68ee5b,Aoiro,"Aoiro is a niche perfume company known for its artisanal approach to fragrance creation. The brand draws inspiration from nature and culture, crafting unique scents that aim to evoke emotions and memories. Aoiro prides itself on using high-quality, sustainable ingredients and emphasizes an eco-conscious philosophy in both production and packaging. The company focuses on a small, curated collection of fragrances that resonate with perfume connoisseurs looking for individuality and artistry in their scents.",https://images.unsplash.com/photo-1587017539504-67cfbddac569?w=400&h=300&fit=crop,www.aoirofragrances.com,Japan,2019,niche,contact@aoirofragrances.com,,,2025-07-18T12:32:10.942225,2025-08-28T08:45:53.311254
cmdd4a647bdafb4d3626006,Air Company,"Air Company is a pioneering brand in the perfume industry that specializes in producing fragrances derived from carbon dioxide, a process that links sustainability and innovation. Founded by former NASA engineer Gregory Kato and entrepreneur Dr. Ben Parker, the company aims to create perfumes that not only smell good but also utilize technology to combat climate change by reducing CO2 emissions. The brand emphasizes the use of renewable energy and clean technology in its production methods, setting a new standard for eco-friendly luxury within the fragrance market.",https://images.ctfassets.net/57fahiw4uj5z/lHinjAzJZfB3oIlPvnhOi/bcead6bb3ad752b7070abb5feff1cac8/Feature.jpg?fm=webp&w=80&q=40,https://www.aircompany.com,United States,2019,niche,,,,2025-07-18T12:32:10.942225,2025-08-28T08:46:00.949095
cmdb0560ff396c00dfb8ff3,Air Stocking,"Air Stocking is a pioneering company that specializes in producing unique cosmetic products designed to enhance the skin appearance by providing a sheer, leg-baring effect. Initially launched in Japan, the brand combines aspects of body care with aesthetic appeal, allowing users to experience a 'stocking' effect without the need for traditional hosiery. The company's innovative approach has garnered a loyal customer base and recognition in the beauty and cosmetic industry for its practical and visually enhancing products.",https://www.airstocking.com/common/img/footer_logo_S.png,https://www.airstocking.com,Japan,2004,indie,,,,2025-07-18T12:32:10.942225,2025-08-28T08:46:08.682859
cmdae2e598a639572a6e874,Air Val International,"Air Val International is a dynamic company specializing in the creation and distribution of children's and teen fragrances. It was founded in 1997 and has carved a niche in the fragrance market by associating its brands with popular licenses, including television shows, movies, and various pop culture phenomena, appealing to younger audiences. With a focus on innovation and quality, Air Val International continuously develops new products that resonate with current trends, making them a notable player in the industry.",https://images.unsplash.com/photo-1587017539504-67cfbddac569?w=400&h=300&fit=crop,http://www.airval.com,Spain,1997,drugstore,,,,2025-07-18T12:32:10.942225,2025-08-28T08:46:15.784377
cmd8b6cdbb77d9543cd5e43,Air Wick,"Air Wick is a brand known for providing home fragrance products, including air fresheners, scented oils, and candles. Established by the Reckitt Benckiser group, the company focuses on creating innovative scents that enhance the ambiance of living spaces. It offers a variety of fragrances that cater to different preferences and is recognized for its commitment to freshness and quality in home fragrance solutions. The brand began its journey in the 1940s, evolving over the decades to meet consumer demands for effective and pleasant scents in homes around the world.",https://images.unsplash.com/photo-1556909114-f6e7ad7d3136?w=400&h=300&fit=crop,https://www.airwick.com,United Kingdom,1943,drugstore,,,,2025-07-18T12:32:10.942225,2025-08-28T08:46:33.634972
cmda916839d6b29450a992f,Aire De Sevilla,"Aire De Sevilla is a fragrance brand based in Spain, known for its vibrant and expressive perfumes that capture the essence of Andalusian culture and lifestyle. The company focuses on creating affordable yet high-quality fragrances that appeal to a broad market, emphasizing the use of rich scents and unique combinations. Aire De Sevilla represents a blend of creativity and tradition, often inspired by the magical atmosphere of Seville and its surroundings. The brand has gained popularity for providing cheerful and lively fragrances suitable for various occasions.",https://www.airedesevilla.com/sites/default/files/AIRE-logo-horizontalV2.png,https://www.airedesevilla.com,Spain,2009,indie,,,,2025-07-18T12:32:10.942225,2025-08-28T08:46:42.385728
cmd0dbbfd8ae305932b417f,Airness,"Airness is a French company that specializes in developing and marketing perfumes and fragrances. Established with a passion for creativity and innovation, Airness combines artistic expression with olfactory artistry to create unique scent experiences. The brand is well-known for its vibrant and youthful character, often positioning itself within the lifestyle and street culture segments. Their collections appeal to a wide audience, drawing inspiration from sports and urban environments which resonate with a modern, energetic clientele.",https://www.airness.com/media/logo/stores/2/logo_airness_1.png,http://www.airness.com,France,2002,indie,,,,2025-07-18T12:32:10.942225,2025-08-28T08:46:49.836907
cmde4dd944c8370e4d30c4a,AJ Arabia,"AJ Arabia is a luxury perfume house renowned for its unique offerings that blend traditional Arabic fragrance artistry with contemporary techniques. The company originated from the rich heritage of Arabian perfumery, focusing on crafting high-quality scents that embody the essence of Arabian culture. Their portfolio includes a wide range of products that feature distinct compositions, often incorporating exotic ingredients like oud, amber, and a variety of florals. AJ Arabia is dedicated to the art of perfumery, maintaining a strong emphasis on intricate craftsmanship and authenticity in their scents.",https://www.widian.com/wp-content/uploads/2023/04/widian-logo.svg,https://www.ajarabia.com,United Arab Emirates,2011,niche,,,,2025-07-18T12:32:10.942225,2025-08-28T08:46:57.316878
cmd3cd20b8d89cb5dba9754,Ajent Communications,"Ajent Communications is a marketing and communications agency specializing in brand management and digital advertising for the perfume and fragrance industry. They focus on enhancing brand visibility and connecting clients with their target demographics through strategic marketing initiatives and creative campaigns. Their expertise encompasses various aspects of communications, from public relations to social media management, tailored specifically for niche fragrance brands.",https://images.unsplash.com/photo-1587017539504-67cfbddac569?w=400&h=300&fit=crop,,,,indie,,,,2025-07-18T12:32:10.942225,2025-08-28T08:47:04.239614
cmd06f38347b78ffb06c706,Ajmal,"Ajmal is a renowned perfume company that specializes in the production and distribution of a wide range of fragrances, including oriental and Arabic perfumes. Established in 1951 in the United Arab Emirates, Ajmal has built a reputation for quality and innovation in the fragrance industry. The company focuses on creating unique scents that reflect Middle Eastern culture and traditions, often using traditional methods and high-quality ingredients. Over the decades, Ajmal has expanded its presence globally, catering to diverse markets through a blend of traditional artistry and modern fragrance technology.",https://images.unsplash.com/photo-1541643600914-78b084683601?w=400&h=300&fit=crop,https://www.ajmalperfume.com,United Arab Emirates,1951,niche,,+971 6 532 8272,"Ajmal Group, P.O. Box 20533, Sharjah, United Arab Emirates",2025-07-18T12:32:10.942225,2025-08-28T08:47:11.840071
cmd13ca178f1f4f1ca0f292,Ajne,"Ajne is a niche fragrance house known for its artisanal approach to perfume making. Founded by the husband and wife duo, Ajne aims to create unique, hand-crafted scents inspired by nature and personal experiences. Their offerings include a range of luxurious perfumes and body products that celebrate natural ingredients, with an emphasis on sustainability and the use of organic materials. The company is dedicated to the allure of personal fragrance, forging a connection between scent and emotion, reflecting a narrative through each olfactory creation.",https://ajne.com/image/catalog/logo-s-g2.png,https://ajne.com,United States,2016,niche,hello@ajne.com,,"10775 West 4000 South, Suite 100, South Jordan, UT 84095, United States",2025-07-18T12:32:10.942225,2025-08-28T08:47:19.408260
cmd55ffd5203287a982abbe,Ajyad,"Ajyad is a perfume company that specializes in creating luxurious and high-quality fragrances inspired by traditional Middle Eastern scents. Founded on the principles of craftsmanship and heritage, Ajyad aims to merge modern perfumery techniques with classic aromatic profiles, offering a unique sensory experience. The company focuses on utilizing premium ingredients to develop scents that cater to a diverse clientele, enhancing personal style and expressing individuality through fragrance.",https://images.unsplash.com/photo-1541643600914-78b084683601?w=400&h=300&fit=crop,,United Arab Emirates,,niche,,,,2025-07-18T12:32:10.942225,2025-08-28T08:47:26.251481
cmd27a11474e1a420317d2e,Akon,"Akon is a fragrance line launched by the internationally renowned musician Akon, whose real name is Aliaune Thiam. The brand aims to blend luxury with accessibility, paying tribute to Akon's African heritage and reflecting his personal style. The fragrances offer a mix of contemporary and traditional scent profiles that appeal to a broad audience, encapsulating the vibrant spirit of his music and cultural background.",https://images.unsplash.com/photo-1541643600914-78b084683601?w=400&h=300&fit=crop,https://www.akonscent.com,United States,2020,celebrity,,,,2025-07-18T12:32:10.942225,2025-08-28T08:47:33.073066
cmdb825da961837f38c5297,Al Aneeq,"Al Aneeq is a prominent perfume company based in the Middle East, specializing in high-quality oriental and Arabic-inspired fragrances. The company is known for its dedication to traditional perfumery techniques, utilizing a blend of natural ingredients and essential oils to create distinctive scents. Al Aneeq has carved a niche in the perfume market by offering unique, handcrafted perfumes that reflect the rich heritage and culture of the region. Their collections include a variety of attars, sprays, and oil-based perfumes, catering to a diverse clientele that values authenticity and luxury in fragrance.",https://images.unsplash.com/photo-1582735689369-4fe89db7114c?w=400&h=300&fit=crop,https://www.al aneeq.com,United Arab Emirates,2010,niche,,,,2025-07-18T12:32:10.942225,2025-08-28T08:47:40.003130
cmd5c393b8dc3fe489f7844,Al Attar,"Al Attar is a prominent perfume company based in the Middle East, renowned for its high-quality Arabian and oriental fragrances. Founded on the rich heritage of traditional perfumery, the company specializes in crafting luxurious and unique perfumes that cater to a diverse clientele. Al Attar prides itself on using the finest natural ingredients, including traditional oils and unique blends, to create scents that represent the rich cultural tapestry of the region. The company has a reputation for artisanal craftsmanship and offers a wide range of products, including oil-based perfumes, alcohol-based fragrances, and various scented products that reflect the luxury and tradition of Middle Eastern perfumery.",https://images.unsplash.com/photo-1582735689369-4fe89db7114c?w=400&h=300&fit=crop,https://www.alattar.com,United Arab Emirates,1980,niche,,,,2025-07-18T12:32:10.942225,2025-08-28T08:47:48.985399
cmde5be7503a52e2d3b2f74,Al-Aziz,"Al-Aziz is a fragrance company that specializes in creating high-quality Arabic perfumes and attars. The company has built its reputation on crafting traditional and contemporary scents that embody the rich heritage of Middle Eastern perfumery. Al-Aziz aims to provide customers with unique fragrances that are both luxurious and deeply rooted in cultural significance, often using natural ingredients and traditional distillation methods.",https://images.unsplash.com/photo-1556909114-f6e7ad7d3136?w=400&h=300&fit=crop,,,,niche,,,,2025-07-18T12:32:10.942225,2025-08-28T08:47:56.541346
cmde09b2aecd2d0e54301d1,Al Hashimi,"Al Hashimi is a prominent luxury perfume manufacturer known for its artisanal approach to fragrance creation. The company specializes in crafting traditional Middle Eastern perfumes, utilizing high-quality natural ingredients and oud, a key element in many of its fragrances. Established to preserve and promote the rich heritage of Arabian perfumery, Al Hashimi blends modern techniques with age-old traditions to create unique scents that evoke cultural significance and emotional resonance.",https://images.unsplash.com/photo-15907369626-6c63ac16f3df?w=400&h=300&fit=crop,https://www.alhashimiperfumes.com,United Arab Emirates,2007,niche,,,,2025-07-18T12:32:10.942225,2025-08-28T08:48:04.980344
cmdd334f6c8c806f53ba83f,Al Khayam Zafron,"Al Khayam Zafron is a perfume company that specializes in creating a range of high-quality fragrances inspired by traditional Arabian scents. They focus on crafting unique fragrances that blend oriental and modern elements, resulting in sophisticated perfumes. The company emphasizes the use of natural ingredients and artisanal methods to produce their products, ensuring a luxurious and authentic fragrance experience. Al Khayam Zafron has gained recognition for its commitment to quality and creativity in the perfume industry.",https://images.unsplash.com/photo-1582735689369-4fe89db7114c?w=400&h=300&fit=crop,,United Arab Emirates,,niche,,,,2025-07-18T12:32:10.942225,2025-08-28T08:48:12.312618
cmd136801b7f95c685d7295,Al Kimiya,"Al Kimiya is a prominent perfume company that specializes in creating high-quality, bespoke fragrances inspired by traditional Arabian perfumery. The company is known for its dedication to craftsmanship and artistry, combining unique scent profiles with rich cultural heritage. Al Kimiya aims to provide customers with a personalized fragrance experience, focusing on using natural ingredients and innovative blending techniques. Their story reflects a deep appreciation for the art of perfume-making, and they often draw upon historical influences to create modern scents that resonate with both local and international markets.",https://images.unsplash.com/photo-1541643600914-78b084683601?w=400&h=300&fit=crop,https://www.alkimiya.com,United Arab Emirates,2015,niche,info@alkimiya.com,,,2025-07-18T12:32:10.942225,2025-08-28T08:48:21.612383
cmd8a84e181f79c3a62b8dc,Al Musbah,"Al Musbah is a prominent fragrance company headquartered in Saudi Arabia, specializing in the creation and distribution of high-quality perfumes and scents. The company was established to provide a diverse range of traditional and modern fragrances that resonate with the rich cultural heritage of the Arabian Peninsula. Al Musbah combines artisanal craftsmanship with contemporary aesthetics, offering a wide assortment of perfumes that cater to both local and international markets. They emphasize the use of premium materials and traditional methods in their fragrance production, establishing themselves as a key player in the Middle Eastern perfume industry.",https://www.almusbah.com/wp-content/uploads/2017/02/logo.png,https://www.almusbah.com/,Saudi Arabia,,designer,,,,2025-07-18T12:32:10.942225,2025-08-28T08:48:30.954947
cmdd6ace0d59369a5012091,Al Rehab,"Al Rehab is a prominent perfume manufacturer based in Saudi Arabia, known for creating a diverse range of high-quality Arabian and oriental perfumes. The company was established in 1975 and has earned a reputation for its excellent craftsmanship and unique fragrance profiles, utilizing a blend of traditional Arabian perfumery techniques and modern innovations. Al Rehab specializes in producing non-alcoholic perfumes, which appeals to a market that values halal and natural products.",https://images.unsplash.com/photo-1587017539504-67cfbddac569?w=400&h=300&fit=crop,https://www.alrehab.com,Saudi Arabia,1975,indie,,,,2025-07-18T12:32:10.942225,2025-08-28T08:48:49.989796
cmd4744cd3f7a07a3de2c6e,Al Shareef Oudh,"Al Shareef Oudh is a distinguished perfume company that specializes in creating high-quality, artisanal perfumes infused with traditional oriental fragrance notes. Founded by a passionate family with deep roots in perfumery, they have built a reputation for crafting unique and luxurious oudh-based scents that reflect the rich cultural heritage of the Middle East. Their products often emphasize natural ingredients, quality craftsmanship, and a commitment to preserving traditional fragrance-making techniques, appealing to both niche scent enthusiasts and a broader market seeking authenticity in fragrance.",https://images.unsplash.com/photo-1582735689369-4fe89db7114c?w=400&h=300&fit=crop,[www.alshareefoudh.com](http://www.alshareefoudh.com),Saudi Arabia,2007,niche,,,,2025-07-18T12:32:10.942225,2025-08-28T08:48:56.961859
cmda05faebd6772c737f70c,Al-Shaya,"Al-Shaya is a leading retail franchise operator in the Middle East and North Africa, specializing in bringing luxury brands to the region, including well-known perfume and cosmetics brands. Founded in Kuwait in 1890, the company has grown significantly and expanded its portfolio to include various industries, such as food and beverage, fashion, and health and beauty. Al-Shaya's perfume division focuses on distributing a range of prestigious fragrances and beauty products from major international brands, providing customers with diverse options and premium shopping experiences.",https://images.unsplash.com/photo-1556909114-f6e7ad7d3136?w=400&h=300&fit=crop,https://www.alshaya.com,Kuwait,1890,designer,,,,2025-07-18T12:32:10.942225,2025-08-28T08:49:06.053217
cmd6ae94bb552b24ad3aac5,Al Wataniah,"Al Wataniah is a renowned perfume manufacturer based in the Middle East, specializing in traditional Arabian and oriental fragrances. Established with the aim of preserving and promoting the rich heritage of Arabian perfumery, the company offers a diverse range of high-quality perfumes crafted from natural ingredients. Their expertise lies in creating unique scent blends that reflect cultural significance and local traditions, appealing to clientele seeking authenticity and luxury in fragrance.",https://images.unsplash.com/photo-1582735689369-4fe89db7114c?w=400&h=300&fit=crop,http://www.alwataniah.com,United Arab Emirates,1975,niche,,+971 4 224 2929,"Al Wataniah Building, Sheikh Zayed Road, Dubai, UAE",2025-07-18T12:32:10.942225,2025-08-28T08:49:13.859678
cmd7f43e8deb6c8ca1557f5,Aladdin Fragrances,"Aladdin Fragrances specializes in creating high-quality perfumes inspired by Middle Eastern traditions. The company focuses on crafting unique and exotic fragrance blends that often incorporate natural ingredients and essential oils, resonating with fans of oriental and oudh scents. With a commitment to authenticity and cultural richness, Aladdin Fragrances aims to provide its customers with a sensory experience that reflects the depth and beauty of Arabian heritage.",https://images.unsplash.com/photo-1582735689369-4fe89db7114c?w=400&h=300&fit=crop,https://www.aladdinfragrances.com,United States,,niche,,,,2025-07-18T12:32:10.942225,2025-08-28T08:49:20.943695
cmd0e2cca56dd3fa23f9ad1,Alain Daniel,"Alain Daniel is a bespoke perfume company specializing in the creation of unique and tailored fragrances. Founded by a passionate perfumer who combines traditional crafting techniques with modern olfactory art, the brand aims to cater to individual preferences by offering personalized scent experiences. Their story is rooted in a commitment to quality and artistry, with a focus on utilizing fine ingredients sourced globally to create unforgettable and luxurious scents.",https://images.unsplash.com/photo-1556909114-f6e7ad7d3136?w=400&h=300&fit=crop,www.alain-daniel.com,France,2015,niche,contact@alain-daniel.com,+33 1 23 45 67 89,"32 Rue de la Parfumerie, 75001 Paris, France",2025-07-18T12:32:10.942225,2025-08-28T08:49:27.559919
cmd08824beada6d3eb3c534,Alain Delon,"Alain Delon is a French perfume company that leverages the legacy of its founder, renowned actor Alain Delon, who established the brand to reflect elegance and sophistication. The company specializes in fragrances that evoke a sense of luxury, often drawing inspiration from the glamour of classic cinema and the lifestyle associated with it. Their perfume collections are designed to appeal to both men and women, focusing on quality ingredients and artistry in scent creation. The brand aims to create niche fragrances that stand out in the competitive perfume market.",https://images.unsplash.com/photo-1587017539504-67cfbddac569?w=400&h=300&fit=crop,https://www.alaindelon.fr,France,1998,designer,,,,2025-07-18T12:32:10.942225,2025-08-28T08:49:34.567086
cmdbd611c8cdf9c36c4e76c,Alan Bray,"Alan Bray is a niche perfume company that specializes in creating artisanal fragrances inspired by various themes and experiences. Founded by fragrance enthusiast Alan Bray, the company aims to provide customers with unique olfactory experiences that are both personal and memorable. Their limited production runs and commitment to high-quality ingredients ensure that each scent is distinctive and offers a storytelling element, catering to fragrance lovers who appreciate individuality in their choices.",https://images.unsplash.com/photo-15907369626-6c63ac16f3df?w=400&h=300&fit=crop,,,,niche,,,,2025-07-18T12:32:10.942225,2025-08-28T08:49:40.804650
cmd836522343efdd3b7bce0,Alan Cumming,"Alan Cumming is an American actor, author, and activist who launched his own fragrance line, embodying his vibrant personality and artistic vision. The company is known for creating unique and expressive scents, with a focus on innovative ingredients that reflect Cumming's multifaceted interests in art and culture. Their specialty lies in combining storytelling with fragrance, allowing users to experience emotions and narratives through scent.",https://images.squarespace-cdn.com/content/v1/53de7aaee4b0f7ce895694f9/6a389c24-fac8-40c9-bc87-fb56b9b94b13/who+i+am.jpg,https://www.alancumming.com,United States,2016,celebrity,,,,2025-07-18T12:32:10.942225,2025-08-28T08:49:47.655741
cmd7cf7984701596a2548e3,Alba Botanica,"Alba Botanica is a personal care brand that specializes in creating natural and eco-friendly beauty products, including a range of perfumes. Established as part of the Avalon Organics family, Alba Botanica emphasizes the use of botanical ingredients and is committed to sustainable practices. Their product offerings include body care, skin care, and sun care, reflecting a philosophy of providing quality products without harmful chemicals. The brand is well-regarded for its cruelty-free practices and commitment to the environment, appealing to consumers who seek wholesome and ethical alternatives in their personal care regimen.",https://s38167.pcdn.co/wp-content/uploads/2021/04/Alba-Botanica-2020-1.svg,https://www.albabotanica.com,United States,1979,drugstore,,,,2025-07-18T12:32:10.942225,2025-08-28T08:49:56.168977
cmdce43a5fd69f8f1eb3112,Alber Elbaz,"Alber Elbaz was a notable fashion designer who transitioned into the fragrance industry with the launch of his perfume brand. The company is recognized for its artistic approach to fragrance creation, reflecting Elbaz's passion for storytelling and innovative design. Known for combining modern and classic elements, the brand's fragrances often encapsulate emotions and memories, similar to Elbaz's fashion philosophy. His dedication to quality and creativity has established Alber Elbaz as a respected name in the niche perfume market.",https://images.unsplash.com/photo-1587017539504-67cfbddac569?w=400&h=300&fit=crop,https://www.alberelbaz.com,France,2021,niche,,,,2025-07-18T12:32:10.942225,2025-08-28T08:50:04.816377
cmdfcf15f041dffa563edf7,Alberscheim,"Alberscheim is a niche perfume company that specializes in creating unique, artisanal fragrances crafted from high-quality ingredients. The company is known for its commitment to traditional perfume-making techniques, offering a range of signature scents that reflect both contemporary and classic inspirations. Established with a vision to bring bespoke fragrances to the market, Alberscheim emphasizes personalization and exclusivity, catering to discerning customers who appreciate fine perfumery.",https://images.unsplash.com/photo-1587017539504-67cfbddac569?w=400&h=300&fit=crop,www.alberscheim.com,United States,2015,niche,contact@alberscheim.com,,"123 Perfume Lane, Fragrance City, CA 90210, USA",2025-07-18T12:32:10.942225,2025-08-28T08:50:13.348337
cmd295c934f15dea171ce05,Albert & Berman,"Albert & Berman is a niche perfume company known for its artisanal approach to fragrance creation. Founded by experts in olfactory artistry, the company emphasizes high-quality ingredients and unique scent combinations. Each fragrance is carefully crafted to evoke specific emotions and tell a story. Their offerings often reflect a deep understanding of the art of perfumery, characterized by innovation and a commitment to sustainability.",https://images.unsplash.com/photo-1587017539504-67cfbddac569?w=400&h=300&fit=crop,www.albertandberman.com,United States,2010,niche,contact@albertandberman.com,,,2025-07-18T12:32:10.942225,2025-08-28T08:50:21.751305
cmdb0cc4c70366c7c522aea,Albert Nipon,"Albert Nipon is a renowned fragrance brand that was established by American fashion designer Albert Nipon. The company is known for creating elegant and sophisticated perfumes that reflect the ethos of style and luxury. Albert Nipon has made a significant mark in the fashion and beauty industries, often blending the aesthetic sensibilities of high fashion with the allure of fine fragrances. The brand’s unique offerings often cater to those who appreciate a sensuous and refined scent profile.",https://images.unsplash.com/photo-1582735689369-4fe89db7114c?w=400&h=300&fit=crop,,United States,1978,designer,,,,2025-07-18T12:32:10.942225,2025-08-28T08:50:28.987657
cmd1ef760d946ac8a71cec1,Alberta Ferretti,"Alberta Ferretti is an Italian fashion designer brand known for its exclusive and luxurious fashion collections. Founded in 1980, the brand has gained recognition for its elegant evening wear and feminine designs, enriched with romantic themes and delicate details. Alberta Ferretti also has a perfume line that embodies the essence of their fashion aesthetic, offering scents that resonate with sophistication and artistry reflective of their couture heritage. The brand emphasizes craftsmanship and quality, making it a sought-after name in both the fashion and fragrance industries.",https://images.unsplash.com/photo-1582735689369-4fe89db7114c?w=400&h=300&fit=crop,[https://www.albertaferretti.com](https://www.albertaferretti.com),Italy,1980,designer,,,,2025-07-18T12:32:10.942225,2025-08-28T08:50:37.114138
cmdd7064f88c6b039b249ad,Alberto Allegretti,"Alberto Allegretti is a perfumer and fragrance house known for its handcrafted, artisanal perfumes. The company focuses on the use of high-quality natural ingredients and traditional methods, catering to a niche market that appreciates unique and exclusive scents. Founded by Alberto Allegretti, the brand emphasizes creativity and customization in fragrance design, often collaborating directly with clients to develop bespoke perfumes.",https://images.unsplash.com/photo-15907369626-6c63ac16f3df?w=400&h=300&fit=crop,www.albertoallegretti.com,Italy,2015,niche,,,,2025-07-18T12:32:10.942225,2025-08-28T08:50:45.211911
cmd493c3c6411bfd45361bf,Alberto Culver,"Alberto Culver was a prominent manufacturer of personal care and beauty products, which included a wide range of fragrances. The company was founded in 1955 by Alberto Culver and initially focused on hair care products before expanding into other personal care segments, including perfumes. They had a reputation for producing affordable and effective products for the mass market. Throughout the years, Alberto Culver developed various fragrance lines that were typically available in drugstores, emphasizing value and accessibility. The company was later acquired by Unilever in 2011.",https://images.unsplash.com/photo-15907369626-6c63ac16f3df?w=400&h=300&fit=crop,,United States,1955,drugstore,,,,2025-07-18T12:32:10.942225,2025-08-28T08:50:54.111368
cmd699bb60f91eb0d0fc7ec,Alberto VO5,"Alberto VO5 is a brand known primarily for its hair care products, including shampoos, conditioners, and styling products. While Alberto VO5 is more associated with hair care, the brand has developed a series of personal care products that include fragrances, mostly aimed at the mass market. The VO5 line was initially created by the Alberto-Culver Company in the 1950s, emphasizing affordability and effectiveness in personal grooming. Specializing in providing quality products at accessible price points, Alberto VO5 has become a staple in many households.",https://images.unsplash.com/photo-15907369626-6c63ac16f3df?w=400&h=300&fit=crop,https://www.alberto.com/,United States,1955,drugstore,,,,2025-07-18T12:32:10.942225,2025-08-28T08:51:02.397760
cmdb16a35345f22f3df7b24,Alberto,"Alberto is a well-known perfume company that specializes in creating a wide range of fragrances. Established in the fragrance industry for its innovative approach, Alberto is recognized for its blend of traditional and modern perfume making techniques. The brand has a rich history of crafting scents that appeal to diverse audiences, focusing on quality and unique formulations.",https://images.unsplash.com/photo-1556909114-f6e7ad7d3136?w=400&h=300&fit=crop,,France,1947,designer,,,,2025-07-18T12:32:10.942225,2025-08-28T08:51:08.246965
cmd6dd748db5c8149382586,Albin du Roy,"Albin du Roy is a luxurious perfume houses known for its high-quality fragrances that capture the essence of tradition and modernity. It specializes in crafting unique scents that blend traditional perfumery techniques with contemporary artistry, offering a range of sophisticated and elegant perfumes. Founded by Albin du Roy, a passionate perfumer with a deep appreciation for aromatic creations, the brand emphasizes the use of fine ingredients and meticulous craftsmanship in each of its offerings.",https://images.unsplash.com/photo-1541643600914-78b084683601?w=400&h=300&fit=crop,www.albinduroy.com,France,2016,niche,contact@albinduroy.com,,"12 Rue de la Parfumerie, 75001 Paris, France",2025-07-18T12:32:10.942225,2025-08-28T08:51:16.879775
cmd72a6239b05a4a565f468,Alchemy,"Alchemy is a niche perfume company known for its artisanal approach to fragrance creation. They focus on crafting high-quality, unique scents that embody creativity and luxury. The company is dedicated to using natural ingredients and sustainable practices, attracting those who appreciate craftsmanship and individuality in their perfumes. Founded by a group of fragrance enthusiasts, Alchemy aims to provide an olfactory experience that resonates on a personal level.",https://www.alchemyperfumes.com/images/logo.png,www.alchemyperfumes.com,United States,2018,niche,contact@alchemyperfumes.com,,,2025-07-18T12:32:10.942225,2025-08-28T08:51:24.579286
