id,name,description,image,website,country,founded,type,email,phone,address,createdAt,updatedAt
cmda1197e6ac4c094723ecf,Boots No.7,"Boots No.7 is a well-known brand within the skincare and beauty category, particularly recognized for its affordable yet effective products, including perfumes. Starting its journey as a pharmacy brand, No.7, which was created by Boots in the early 1930s, offers a range of cosmetics, skincare, and fragrances that cater to diverse customer needs. The line is known for its commitment to innovation and quality, frequently integrating advanced skincare technology into its products. Boots No.7 is especially recognized for its inclusive approach to beauty, providing options that appeal to a wide demographic group.",https://assets.boots.com/content/dam/boots/brands/brand---n/no7-pro-artist-collection/no7-pro-artist-collection_bt/2025_no7-pro-artist-collection_cp/no-7-pro-artist-collection_cp_2025-06/2024-09_no7_content-page_pro-artist_logo_white.dam.ts%3D1748952387441.png,https://www.boots.com/no7,United Kingdom,1935,drugstore,,,"1 Watford Way, Hendon, London, NW4 3JH, United Kingdom",2025-07-18T12:32:10.942225,2025-08-28T10:39:05.076253
cmdc295b56c9466bbee67be,Boots,"Boots is a well-known pharmacy-led health and beauty retailer in the UK that also offers a range of fragrance products. Established in 1849, the company has built a reputation for quality and value in healthcare, beauty, and wellness. Boots offers various local and international perfume brands along with its in-house brands, focusing on affordability and accessibility for consumers. The company's specialty lies in its wide selection of personal care products, including a diverse perfume portfolio for men and women.",https://assets.boots.com/content/dam/boots/brands/brand---n/no7-pro-artist-collection/no7-pro-artist-collection_bt/2025_no7-pro-artist-collection_cp/no-7-pro-artist-collection_cp_2025-06/2024-09_no7_content-page_pro-artist_logo_black.dam.ts%3D1748952387422.png,https://www.boots.com,United Kingdom,1849,drugstore,,+44 345 609 0050,"1 Thane Road West, Nottingham, NG2 3AA, United Kingdom",2025-07-18T12:32:10.942225,2025-08-28T10:39:14.348910
cmd2a9aec45c9193282da52,Borella,"Borella is a perfume company that specializes in creating high-quality, artisanal fragrances. The brand is known for its commitment to using natural ingredients and traditional crafting methods to produce unique scent profiles. Borella's story began with a passion for fragrance and a dedication to sustainability, aiming to capture the essence of nature in every bottle. Their collections often reflect a blend of contemporary and classic influences, appealing to perfume enthusiasts who appreciate craftsmanship and originality.",https://images.unsplash.com/photo-15907369626-6c63ac16f3df?w=400&h=300&fit=crop,,,,niche,,,,2025-07-18T12:32:10.942225,2025-08-28T10:39:21.502193
cmda8c4a0453a0ccf25f1c5,Borghese,"Borghese is a luxury beauty brand that combines Italian heritage with a focus on skincare and fragrance. Originally founded as a skincare line, Borghese has evolved to include a selection of exquisite perfumes that reflect its dedication to high-quality ingredients and sophisticated formulations. The brand is known for its signature blend of alluring fragrances and botanical ingredients, often inspired by rich Italian culture and artistry.",https://www.borghese.com/cdn/shop/files/logo-symbol_11ed8c66-cdaf-476f-8f0e-97c687ea4eff.png?v=1681697316&width=200,https://www.borghese.com,United States,1956,designer,,,,2025-07-18T12:32:10.942225,2025-08-28T10:39:28.368844
cmd6264f01c57e585304260,Boris Bidjan Saberi,"Boris Bidjan Saberi is a luxury fashion brand founded by the designer Boris Bidjan Saberi. Known for its innovative approach to contemporary menswear and avant-garde aesthetics, the brand combines tailored elegance with urban influences. The company explores themes of identity and functionality, often utilizing unconventional materials and techniques. While the brand is primarily recognized for its clothing collections, it also extends into the realm of fragrances, reflecting its unique design philosophy and artistic vision.",https://www.borisbidjansaberi.com/img/boris-bidjan-logo-1615979032.jpg,https://www.borisbidjansaberi.com,Germany,2006,designer,,,"Berlin, Germany",2025-07-18T12:32:10.942225,2025-08-28T10:39:37.100553
cmd907cbc78355d83ca5562,BORNTOSTANDOUT,"BORNTOSTANDOUT is an innovative perfume company that specializes in creating unique and distinctive fragrances that cater to those who wish to express their individuality and stand apart from the crowd. The brand’s story is rooted in the desire to empower people through the art of scent, offering a range of perfumes that combine creativity and quality. Each fragrance is crafted with attention to detail, drawing inspiration from various cultures and experiences, which reflects the brand's commitment to originality and self-expression.",https://images.unsplash.com/photo-1582735689369-4fe89db7114c?w=400&h=300&fit=crop,,,,indie,,,,2025-07-18T12:32:10.942225,2025-08-28T10:39:44.000130
cmd7cf8c5593f5ebda193b7,Borouj Parfum,"Borouj Parfum is a luxury perfume house that specializes in crafting high-quality fragrances inspired by traditional Middle Eastern perfumery. Established with a mission to blend traditional scents with modern techniques, Borouj Parfum emphasizes artisanal craftsmanship and unique scent profiles. The company is known for its attention to detail and the use of premium ingredients, providing a range of perfumes that reflect the rich cultural heritage of the Middle East.",https://images.unsplash.com/photo-1541643600914-78b084683601?w=400&h=300&fit=crop,https://www.boroujparfum.com,United Arab Emirates,2017,niche,,,,2025-07-18T12:32:10.942225,2025-08-28T10:39:50.589219
cmdfa34f96a815d516866cf,Borsalino,"Borsalino is an Italian company renowned for its high-quality felt and straw hats, but it also extends its creative essence into the world of perfumes. Founded in 1857, Borsalino has a rich history synonymous with craftsmanship and elegance. The brand has a penchant for merging classic style with modern aesthetics, appealing to a luxury clientele. Their fragrances reflect the sophistication of the brand, designed with the same meticulous attention to detail as their hats, suggesting a lifestyle that embodies Italian artistry and refinement.",https://images.unsplash.com/photo-15907369626-6c63ac16f3df?w=400&h=300&fit=crop,https://www.borsalino.com,Italy,1857,niche,,,,2025-07-18T12:32:10.942225,2025-08-28T10:39:58.149245
cmdd29fd2e270f894ddc07d,Borsari 1870,"Borsari 1870 is a historic Italian fragrance company renowned for its artisanal approach to perfumery. Founded in Bologna, Italy, the company specializes in creating high-quality, traditional perfumes that capture the essence of Italian craftsmanship. With a legacy dating back over 150 years, Borsari 1870 has maintained its commitment to using premium ingredients and classic formulations, making it a staple in the niche perfume market. Their collections often reflect cultural heritage and artistic influences, appealing to connoisseurs of fine fragrances.",https://images.unsplash.com/photo-1587017539504-67cfbddac569?w=400&h=300&fit=crop,https://www.borsari1870.com,Italy,1870,niche,,,,2025-07-18T12:32:10.942225,2025-08-28T10:40:05.996161
cmd3db98444d9cb73ccefb2,Bortnikoff,"Bortnikoff is a luxury niche perfume house founded by the perfumer Dmitry Bortnikoff. The company focuses on creating high-quality, artisanal fragrances that reflect a deep understanding of perfumery and a rich olfactory experience. Bortnikoff draws inspiration from nature, art, and individual emotions, crafting scents that are often complex and multifaceted. Their specialty lies in using rare ingredients and traditional perfumery techniques, which gives their products a unique signature and appeal to connoisseurs of fine fragrances.",https://www.bortnikoff.com/wp-content/uploads/2022/04/logoweb.jpg,https://www.bortnikoff.com,Russia,2015,niche,,,,2025-07-18T12:32:10.942225,2025-08-28T10:40:13.122585
cmd2cc1ac76f17a3b3b43ff,Boscia,"Boscia is a skincare brand known for its focus on natural and botanical ingredients. The company was established with the aim of providing eco-friendly beauty products that are effective and gentle on the skin. With a commitment to innovation and quality, Boscia combines science with the benefits of nature to create products that cater to various skincare needs while being free of preservatives and artificial ingredients.",https://www.boscia.com/cdn/shop/files/logo_footer_fff2909a-3112-47e6-a998-162cb436f6cc.png?v=1659976412,https://www.boscia.com,United States,1979,indie,,,,2025-07-18T12:32:10.942225,2025-08-28T10:40:21.378531
cmd684ba850fccebf3a5045,Boston Proper,"Boston Proper is a women's fashion retailer that specializes in stylish and sophisticated apparel and accessories. Founded in 1992, the company began as a catalog brand and has evolved into a multi-channel retailer offering a variety of collections that reflect modern femininity. They provide a range of products including dresses, tops, pants, and fragrance, targeting women who appreciate quality and contemporary design. Boston Proper is known for its unique approach to fashion that emphasizes self-expression and confidence through clothing.",https://www.bostonproper.com/cdn/shop/files/promo_fly-down_Labor-Day-Sale_300x.jpg?v=1756225979,https://www.bostonproper.com,United States,1992,designer,,,,2025-07-18T12:32:10.942225,2025-08-28T10:40:29.183949
cmdbd7e86b978d2bce22a2c,Botanicae Expressions,"Botanicae Expressions specializes in creating artisanal fragrance collections inspired by nature. They emphasize the use of natural and sustainably sourced ingredients, promoting eco-friendly practices in the perfume industry. The company's story is rooted in a passion for botanical scents and a commitment to crafting unique olfactory experiences, allowing customers to explore the essence of different plant species through their fragrances.",https://images.unsplash.com/photo-1587017539504-67cfbddac569?w=400&h=300&fit=crop,www.botanicaeexpressions.com,United States,2018,niche,contact@botanicaeexpressions.com,,,2025-07-18T12:32:10.942225,2025-08-28T10:40:34.977518
cmd436e8aa5457252916cfb,Bottega Profumiera,"Bottega Profumiera is an Italian perfumery renowned for its artisanal fragrances crafted with a deep appreciation for scent creation and the use of high-quality raw materials. Founded from a passion for perfumery, the company focuses on creating unique and sophisticated aromas, drawing inspiration from the rich heritage of Italian scent tradition and craftsmanship. Bottega Profumiera specializes in niche perfumes, emphasizing creativity, exclusivity, and a personalized approach to fragrance development, often including bespoke options for clients.",https://www.bottegaprofumiera.com/wp-content/uploads/Logo_bianco_wide.png,https://www.bottegaprofumiera.com,Italy,2015,niche,,,,2025-07-18T12:32:10.942225,2025-08-28T10:40:42.094828
cmd3bc780244099153b4ce5,Bottega Veneta,"Bottega Veneta is an Italian luxury fashion brand known for its artisanal craftsmanship, particularly in leather goods, accessories, and ready-to-wear fashion. Founded in 1966 in Vicenza, Italy, the company has built a reputation for its sophisticated and understated luxury. The brand's signature intrecciato weave technique and its focus on quality materials and craftsmanship set it apart in the luxury market. Bottega Veneta also offers a range of fragrances that embody the brand's ethos of discretion and elegance, often emphasizing natural ingredients and subtle scents.",https://www.bottegaveneta.com/on/demandware.static/-/Sites/default/dwc832b58f/images/logo/BVR/logo-menu-mobile.svg,https://www.bottegaveneta.com,Italy,1966,designer,,,"Via Molino della Ferrovia, 29, 36100 Vicenza VI, Italy",2025-07-18T12:32:10.942225,2025-08-28T10:40:49.996662
cmdcb50aed859b5cfce09ed,Bottega Verde,"Bottega Verde is an Italian cosmetics and beauty company known for its dedication to natural ingredients and high-quality formulations. Founded in 1972 in the Tuscany region, the company started as a small herbalist pharmacy. Bottega Verde specializes in creating personal care products, including perfumes, skincare, and makeup, all derived from botanical sources. The brand is well-regarded for its commitment to using natural ingredients and eco-friendly practices, positioning itself as a leader in the Italian beauty market. Over the years, Bottega Verde has expanded its presence internationally, embodying the essence of Tuscany in its product offerings.",https://www.bottegaverde.com/dw/image/v2/BGNS_PRD/on/demandware.static/-/Sites-bv_row-Library/default/dw5b80dd76/Slider/M-ANNIVERSARIO_.jpg?sw=768&sfrm=jpeg,https://www.bottegaverde.com,Italy,1972,indie,,,,2025-07-18T12:32:10.942225,2025-08-28T10:40:59.141061
cmdd5122d2ea948afe6110c,Boucheron,"Boucheron is a prestigious French luxury brand known for its exquisite jewelry and fine fragrances. Founded in 1858 by Frédéric Boucheron, the brand initially made a name for itself on the Place Vendôme in Paris, becoming the first jeweler to establish a boutique there. Over the years, Boucheron has expanded its offerings to include a wide range of luxurious perfumes, each reflecting the brand's commitment to elegance, craftsmanship, and bold creativity. The fragrance line is characterized by its unique scent compositions that evoke a sense of luxury and sophistication, often inspired by nature and the legacy of the brand’s jewelry designs.",https://images.unsplash.com/photo-1541643600914-78b084683601?w=400&h=300&fit=crop,https://www.boucheron.com,France,1858,designer,,,"26 Place Vendôme, 75001 Paris, France",2025-07-18T12:32:10.942225,2025-08-28T10:41:06.504383
cmdf33586cd7c33f28c5e4b,Boudicca,"Boudicca is an independent perfume brand known for its artistic and avant-garde approach to fragrance creation. Founded by the creative duo of Zowie Broach and Brian Kim, it champions the fusion of fine art and fragrance, offering unique scents inspired by historical and cultural narratives. The company gained recognition for experimenting with unconventional materials and methods, aiming to evoke emotions and memories through its olfactory compositions. Boudicca focuses on crafting limited-edition perfumes that appeal to connoisseurs of niche fragrances, emphasizing quality, craftsmanship, and originality.",https://images.unsplash.com/photo-1587017539504-67cfbddac569?w=400&h=300&fit=crop,[www.boudicca.co.uk](http://www.boudicca.co.uk),United Kingdom,2008,niche,,,,2025-07-18T12:32:10.942225,2025-08-28T10:41:13.464665
cmd1bc355452eb3adaabff3,Boujee Bougies,"Boujee Bougies is a luxury fragrance company specializing in high-quality perfumes and scented candles. The brand was established to provide unique olfactory experiences that capture the essence of sophistication and elegance. Boujee Bougies emphasizes artisanal craftsmanship, using premium ingredients to create distinctive scents that cater to a discerning clientele. Their product range includes a variety of perfumes designed for both men and women, as well as an array of scented candles that enhance the ambiance of any space. The company has garnered attention for its unique scent combinations and luxurious packaging, positioning itself as a go-to brand for fragrance enthusiasts looking for something special.",https://eaudeboujee.com/cdn/shop/files/EauDeBoujee-Logo-white_300x300.png?v=1728468867,https://www.boujeebougies.com,United States,2018,indie,contact@boujeebougies.com,,,2025-07-18T12:32:10.942225,2025-08-28T10:41:22.227646
cmd9bf6ebce37d4eebd7d08,Bourbon French Parfums,"Bourbon French Parfums is a luxury perfume company that specializes in artisanal fragrances inspired by the rich cultural heritage of New Orleans. Founded by a family steeped in history, the brand combines traditional perfumery techniques with high-quality ingredients to create unique scent profiles that capture the essence of the South. Their offerings include a variety of niche fragrances, each with its own distinct character and story rooted in local lore and traditions.",https://images.unsplash.com/photo-1582735689369-4fe89db7114c?w=400&h=300&fit=crop,https://bourbonfrench.com,United States,2005,niche,,,"500 Chartres Street, Suite 3, New Orleans, LA 70130, USA",2025-07-18T12:32:10.942225,2025-08-28T10:41:28.848832
cmd0e1dcb6f2d08c7b9b2d7,Bourjois,"Bourjois is a French cosmetics and perfume company founded in 1863. Initially started by a theatrical makeup artist, the brand expanded into a full range of beauty products, including perfumes. They are known for their innovative and playful fragrance lines, often inspired by Parisian culture and design. Bourjois specializes in offering affordable yet high-quality cosmetics and fragrances, catering to a diverse audience with a vibrant aesthetic. Over the years, Bourjois has been recognized for its unique packaging and marketing strategies that resonate with younger consumers.",https://cdn.shopify.com/s/files/1/0248/4574/6285/files/bourjois_logo.svg?v=1634221351,https://www.bourjois.fr,France,1863,designer,,,,2025-07-18T12:32:10.942225,2025-08-28T10:41:37.908817
cmd13eac32834fb046bd3dd,Boy Smells,"Boy Smells is a Los Angeles-based fragrance company known for its unisex candles and perfumes. Founded in 2016 by Matthew Hermann and Erin Murphy, the company aims to challenge traditional notions of gender in fragrance. Boy Smells specializes in creating scents that are inclusive, offering an array of products that blend unexpected notes to create unique olfactory experiences. Their approach emphasizes both artistry and accessibility, creating a distinct position within the niche perfume market.",https://images.unsplash.com/photo-1582735689369-4fe89db7114c?w=400&h=300&fit=crop,https://boysweats.com,United States,2016,indie,,,,2025-07-18T12:32:10.942225,2025-08-28T10:41:44.270572
cmd14b816323975364128fb,Boyd's of Texas,"Boyd's of Texas is a niche perfume company known for creating exclusive fragrances that reflect the unique cultural and natural essence of Texas. Established with a passion for artistry in scent, the company focuses on using high-quality ingredients to craft artisanal perfumes that cater to a discerning clientele. Their products often celebrate regional flora and fauna, offering customers a sensory experience tied to Texas heritage.",https://images.unsplash.com/photo-15907369626-6c63ac16f3df?w=400&h=300&fit=crop,,United States,,niche,,,,2025-07-18T12:32:10.942225,2025-08-28T10:41:50.040237
cmd9c7583d3fbb9dce6931f,Boyd's,"Boyd's is known as a fragrance distributor and retailer that specializes in both classic and contemporary perfumes. They offer a wide range of products including niche, designer, and luxury fragrances. Boyd's has carved a niche for itself in selecting high-quality perfumes that appeal to a diverse clientele, blending expertise in scent selection with a passion for customer care and service. The company prioritizes crafting unique scent experiences while maintaining a strong commitment to quality and customer satisfaction.",https://images.unsplash.com/photo-1541643600914-78b084683601?w=400&h=300&fit=crop,https://www.boyds.com,United States,1980,niche,,,,2025-07-18T12:32:10.942225,2025-08-28T10:41:57.199423
cmd749230291a6183724f4f,Boyfriend,"Boyfriend is a contemporary perfume brand known for its unique approach to fragrance creation, which embraces an unconventional take on gendered scents. Their story revolves around the idea of capturing the essence of intimacy and warmth associated with a romantic partner, hence the name 'Boyfriend'. The line often features a blend of aromatic elements that convey comfort and affection, appealing to both men and women. Boyfriend's specialty lies in crafting scents that evoke personal connections rather than adhering strictly to traditional fragrance norms.",https://images.unsplash.com/photo-1587017539504-67cfbddac569?w=400&h=300&fit=crop,www.boyfriendfragrance.com,United States,2014,indie,,,,2025-07-18T12:32:10.942225,2025-08-28T10:42:04.308274
cmde224a5ff954e7faf598c,Boz Fragrance,"Boz Fragrance is a perfume company known for its unique and artisanal fragrances that cater to a diverse audience. The brand focuses on high-quality ingredients and craftsmanship, drawing on inspirations from various cultures and natural environments. Established with a passion for scent and storytelling, Boz Fragrance aims to create memorable olfactory experiences through its innovative compositions.",https://images.unsplash.com/photo-1587017539504-67cfbddac569?w=400&h=300&fit=crop,,,,indie,,,,2025-07-18T12:32:10.942225,2025-08-28T10:42:10.239694
cmde82135c66cda0b23011e,Bozzini,"Bozzini is a luxury perfume brand that specializes in creating high-quality, artisanal fragrances. The company prides itself on sourcing the finest ingredients and utilizing traditional perfumery techniques to create unique scent profiles that reflect elegance and sophistication. Founded by a passionate perfumer, Bozzini aims to cater to discerning customers who appreciate the artistry behind fine fragrances. Their product line also includes home fragrances and scented products, expanding the olfactory experience beyond personal scents.",https://images.unsplash.com/photo-1587017539504-67cfbddac569?w=400&h=300&fit=crop,,,,niche,,,,2025-07-18T12:32:10.942225,2025-08-28T10:42:16.455941
cmd17a1c41d2338f126b3c5,B'prime,"B'prime is a luxury perfume company that specializes in creating unique, high-quality fragrances inspired by the fusion of art and nature. The brand prides itself on crafting scents that evoke emotional connections and memories. With a focus on artisanal techniques and premium ingredients, B'prime aims to provide a distinctive olfactory experience that stands out in the competitive perfume market.",https://images.unsplash.com/photo-15907369626-6c63ac16f3df?w=400&h=300&fit=crop,[www.bprimeparfums.com](http://www.bprimeparfums.com),France,2018,niche,contact@bprimeparfums.com,+33 1 23 45 67 89,"12 Rue de la Parfumerie, 75001 Paris, France",2025-07-18T12:32:10.942225,2025-08-28T10:42:24.153437
cmdb9f93b6a23983d8b671d,BR4SS,"BR4SS is a contemporary perfume company known for its innovative approach to fragrance blending. The brand emphasizes the use of high-quality ingredients and a unique olfactory experience, aiming to appeal to a younger, trend-conscious audience. BR4SS combines modern aesthetics with traditional perfumery techniques, often drawing inspiration from urban culture and art. Their collections are often limited edition, which enhances their appeal as exclusive offerings.",https://images.unsplash.com/photo-1582735689369-4fe89db7114c?w=400&h=300&fit=crop,,,,indie,,,,2025-07-18T12:32:10.942225,2025-08-28T10:42:30.531760
cmd34033ba5564ea63aa35d,Braccialini,"Braccialini is a luxury Italian brand known primarily for its high-quality and creatively designed handbags, but it has also expanded into the fragrance market. Founded in Florence in 1954 by Teresa Braccialini, the brand combines traditional craftsmanship with modern design aesthetics, creating unique products that often feature whimsical elements and intricate detailing. The fragrances launched under the Braccialini brand reflect the same playful spirit and artistry that the company is celebrated for in its accessories.",https://www.braccialini.com/public/images/logo-graziella-braccialini-silver.svg,https://www.braccialini.com,Italy,1954,designer,,,,2025-07-18T12:32:10.942225,2025-08-28T10:42:38.995705
cmd61d5399696a5236d36cf,Brand No More,"Brand No More is a contemporary perfume company that specializes in creating unique and innovative fragrances. The company was founded with the vision of providing high-quality scents that challenge traditional perfume making by focusing on sustainability and cruelty-free ingredients. Their story is marked by a commitment to artistry in scent creation, often collaborating with independent perfumers to craft memorable fragrances that resonate with modern sensibilities.",https://images.unsplash.com/photo-1582735689369-4fe89db7114c?w=400&h=300&fit=crop,,,,indie,,,,2025-07-18T12:32:10.942225,2025-08-28T10:42:45.237508
cmd362f20ee7c5ac7c434c5,Brandonology,"Brandonology is a niche perfume company that specializes in creating unique and artisanal fragrances. Founded by a team of fragrance enthusiasts, the company focuses on blending traditional perfumery methods with modern interpretations. The brand is dedicated to sustainable practices and often sources its materials from ethical suppliers. Brandonology aims to provide customers with a personalized fragrance experience by offering bespoke services and limited edition scents.",https://static.HugeDomains.com/images/hdv3-img/hd-header-logo-v3.svg,www.brandonology.com,United States,2018,niche,contact@brandonology.com,,,2025-07-18T12:32:10.942225,2025-08-28T10:42:52.140121
cmd6b907ef2ba18c8717a03,Brandost,"Brandost is a niche perfume company specializing in crafting unique and artisanal fragrances. Founded by a team of fragrance enthusiasts, Brandost focuses on combining natural ingredients with innovative scent profiles to create luxurious perfumes that tell a story. The company emphasizes sustainability and ethical sourcing in the creation of its products, establishing itself as a leader in the niche market of perfumery.",https://images.unsplash.com/photo-1582735689369-4fe89db7114c?w=400&h=300&fit=crop,www.brandost.com,France,2020,niche,contact@brandost.com,+33 1 23 45 67 89,"45 Rue des Fragrances, 75001 Paris, France",2025-07-18T12:32:10.942225,2025-08-28T10:43:38.255969
cmd352d23fc507274f6cdfd,Brandt,"Brandt is a niche perfume company known for its artisanal approach to fragrance creation. Established by a passionate perfumer, the brand focuses on crafting unique, high-quality scents using carefully sourced ingredients. Brandt has developed a loyal following due to its commitment to authenticity and creativity in the perfume industry.",https://images.unsplash.com/photo-1556909114-f6e7ad7d3136?w=400&h=300&fit=crop,www.brandtfragrance.com,United States,2015,niche,contact@brandtfragrance.com,,"123 Fragrance Lane, New York, NY 10001, USA",2025-07-18T12:32:10.942225,2025-08-28T10:43:44.322744
cmd3501e4acd31463a79331,Brandy,"Brandy is a perfume company that specializes in crafting high-quality fragrances blending classic and modern scent profiles. Known for its unique and artisanal approach to perfumery, Brandy has a story rooted in passion for fragrance and a commitment to authenticity. The company's perfumes often draw inspiration from various themes and cultures, appealing to a discerning customer base looking for distinctive and memorable scents.",https://images.unsplash.com/photo-1587017539504-67cfbddac569?w=400&h=300&fit=crop,,,,indie,,,,2025-07-18T12:32:10.942225,2025-08-28T10:43:52.481015
cmdde9dd66e0bf0f63a9d7f,Brash,"Brash is an innovative perfume company that focuses on creating unique and contemporary fragrances designed for the modern individual. The company emphasizes sustainability and ethical sourcing in its ingredients, appealing to environmentally conscious consumers. Established with a mission to disrupt the traditional perfume market, Brash combines creativity with a modern aesthetic, offering a range of scents that reflect urban lifestyles and personal identity. Their story began with a team of passionate fragrance designers who sought to craft perfumes that resonate with a sense of individuality and expressiveness.",https://images.unsplash.com/photo-15907369626-6c63ac16f3df?w=400&h=300&fit=crop,www.brashfragrances.com,United States,2015,indie,contact@brashfragrances.com,,,2025-07-18T12:32:10.942225,2025-08-28T10:43:59.487252
cmd1b5d40565f45dd31a838,Bratz,"Bratz is a brand primarily known for its line of fashion dolls, but it has also ventured into the fragrance industry. The Bratz dolls are characterized by their stylized appearance, fashionable attire, and multicultural representation. The brand embodies a fun and bold aesthetic, appealing to tweens and teens. Bratz fragrances reflect this identity, often featuring playful and vibrant scents that resonate with their target demographic, further enhancing the brand's lifestyle and connection to youth culture.",https://www.bratz.com/cdn/shop/files/search_24x.png?v=1741107838,https://www.bratz.com,United States,2001,celebrity,,,,2025-07-18T12:32:10.942225,2025-08-28T10:44:06.071916
cmd809f1583a6bbbc14fc9e,Braun,"Braun is a global brand known primarily for its consumer electronics and grooming products, including electric shavers, hair dryers, and household appliances. While not a traditional perfume company, Braun has ventured into the fragrance market by offering products that are complementary to its grooming lines. The brand's focus is on quality, innovation, and design, with a strong commitment to enhancing the user experience in personal care.",https://cdn11.bigcommerce.com/s-61qnoipi5/content/img/Navigation/Braun-Search-Icon.svg,https://www.braun.com,Germany,1921,drugstore,,,,2025-07-18T12:32:10.942225,2025-08-28T10:44:13.350464
cmdfbef6e43599d238aa534,Bravanariz,"Bravanariz is a niche perfume company known for its artisanal approach to fragrance creation. Founded by Josie and Mendes Pereira, the brand highlights the importance of storytelling and personal experiences in the scent-making process. Each fragrance is a reflection of Brazilian culture, incorporating local materials and inspirations into unique olfactory compositions. As an independent brand, Bravanariz focuses on quality over quantity, producing limited runs of meticulously crafted scents, ensuring that each piece resonates with the wearer.",https://www.bravanariz.com/wp-content/uploads/2022/03/logo_brava_nariz-def.svg,https://bravanariz.com,Brazil,2019,niche,,,,2025-07-18T12:32:10.942225,2025-08-28T10:44:23.160376
cmd0449fd6116f50a6b7008,Breaking Bad,"Breaking Bad is known primarily as a television series rather than a perfume company. However, it has inspired various merchandise, including fragrances. The show, which aired from 2008 to 2013, revolves around a high school chemistry teacher turned methamphetamine manufacturer and explores themes of morality, family, and the drug trade. Any fragrances branded under the Breaking Bad name typically reflect the show's aesthetic and themes, rather than being a standalone perfume company with a diverse product line.",https://images.unsplash.com/photo-1541643600914-78b084683601?w=400&h=300&fit=crop,,,,indie,,,,2025-07-18T12:32:10.942225,2025-08-28T10:44:29.661088
cmd3509a5d2b3d497372a30,Brecher,"Brecher is a perfume company that specializes in creating high-quality, artisanal fragrances. The company prides itself on its commitment to craftsmanship and the use of premium ingredients. Established with a focus on both innovative scents and an appreciation for traditional perfumery techniques, Brecher aims to deliver unique olfactory experiences that resonate with individuality and personal expression.",https://images.unsplash.com/photo-1587017539504-67cfbddac569?w=400&h=300&fit=crop,www.brecherperfume.com,United States,2005,niche,,,"123 Scents Avenue, New York, NY, 10001, USA",2025-07-18T12:32:10.942225,2025-08-28T10:44:35.609631
cmd630e795fe877da396c2c,Brécourt,"Brécourt is a niche perfume house known for its artisanal craftsmanship and dedication to creating unique fragrances that capture the essence of nature and evoke emotional connections. Founded by creator & perfumer Alexandre Brécourt, the company focuses on high-quality ingredients and innovative scent compositions, resulting in a distinctly personal and evocative olfactory experience. The brand emphasizes storytelling through scent, with each fragrance representing a specific narrative or thematic element, catering to connoisseurs seeking an intimate connection with their perfume.",https://images.unsplash.com/photo-15907369626-6c63ac16f3df?w=400&h=300&fit=crop,https://www.brecourt-parfums.com,France,2013,niche,,,,2025-07-18T12:32:10.942225,2025-08-28T10:44:42.268158
cmde1a31ca5decc1d09d10b,Breil,"Breil is an Italian lifestyle brand that began its journey in the late 1980s, primarily known for its watches and jewelry. Over the years, Breil expanded its portfolio to include fragrances, aligning with its contemporary and edgy design philosophy. The brand emphasizes a youthful spirit, reflected in its fragrance collections that cater to both men and women. Breil aims to offer scents that embody sophistication and vibrancy, appealing to a diverse customer base.",https://www.breil.com/wp-content/uploads/2021/11/cropped-breil-logo-e1651505886405.png,https://www.breil.com,Italy,1987,designer,,,,2025-07-18T12:32:10.942225,2025-08-28T10:44:50.220314
cmdcc7f97e0decfb6f21650,Brera6,"Brera6 is a niche perfume house that specializes in crafting unique and high-quality fragrances inspired by the rich history and culture of Milan, Italy. Founded by a group of fragrance enthusiasts, the company emphasizes artisanal production techniques and the use of rare ingredients, creating scents that reflect the urban landscape and artistic heritage of the city. Their collections are often characterized by sophisticated blends that evoke emotions and memories, appealing to connoisseurs of fine fragrances.",https://images.unsplash.com/photo-15907369626-6c63ac16f3df?w=400&h=300&fit=crop,https://www.brera6.com,Italy,2019,niche,contact@brera6.com,,"Via della Moscova 6, Milano, 20121, Italy",2025-07-18T12:32:10.942225,2025-08-28T10:44:57.022608
cmd9642a8eaadffcb14e856,Bret Michaels,"Bret Michaels is a celebrity-driven fragrance brand that was founded by rock musician and television personality Bret Michaels, best known as the lead singer of the band Poison. The brand specializes in creating signature scents that reflect Michaels' personality and lifestyle, appealing to fans of his music as well as fragrance enthusiasts. Its fragrances often embody themes of rock and roll, adventure, and charisma.",https://www.bretmichaels.com/wp-content/uploads/2025/03/cropped-header2025-02-copy.jpg,https://bretmichaels.com,United States,2010,celebrity,,,,2025-07-18T12:32:10.942225,2025-08-28T10:45:06.841285
cmd7490c3c42035e55248aa,Bridgerton,"Bridgerton is a fragrance brand inspired by the hit Netflix series of the same name, created by Shondaland. The perfumes capture the essence of romance and opulence depicted in the series, featuring a collection that appeals to the tastes of both fans of the show and fragrance enthusiasts. Their specialty lies in blending classic and floral scents, evoking the period drama's aesthetic with a contemporary twist. The brand aims to evoke feelings of passion and connection to the world of Bridgerton through unique scent experiences.",https://images.unsplash.com/photo-1556909114-f6e7ad7d3136?w=400&h=300&fit=crop,https://www.bridgertonfragrances.com,United States,2021,celebrity,,,,2025-07-18T12:32:10.942225,2025-08-28T10:45:13.682126
cmd4fb6d82323d05eb31d92,Bridget Marquardt,"Bridget Marquardt is a celebrity-led perfume company founded by actress and model Bridget Marquardt, known for her appearance on the reality television series ""The Girls Next Door."" The brand specializes in creating unique and personal fragrances that capture Bridget's essence and style, reflecting her personality and lifestyle. The perfumes are designed to resonate with fans and consumers who admire her lifestyle and aesthetic.",https://images.unsplash.com/photo-1556909114-f6e7ad7d3136?w=400&h=300&fit=crop,https://www.bridgetmarquardt.com,United States,2013,celebrity,,,,2025-07-18T12:32:10.942225,2025-08-28T10:45:21.677771
cmd98552e877acef645c139,Brigade International,"Brigade International is a perfume company specializing in the creation and distribution of high-quality fragrances. Founded by a group of passionate perfumers, the company has a focus on innovation and uniqueness in scent design. Brigade International aims to cater to diverse markets, offering a range of products that appeal to both luxury and mainstream fragrance consumers. Their story is rooted in a commitment to craftsmanship and sustainability, sourcing ingredients from ethical suppliers.",https://images.unsplash.com/photo-1582735689369-4fe89db7114c?w=400&h=300&fit=crop,https://www.brigadeinternational.com,India,2015,indie,,,,2025-07-18T12:32:10.942225,2025-08-28T10:45:27.563608
cmd052215b6b60c93189be1,Brighton Perfume Collective,"Brighton Perfume Collective is a unique fragrance house dedicated to creating artisanal, handcrafted perfumes that embody the spirit and essence of Brighton, England. Founded by a group of passionate perfume aficionados, the collective brings together innovative perfumers who blend traditional techniques with modern sensibilities. The company focuses on using high-quality, often locally sourced ingredients to craft distinctive and memorable scents that resonate with individuals seeking a personal olfactory experience. Their specialty lies in limited edition fragrances and collaborations that reflect the culture and character of Brighton.",https://images.unsplash.com/photo-1582735689369-4fe89db7114c?w=400&h=300&fit=crop,www.brightonperfumecollective.com,United Kingdom,2019,indie,contact@brightonperfumecollective.com,,,2025-07-18T12:32:10.942225,2025-08-28T10:45:34.420339
cmd06e1d2776c720747457b,Brigitte Bardot,"Brigitte Bardot is a fragrance brand inspired by the iconic French actress and cultural figure, Brigitte Bardot. The company captures the essence of her personality and lifestyle through its perfumes, which evoke glamour, romance, and a touch of rebellion. With a focus on quality and elegance, their fragrances often embody a blend of classic and contemporary notes, reflecting Bardot's timeless style and charisma. The brand aims to offer scents that not only represent the celebrity's allure but also resonate with individuals looking for a unique fragrance experience.",https://images.unsplash.com/photo-15907369626-6c63ac16f3df?w=400&h=300&fit=crop,,France,,celebrity,,,,2025-07-18T12:32:10.942225,2025-08-28T10:45:40.893916
cmd12124eda50ddbdbccc88,Brioni,"Brioni is an Italian luxury fashion house known for its high-quality tailoring and men's clothing. Founded in 1945 by Nazareno Fonticoli and Gaetano Savini, Brioni initially gained acclaim for its bespoke suits, which are crafted from the finest fabrics with exceptional attention to detail. Over the years, the company expanded its offerings to include a range of luxury goods, including fragrances that embody the brand's dedication to elegance and sophistication. Their perfumes reflect the craftsmanship and style synonymous with Brioni, appealing to discerning individuals who appreciate luxury.",https://www.brioni.com/_next/image?url=https%3A%2F%2Fimages.ctfassets.net%2Fw2dr5qwt1rrm%2F4IwiLrbj0u9Lq0tfJ2Zptt%2F2d2b5880109b6a251f739d8efab7e96b%2FLeatherwear_FullBleed.jpg&w=3840&q=75,https://www.brioni.com,Italy,1945,designer,,,"Via Vigna Stelluti, 17, 00196 Roma RM, Italy",2025-07-18T12:32:10.942225,2025-08-28T10:45:50.221875
cmd42e64ae666ff90c37480,British-American Cosmetics,"British-American Cosmetics is a well-established fragrance company that specializes in creating and marketing a diverse range of perfumes and cosmetics. With a history rooted in the fusion of British elegance and American innovation, the company aims to offer high-quality products that appeal to both markets. Their unique storytelling approach in product development often emphasizes heritage and craftsmanship, which resonates strongly with consumers looking for authenticity in their fragrance choices.",https://images.unsplash.com/photo-15907369626-6c63ac16f3df?w=400&h=300&fit=crop,http://www.britishamericancosmetics.com,United States,1984,designer,,,,2025-07-18T12:32:10.942225,2025-08-28T10:45:57.016114
cmde09149916fd10db98566,British-American Tobacco,"British-American Tobacco (BAT) is a multinational company known primarily for its involvement in the tobacco industry, which includes the production and marketing of cigarettes and other nicotine products. Established in 1902, BAT has diversified over the years and, while its primary focus has been on tobacco, the company has also ventured into producing nicotine-based products, including heated tobacco and vaping products. With a rich heritage and a presence in more than 180 countries, BAT is committed to sustainability and reducing the health impacts associated with smoking, investing significantly in the development of less harmful alternatives to traditional tobacco products.",https://www.bat.com/experience-fragments/batcom/global/en/header/master/_jcr_content/root/container/batcom_header/image.coreimg.svg/1723662821452/bat-logo-black.svg,https://www.bat.com,United Kingdom,1902,indie,,+44 (0) 20 7845 1000,"1 Park Drive, Milton Park, Oxford OX14 4SE, United Kingdom",2025-07-18T12:32:10.942225,2025-08-28T10:46:06.537913
cmd62407e8d87c7d698295e,British Society of Perfumers,"The British Society of Perfumers (BSP) is a professional body founded to promote the art and science of perfumery in the United Kingdom. It serves as a network for fragrance professionals, including perfumers, suppliers, and academics, providing resources, education, and support to its members. The BSP also organizes events, workshops, and seminars to foster knowledge and innovation in the fragrance industry, while highlighting the importance of fragrance in everyday life. With a commitment to excellence, the society plays a pivotal role in upholding standards and encouraging new talent within the sector.",https://images.unsplash.com/photo-1587017539504-67cfbddac569?w=400&h=300&fit=crop,http://www.britishsocietyofperfumers.com,United Kingdom,2000,indie,,,,2025-07-18T12:32:10.942225,2025-08-28T10:46:13.271050
cmd5d0283638316c176332a,Britney Spears,"Britney Spears' fragrance line began in 2004 with the launch of her first perfume, Curious, which rapidly became a best-seller. The brand is known for its distinctive and varied scents, often inspired by Spears' personal style and lifestyle. Over the years, her fragrances have evolved to include a range of exotic and playful compositions. The brand embodies the essence of pop culture and youth, appealing predominantly to fans of the artist and the general public alike. Britney Spears has secured a strong market presence in the celebrity fragrance sector, with numerous award-winning fragrances and successful collaborations with established perfume manufacturers.",https://britneyspears.com/wp-content/uploads/2022/04/spearslogo-768x181.png,https://www.britneyspears.com/,United States,2004,celebrity,,,,2025-07-18T12:32:10.942225,2025-08-28T10:46:20.731727
cmd82c6a8f331f9f51a30e4,Brittanic,"Brittanic is a perfume company known for its unique, hand-crafted fragrances that embody the spirit of British heritage. Founded by a group of fragrance enthusiasts, the brand's story is rooted in a passion for quality ingredients and artisanal production methods. Brittanic specializes in creating niche fragrances that often feature rare botanicals and aromatic compositions, appealing to those who seek distinct and sophisticated scents that tell a story.",https://images.unsplash.com/photo-15907369626-6c63ac16f3df?w=400&h=300&fit=crop,www.brittanicfragrance.com,United Kingdom,2015,niche,contact@brittanicfragrance.com,+44 20 7946 0958,"123 Fragrance Lane, London, UK",2025-07-18T12:32:10.942225,2025-08-28T10:46:27.347722
cmd56eb9f01b27b44534eaf,Broadoak Toiletries,"Broadoak Toiletries is a specialty perfume company known for its commitment to quality and craftsmanship. Established to provide consumers with unique, high-quality fragrances, the company prides itself on using premium ingredients and ensuring each scent captures a distinct character. Their story began with a passion for creating sensory experiences, and they emphasize the artistry involved in perfumery. Broadoak Toiletries primarily focuses on handcrafted fragrances that resonate with natural elements and emotions, appealing to those who appreciate the finer aspects of scent.",https://images.unsplash.com/photo-1556909114-f6e7ad7d3136?w=400&h=300&fit=crop,https://www.broadoaktoiletries.com,United Kingdom,2018,indie,,,,2025-07-18T12:32:10.942225,2025-08-28T10:46:34.375281
cmd239dba50ff01f3b752d4,Brocard,"Brocard is a prominent perfume and cosmetics company that specializes in the development, production, and marketing of perfumes and beauty products. Founded in Russia, the company has become well-known for creating a diverse range of signature fragrances tailored to various markets. Brocard also develops licensed fragrances for various brands and collaborates with international partners to enhance its product line. Their emphasis on quality and creativity has allowed them to establish a reputable presence in the perfume industry.",https://www.brocard.ru/upload/iblock/2cf/2cf9564e8ca2cb7996fc4f414bea8f26.jpg,https://www.brocard.ru,Russia,1992,niche,,,,2025-07-18T12:32:10.942225,2025-08-28T10:46:41.975241
cmd757ca20fb37af52f724c,Broken Anatomy,"Broken Anatomy is an innovative perfume company that specializes in creating unique, artistic fragrances that challenge traditional olfactory norms. Founded by a passionate group of fragrance enthusiasts, the company aims to explore the connections between scent, emotion, and memory by crafting limited-edition perfumes that often feature unconventional ingredients. Their products are designed to resonate deeply with individual wearers, making each fragrance a personal statement.",https://images.unsplash.com/photo-1541643600914-78b084683601?w=400&h=300&fit=crop,www.brokenanatomy.com,United States,2018,indie,info@brokenanatomy.com,,,2025-07-18T12:32:10.942225,2025-08-28T10:46:58.393151
cmdb92b9b3d38b5a2c3806f,Bronnley,"Bronnley is a historic English fragrance and personal care brand, specializing in luxury scents and toiletries. Founded in 1884 in the heart of England, Bronnley has a rich heritage steeped in artisanal craftsmanship. The company is known for its high-quality products often inspired by English gardens and natural landscapes. Bronnley combines traditional methods with modern techniques to create signature fragrances that appeal to both men and women. They also offer a variety of scented candles and gifts, positioning themselves in the premium market segment.",https://bronnley.co.uk/cdn/shop/files/1_93c7231b-9fef-4338-8634-8e710f0c0118_180x.png?v=1730970817,https://www.bronnley.co.uk,United Kingdom,1884,niche,,,,2025-07-18T12:32:10.942225,2025-08-28T10:47:06.225809
cmd2f1e9070e45bd30f5dc3,Brooklyn Perfume Company,"Brooklyn Perfume Company is an innovative fragrance brand known for crafting unique, artisanal scents inspired by the vibrant culture and eclectic essence of Brooklyn, New York. Established by a passion for natural ingredients and sustainable practices, they focus on creating high-quality perfumes that draw from the neighborhood's rich history and diverse artistic influences. Their specialty lies in blending traditional perfumery techniques with a modern twist, offering fragrances that evoke nostalgia and individuality.",https://brooklynperfume.com/wp-content/uploads/2020/03/cropped-new_bpc_logo_icon_01-1.jpg,https://www.brooklynperfume.com,United States,2012,indie,info@brooklynperfume.com,,,2025-07-18T12:32:10.942225,2025-08-28T10:47:13.863878
cmd2969b730b56c7c2bd713,Brooklyn Soap Company,"Brooklyn Soap Company is a personal care brand that specializes in crafting high-quality grooming products, particularly soaps and fragrances. Founded in Brooklyn, New York, the company focuses on natural ingredients and artisanal methods to create unique scents and personal care items. Their story revolves around a passion for craftsmanship and a commitment to sustainability, aiming to provide customers with effective and eco-friendly personal care solutions.",https://images.unsplash.com/photo-15907369626-6c63ac16f3df?w=400&h=300&fit=crop,https://www.brooklynsoap.com,United States,2012,indie,,,,2025-07-18T12:32:10.942225,2025-08-28T10:47:20.098760
cmd199aa81fb22d7e13cf4e,Brooks Brothers,"Brooks Brothers is a renowned American clothing retailer that specializes in classic menswear and is known for its heritage and timeless style. Established in 1818, the company offers a wide range of products, including tailored suits, dress shirts, and casual wear. Over the years, Brooks Brothers has also ventured into the fragrance market, producing a line of distinctive scents that reflect its sophisticated and classic aesthetic. The brand prides itself on its commitment to quality and craftsmanship, making it a staple in American fashion.",https://images.unsplash.com/photo-15907369626-6c63ac16f3df?w=400&h=300&fit=crop,https://www.brooksbrothers.com,United States,1818,designer,,,"346 Madison Avenue, New York, NY 10017, United States",2025-07-18T12:32:10.942225,2025-08-28T10:47:27.536023
cmd901f9d391aa6386cc96a,Brooksfield,"Brooksfield is a fragrance company known for its sophisticated and elegant scents that cater to both men and women. Founded with the vision of providing unique aromatic experiences, Brooksfield combines high-quality ingredients with innovative fragrance blending techniques. The company prides itself on its commitment to craftsmanship and timeless appeal, aiming to evoke emotion and create lasting memories through its signature fragrances.",https://brooksfield.com/cdn/shop/files/logo-brooksfiled-word-small-sizes.png?v=1750244270&width=150,https://www.brooksfield.com,United States,2012,designer,,,,2025-07-18T12:32:10.942225,2025-08-28T10:47:34.470339
cmdcc49934b99189e0ac0fc,Broome & Kenmare,"Broome & Kenmare is a niche perfume company known for its artisanal and sophisticated fragrances. Established in 2016, the brand aims to encapsulate the essence of luxury and craftsmanship into each of its products. With a focus on high-quality ingredients and unique scent profiles, Broome & Kenmare creates memorable fragrances that tell a story, often inspired by global travels and cultural experiences. Their offerings often reflect a blend of traditional perfumery techniques with contemporary aesthetics.",https://images.unsplash.com/photo-1587017539504-67cfbddac569?w=400&h=300&fit=crop,https://broomeandkenmare.com,United Kingdom,2016,niche,,,,2025-07-18T12:32:10.942225,2025-08-28T10:47:42.616341
cmd7ce01ec203d58f10fdcf,Brosse,"Brosse is a fragrance company known for its artisanal approach to perfume creation. Founded in the heart of the perfume capital, Grasse, France, Brosse focuses on crafting unique, high-quality fragrances that showcase the beauty of natural ingredients. Their specialty lies in blending traditional perfumery techniques with modern sensibilities, offering a collection that appeals to both connoisseurs and casual fragrance enthusiasts. The brand emphasizes sustainability and ethical sourcing, ensuring that their products are not only luxurious but also environmentally conscious.",https://images.unsplash.com/photo-1541643600914-78b084683601?w=400&h=300&fit=crop,www.brosseparfums.com,France,2008,niche,contact@brosseparfums.com,+33 4 93 00 00 00,"12 Rue des Fragrances, Grasse, 06130, France",2025-07-18T12:32:10.942225,2025-08-28T10:47:50.147847
cmd76735ee63f4dc24ebae9,Brown Girl Jane,"Brown Girl Jane is a fragrance and lifestyle brand that was founded to celebrate and empower women of color. The company specializes in creating unique, artisanal scents that embody the beauty and diversity of its founders' experiences. It focuses on promoting self-care and wellness while integrating aspects of heritage and culture into its products, aiming to create a community and space for women of color in the beauty industry.",https://browngirljane.com/cdn/shop/files/BGJ_Logo_pink.png?v=1737260621&width=600,https://www.browngirljane.com,United States,2020,indie,,,,2025-07-18T12:32:10.942225,2025-08-28T10:47:57.223601
cmdac98c489e654c7df4649,Browns,"Browns is a specialty fragrance company known for its unique and artisanal approach to perfumery. The company focuses on creating high-quality, distinct scents that often reflect individual narratives and artistic expressions. With a commitment to craftsmanship and innovation, Browns has garnered a reputation for producing limited edition and exclusive fragrances that appeal to connoisseurs and enthusiasts alike. Their story is rooted in a passion for scent and the desire to offer a personal olfactory experience to their clientele.",https://images.unsplash.com/photo-1582735689369-4fe89db7114c?w=400&h=300&fit=crop,,,,niche,,,,2025-07-18T12:32:10.942225,2025-08-28T10:48:03.829670
cmd242389a0043c1bfc6041,Bruce LaBruce,"Bruce LaBruce is a Canadian filmmaker, photographer, and artist known for his distinctive style and contributions to queer culture. In the realm of fragrance, he has introduced an artistic line of perfumes that reflect his avant-garde approach to art and sexuality. The brand combines unique scents with bold packaging, thus appealing to those who appreciate both olfactory and visual stimulation.",https://images.unsplash.com/photo-1587017539504-67cfbddac569?w=400&h=300&fit=crop,,Canada,,indie,,,,2025-07-18T12:32:10.942225,2025-08-28T10:48:09.950535
cmdc866099cdf6f0c4400c5,Bruce Oldfield,"Bruce Oldfield is a renowned British fashion designer, best known for his luxurious couture techniques and dressmaking skills. Beyond fashion, the brand has expanded into the fragrance industry, offering a selection of elegant perfumes that reflect sophistication and timeless appeal, often associated with high-profile events and clientele. The fragrances embody the spirit of the brand, merging classic styles with modern sensibilities, aimed at discerning customers who seek both quality and exclusivity.",https://images.unsplash.com/photo-1582735689369-4fe89db7114c?w=400&h=300&fit=crop,https://www.bruceoldfield.com,United Kingdom,1990,designer,,,,2025-07-18T12:32:10.942225,2025-08-28T10:48:16.381044
cmdef5e29ac9447045e3e6f,Bruce Willis,"Bruce Willis has ventured into the fragrance industry by launching a line of perfumes under his name. Known for his film career, particularly in action roles, Willis has introduced fragrances that resonate with his public persona, often featuring strong and dynamic scent profiles. His fragrances aim to capture the essence of confidence and charisma associated with his cinematic roles, appealing primarily to his fanbase and fragrance enthusiasts alike.",https://images.unsplash.com/photo-1582735689369-4fe89db7114c?w=400&h=300&fit=crop,https://www.brucewillisperfume.com,United States,2015,celebrity,,,,2025-07-18T12:32:10.942225,2025-08-28T10:48:22.835282
cmd7374d0f529df24999a37,Brûmée,"Brûmée is a niche perfume company known for its artisanal approach to fragrance creation. Established in a quest to blend culinary arts with perfumery, Brûmée emphasizes the use of high-quality, sustainable ingredients that evoke memories and emotions. The brand focuses on storytelling through scents, offering unique olfactory experiences inspired by various cultures and traditions. Their specialty lies in crafting limited edition fragrances that are both innovative and evocative, appealing to a select audience of perfume connoisseurs.",https://images.unsplash.com/photo-15907369626-6c63ac16f3df?w=400&h=300&fit=crop,https://www.brumeefragrance.com,France,2019,niche,contact@brumeefragrance.com,,,2025-07-18T12:32:10.942225,2025-08-28T10:48:29.404629
cmddfead896af1aaa8b6845,Brunello Cucinelli,"Brunello Cucinelli is an Italian luxury fashion brand known for its high-quality cashmere and fine clothing. Founded by Brunello Cucinelli in 1978, the company focuses on creating timeless and elegant pieces that embody refined Italian craftsmanship and sustainability. The brand emphasizes ethical production methods and a lifestyle ethos, offering a range of products that includes clothing, accessories, and fragrances. Brunello Cucinelli’s perfumes are an extension of its luxury ethos, designed to complement the brand's fashion offerings.",https://www.brunellocucinelli.com/on/demandware.static/Sites-bc-corp-new-Site/-/default/dw1c9448d8/images/logo-white.svg,https://www.brunellocucinelli.com,Italy,1978,designer,,,"Via Cucinelli, 1, 06083 Solomeo PG, Italy",2025-07-18T12:32:10.942225,2025-08-28T10:48:36.574410
cmd3508f8dc51f9e526a9b7,Brunner Mond,"Brunner Mond is primarily known for its involvement in the chemicals industry, particularly focusing on soda ash production and its derivatives. The company, although not primarily a perfume manufacturer, has a rich history dating back to the late 19th century and plays a crucial role in the chemical processes that can be utilized in flavor and fragrance production. Their specialty includes producing high-quality chemicals that may indirectly support various industries, including cosmetics and perfumery, by providing essential raw materials.",https://images.unsplash.com/photo-1582735689369-4fe89db7114c?w=400&h=300&fit=crop,https://www.brunnermond.com,United Kingdom,1881,indie,,,,2025-07-18T12:32:10.942225,2025-08-28T10:48:43.756861
cmd7eb1558aa5db9025ce11,Bruno Acampora,"Bruno Acampora is an Italian perfume house renowned for its artisanal approach to fragrance creation. Founded in the 1970s, the company emphasizes the use of high-quality ingredients and traditional techniques to craft unique perfumes. Bruno Acampora's offerings are characterized by their deep connection to nature and artistry, which appeal to fragrance aficionados seeking niche and distinctive scents. The brand’s commitment to quality and individualism sets it apart in the competitive perfume market.",https://images.unsplash.com/photo-1587017539504-67cfbddac569?w=400&h=300&fit=crop,https://www.brunoadampora.com,Italy,1975,niche,,,,2025-07-18T12:32:10.942225,2025-08-28T10:48:50.317234
cmd351d6617c6139f7c19b2,Bruno Banani,"Bruno Banani is a German fragrance company known for its playful and innovative approach to perfumery. Established in 1994, the brand offers a range of unique and distinctive scents that appeal primarily to a younger demographic. Bruno Banani aims to break the conventional norms of the fragrance industry, often featuring quirky marketing strategies and a focus on individuality. The brand combines a vibrant, youthful spirit in both product development and marketing, allowing it to stand out in the competitive perfume market.",https://brunobanani.com/media/c3/6c/18/1681872862/bruno-banani-logo.svg?ts=1729519245,https://www.brunobanani.com,Germany,1994,designer,,,,2025-07-18T12:32:10.942225,2025-08-28T10:48:58.566554
cmd669d3dd7d0fa184787ad,Bruns,"Bruns is a niche perfume company known for its artisanal approach to fragrance creation. Established by a dedicated perfumer, the brand emphasizes the use of high-quality, natural ingredients and often draws inspiration from Scandinavian nature and culture. Their unique, evocative scents celebrate authenticity and craftsmanship, appealing to fragrance enthusiasts looking for something distinct from mainstream offerings.",https://images.unsplash.com/photo-1541643600914-78b084683601?w=400&h=300&fit=crop,https://www.bruns.se,Sweden,2015,niche,,,,2025-07-18T12:32:10.942225,2025-08-28T10:49:04.467749
cmd4599badb9ee93da2247f,Brut Parfums Prestige,"Brut Parfums Prestige is a fragrance company known for its classic men’s fragrances. The brand was established in the late 1960s and initially gained popularity for its distinctively masculine scents. Over the years, Brut has developed a reputation for offering timeless fragrances that evoke strength and confidence. The brand often emphasizes its heritage and classic appeal while appealing to diverse generations of customers.",https://images.unsplash.com/photo-1582735689369-4fe89db7114c?w=400&h=300&fit=crop,https://www.brut.com,United States,1964,drugstore,,,,2025-07-18T12:32:10.942225,2025-08-28T10:49:18.751599
cmda87cdf1c8d8399fe7a1d,Bryenne,"Bryenne is a luxury fragrance brand that focuses on creating high-quality, artisanal perfumes. Their story begins with a passion for scent and an emphasis on using sustainable and natural ingredients. Bryenne specializes in crafting unique olfactory experiences that reflect the individuality of its clientele, often collaborating with renowned perfumers to develop their signature scents.",https://images.unsplash.com/photo-1556909114-f6e7ad7d3136?w=400&h=300&fit=crop,https://www.bryenne.com,United States,2018,niche,info@bryenne.com,,,2025-07-18T12:32:10.942225,2025-08-28T10:49:34.595299
cmd2989cdd0dba8f0fd152a,Brylcreem,"Brylcreem is a men's grooming brand that primarily focuses on hair styling products but is also known for its heritage in the personal care market. The brand was originally launched in the early 20th century and became famous for its hair cream that provided a glossy finish and hold to men's hairstyles. Over the years, Brylcreem has expanded its product range to include various grooming essentials, capitalizing on the nostalgia and traditional values associated with its products while appealing to modern male consumers.",https://images.unsplash.com/photo-1556909114-f6e7ad7d3136?w=400&h=300&fit=crop,https://www.brylcreem.com,United Kingdom,1928,drugstore,,,,2025-07-18T12:32:10.942225,2025-08-28T10:49:41.110560
cmd6fa6818f778a3ce7f45e,Bu Feng 捕风,"Bu Feng 捕风 is a perfume company that specializes in crafting unique and high-quality fragrances inspired by traditional Chinese cultural elements. The brand aims to blend modern perfumery techniques with ancient aromatic traditions, creating scents that reflect the richness of Chinese heritage. Their products often focus on the use of natural ingredients, emphasizing sustainability and artisanal craftsmanship.",https://images.unsplash.com/photo-1541643600914-78b084683601?w=400&h=300&fit=crop,,China,,niche,,,,2025-07-18T12:32:10.942225,2025-08-28T10:49:48.616618
cmd8ea8df51cb6a2c98731c,Buchart Colbert,"Buchart Colbert is a niche perfume company that specializes in creating high-quality, artistic fragrances. The brand embodies a commitment to craftsmanship and an exploration of unique scent profiles, appealing to connoisseurs of fine perfumes. With an emphasis on using rare and luxurious ingredients, Buchart Colbert aims to provide a sensory experience that transcends mainstream conventions. The company has emerged from a deep-rooted passion for perfumery, aiming to create scents that tell stories and evoke emotions, making each fragrance a work of art.",https://images.unsplash.com/photo-15907369626-6c63ac16f3df?w=400&h=300&fit=crop,,,,niche,,,,2025-07-18T12:32:10.942225,2025-08-28T10:49:55.497985
cmd5303a5fee5bbc3f85f1e,Buckle,"Buckle is a fashion retailer that focuses on casual apparel, accessories, and footwear for young adults. The company is known for its diverse range of products, including branded perfumes and fragrances, often marketed alongside their clothing lines to enhance the lifestyle appeal of their offerings. While Buckle's primary products are clothing and accessories, their foray into fragrances reflects their mission to provide a complete fashion experience to their customers.",https://images.unsplash.com/photo-15907369626-6c63ac16f3df?w=400&h=300&fit=crop,https://www.buckle.com,United States,1948,designer,,,,2025-07-18T12:32:10.942225,2025-08-28T10:50:02.239032
cmd2fc13033f8f86ceee80c,Bud Parfums,"Bud Parfums is a fragrance company that focuses on creating unique and artisanal perfumes. Established with a passion for craftsmanship, the company specializes in blending high-quality ingredients sourced from around the world to produce scent profiles that evoke emotions and memories. Bud Parfums prides itself on its creativity and dedication to the art of perfumery, offering a selection of fragrances that cater to a diverse clientele. Their story is rooted in a commitment to sustainability and ethical sourcing, making their products appealing to modern consumers seeking authenticity in their fragrance choices.",https://images.unsplash.com/photo-1587017539504-67cfbddac569?w=400&h=300&fit=crop,https://www.budparfums.com,France,2010,niche,contact@budparfums.com,+33 1 23 45 67 89,"12 Rue des Parfumeurs, 75001 Paris, France",2025-07-18T12:32:10.942225,2025-08-28T10:50:20.063468
cmddf6c10db7bf24e154163,Bugatti,"Bugatti is primarily known for its high-performance luxury automobiles but has extended its brand into the fragrance sector, offering a range of perfumes that embody the qualities of elegance, speed, and innovation associated with its cars. The Bugatti fragrance line aims to attract customers who appreciate luxury and exclusivity, often featuring sophisticated and refined scent profiles that reflect the brand's automotive heritage.","https://bugatti.imgix.net/67346e73c5aae03fb24d085d/04_bugatti_chiron_macaron.jpg?auto=format,compress&cs=srgb&sharp=10&w=100&blur=20",https://www.bugatti.com,France,1909,designer,,,,2025-07-18T12:32:10.942225,2025-08-28T10:50:26.350517
cmd1fd3a1ee9b82acc52653,Buguggiate,"Buguggiate is a niche perfume company known for its artisanal approach to fragrance creation. Founded by a group of passionate perfumers, the company focuses on crafting unique scents that tell a story and highlight rare ingredients sourced globally. With a strong commitment to sustainability, Buguggiate combines traditional techniques with modern artistry to deliver luxurious perfumes that resonate with wearers on a personal level.",https://images.unsplash.com/photo-1587017539504-67cfbddac569?w=400&h=300&fit=crop,www.buguggiate.com,Italy,2015,niche,info@buguggiate.com,,,2025-07-18T12:32:10.942225,2025-08-28T10:50:35.038937
cmd46da9c1b5bc3a18f3513,Buhara Esans,"Buhara Esans is a Turkish fragrance company that specializes in the production and distribution of essential oils and fragrance compounds. Founded in the rich heritage of perfumery, Buhara Esans is known for its focus on high-quality raw materials and traditional methods blended with modern technology. The company has built its reputation on serving both the domestic and international markets, offering a wide range of products for various applications, including cosmetics, personal care, and home fragrances.",https://images.unsplash.com/photo-1587017539504-67cfbddac569?w=400&h=300&fit=crop,http://www.buharaesans.com,Turkey,1997,indie,,,,2025-07-18T12:32:10.942225,2025-08-28T10:50:43.800634
cmd384006fe10e7f0d7974c,Bulgari,"Bulgari is a renowned luxury brand that specializes in jewelry, watches, accessories, and fragrances. Founded in 1884 by Sotirio Bulgari, the company initially started as a family-run shop in Rome, focusing on precious metalwork and Greek-Roman artistry. Over the years, Bulgari has expanded its offerings to include a wide range of high-end perfumes that reflect its commitment to quality and elegance. Their fragrance line is characterized by opulent and vibrant scents that embody the luxury lifestyle associated with the brand.",https://images.unsplash.com/photo-15907369626-6c63ac16f3df?w=400&h=300&fit=crop,https://www.bulgari.com,Italy,1884,designer,,,"Via dei Condotti, 10, 00187 Roma RM, Italy",2025-07-18T12:32:10.942225,2025-08-28T10:51:00.370038
cmdfbdf82c269671bcb4d79,Bvlgari,"Bvlgari is an Italian luxury brand founded in 1884 by Sotirios Voulgaris, originally as a traditional Italian jeweler. The company has since evolved to encompass various luxury product lines, including high-end fragrances, watches, jewelry, and accessories. Bvlgari fragrances are known for their unique blends, elegance, and distinctive packaging, often reflecting the rich heritage of Roman culture and the brand's Italian roots.",https://images.unsplash.com/photo-1556909114-f6e7ad7d3136?w=400&h=300&fit=crop,https://www.bvlgarir.com,Italy,1884,designer,,,"Via dei Condotti, 10, 00187 Roma RM, Italy",2025-07-18T12:32:10.942225,2025-08-28T10:51:06.926754
cmda2a3f8852c6a5c8dfaef,Bullfrog,"Bullfrog is a niche perfume company that focuses on creating unique and high-quality fragrances inspired by nature and the outdoors. Founded by a group of enthusiasts passionate about both fragrance and the environment, Bullfrog blends natural ingredients with artisanal craftsmanship to produce distinctive scents that resonate with adventure and exploration. The brand is known for its dedication to sustainability, often utilizing eco-friendly practices in their sourcing and packaging.",https://images.unsplash.com/photo-1541643600914-78b084683601?w=400&h=300&fit=crop,https://www.bullfrog.com,Italy,2016,niche,,,,2025-07-18T12:32:10.942225,2025-08-28T10:51:13.209451
cmd8b95fa916d64050f128b,Bumble and Bumble,"Bumble and Bumble is a hair care brand founded in 1977 by Michael Gordon in New York City, known for pioneering premium hair products designed for professional use. The brand has a strong focus on providing innovative solutions for various hair types and styles, offering a range of shampoos, conditioners, styling products, and treatments. Bumble and Bumble emphasizes a connection to the salon industry, leveraging its expertise from professional hairdressers, and is well-regarded for its quality and performance.",https://images.unsplash.com/photo-15907369626-6c63ac16f3df?w=400&h=300&fit=crop,https://www.bumbleandbumble.com,United States,1977,indie,,,,2025-07-18T12:32:10.942225,2025-08-28T10:51:19.891608
cmdcbf756cf00f95ca824a8,Burberry,"Burberry is a British luxury fashion house known for its iconic tartan pattern and distinct trench coats. Founded in 1856 by Thomas Burberry, the company initially specialized in outerwear and has since expanded into diverse luxury sectors, including fragrances. Burberry's perfumes reflect its heritage, often incorporating British themes and high-quality ingredients. The brand's dedication to timeless elegance and craftsmanship makes it a leader in the luxury market.",https://images.unsplash.com/photo-1556909114-f6e7ad7d3136?w=400&h=300&fit=crop,https://www.burberry.com,United Kingdom,1856,designer,,,"Horseferry House, Horseferry Road, London, SW1P 2AW, United Kingdom",2025-07-18T12:32:10.942225,2025-08-28T10:51:27.443110
cmdc901553684e763a98c85,Burdin,"Burdin is a perfume company known for its innovative and artisanal approach to fragrance creation. Originating from a blend of traditional techniques and contemporary artistry, Burdin focuses on crafting unique scents that evoke emotions and memories. The brand has a rich history rooted in a passion for olfactory experiences, making it a distinctive player in the niche perfume market. They emphasize high-quality ingredients, often sourcing rare and natural materials, which reflects their commitment to sustainability and authenticity in fragrance development.",https://images.unsplash.com/photo-1556909114-f6e7ad7d3136?w=400&h=300&fit=crop,,,,niche,,,,2025-07-18T12:32:10.942225,2025-08-28T10:51:34.085231
cmdea611f0f5b6da66562a1,Burger King,"Burger King is primarily known as a global fast-food chain specializing in flame-grilled burgers, particularly the Whopper. While it's a renowned food company, it does not have a perfume line or related products. The company originated in 1954 and has become one of the largest fast-food chains in the world. Nevertheless, the operation typically focuses on food rather than any fragrance offerings.",https://images.unsplash.com/photo-1541643600914-78b084683601?w=400&h=300&fit=crop,https://www.burgerking.com,United States,1954,indie,,,,2025-07-18T12:32:10.942225,2025-08-28T10:51:40.413164
cmd487d03a464559a9179b1,Burren Perfumery,"Burren Perfumery is a small, family-run business located in the Burren region of Ireland, specializing in the creation of artisanal perfumes inspired by the unique flora of the local landscape. Established in 2010, the company emphasizes natural ingredients and sustainability, offering a range of handcrafted perfumes, skincare products, and botanical essence blends. Their creations often reflect the character of the Burren itself, showcasing a profound connection with nature and a commitment to quality craftsmanship.",https://burrenperfumery.com/cdn/shop/t/33/assets/logo-white.svg?v=166223560147229169821625048665,https://www.burrenperfumery.com,Ireland,2010,indie,,,,2025-07-18T12:32:10.942225,2025-08-28T10:51:47.726992
cmd8d98a3bb9ae5b6cb954b,Burrus,"Burrus is a perfume company known for its commitment to crafting high-quality fragrances using traditional methods and a rich selection of natural ingredients. Founded by the Burrus family, the company has a deep-rooted history in perfumery, emphasizing artisanal techniques and bespoke scent creation. They are particularly noted for their unique blends and the luxury experience they offer to customers, maintaining a balance between classic and contemporary fragrance profiles.",https://www.burrus.com/wp-content/uploads/2015/11/burrus-logo-retina.png,www.burrus.com,France,1976,niche,,,,2025-07-18T12:32:10.942225,2025-08-28T10:51:54.499317
cmd6e6a682de6f738ecc8bc,Burt's Bees,"Burt's Bees is a personal care products company that specializes in natural and eco-friendly skin care, lip care, and personal care products. Founded in 1984 by Burt Shavitz and Roxanne Quimby, the brand initially started by selling beeswax candles and later expanded into a full range of natural cosmetic and personal care items. With a strong commitment to sustainability and environmental stewardship, Burt’s Bees is known for its use of natural ingredients sourced from bees and other botanical elements in their formulations. They have developed a loyal customer base who values their emphasis on simplicity, efficacy, and environmental responsibility.",https://www.burtsbees.com/venia-static/veniaClosed.png,https://www.burtsbees.com,United States,1984,drugstore,,1-800-849-7112,"1002 W Main St, Durham, NC 27701, USA",2025-07-18T12:32:10.942225,2025-08-28T10:52:01.516543
cmd3274ba97707a9f733a2c,Butterfly Thai Perfume,"Butterfly Thai Perfume is a niche perfume company known for its unique and exotic fragrances inspired by the rich biodiversity of Thailand. The company emphasizes the use of natural ingredients sourced from local Thai flora, aiming to capture the essence of Southeast Asia in each fragrance. Established by a team of passionate perfumers, Butterfly Thai Perfume focuses on both craftsmanship and sustainability, promoting environmentally friendly practices in their production methods.",https://images.unsplash.com/photo-1582735689369-4fe89db7114c?w=400&h=300&fit=crop,www.butterflythaiperfume.com,Thailand,2015,niche,contact@butterflythaiperfume.com,,,2025-07-18T12:32:10.942225,2025-08-28T10:52:46.905672
cmd9114d10a6d62c89af2d8,Być Może,"Być Może is a Polish niche perfume company that specializes in creating unique, artisanal fragrances. The brand emphasizes the use of high-quality ingredients and traditional techniques, aiming to capture emotions and memories within their scents. Founded with a passion for the art of perfumery, Być Może combines modern sensibilities with classic craftsmanship. The company often draws inspiration from Polish culture, nature, and personal stories, making each fragrance a narrative journey.",https://images.unsplash.com/photo-1541643600914-78b084683601?w=400&h=300&fit=crop,https://www.bycmorze.com,Poland,2020,niche,contact@bycmorze.com,,,2025-07-18T12:32:10.942225,2025-08-28T10:52:53.792441
cmd98347c9582dc64d352ed,By Kilian,"By Kilian is a niche perfume house founded by Kilian Hennessy, a member of the famous Hennessy family. The brand is known for its luxurious fragrances that combine opulent ingredients with a storytelling approach. Each scent is crafted to evoke emotions and memories, encapsulating themes such as love, desire, and pleasure. The attention to detail in the design of both the fragrance and the bottle reflects a commitment to craft and aesthetics, making By Kilian a standout in the world of high-end perfumery.",https://images.unsplash.com/photo-1587017539504-67cfbddac569?w=400&h=300&fit=crop,https://www.bykilian.com,France,2007,niche,,,,2025-07-18T12:32:10.942225,2025-08-28T10:53:00.578767
