id,name,description,image,website,country,founded,type,email,phone,address,createdAt,updatedAt
cmdeb7a6399f3b2cd457655,Jean Poivre,"Jean Poivre is a renowned perfume house that specializes in creating high-quality, artisanal fragrances utilizing traditional techniques combined with modern sensibilities. The company is known for its rich, complex scent compositions that evoke emotions and memories, often drawing inspiration from nature and cultural heritage. Established by a visionary perfumer, Jean Poivre's story is rooted in a passion for olfactory artistry and commitment to craftsmanship, making each fragrance a unique and personal experience for the wearer.",https://images.unsplash.com/photo-1541643600914-78b084683601?w=400&h=300&fit=crop,,,,niche,,,,2025-07-18T12:32:10.942225,2025-08-28T17:18:30.155727
cmdc0654c48b1a1b598f6e3,Jean Reno,"Jean Reno is a French perfume house established by the renowned actor Jean Reno, who is known for his roles in French and international cinema. The brand focuses on creating fragrances that capture the essence of different environments, emotions, and experiences, reflecting Reno's artistic vision and appreciation for the sensory experience of scents. Their specialty lies in blending unique ingredients that evoke narratives and memories, catering to consumers who appreciate sophisticated perfumes with a story behind them.",https://images.unsplash.com/photo-1541643600914-78b084683601?w=400&h=300&fit=crop,https://www.jeanrenoparfums.com,France,2016,niche,,,,2025-07-18T12:32:10.942225,2025-08-28T17:18:36.805467
cmd135ca2fbc32e8d9a2192,Jean Rish,"Jean Rish is a fragrance company known for its commitment to crafting high-quality perfumes with a focus on rich, exotic scents. Established with a passion for innovation in olfactory experiences, the company blends traditional perfume-making techniques with modern artistry to create unique fragrances that cater to a diverse clientele. Their range often features luxurious ingredients and is designed to evoke emotions and memories, making them a popular choice for perfume enthusiasts. Jean Rish is also recognized for its stylish packaging and branding, appealing to both individuals and gift buyers.",https://jeanrish.com/cdn/shop/files/logo1.png?v=1724156472&width=600,https://www.jeanrish.com,United States,2013,indie,,,,2025-07-18T12:32:10.942225,2025-08-28T17:18:43.761806
cmd5de68dc34f69ce0ceb61,Jean Turmo,"Jean Turmo is a French perfume house known for its unique and creative fragrances. Established by perfumer Jean Turmo, the company has built a reputation for producing high-quality niche perfumes that emphasize artisanal craftsmanship and a deep understanding of scent composition. The brand aims to deliver an olfactory experience that resonates with emotions and memories, often drawing inspiration from nature and everyday life.",https://images.unsplash.com/photo-1541643600914-78b084683601?w=400&h=300&fit=crop,https://www.jeanturmo.com,France,2003,niche,,,,2025-07-18T12:32:10.942225,2025-08-28T17:18:51.534587
cmd636008557931a875fc82,Jeanne Arthes,"Jeanne Arthes is a French perfume company established in 1978, known for creating a wide range of fragrances that cater to various demographics. The company prides itself on delivering high-quality, innovative scents at accessible prices, blending traditional perfumery techniques with modern influences. Jeanne Arthes has developed a reputation for unique bottle designs and captivating marketing, positioning itself strongly within both the affordable luxury and drugstore perfume segments.",https://images.unsplash.com/photo-1541643600914-78b084683601?w=400&h=300&fit=crop,https://www.jeannearthes.com,France,1978,drugstore,,,,2025-07-18T12:32:10.942225,2025-08-28T17:18:58.017710
cmd6faee490f6b45706c737,Jeanne en Provence,"Jeanne en Provence is a fragrance company that specializes in creating high-quality perfumes and body care products inspired by the traditions and natural bounty of Provence, France. Established with a focus on classic French craftsmanship, the brand aims to capture the essence of its region, utilizing local ingredients and heritage. The company draws on the richness of Provençal culture, emphasizing artisanal production and authenticity in its offerings, making it a beloved choice for those seeking a touch of French elegance in their personal fragrances.",https://images.unsplash.com/photo-15907369626-6c63ac16f3df?w=400&h=300&fit=crop,https://www.jeanneenprovence.com,France,2013,indie,,,,2025-07-18T12:32:10.942225,2025-08-28T17:19:05.332117
cmd8749528d25f343932794,Jeep,"Jeep is primarily known as an automobile manufacturer, but it has ventured into the lifestyle market, including creating fragrances. The Jeep fragrance line embodies the adventurous spirit associated with the brand, targeting customers looking for products that reflect their rugged, outdoor lifestyle. The brand story emphasizes exploration, freedom, and the open road, aligning its fragrance offerings with these core themes.",https://www.jeep.com/content/dam/fca-brands/na/jeep/en_us/global/header/logo-jeep.png,https://www.jeep.com,United States,1941,designer,,,,2025-07-18T12:32:10.942225,2025-08-28T17:19:11.889198
cmd1ee4d912bd51d0cad5d7,Jeff Banks,"Jeff Banks is a well-known British fashion designer who has expanded his brand into the fragrance sector. The company offers a range of perfumes that reflect the brand's commitment to quality and style, appealing to a chic and sophisticated audience. The Jeff Banks fragrance line is characterized by its elegance and distinctive scent profiles, catering to both men and women. The brand's history is rooted in the broader fashion industry, where Jeff Banks has made a name for himself since the 1960s with his innovative designs and upscale collections.",https://images.unsplash.com/photo-1587017539504-67cfbddac569?w=400&h=300&fit=crop,https://www.jeffbanks.com,United Kingdom,1968,designer,,,,2025-07-18T12:32:10.942225,2025-08-28T17:19:20.443216
cmdb3763bfa75cd4a1c26fb,Jeff Leatham,"Jeff Leatham is a prominent figure in the luxury fragrance market, best known for his artistry in floral design and his collaborations with renowned perfumers. He launched his fragrance line to embody the sophistication and beauty seen in his floral arrangements. The brand focuses on creating high-quality, limited-edition perfumes that reflect Leatham's distinctive aesthetic and dedication to craftsmanship. His work has gained attention globally, allowing him to blend the worlds of floral artistry and fragrance creation seamlessly.",https://images.unsplash.com/photo-1556909114-f6e7ad7d3136?w=400&h=300&fit=crop,https://jeffleatham.com,United States,2019,niche,,,,2025-07-18T12:32:10.942225,2025-08-28T17:19:29.790908
cmd0fe1bc104b60259bd51d,Jehanne Rigaud,"Jehanne Rigaud is a French perfume company that specializes in creating niche fragrances characterized by their artisanal craftsmanship and unique scent compositions. Founded by perfumer Jehanne Rigaud, the brand combines traditional perfumery techniques with innovative approaches to produce captivating scents. The company is known for its attention to detail and the quality of its ingredients, often drawing inspiration from nature and personal experiences to create evocative olfactory narratives.",https://images.unsplash.com/photo-1582735689369-4fe89db7114c?w=400&h=300&fit=crop,www.jehannerigaud.com,France,2019,niche,contact@jehannerigaud.com,,,2025-07-18T12:32:10.942225,2025-08-28T17:19:36.119691
cmd4442f1bb7a347b921396,Jelly Belly,"Jelly Belly is primarily known for its gourmet jelly beans, but it has expanded its branding to include a line of fragrance products that capture the unique scents of their popular flavors. The company was established in 1976 and has garnered a reputation for its high-quality, flavorful jelly beans. With a focus on novelty and fun, Jelly Belly's fragrances are often playful and evoke the essence of their candy offerings, targeting both children and adults who appreciate whimsical yet high-quality products. The company emphasizes creativity and innovation in both their confections and their scented products.",https://cdn-tp1.mozu.com/9046-11441/resources/images/megamenuplus.png,https://www.jellybelly.com,United States,1976,niche,,,,2025-07-18T12:32:10.942225,2025-08-28T17:19:44.549173
cmd4d04144b61c8ef75a2ef,Jelly Bunny,"Jelly Bunny is a contemporary brand that specializes in the production and retail of fashion-forward accessories, including a range of perfumes. The company emphasizes creativity and playful aesthetics, catering to a young, trend-savvy demographic. It was founded in Thailand, and its unique designs blend fun, fashion, and an appealing fragrance profile that resonates with its target audience. Jelly Bunny aims to provide customers with an affordable yet stylish scent experience that complements their lifestyle.",https://jellybunny.com/cdn/shop/files/logo_aa9174d7-06db-4efe-ba2f-8af4e4f9c6f1.png?v=1726717153&width=237,https://www.jellybunny.com,Thailand,2009,indie,,,,2025-07-18T12:32:10.942225,2025-08-28T17:19:52.541254
cmdd7b080c7b85a4a6c288b,Jelsah,"Jelsah is a niche perfume company known for its unique, handcrafted fragrances. Established by a team of fragrance enthusiasts, Jelsah focuses on creating distinctive scents that embody personal stories and experiences. Their specialty lies in the use of high-quality, natural ingredients sourced globally, allowing them to craft exquisite, artisan fragrances that resonate with individual preferences and emotions.",https://images.unsplash.com/photo-1587017539504-67cfbddac569?w=400&h=300&fit=crop,www.jelsahperfumes.com,United States,2017,niche,contact@jelsahperfumes.com,,,2025-07-18T12:32:10.942225,2025-08-28T17:19:58.404831
cmdfaec59f98df77da6e8db,Jemma Kidd,"Jemma Kidd is a British cosmetic brand founded by makeup artist and entrepreneur Jemma Kidd. The company is known for its luxury beauty products, including fragrances, makeup, and skincare. Jemma's career began in the fashion industry, which inspired her to develop high-quality beauty products that cater to a diverse audience. The brand emphasizes elegance and sophistication, often drawing on Jemma's expertise to create unique scent combinations and product formulations that reflect modern femininity and lifestyle.",https://www.jemmakidd.com/img/jemma_kidd.png,www.jemmakidd.com,United Kingdom,2009,designer,,,,2025-07-18T12:32:10.942225,2025-08-28T17:20:04.955732
cmdd59f97f3111bf02d7267,Jenna Jameson,"Jenna Jameson is a celebrity perfume brand founded by the renowned adult film actress and entrepreneur Jenna Jameson. The brand focuses on creating fragrances that embody confidence, allure, and femininity, appealing to a diverse audience. Jenna's foray into the fragrance market was inspired by her personal experiences and desire to offer a product that resonated with her fans and followers. The perfumes are known for their unique scents that capture the essence of her personality and lifestyle.",https://images.unsplash.com/photo-1587017539504-67cfbddac569?w=400&h=300&fit=crop,,United States,2006,celebrity,,,,2025-07-18T12:32:10.942225,2025-08-28T17:20:10.460169
cmde1305e67b1e0abd955a5,Jenna,"Jenna is a contemporary perfume company that specializes in creating unique, artisanal fragrances. Founded on the principles of individuality and self-expression, Jenna emphasizes the art of perfumery by sourcing high-quality ingredients and employing traditional techniques to craft their scents. The brand has a story rooted in a passion for the olfactory arts, aiming to inspire confidence and creativity in its customers through their distinctive and evocative fragrances.",https://images.unsplash.com/photo-15907369626-6c63ac16f3df?w=400&h=300&fit=crop,www.jennaparfums.com,United States,2018,indie,contact@jennaparfums.com,,,2025-07-18T12:32:10.942225,2025-08-28T17:20:16.919101
cmdafbb1c4a05e15298a953,Jenni Farley,"Jenni Farley, also known as ""JWoWW,"" is a celebrity perfume line created by former reality TV star Jenni Farley, who gained fame on the show Jersey Shore. The brand's fragrances are designed to embody confidence, femininity, and bold spirit, reflecting Farley’s vibrant personality. The company focuses on delivering quality scents that resonate with her fans, leveraging her celebrity status to market lifestyle products that align with her brand image.",https://images.unsplash.com/photo-1556909114-f6e7ad7d3136?w=400&h=300&fit=crop,https://www.jwoww.com/,United States,2015,celebrity,,,,2025-07-18T12:32:10.942225,2025-08-28T17:20:22.802150
cmda7f8a8cc3b99ce706f17,Jennifer Aniston,"Jennifer Aniston's fragrance line is an extension of the celebrity's brand, celebrating her personal style and fragrance preferences. The company launched its first perfume in 2010, with scents that are designed to evoke the essence of California, mixed with a blend of floral, fruity, and musky notes. Aniston's fragrances often reflect an affinity for natural and approachable scents, conveying a sense of casual elegance. The brand has grown over the years, reflecting her evolving persona and lifestyle.",https://images.unsplash.com/photo-1541643600914-78b084683601?w=400&h=300&fit=crop,https://jenniferaniston.com,United States,2010,celebrity,,,,2025-07-18T12:32:10.942225,2025-08-28T17:20:29.956307
cmdc275264bb956853fb455,J Lo,"J Lo, officially known as Jennifer Lopez Perfumes, is a fragrance line associated with the internationally renowned entertainer Jennifer Lopez. The brand launched its first scent, ""Glow by J Lo,"" in 2002, which quickly became a best-seller and set the tone for the company's future success. Focusing on accessible luxury, J Lo fragrances are designed to embody the glamorous and vibrant essence of the artist herself, appealing to fans and fragrance enthusiasts alike. Over the years, the brand has expanded its offerings, including various scents targeted at different demographics, reinforcing its position in the celebrity perfume market.",https://images.unsplash.com/photo-1587017539504-67cfbddac569?w=400&h=300&fit=crop,https://www.jenniferlopez.com/fragrance,United States,2002,celebrity,,,,2025-07-18T12:32:10.942225,2025-08-28T17:20:37.627746
cmdb38adfd434e5963edcdd,Jennifer Lopez,"Jennifer Lopez launched her fragrance line in 2002, rapidly gaining recognition for its commercial success. The line emphasizes the glamorous lifestyle associated with the pop star and actress. Each fragrance reflects her personality, charm, and multifaceted talents, often incorporating tropical and floral notes that resonate with her personal style. Jennifer Lopez's perfumes are marketed towards a diverse demographic, aiming to offer an accessible luxury experience.",https://images.unsplash.com/photo-1587017539504-67cfbddac569?w=400&h=300&fit=crop,https://www.jenniferlopez.com,United States,2002,celebrity,,,,2025-07-18T12:32:10.942225,2025-08-28T17:20:44.235410
cmdff10d89a785577ba5acb,Jenny Glow,"Jenny Glow is a niche perfume company based in the United Kingdom, known for producing high-quality, affordable fragrances that are inspired by popular designer scents. The brand aims to provide luxury fragrance options without the hefty price tag, allowing a wider audience to enjoy high-end aromas. With a commitment to craftsmanship, Jenny Glow offers a range of products that appeal to various fragrance preferences, capturing the essence of global trends while maintaining a distinct identity.",https://images.unsplash.com/photo-15907369626-6c63ac16f3df?w=400&h=300&fit=crop,https://www.jennyglow.com,United Kingdom,2015,niche,,,,2025-07-18T12:32:10.942225,2025-08-28T17:20:51.234665
cmde683ed624db530f8831a,Jensen Fragrances,"Jensen Fragrances is an innovative perfume company that specializes in creating unique and high-quality fragrances. Founded by perfumer Alex Jensen, the company emerged from a passion for scent and a desire to capture the essence of memories and emotions through fragrance. Over the years, Jensen Fragrances has developed a reputation for its artisanal approach, focusing on craftsmanship and the use of premium ingredients sourced from around the globe. The company caters to an audience that appreciates luxury and bespoke fragrance experiences, emphasizing the narrative behind each scent.",https://jensenfragrances.com/cdn/shop/files/Website_Logo_Black.png?v=1689619647&width=600,www.jensenfragrances.com,United States,2015,niche,contact@jensenfragrances.com,,,2025-07-18T12:32:10.942225,2025-08-28T17:20:59.345178
cmddecba0359769cbb3b1df,Jequiti,"Jequiti is a Brazilian cosmetics and perfumery company that offers a wide range of beauty products, including perfumes, skin care, and makeup. Founded in 2006 by the businessman Silvio Santos, Jequiti specializes in direct sales, utilizing a network of consultants who market their products directly to consumers. The company is known for its affordable pricing and innovative fragrances, which often draw inspiration from Brazilian culture and nature. Jequiti aims to provide high-quality beauty products while promoting entrepreneurship and empowerment through its direct sales model.",https://jequiti.vtexassets.com/assets/vtex.file-manager-graphql/images/b6890a61-68f2-469d-a94e-ccc99dd9a4af___cd27444322d655885f5531838f1b04c7.png,https://www.jequiti.com.br,Brazil,2006,drugstore,,,,2025-07-18T12:32:10.942225,2025-08-28T17:21:06.851341
cmde61465b22d2ad366da86,Jeremy Fragrance,"Jeremy Fragrance is a digital entrepreneur and perfume influencer who created his own fragrance brand, aiming to revolutionize the way consumers connect with scents. Born from a passion for fragrances and a desire to share quality scents with a broader audience, Jeremy Fragrance launched his line with a focus on delivering a high-quality olfactory experience at accessible price points. The brand showcases a unique blend of creativity, marketing savvy, and consumer engagement, primarily through social media and digital platforms.",https://images.squarespace-cdn.com/content/v1/5b86bce9ec4eb7a3a2afe37a/1542387973974-06VIAF5QPNACAKW59P46/JF+logo+blanc+copy.jpg,https://www.jeremyfragrance.com,Germany,2019,indie,,,,2025-07-18T12:32:10.942225,2025-08-28T17:21:13.443994
cmd3a8b96ccfdbbbaa2fe71,Jeremy Lin,"Jeremy Lin is a celebrity perfume company launched by the professional basketball player Jeremy Lin. The brand aims to capture the essence of fun and dynamic spirit embodied by Lin himself, offering a range of fragrances that reflect his personality and style. The company seeks to connect with fans and consumers through innovative scent experiences that resonate with the lifestyle of the modern individual.",https://images.unsplash.com/photo-15907369626-6c63ac16f3df?w=400&h=300&fit=crop,www.jeremylin.com,United States,2016,celebrity,,,,2025-07-18T12:32:10.942225,2025-08-28T17:21:19.256678
cmd5e513f3722731437b4c2,Jergens,"Jergens is a well-known brand primarily recognized for its body care products, including moisturizers and lotions. While the brand historically focused on skincare, it has developed a line of fragrances that complement its products, often infused with soothing scents aimed at enhancing the skin’s feel and overall experience. Founded in 1882 by Theodore Jergens, the company originally started to create soap products, eventually evolving to include a wide range of skincare offerings. Over the years, Jergens has maintained its commitment to nourishing and hydrating the skin, becoming a staple in households.",https://mykaoshop.com/cdn/shop/files/search-Ban.png?v=6032012331940172971,https://www.jergens.com,United States,1882,drugstore,,,,2025-07-18T12:32:10.942225,2025-08-28T17:21:26.746851
cmd799535d32945a35d168c,Jeroboam,"Jeroboam is a niche perfume company that specializes in crafting high-quality fragrances using the principles of the French luxury perfume tradition. Founded by the perfumer Nicolaï Sonia, Jeroboam creates unique scents that often focus on the bold and rich notes, designed to evoke strong emotions and memories. The brand’s emphasis on concentration and quality sets it apart in the competitive landscape of fragrances, catering to a discerning clientele looking for bespoke, artistic olfactory experiences.",https://images.unsplash.com/photo-1541643600914-78b084683601?w=400&h=300&fit=crop,https://jeroboam.fr,France,2015,niche,,,,2025-07-18T12:32:10.942225,2025-08-28T17:21:36.266790
cmdf9e4d9abaa9fae99ef1b,Jersey Lavender,"Jersey Lavender is a niche perfume company specializing in the crafting of luxurious fragrances inspired by the essence of lavender, particularly the variety that grows in the picturesque region of Jersey in the Channel Islands. The company prides itself on using local ingredients and sustainable practices to create unique scents that embody the spirit of its locale. Established by a group of fragrance enthusiasts, Jersey Lavender has cultivated a reputation for quality and authenticity, appealing to both local patrons and international fragrance lovers.",https://images.unsplash.com/photo-1582735689369-4fe89db7114c?w=400&h=300&fit=crop,https://www.jerseyscent.com,United Kingdom,2007,niche,info@jerseylavender.com,,,2025-07-18T12:32:10.942225,2025-08-28T17:21:43.578676
cmd966b630614360f0ccaa3,Jervis,"Jervis is a luxury perfume house that specializes in crafting unique fragrances inspired by fine art and cultural experiences. Founded by a team of passionate perfumers and artists, the brand aims to create olfactory masterpieces that evoke emotions and memories. Jervis prides itself on using high-quality ingredients sourced from around the world, resulting in distinctive scents that stand out in the luxury market.",https://images.unsplash.com/photo-1541643600914-78b084683601?w=400&h=300&fit=crop,www.jervisperfumes.com,United States,2015,niche,info@jervisperfumes.com,,"123 Scent Lane, Fragrance City, CA 90210",2025-07-18T12:32:10.942225,2025-08-28T17:21:49.811191
cmdc7852737d948f8dd1be3,Jesse McCartney,"Jesse McCartney is an American singer-songwriter and actor who ventured into the fragrance industry, launching a line of perfumes that reflect his personal brand and artistic ethos. Known for his work in the pop music scene, McCartney aims to connect with fans through his fragrances, which often incorporate youthful, vibrant scents designed to appeal to a broad audience. The perfumes symbolize a blend of his artistic vision with contemporary fragrance trends.",https://images.unsplash.com/photo-1582735689369-4fe89db7114c?w=400&h=300&fit=crop,,United States,2010,celebrity,,,,2025-07-18T12:32:10.942225,2025-08-28T17:21:55.885437
cmdb1e169e3f8b1d4fe4150,Jessica Mauboy,"Jessica Mauboy is an Australian singer, songwriter, and actress, who has extended her brand into the fragrance industry with the launch of her own perfume line. The perfumes are inspired by her personal journey and artistic expression, known for their vibrant and fresh scents, appealing to fans and fragrance enthusiasts alike. Jessica's fragrance offerings may include both eau de parfum and body spray options, typically packaged in stylish bottles that reflect her artistic aesthetic.",https://images.unsplash.com/photo-1556909114-f6e7ad7d3136?w=400&h=300&fit=crop,https://jessicamauboy.com.au,Australia,2017,celebrity,,,,2025-07-18T12:32:10.942225,2025-08-28T17:22:03.347075
cmdd6545084434f94c02ccc,Jessica McClintock,"Jessica McClintock is a renowned American fashion designer who expanded her brand to include perfumes. Known for her exquisite bridal gowns and feminine designs, McClintock launched her fragrance line in the late 1980s, drawing inspiration from her fashion aesthetics. The scents often embody romance and elegance, aligning with her design philosophy. Jessica McClintock fragrances target consumers looking for classic, floral, and romantic scents that reflect the beauty of her fashion creations.",https://images.unsplash.com/photo-15907369626-6c63ac16f3df?w=400&h=300&fit=crop,http://www.jessicamcclintock.com,United States,1987,designer,,,,2025-07-18T12:32:10.942225,2025-08-28T17:22:09.815639
cmdabb7bd77dac7c004d970,Jessica Simpson,"Jessica Simpson is a celebrity fragrance brand that was launched by the American singer, actress, and entrepreneur Jessica Simpson. The brand focuses on creating a range of popular perfumes that capture the essence of femininity and glamour, often inspired by Jessica's personal style and experiences. The fragrance line became known for its accessible price point and appealing scents, which resonated with a wide audience. Through savvy marketing and the star power of Jessica herself, the brand has achieved significant commercial success and has expanded to include various other beauty and lifestyle products.",https://jessicasimpson.com/cdn/shop/files/logo_440x.png?v=1613672074,https://www.jessicasimpson.com,United States,2004,celebrity,,,,2025-07-18T12:32:10.942225,2025-08-28T17:22:18.135433
cmd0a880e6b8c6b869040c6,Jette Joop,"Jette Joop is a German perfume company that was founded by fashion designer Jette Joop. The brand is known for its unique fragrance creations that often reflect the designer's personal style and artistic vision. Jette Joop started her journey in the fashion industry and later expanded into the world of fragrances, where she combines her expertise in design with olfactory artistry. The brand specializes in producing a range of perfumes that appeal to a modern audience, emphasizing individuality and sophistication.",https://images.unsplash.com/photo-1541643600914-78b084683601?w=400&h=300&fit=crop,https://www.jettejoop.com,Germany,2006,designer,,,,2025-07-18T12:32:10.942225,2025-08-28T17:22:24.310203
cmd6b995309a9d4792c6eea,Jfenzi,"Jfenzi is a perfume company specializing in creating a diverse range of fragrance products that cater to a modern and sophisticated clientele. The company has gained attention for its unique scent profiles and affordable luxury offerings, appealing to both casual consumers and fragrance enthusiasts. Jfenzi aims to combine traditional perfumery techniques with contemporary trends, ensuring each fragrance tells a story and provides an exquisite experience.",https://images.unsplash.com/photo-1587017539504-67cfbddac569?w=400&h=300&fit=crop,,,,'indie',,,,2025-07-18T12:32:10.942225,2025-08-28T17:22:29.830930
cmd2f911627ca974beb7519,Jigsaw International,"Jigsaw International is a perfume and fragrance company that specializes in creating unique and high-quality fragrances. Established to cater to a diverse range of olfactory preferences, Jigsaw International prides itself on its innovative approach to scent development, combining traditional craftsmanship with modern techniques. Over the years, the company has carved out a niche in the global fragrance market, offering both men’s and women’s collections that reflect sophistication and distinctiveness. Their products are designed to evoke emotions and memories, making each fragrance a personal experience.",https://images.unsplash.com/photo-1556909114-f6e7ad7d3136?w=400&h=300&fit=crop,,,,indie,,,,2025-07-18T12:32:10.942225,2025-08-28T17:22:35.485632
cmdf5e3f140d71cd3422530,Jil Croquet Parfum,"Jil Croquet Parfum is a contemporary perfume house that focuses on crafting unique and luxurious fragrances. Established with a vision to bring artistic sensibility into the world of perfumery, the brand draws inspiration from various cultural elements and artistic expressions. Jil Croquet emphasizes quality, creativity, and a personal approach to scent development, often engaging with their customers to create fragrances that resonate on a deeper emotional level. Their specialty lies in the creation of niche perfumes that are not only distinctive but also offer an experience that aligns with personal identity and lifestyle.","https://static.wixstatic.com/media/6dba6c_4dd41272fc8941099ee880d4f69ea543~mv2.png/v1/fill/w_551,h_248,al_c,q_85,usm_0.66_1.00_0.01,enc_avif,quality_auto/jil%20croquet%20parfum%20logo%20french%20fragrances.png",www.jilcroquetparfum.com,France,2018,niche,contact@jilcroquetparfum.com,,"45 Rue des Petits Champs, 75001 Paris, France",2025-07-18T12:32:10.942225,2025-08-28T17:22:42.480840
cmd7edfb3c659f9c1e45004,Jil Sander,"Jil Sander is a German fashion brand founded by designer Jil Sander in 1968. The company is known for its minimalist aesthetic and high-quality craftsmanship. Initially starting as a clothing label, Jil Sander expanded into the fragrance market in the 1980s, establishing a strong reputation for creating elegant and sophisticated scents. Their perfumes often embody the same minimalist principles that their fashion lines reflect, focusing on clean notes and refined compositions. Over the years, the brand has garnered a loyal following and remains a significant player in the luxury fragrance market.",https://www.jilsander.com/dw/image/v2/BGNJ_PRD/on/demandware.static/-/Library-Sites-jilsander-shared/default/dw65311c81/Menu/JS_COLOR_W-4.jpg,https://www.jilsander.com,Germany,1968,designer,,,,2025-07-18T12:32:10.942225,2025-08-28T17:22:50.012525
cmde76acede9cc9a7efd36d,Jill Stuart,"Jill Stuart is a New York-based fashion designer known for her feminine, chic, and romantic designs. The brand also includes a fragrance line that embodies the same aesthetic principles. Jill Stuart's perfumes often feature floral and fruity notes and are packaged in visually appealing bottles, reflecting the designer's distinct style. The brand's fragrances are typically marketed towards young women and are positioned as luxurious yet accessible, often appealing to the contemporary, modern woman.",https://images.unsplash.com/photo-1582735689369-4fe89db7114c?w=400&h=300&fit=crop,https://www.jillstuart.com,United States,1993,designer,,,,2025-07-18T12:32:10.942225,2025-08-28T17:22:55.926534
cmd4840ed484d21c79cb3f8,Jillian Switzerland,"Jillian Switzerland is a luxury perfume brand known for its exquisite and high-quality fragrances. The company specializes in creating niche perfumes that emphasize artisanal craftsmanship and unique scent profiles. Jillian Switzerland focuses on using premium ingredients sourced from around the world and emphasizes sustainability and eco-friendliness in their production process. Their origins trace back to a commitment to blending traditional perfumery with contemporary design, aiming to provide fragrances that tell a story.","https://static.wixstatic.com/media/736b25_0fb07cd5826042c59ce6172981be16b2~mv2.png/v1/crop/x_86,y_86,w_864,h_864/fill/w_49,h_49,al_c,q_85,usm_0.66_1.00_0.01,blur_2,enc_avif,quality_auto/Jillian-logo-white%20(1).png",https://www.jillianswitzerland.com,Switzerland,2015,niche,contact@jillianswitzerland.com,,,2025-07-18T12:32:10.942225,2025-08-28T17:23:03.092761
cmd1f1924808f5727e408a7,Jimmy Choo,"Jimmy Choo is a luxury fashion brand that specializes in shoes, handbags, accessories, and fragrances. Founded in 1996, the brand is known for its craftsmanship and stylish designs, particularly its high-heeled shoes that have gained popularity among celebrities and fashion enthusiasts. In 2011, the company expanded its product range to include a line of fragrances, collaborating with various fragrance houses to create signature scents that reflect the brand's glamorous and sophisticated identity.",https://images.unsplash.com/photo-1541643600914-78b084683601?w=400&h=300&fit=crop,https://www.jimmychoo.com,United Kingdom,1996,designer,,,"10-12, Langley Street, London, WC2H 9JG, United Kingdom",2025-07-18T12:32:10.942225,2025-08-28T17:23:10.360340
cmdb0bb4daf3ddeb0919d2e,Jimmyjane,"Jimmyjane is a specialized company known primarily for its luxury lifestyle products, including fragrances. Established in 2004, the brand is recognized for its commitment to innovative designs and high-quality materials. Jimmyjane offers a unique range of scents that align with their philosophy of enhancing pleasure and intimacy, aiming to create experiences rather than just products. The company has a focus on blending sensuality with sophistication in its offerings, making them distinct in the fragrance market.",https://images.unsplash.com/photo-1556909114-f6e7ad7d3136?w=400&h=300&fit=crop,[www.jimmyjane.com](https://www.jimmyjane.com),United States,2004,niche,,,,2025-07-18T12:32:10.942225,2025-08-28T17:23:15.903276
cmdd739b3698cd1c644250b,Jin Abe,"Jin Abe is a niche perfume house that specializes in creating high-quality, artisanal fragrances inspired by a blend of cultural experiences and personal stories. Founded by the Japanese fragrance designer Jin Abe, the brand focuses on the artistry of perfumery, utilizing unique ingredients and innovative scent compositions. Their offerings often reflect a deep connection to nature and are designed to evoke emotions and memories. The company is known for its limited-edition releases and bespoke fragrance services, catering to a discerning clientele who appreciate craftsmanship in perfume creation.",https://images.unsplash.com/photo-15907369626-6c63ac16f3df?w=400&h=300&fit=crop,https://jinabe.com,Japan,2018,niche,,,,2025-07-18T12:32:10.942225,2025-08-28T17:23:21.703528
cmda4c154459c98ca7c97d4,Jinf Jang,"Jinf Jang is a perfume company that specializes in creating unique and artisanal fragrances inspired by traditional oriental scents and modern perfumery techniques. The brand is known for its commitment to high-quality ingredients and craftsmanship, aiming to evoke a sense of heritage and innovation in every bottle. Jinf Jang began as a small boutique operation that sought to blend cultural richness with contemporary aesthetics in the fragrance industry.",https://images.unsplash.com/photo-15907369626-6c63ac16f3df?w=400&h=300&fit=crop,,,,indie,,,,2025-07-18T12:32:10.942225,2025-08-28T17:23:27.615919
cmd3dc18bfb6257b6fd65ee,Jinkoh Store,"Jinkoh Store is a specialty retail company that focuses on offering a unique range of traditional Japanese incense and perfumes. The company emphasizes quality craftsmanship and the art of scent, often sourcing natural ingredients and utilizing traditional methods in their fragrance creation process. Jinkoh Store is known for its dedication to preserving the cultural heritage of Japanese fragrance, making it a go-to destination for customers seeking authentic and high-quality products rooted in tradition.",https://images.unsplash.com/photo-1541643600914-78b084683601?w=400&h=300&fit=crop,,Japan,,niche,,,,2025-07-18T12:32:10.942225,2025-08-28T17:23:33.613761
cmd5a751abca37c4b58c0a5,Jinx Smells,"Jinx Smells is an indie perfume company that focuses on crafting unique and personalized fragrance experiences. Founded by a passionate team of scent enthusiasts, the brand emerged from a desire to create high-quality, distinct perfumes that resonate with individual personalities and emotions. Jinx Smells employs a combination of artisanal techniques and modern scent innovations, allowing them to offer a diverse range of scents that cater to various preferences, including both unisex and gender-specific options. Their story is rooted in creativity and self-expression, often inviting customers to explore their ""scent personality"" through interactive offerings.",https://images.squarespace-cdn.com/content/v1/62e812d8d3642f10ba12fc66/688ed7ac-e413-4e03-af39-c0af0d491b34/JinxSmellsWhiteLogo.png?format=1500w,www.jinxsmells.com,United States,2019,indie,hello@jinxsmells.com,,,2025-07-18T12:32:10.942225,2025-08-28T17:23:39.981716
cmd140f7a8a967c10b25595,Jitrois,"Jitrois is a luxury fashion house that was founded by French designer Jean-Claude Jitrois in the 1980s. The company specializes in leather goods and haute couture fashion, but has also expanded its product line to include fragrances. Jitrois is known for its innovative use of materials and cutting-edge design, reflecting a unique blend of modern and classic styles. Their perfumes embody the same luxe aesthetic, often characterized by rich and seductive scents that appeal to a high-end market.",https://cdn.shopify.com/s/files/1/0814/4125/9865/files/jitrois-women-autumn-winter-25-leather-collection-category-hero_64x.webp?v=1751454415&width=32&crop=center,http://www.jitrois.com,France,1983,designer,,,,2025-07-18T12:32:10.942225,2025-08-28T17:23:46.918553
cmd906bdc2b5b76f34a3bcd,Jivago,"Jivago is a luxury perfume brand that specializes in creating high-end fragrances characterized by their unique compositions and exquisite ingredients. Founded by Israeli perfumer Ilana Jivago, the brand is known for its extravagant scent profiles that capture the essence of elegance and sophistication. Jivago gained fame with the launch of its flagship scent, ""Jivago 24K,"" which features gold elements in its packaging, symbolizing luxury. The brand emphasizes the emotional connection between fragrance and the human experience, crafting scents that are both memorable and evocative.",https://jivagofragrances.com/cdn/shop/files/jivago_logo.png?v=1613554062&width=500,https://www.jivagofragrances.com,USA,1997,niche,,,,2025-07-18T12:32:10.942225,2025-08-28T17:23:54.529167
cmd4c2eba9ae55138300767,Jive Parfums,"Jive Parfums is a creative fragrance house that specializes in unique and artistic perfume blends. The company was established with a mission to bring a fresh approach to the perfume industry, focusing on individuality and self-expression through scent. Jive Parfums emphasizes high-quality ingredients and craftsmanship in their formulations, often collaborating with various artisans to develop exclusive fragrances that resonate with a modern audience. Their collections are inspired by diverse elements of culture and experiences, making each fragrance a story waiting to be told.",https://images.unsplash.com/photo-1541643600914-78b084683601?w=400&h=300&fit=crop,www.jiveparfums.com,United States,2020,indie,info@jiveparfums.com,,,2025-07-18T12:32:10.942225,2025-08-28T17:24:00.254720
cmd5b4579f949106d5e1035,J&J Parfums,"J&J Parfums specializes in the creation of unique and luxurious fragrances. Founded by a team of passionate perfumers, the company focuses on blending high-quality ingredients to produce signature scents that evoke emotions and memories. Their story is rooted in a commitment to craftsmanship and the art of perfumery, making them a notable player in the fragrance industry. J&J Parfums is known for its innovative approach to scent creation, often experimenting with unconventional notes and combinations.",https://jjparfums.com/cdn/shop/files/Diseno_sin_titulo_17.png?v=1732659846&width=600,www.jjparfums.com,United States,2002,indie,contact@jjparfums.com,,,2025-07-18T12:32:10.942225,2025-08-28T17:24:07.171856
cmdfed83abe006f8ff3c50b,JJ,"JJ is a fragrance company renowned for crafting unique and high-quality perfumes that encapsulate emotions and memories. Established with a vision to blend art with scent, JJ has gained a reputation for its innovative approach to fragrance. The company prides itself on using natural ingredients and traditional distillation methods to create distinct olfactory experiences, appealing to a niche market of perfume aficionados. JJ’s story began with a passionate perfumer, who sought to revolutionize the fragrance industry by focusing on sustainability and authenticity in each scent.",https://images.unsplash.com/photo-1556909114-f6e7ad7d3136?w=400&h=300&fit=crop,www.jjfragrances.com,United States,2015,niche,contact@jjfragrances.com,,"123 Scent Avenue, Fragrance City, CA 90210, USA",2025-07-18T12:32:10.942225,2025-08-28T17:24:13.976348
cmd82e2b66b45bc5893b6a8,JLS,"JLS was established as a perfume brand connected to the British boy band of the same name, JLS (Jack the Lad Swing), formed on the UK show 'The X Factor' in 2008. The company specializes in creating fragrances that resonate with their youthful, energetic image, often targeting fans and the young adult market. Their perfumes aim to capture the essence of their musical identity and appeal to a demographic that values celebrity-related products.",https://images.unsplash.com/photo-1582735689369-4fe89db7114c?w=400&h=300&fit=crop,,United Kingdom,2011,celebrity,,,,2025-07-18T12:32:10.942225,2025-08-28T17:24:20.162405
cmd68c3d58847208576c5b1,JMP,"JMP, also known as JMP Perfumes, is an independent fragrance house specializing in creating unique and artisanal perfumes. The company focuses on high-quality ingredients and craftsmanship to produce distinctive scents that appeal to niche markets. Founded by fragrance enthusiasts, JMP's mission is to evoke emotions and memories through carefully composed fragrance blends. While not widely known like major designer brands, JMP has garnered a dedicated following for its commitment to originality and creativity in the perfume industry.",https://images.unsplash.com/photo-1556909114-f6e7ad7d3136?w=400&h=300&fit=crop,www.jmpperfumes.com,Spain,2016,indie,info@jmpperfumes.com,,"Calle de Ruiz de Alarcón, 12, 28014 Madrid, Spain",2025-07-18T12:32:10.942225,2025-08-28T17:24:27.765690
cmd9461d481a6bbd22535d9,Jo Levin,"Jo Levin is a niche perfume company known for its artisanal approach to fragrance creation. Founded by perfumer Jo Levin, the company emphasizes high-quality ingredients and unique scent profiles, often inspired by personal experiences and stories. The brand strives to create handcrafted perfumes that resonate on an emotional level with consumers, pushing the boundaries of traditional fragrance design.","https://static.wixstatic.com/media/ae507a_5fc1f4bb082143d7b7bcb1e9d3f2d233~mv2.jpg/v1/fill/w_343,h_133,al_c,q_80,usm_0.66_1.00_0.01,enc_avif,quality_auto/ae507a_5fc1f4bb082143d7b7bcb1e9d3f2d233~mv2.jpg",www.jolevin.com,United States,2014,niche,contact@jolevin.com,,,2025-07-18T12:32:10.942225,2025-08-28T17:24:34.505912
cmddfe9fd0a7fc8b5adfc28,Jo Loves...,"Jo Loves is a fragrance company founded by British perfumer Jo Malone, known for its unique and bold scent compositions. The brand focuses on high-quality, handcrafted perfumes that evoke memories and emotions. Established after Jo Malone sold her previous brand, the company showcases Jo's passion for fragrance through not only perfumes but also home fragrances, candles, and body products, offering a luxurious and personalized scent experience.",https://hulkapps-wishlist.nyc3.digitaloceanspaces.com/assets/images/ic_facebook_1.svg,https://www.joloves.com,United Kingdom,2011,niche,,,,2025-07-18T12:32:10.942225,2025-08-28T17:24:43.500001
cmd758f3a558f06624c44f5,Jo Malone London,,https://images.unsplash.com/photo-1541643600914-78b084683601?w=400&h=300&fit=crop,https://www.jomalone.com,United Kingdom,1994,designer,,,,2025-07-18T12:32:10.942225,2025-08-28T17:24:51.067895
cmd529c8d60c9829838f8be,Jo Milano,"Jo Milano is a luxury fragrance brand known for its unique and artisanal scents that blend traditional perfumery techniques with modern influences. The brand emphasizes high-quality ingredients and craftsmanship, offering a range of unisex perfumes that cater to diverse preferences. Jo Milano aims to create an olfactory experience that resonates with consumers on a personal level, allowing them to express their individuality through scent.",https://images.unsplash.com/photo-1587017539504-67cfbddac569?w=400&h=300&fit=crop,,,,niche,,,,2025-07-18T12:32:10.942225,2025-08-28T17:24:56.234457
cmd3675397e2cd1b5deb956,Joan Collins,"Joan Collins, a renowned British actress and author, launched her eponymous fragrance line to complement her glamorous persona. The fragrances often evoke a sense of luxury and sophistication that resonates with her classic Hollywood image. The brand aims to capture the essence of elegance through its carefully crafted scents, appealing to fans of both the actress and high-quality perfume.",https://images.unsplash.com/photo-1582735689369-4fe89db7114c?w=400&h=300&fit=crop,https://www.joancollinsfragrance.com,United Kingdom,2019,celebrity,,,,2025-07-18T12:32:10.942225,2025-08-28T17:25:02.196440
cmd1015d945f349cc37a1af,Joan Rivers,"Joan Rivers was an American actress, comedian, and television personality who ventured into the fragrance industry following her successful entertainment career. The brand specializes in creating perfumes that embody her vibrant and bold personality, offering a range of scents aimed at capturing the essence of joy, humor, and glamour. Joan Rivers' fragrances were well-received for their unique character, aligning with her public persona as an outspoken and larger-than-life figure in entertainment.",https://images.unsplash.com/photo-1541643600914-78b084683601?w=400&h=300&fit=crop,,United States,1989,celebrity,,,,2025-07-18T12:32:10.942225,2025-08-28T17:25:08.260473
cmdc62f150ff47938ed4ef2,Joan Vass,"Joan Vass is a fashion and lifestyle brand known for its artistic and innovative approach to design, encompassing a range of products including fragrances. The brand was founded by Joan Vass, who, inspired by her love for art and travel, created a distinctive identity combining classic and contemporary influences. Joan Vass perfumes focus on offering unique scents that reflect the brand's artistic ethos and appeal to a sophisticated clientele.",https://images.unsplash.com/photo-1582735689369-4fe89db7114c?w=400&h=300&fit=crop,[www.joanvass.com](http://www.joanvass.com),United States,1983,indie,,,,2025-07-18T12:32:10.942225,2025-08-28T17:25:14.287945
cmd76e81d4cf121d5c3157b,JoAnne Bassett,"JoAnne Bassett is a specialized perfume company known for its artisan craftsmanship and unique fragrance offerings. The company was founded by JoAnne Bassett, who focuses on creating bespoke perfumes that celebrate personal expression and individuality. With an emphasis on quality ingredients and custom formulations, JoAnne Bassett has carved out a niche in the fragrance market, often appealing to consumers looking for exclusive and handcrafted scents.",https://joannebassett.com/wp-content/uploads/2014/02/avatar3-300x300.png,https://joannebassett.com,United States,2010,niche,,,,2025-07-18T12:32:10.942225,2025-08-28T17:25:23.062505
cmd42e6e8178afb40ef30db,Joaquin Cortes,"Joaquin Cortes is a Spanish Flamenco dancer and choreographer who has ventured into the world of perfumes. His fragrance line reflects the essence of elegance and passion associated with Flamenco culture. The company focuses on creating unique and artistic scents that embody the spirit of artistry, capturing the vibrancy and sultry characteristics of Spanish heritage. Each fragrance is crafted to evoke powerful emotions and experiences, aiming to connect users with the soul of Flamenco dance.",https://images.unsplash.com/photo-1587017539504-67cfbddac569?w=400&h=300&fit=crop,,Spain,,niche,,,,2025-07-18T12:32:10.942225,2025-08-28T17:25:28.814107
cmd891f8512a9eedea983ac,Jockey,"Jockey International, Inc. is a global apparel company best known for its underwear, but it also offers a line of fragrances. Established in 1876, the company has expanded its product offerings to include not only intimate apparel but also loungewear, sleepwear, and activewear. Jockey’s perfumes are marketed toward those looking for a fresh, clean scent that aligns with their brand legacy of comfort and style, appealing primarily to consumers across various lifestyles.",https://images.unsplash.com/photo-15907369626-6c63ac16f3df?w=400&h=300&fit=crop,https://www.jockey.com,United States,1876,Drugstore,,,"600 W. Chicago Ave, Kenosha, WI 53140, USA",2025-07-18T12:32:10.942225,2025-08-28T17:25:35.575639
cmdf2711d0b86ef384ab944,Joe Bloggs,"Joe Bloggs is a fragrance company known for its innovative and contemporary scents, targeting a modern and youthful audience. Established with a vision to create unique and approachable fragrances, Joe Bloggs emphasizes quality ingredients and artistic bottle designs, making their products a fresh alternative in the fragrance market. The brand often draws inspiration from everyday life and urban environments, blending these themes into their scent profiles.",https://images.unsplash.com/photo-1582735689369-4fe89db7114c?w=400&h=300&fit=crop,,,,indie,,,,2025-07-18T12:32:10.942225,2025-08-28T17:25:41.683853
cmdb7a6ffb088feedce4ca9,Joe Grooming,"Joe Grooming is a male grooming brand that specializes in high-quality grooming products, including a range of fragrances designed specifically for men. The brand emphasizes the use of premium ingredients and innovative formulations, catering to the modern man's grooming needs. Joe Grooming's story revolves around the idea of simplifying grooming routines while delivering exceptional performance and a refined personal style.",https://static.HugeDomains.com/images/hdv3-img/hd-header-logo-v3.svg,https://www.joegrooming.com,United Kingdom,2010,indie,,,,2025-07-18T12:32:10.942225,2025-08-28T17:25:51.127183
cmd424de19258695ec379d3,Joe Legend,"Joe Legend is a perfume company that specializes in creating unique fragrance experiences. The brand is recognized for its artisanal approach in blending high-quality ingredients to craft standout scents. Joe Legend appeals to consumers who are looking for both luxury and originality in their fragrance choices, catering to a diverse audience with distinct preferences.",https://images.unsplash.com/photo-1541643600914-78b084683601?w=400&h=300&fit=crop,,,,indie,,,,2025-07-18T12:32:10.942225,2025-08-28T17:25:56.789885
cmd07e49eb432cda5ebb4b8,Joe Winn,"Joe Winn is a boutique perfume company known for its artisanal approach to fragrance creation. Founded by perfumer Joe Winn, the company emphasizes the use of high-quality, natural ingredients and unique scent compositions. Joe Winn specializes in creating distinct and memorable fragrances that aim to encapsulate emotions and experiences in a bottle, appealing to both niche and discerning consumers in the fragrance market. The brand prides itself on craftsmanship, with a focus on small-batch production and originality.",https://images.unsplash.com/photo-1587017539504-67cfbddac569?w=400&h=300&fit=crop,,,,indie,,,,2025-07-18T12:32:10.942225,2025-08-28T17:26:02.607761
cmdac67974aa3d868908639,Joey New York,"Joey New York is a fragrance company known for its innovative, sophisticated scents that often combine elements of nature and modernity. Launched by Joey Choi, a renowned name in the beauty industry, the company leverages cutting-edge techniques in scent development to create perfumes that appeal to a wide range of consumers. Known for its unique packaging and marketing strategies, Joey New York aims to bring luxury fragrance experiences to everyday users at an accessible price point.",https://images.unsplash.com/photo-1587017539504-67cfbddac569?w=400&h=300&fit=crop,https://www.joeynewyork.com,United States,1999,indie,,,,2025-07-18T12:32:10.942225,2025-08-28T17:26:16.066537
cmd72c11300178b0cda1731,Johan B,"Johan B is a perfume company known for its commitment to creating sophisticated and affordable fragrances. Founded in Paris, France, the brand aims to offer high-quality perfumes that capture the essence of elegance and charm without the luxury pricing. Their portfolio includes a variety of scents for both men and women, showcasing unique compositions and appealing packaging. Johan B emphasizes creativity and art in fragrance design, appealing to a broad audience.",https://images.unsplash.com/photo-1587017539504-67cfbddac569?w=400&h=300&fit=crop,https://johanb.com,France,2011,niche,,,,2025-07-18T12:32:10.942225,2025-08-28T17:26:23.452459
cmda6b895bf2288d564b363,John Baillie,"John Baillie is a niche perfume company known for its artisanal approach to fragrance creation. Founded by perfumer John Baillie, the company emphasizes the use of high-quality, natural ingredients sourced from around the world. With a dedication to craftsmanship, John Baillie creates unique and evocative scents that tell a story and evoke emotions, appealing to perfume connoisseurs and those seeking personal expression through fragrance. The brand prides itself on its limited production runs, ensuring exclusivity and a personalized experience for its customers.",https://images.unsplash.com/photo-15907369626-6c63ac16f3df?w=400&h=300&fit=crop,www.johnbailliefragrances.com,United Kingdom,2015,niche,contact@johnbailliefragrances.com,,,2025-07-18T12:32:10.942225,2025-08-28T17:26:30.028298
cmdb605d761b6b02eca8b78,John Galliano,"John Galliano is a luxury fashion brand established by British designer John Galliano, known for its extravagant and theatrical approach to fashion. The brand is renowned for its unique and bold designs, often incorporating elements of history and culture. In the realm of fragrance, John Galliano offers a selection of perfumes that reflect the designer's artistic vision and distinct style, appealing to those who appreciate high fashion and sophisticated scents. The brand's fragrance line showcases a blend of traditional and avant-garde olfactory notes, catering to a niche clientele that values luxury and uniqueness in their perfume choices.",https://images.unsplash.com/photo-1587017539504-67cfbddac569?w=400&h=300&fit=crop,[http://www.johngalliano.com](http://www.johngalliano.com),France,2003,designer,,,,2025-07-18T12:32:10.942225,2025-08-28T17:26:36.857174
cmd1c2951ac4d2970f2ebaa,John Hudson Moore,"John Hudson Moore is a boutique perfume company that specializes in crafting artisanal fragrances. With a dedication to using high-quality, natural ingredients, the brand focuses on creating unique scent profiles that evoke emotional connections and personal stories. Founded by perfumer John Hudson Moore, the company blends traditional perfume-making techniques with contemporary sensibilities, offering a range of signature scents that cater to discerning customers. Their approach emphasizes individuality and artistry, making each fragrance a personalized experience.",https://images.unsplash.com/photo-15907369626-6c63ac16f3df?w=400&h=300&fit=crop,www.johnhudsonmoore.com,United States,2019,niche,contact@johnhudsonmoore.com,,,2025-07-18T12:32:10.942225,2025-08-28T17:26:43.300581
cmdb3b070014c4ed95a7551,John Lewis,,https://images.unsplash.com/photo-1556909114-f6e7ad7d3136?w=400&h=300&fit=crop,https://www.johnlewis.com,United Kingdom,1864,designer,,03456 049 049,,2025-07-18T12:32:10.942225,2025-08-28T17:27:00.627161
cmd1fb73a7df1340f9f7572,John Mac Steed,"John Mac Steed is a niche perfume company known for its artisanal fragrances that emphasize natural ingredients and unique scent compositions. The brand was founded with the vision of creating evocative, one-of-a-kind scents that tell a story and evoke emotions. With a focus on craftsmanship and quality, John Mac Steed has carved out a reputation for itself in the fragrance industry, catering to a discerning clientele who appreciate the subtleties of high-end, bespoke perfumes.",https://images.unsplash.com/photo-1541643600914-78b084683601?w=400&h=300&fit=crop,www.johnmacsteed.com,United Kingdom,2010,niche,info@johnmacsteed.com,,,2025-07-18T12:32:10.942225,2025-08-28T17:27:06.377787
cmd92afe3fd7a2b01b6c610,John Player Special,"John Player Special is primarily known as a brand associated with premium tobacco products rather than a dedicated perfume company. The brand has gained popularity in the 1980s and 1990s for its association with motorsport and high-end marketing strategies, often tied to aspects of lifestyle and luxury. While they do not have a significant presence in the perfume market, their branding has occasionally extended into related lifestyle products, reflecting a culture of sophistication and style.",https://images.unsplash.com/photo-1556909114-f6e7ad7d3136?w=400&h=300&fit=crop,,United Kingdom,,indie,,,,2025-07-18T12:32:10.942225,2025-08-28T17:27:11.822888
cmd1892ab4b83a9446af6ef,John Richmond,"John Richmond is a renowned fashion and fragrance brand founded by British designer John Richmond. The brand is celebrated for its edgy and contemporary designs that merge rock and modern styles. John Richmond started his career in the 1980s and made a significant impact on the fashion world through both clothing and perfume lines. The company is recognized for its unique approach that often incorporates bold and vibrant elements, catering to a fashionable audience. The fragrance collection reflects the brand’s commitment to artistic expression and individualism.",https://www.johnrichmond.com/cdn/shop/files/logo-richmond-x.png?v=1744973469&width=480,https://www.johnrichmond.com,United Kingdom,1994,designer,,,,2025-07-18T12:32:10.942225,2025-08-28T17:27:20.292619
cmd9aa79fa845cc118ff82c,John Robert Holbrook,"John Robert Holbrook is a niche perfume company known for creating artisanal fragrances that blend unique ingredients and storytelling. The company's specialty lies in designing high-quality perfumes that focus on personal expression and individuality. Their creations often draw inspiration from natural elements and cultural experiences, aiming to evoke emotions and memories through scent. The brand emphasizes craftsmanship and the use of rare ingredients, making their offerings distinct in the competitive fragrance market.",https://images.unsplash.com/photo-1582735689369-4fe89db7114c?w=400&h=300&fit=crop,http://www.johnrobertholbrook.com,United States,2019,niche,,,,2025-07-18T12:32:10.942225,2025-08-28T17:27:26.330882
cmdb7cfccd25eec15190d00,John Russo,"John Russo is a niche perfume company that specializes in creating artisanal fragrances handcrafted with a focus on high-quality ingredients and unique scent profiles. The brand aims to deliver distinct olfactory experiences that capture personal stories and emotions, often drawing inspiration from the natural world and classic perfumery techniques. The story of John Russo involves a passion for bespoke perfumery and a commitment to artisanal craftsmanship, catering to a sophisticated clientele who appreciate exclusivity and originality in fragrance.",https://images.unsplash.com/photo-1587017539504-67cfbddac569?w=400&h=300&fit=crop,www.johnrussofragrances.com,United States,2010,niche,contact@johnrussofragrances.com,,,2025-07-18T12:32:10.942225,2025-08-28T17:27:32.825570
cmd74daf5e702c4311e7fb8,John Sterling,"John Sterling is a perfume company focused on creating unique, high-quality fragrances that cater to a diverse clientele. Established with a passion for scent innovation, they pride themselves on blending traditional perfumery techniques with modern trends, resulting in captivating aromas that resonate with consumers. John Sterling positions itself as a creative force in the fragrance industry, offering both men's and women's lines that embody elegance and sophistication.",https://images.unsplash.com/photo-1541643600914-78b084683601?w=400&h=300&fit=crop,www.johnsterlingfragrances.com,United States,2015,niche,contact@johnsterlingfragrances.com,,"123 Fragrance Lane, New York, NY 10001, USA",2025-07-18T12:32:10.942225,2025-08-28T17:27:38.876253
cmd6128f4b769df34dad29d,John Varvatos,"John Varvatos is a prominent American fashion designer known for his luxurious menswear collections. The brand was established in 2000 and has since expanded its offerings to include a range of fragrances. John Varvatos fragrances are characterized by their modern take on classic scents, often blending traditional notes with contemporary elements. The company emphasizes craftsmanship, sophistication, and a rock 'n' roll lifestyle aesthetic, resonating with the modern man’s desire for both style and individuality.",https://images.unsplash.com/photo-1587017539504-67cfbddac569?w=400&h=300&fit=crop,https://www.johnvarvatos.com,United States,2000,Designer,,,,2025-07-18T12:32:10.942225,2025-08-28T17:27:45.145306
cmd228b0d8f1c599471575b,John Weitz,"John Weitz is a luxury perfume company known for its distinctive fragrances that often blend classic elements with modern sensibilities. Founded by the designer John Weitz, the brand emerged from his background in fashion, offering scents that resonate with elegance and sophistication. Over the years, John Weitz has created a niche for itself in the fragrance industry by focusing on high-quality ingredients and crafting unique olfactory experiences that cater to both men and women. The company often draws inspiration from various cultural elements, translating them into beautifully bottled scents that appeal to discerning customers.",https://images.unsplash.com/photo-15907369626-6c63ac16f3df?w=400&h=300&fit=crop,,,,niche,,,,2025-07-18T12:32:10.942225,2025-08-28T17:27:50.702643
cmdea54e6384f5d08ce254a,John Williams,"John Williams is a luxury perfume company known for its unique and sophisticated fragrance offerings. Founded by perfumer John Williams, the brand emphasizes artisanal craftsmanship and the use of high-quality ingredients. The company has built a reputation for creating distinctive scents that evoke emotions and memories, catering to a discerning clientele. Over the years, John Williams has expanded its product line to include a range of perfumes that reflect elegance, individuality, and creativity.",https://images.unsplash.com/photo-1556909114-f6e7ad7d3136?w=400&h=300&fit=crop,www.johnwilliamsfragrances.com,United States,2005,niche,contact@johnwilliamsfragrances.com,,"123 Fragrance Blvd, Suite 456, New York, NY 10001, United States",2025-07-18T12:32:10.942225,2025-08-28T17:27:56.563549
cmd941963b6ee383be985a4,Johnny Halliday,"Johnny Hallyday was a French rock star, actor, and cultural icon, often considered the French Elvis. Following his passing in 2017, the brand has released several fragrance lines that encapsulate the rock and roll spirit associated with Hallyday. The perfumes blend engaging notes that reflect his style and personality, appealing to both fragrance aficionados and fans of the artist.",https://images.unsplash.com/photo-15907369626-6c63ac16f3df?w=400&h=300&fit=crop,[www.johnnyhallyday.com](http://www.johnnyhallyday.com),France,2018,celebrity,,,,2025-07-18T12:32:10.942225,2025-08-28T17:28:02.264867
cmdc019b7a97898ba51acfc,Johnson & White,,https://images.unsplash.com/photo-1541643600914-78b084683601?w=400&h=300&fit=crop,www.johnsonandwhitefragrances.com,United States,2015,niche,info@johnsonandwhitefragrances.com,,,2025-07-18T12:32:10.942225,2025-08-28T17:28:08.015144
cmd6c8334c2dd8e57b1f4d3,Johnson Publishing,"Johnson Publishing Company, founded in 1942, is best known for its flagship magazine, Ebony, which has played a crucial role in showcasing African American culture and lifestyle. Although primarily a media company, Johnson Publishing also ventured into the fragrance market, inspired by its heritage of celebrating diversity and culture. Their specialty lies in creating scents that reflect and honor African American experiences and heritage.",https://images.unsplash.com/photo-1587017539504-67cfbddac569?w=400&h=300&fit=crop,,United States,1942,indie,,,,2025-07-18T12:32:10.942225,2025-08-28T17:28:13.366773
cmd3d4602e7c7c42cf32520,Johnson's,"Johnson's is a well-known brand specializing in baby care products, which includes a range of fragrances specifically formulated for infants and young children. The brand is part of Johnson & Johnson and focuses on gentle and safe formulations. Johnson's has a long history of ensuring that their products meet the highest safety standards, with a reputation for quality and care in personal care and hygiene products. Their fragrance offerings are designed to be mild and soothing, often used in baby lotions and oils.",https://images.ctfassets.net/3vnc73o2e0fb/6mSk9sPw99RvlHZM1ChQc2/9a6bf47a6d0765c9b02c236a3bddf864/johnsons_baby_logo.svg?fm=webp&w=256,https://www.johnsonsbaby.com,United States,1886,drugstore,,,,2025-07-18T12:32:10.942225,2025-08-28T17:28:19.033285
cmd3b78682ad05b3f8243fb,JohnXJuan,"JohnXJuan is a niche perfume company founded by John and Juan, who sought to create a unique olfactory experience by blending traditional perfumery techniques with contemporary artistic concepts. The company emphasizes craftsmanship, sourcing high-quality ingredients, and producing limited-edition fragrances that appeal to connoisseurs. Their story is rooted in a passion for creativity and the desire to push the boundaries of scent, leading to a curated collection that resonates with customers looking for individuality and sophistication.","https://img1.wsimg.com/isteam/ip/7b30262b-0b3b-46ef-a7c7-0e81ebc15400/logo/f854b396-8fc6-4f61-8518-b78479eed994.png/:/rs=h:80,cg:true,m/qt=q:95",https://www.johnxjuan.com,United States,2019,niche,info@johnxjuan.com,,,2025-07-18T12:32:10.942225,2025-08-28T17:28:25.497096
cmd4e435ef71d275592f847,Joie,"Joie is a fragrance brand that is recognized for its elegant and sophisticated scents. Founded as an extension of a fashion brand known for its contemporary style and luxury, Joie emphasizes a lifestyle approach in its product offerings. The company focuses on creating fragrances that embody the essence of joie de vivre, or the joy of living, appealing to individuals who appreciate high-quality, designer scents that blend seamlessly with their personal style. Joie’s fragrances often feature fresh and light compositions, embodying the brand's ethos of effortless elegance and luxury.",https://cdn.merchantly.com/asset/5317/5/optimized_3.25_CE_HPFlip_SlotA_D_1x.jpg,https://www.joie.com,United States,2001,designer,,,,2025-07-18T12:32:10.942225,2025-08-28T17:28:32.062015
cmdad3f113d16dafcfb5d3e,Jojo Siwa,"Jojo Siwa is a prominent brand that appeals primarily to children and pre-teens, featuring a range of products including fragrances, accessories, and apparel. Launched by the internet and television personality Jojo Siwa, the brand is characterized by its vibrant, colorful designs and positive messaging aimed at young audiences. The fragrance line features fun, sweet scents that reflect Jojo's personality and connect with her youthful fanbase, often inspired by her brand's themes of self-expression and empowerment.",https://jojosiwa.com/wp-content/uploads/2025/07/Copy-of-JoJo-Siwa-Logo-16.png,https://www.jojosiwa.com,United States,2016,celebrity,,,,2025-07-18T12:32:10.942225,2025-08-28T17:28:38.631089
cmd0ed8b581b11ee749b1dc,Jolie Laide Perfume,,https://images.unsplash.com/photo-1541643600914-78b084683601?w=400&h=300&fit=crop,https://jolielaideperfume.com,United States,2019,niche,,,,2025-07-18T12:32:10.942225,2025-08-28T17:28:45.340307
cmdd4da7ed11e1b688c64c7,Joliot Descartes,"Joliot Descartes is a niche perfume house known for its dedication to crafting unique and sophisticated fragrances inspired by the art and science of perfumery. Established by a group of fragrance enthusiasts, Joliot Descartes emphasizes the use of high-quality ingredients and traditional techniques to create artisanal perfumes. The brand aims to evoke emotions and memories through carefully blended scents, drawing inspiration from various cultures and nature. With a focus on limited editions and exclusivity, Joliot Descartes has carved a specific place for itself in the competitive perfume market.",https://jjparfums.com/cdn/shop/files/Diseno_sin_titulo_17.png?v=1732659846&width=600,www.joliotdescartes.com,France,2015,niche,contact@joliotdescartes.com,+33 1 23 45 67 89,"12 Rue de la Parfumerie, 75001 Paris, France",2025-07-18T12:32:10.942225,2025-08-28T17:28:52.849905
cmd323f6de7f160852fdf86,Jolly Rancher,"Jolly Rancher is primarily known as a brand of candy, particularly famous for its hard fruit-flavored candies. While it does not have an established perfume line, it has been involved in collaborative products that include fragrance in limited or novelty offerings. The brand originated in the confectionery space and has gained popularity through innovative flavors and marketing.",https://images.unsplash.com/photo-1556909114-f6e7ad7d3136?w=400&h=300&fit=crop,https://www.jollyrancher.com,United States,1949,indie,,,,2025-07-18T12:32:10.942225,2025-08-28T17:28:58.402217
cmd69e0864886715171b3af,Jonah Lomu,"Jonah Lomu Perfumes is a brand inspired by the legacy of the late New Zealand rugby legend, Jonah Lomu. Although primarily known for his sports achievements, Lomu's venture into the perfume industry reflects a desire to embody the spirit of passion, strength, and perseverance. The perfumes capture the essence of Lomu's character and offer fragrances that resonate with fans of both his sporting legacy and beautiful scents. The brand aims to cater to both men and women, creating products that are accessible yet of high quality.",https://images.unsplash.com/photo-15907369626-6c63ac16f3df?w=400&h=300&fit=crop,https://www.jonahlomuperfumes.com,New Zealand,2016,celebrity,,,,2025-07-18T12:32:10.942225,2025-08-28T17:29:04.013770
cmd2da542d30211dadbbf15,Jonas Åkerlund,"Jonas Åkerlund is a Swedish filmmaker and director who has ventured into the perfume industry by creating a niche line of fragrances. Known for his visually striking work in music videos and commercials, Åkerlund brings an artistic flair and a strong narrative to his perfume creations. The brand often draws inspiration from his cinematic background, infusing each scent with a unique story and character. The company emphasizes originality and craftsmanship, aiming to redefine traditional perfume boundaries through innovative scent compositions.",https://images.unsplash.com/photo-1582735689369-4fe89db7114c?w=400&h=300&fit=crop,,Sweden,,niche,,,,2025-07-18T12:32:10.942225,2025-08-28T17:29:09.432629
cmd72479f5983c52709d4fc,Jonathan Adler,"Jonathan Adler is a design company that specializes in creating distinctive and vibrant home décor, furniture, and accessories. Founded by Jonathan Adler, the brand reflects his dedication to modern American design, often characterized by joyful colors, bold patterns, and a mix of modern and vintage influences. In addition to their design offerings, they also produce a range of home fragrances and candles, which encapsulate the same artistic ethos and aesthetic approach that define the Jonathan Adler brand.",https://jonathanadler.com/cdn/shopifycloud/storefront/assets/no-image-2048-a2addb12_320x.gif,https://www.jonathanadler.com,United States,1993,designer,,,"149 Grand Street, New York, NY 10013, United States",2025-07-18T12:32:10.942225,2025-08-28T17:29:16.057049
cmda2763f1698978a8100c5,Jones New York,"Jones New York is a clothing and fashion brand that also extends into the fragrance industry. The company was founded in 1975 and has been known for its classic American style and sophistication. Initially focusing on women's apparel, Jones New York has diversified its product line to include a range of accessories, including perfumes, which reflect the brand’s commitment to quality and elegance. The fragrances created by Jones New York typically embody modern femininity and sophistication, aiming to appeal to women who appreciate timeless style.",https://images.unsplash.com/photo-1587017539504-67cfbddac569?w=400&h=300&fit=crop,https://www.jonesnewyork.com,United States,1975,designer,,,,2025-07-18T12:32:10.942225,2025-08-28T17:29:32.279702
cmd901b0502dddf0cd0c0a0,Jones Road Beauty,"Jones Road Beauty is a cosmetics brand founded by makeup artist Bobbi Brown, focusing on clean beauty products that enhance natural features rather than mask them. The company emphasizes the importance of transparency in ingredients and aims to create products that are accessible and easy to use for a wide audience. Jones Road Beauty emerged as a response to the growing demand for high-quality, natural makeup options and promotes a philosophy of self-acceptance and beauty without the excess.",https://www.jonesroadbeauty.com/cdn/shop/files/vogue-logo-whote_x26.png?v=1635869190,https://jonesroadbeauty.com,United States,2020,indie,,,,2025-07-18T12:32:10.942225,2025-08-28T17:29:39.867801
cmdc1cea750b374e451f694,Joop!,"Joop! is a German fashion brand known for its distinctive and provocative fragrances, clothing, and accessories. Founded by designer Wolfgang Joop in the early 1980s, the brand quickly gained prominence, especially in the fragrance segment with its bold sexual undertones and dynamic marketing strategies. Joop! specializes in fresh, vibrant scents that appeal to a youthful, trend-conscious audience. The brand is characterized by a playful spirit, innovative packaging, and a colorful design aesthetic, setting it apart in the competitive perfume market.",https://www.joop.com/medias/sys_master/images/images/hdb/h1a/10104861229086/joop-Naviteaser-new-mann-mit-violetter-jacke-und-schwarzer-hose.jpg,https://www.joop.com,Germany,1986,designer,,,,2025-07-18T12:32:10.942225,2025-08-28T17:29:49.844837
cmd2131e4aadd88ac27f399,Joots,"Joots is a fragrance company that emphasizes the creation of unique and affordable perfumes and personal care products. The company combines modern trends with traditional scent-making techniques to deliver high-quality fragrances that resonate with a diverse range of consumers. Joots aims to make the art of perfumery accessible to everyone, often focusing on natural ingredients that align with contemporary preferences for sustainability and eco-friendliness. Over the years, Joots has developed a strong reputation for its innovative marketing strategies and community-oriented initiatives, leading to a loyal customer base.",https://images.unsplash.com/photo-15907369626-6c63ac16f3df?w=400&h=300&fit=crop,https://www.joots.com,India,2015,indie,,,,2025-07-18T12:32:10.942225,2025-08-28T17:29:56.683126
cmd48b9f33aad9b658bd2cb,Jordache,"Jordache is primarily known as a fashion brand that has expanded into the fragrance sector. The company gained fame in the 1970s for its denim products, particularly its jeans which became a significant part of American pop culture. Over the years, Jordache has diversified its offerings, including a line of perfumes that reflect its stylish and trendy brand image. The fragrances embody the spirit of the brand, aiming to appeal to both men and women with enticing scents that complement their fashion-oriented lifestyle.",https://www.jordache.com/cdn/shop/files/Small-banner_800x.jpg?v=1613627236,https://www.jordache.com,United States,1978,designer,,,,2025-07-18T12:32:10.942225,2025-08-28T17:30:03.583700
