id,name,description,image,website,country,founded,type,email,phone,address,createdAt,updatedAt
cmde357c2ffb8678b0f743a,Speed Smelling (IFF),"Speed Smelling is a part of International Flavors & Fragrances (IFF), a global leader in the creation of flavors and fragrances. Speed Smelling is a specialized service that focuses on educational experiences regarding scent. It is designed to enhance the understanding of perfumery and fragrance branding among consumers, perfume professionals, and industry stakeholders. Through interactive sessions, Speed Smelling aims to demystify the art of scent creation, exploring different notes and compositions.",https://images.unsplash.com/photo-1582735689369-4fe89db7114c?w=400&h=300&fit=crop,https://www.iff.com,United States,,niche,,,,2025-07-18T12:32:10.942225,2025-08-29T13:08:39.979093
cmda375bc85f72e8dd8bf8e,Speick,"Speick is a German company renowned for its natural and organic personal care products, including a range of high-quality perfumes. Founded on the principles of sustainability and nature, Speick uses the Speick plant, a unique Alpine herb known for its soothing and healing properties. The company has a rich history since its inception in 1928, and it specializes in creating products that harmonize body and mind, with an emphasis on vegan formulations and environmentally friendly practices.",https://www.speick.de/assets/images/e/Men_DeoRoll-on_1080x1080-983df565.jpg,https://www.speick.de,Germany,1928,indie,,,,2025-07-18T12:32:10.942225,2025-08-29T13:08:49.227014
cmdd6590f88a1dcad9c45d9,Speidel,"Speidel is a perfume and fragrance company that specializes in crafting unique and high-quality scents. They focus on creating fragrances that combine traditional perfumery techniques with modern sensibilities, appealing to a wide range of customers. Founded with a passion for olfactory art, Speidel has developed a reputation for its innovative scents that reflect individuality and style.",https://images.unsplash.com/photo-1582735689369-4fe89db7114c?w=400&h=300&fit=crop,,,,indie,,,,2025-07-18T12:32:10.942225,2025-08-29T13:08:55.350223
cmdf905304e7e41037d4b59,Spektr,"Spektr is a contemporary perfume brand known for its innovative approach to fragrance creation. The company distinguishes itself through a focus on high-quality ingredients, unique scent combinations, and artistic packaging. Established to bring a fresh perspective to the fragrance market, Spektr often collaborates with renowned perfumers and artists, creating a brand that values creativity and individuality in perfumery. The company's story revolves around a commitment to sustainability and the art of scent, inviting customers to explore a spectrum of olfactory experiences.",https://images.unsplash.com/photo-1556909114-f6e7ad7d3136?w=400&h=300&fit=crop,,,,indie,,,,2025-07-18T12:32:10.942225,2025-08-29T13:09:01.326947
cmd8910e0bdde2ef453a9c0,Speziali Fiorentini,"Speziali Fiorentini is a historic Italian perfume company known for its artisan fragrances steeped in tradition and artistry. Founded in Florence, the company has a long-standing heritage of creating high-quality perfumes that capture the essence of Italian luxury. They specialize in crafting unique scents that reflect the rich cultural and botanical landscape of Italy, utilizing precious ingredients and artisanal techniques. The company's products often blend historical influences with modern aesthetics, making them a cherished choice among fragrance connoisseurs.",https://images.unsplash.com/photo-1541643600914-78b084683601?w=400&h=300&fit=crop,http://www.spezialifiorentini.com,Italy,1225,niche,,,,2025-07-18T12:32:10.942225,2025-08-29T13:09:07.365566
cmd1ad952709c189c10441a,Spezierie Palazzo Vecchio,"Spezierie Palazzo Vecchio is a renowned perfumery based in Florence, Italy, specializing in the creation of high-quality, artisanal fragrances. Founded to celebrate the rich heritage of Florentine perfume-making, the company combines traditional techniques with contemporary sensibilities. Their product line features a range of unique scents, inspired by the beauty and history of Tuscany, appealing to both local and international clientele. The brand emphasizes the use of natural ingredients and craftsmanship, ensuring each fragrance tells a story and embodies the essence of Italian artistry.",https://www.spezieriepalazzovecchio.it/media/wysiwyg/xlogo_firma_03.png.pagespeed.ic.Qm8Ct8_V2-.webp,https://www.spezieriepalazzovecchio.com,Italy,2013,niche,,+39 055 275 7530,"Via dei Cimatori, 9/r, 50122 Firenze FI, Italy",2025-07-18T12:32:10.942225,2025-08-29T13:09:19.425115
cmd829fc916f4266122aa9f,Sphinx,"Sphinx is a perfume company that specializes in creating unique and captivating fragrances. The brand is known for its artistry and commitment to using high-quality ingredients, often drawing inspiration from ancient traditions and modern scents to craft products that evoke different emotions and experiences. They aim to cater to enthusiasts and collectors alike, by offering a range of artisanal and thoughtfully designed perfumes.",https://images.unsplash.com/photo-1541643600914-78b084683601?w=400&h=300&fit=crop,,,,indie,,,,2025-07-18T12:32:10.942225,2025-08-29T13:09:24.819989
cmde0f673ad5448c298cdf0,Spice Girls,"The Spice Girls are a British pop group formed in 1994, known for their significant influence on pop culture during the late 1990s. As part of their brand expansion, they launched a line of fragrances that reflect each member’s personality and style, capturing the essence of girl power and their vibrant group image. The fragrance line has been marketed primarily at a younger audience and has enjoyed success, contributing to the overall pop culture legacy of the group.",https://images.unsplash.com/photo-15907369626-6c63ac16f3df?w=400&h=300&fit=crop,,United Kingdom,1994,celebrity,,,,2025-07-18T12:32:10.942225,2025-08-29T13:09:30.544355
cmd5271ceb39ceed5a2de1f,Spirit of Kings,"Spirit of Kings is a fragrance company that focuses on crafting luxurious and culturally inspired perfumes using high-quality ingredients. The brand is known for its unique approach to perfume creation, often intertwining storytelling and the rich heritage of various cultures, particularly Middle Eastern influences. Their offerings often feature traditional aspects along with modern interpretations, catering to niche markets that appreciate artisanal fragrances.",https://images.unsplash.com/photo-1587017539504-67cfbddac569?w=400&h=300&fit=crop,https://www.spiritofkings.com,United Arab Emirates,2013,niche,,,,2025-07-18T12:32:10.942225,2025-08-29T13:09:36.567201
cmdcf88642b2c0f4456fe81,Spirit,"Spirit is a perfume company that focuses on creating high-quality, unique fragrances that appeal to a diverse range of consumers. The brand emphasizes the importance of individuality and self-expression through scent. Spirit was founded with the vision of providing accessible luxury fragrances that embody contemporary trends while maintaining a commitment to quality and craftsmanship. They offer an array of scents that cater to different demographics, ensuring there is something for everyone.",https://images.unsplash.com/photo-1541643600914-78b084683601?w=400&h=300&fit=crop,,,,indie,,,,2025-07-18T12:32:10.942225,2025-08-29T13:09:42.261019
cmd62d6d3b340505edb4bf3,Spiritual Sky,"Spiritual Sky is a perfume company that specializes in creating unique, natural fragrance products. Founded in 1970, the company is known for its signature line of essential oil blends and exotic perfumes inspired by the cultural diversity of the earth. Spiritual Sky focuses on using high-quality ingredients that promote a holistic approach to fragrance, appealing to customers who seek an authentic and environmentally-conscious perfume experience. The company also emphasizes the connection between fragrance, spirituality, and well-being.",https://static.HugeDomains.com/images/hdv3-img/hd-header-logo-v3.svg,https://www.spiritualsky.com,United States,1970,indie,,,,2025-07-18T12:32:10.942225,2025-08-29T13:09:48.620295
cmd209ede3990da27cf8ea3,Spirituscents,"Spirituscents is a unique perfume company that specializes in crafting artisanal fragrances that celebrate the beauty of nature and the art of perfumery. Founded by a team of passionate scent enthusiasts, the company focuses on using sustainable and ethically sourced ingredients. Their story is rooted in a desire to create scents that evoke memories and emotions, emphasizing the connection between fragrance and personal expression. The brand is known for its dedication to craftsmanship and creativity, producing limited edition collections that highlight an innovative approach to traditional perfumery.",https://www.spirituscents.com/_nuxt/logo-white.BdtsaXG7.png,www.spirituscents.com,United States,2019,indie,contact@spirituscents.com,,,2025-07-18T12:32:10.942225,2025-08-29T13:09:56.056615
cmd0ac190d3f8f6059a23c0,SpongeBob Squarepants,"SpongeBob SquarePants is a franchise based on the animated television series created by Stephen Hillenburg. The franchise includes a wide array of merchandise, including perfumes and fragrances inspired by the characters and themes of the show. They focus on creating fun, vibrant scents that appeal to both children and adults, reflecting the whimsical nature of the series. The perfume line aims to capture the essence of beloved characters like SpongeBob, Patrick, and others through playful packaging and fragrance compositions.",https://images.unsplash.com/photo-15907369626-6c63ac16f3df?w=400&h=300&fit=crop,https://www.spongebob.com,United States,1999,celebrity,,,,2025-07-18T12:32:10.942225,2025-08-29T13:10:03.125544
cmd1b701a8afa3ef1d88f56,Spoturno,"Spoturno is a niche perfume company known for its artisanal fragrance creations that reflect unique cultural inspirations and contemporary artistry. The company’s story began with a passion for crafting authentic scents that resonate with personal narratives and emotions, emphasizing quality ingredients and meticulous craftsmanship. Spoturno aims to create exclusive and limited-edition fragrances that appeal to discerning consumers looking for originality and depth in their scent choices.",https://spoturno.com/cdn/shop/files/18_x800.jpg?v=1743932914,www.spoturno.com,Italy,2015,niche,contact@spoturno.com,,,2025-07-18T12:32:10.942225,2025-08-29T13:10:09.620831
cmd7ef4340e6f07c2acb753,Spring,"Spring is a renowned perfume company that focuses on creating high-quality, artisanal fragrances inspired by nature and the changing seasons. Founded by a group of passionate perfumers, the company aims to evoke emotions and memories through their unique scent compositions. Spring specializes in crafting fragrances that celebrate the essence of springtime blooms and fresh, natural elements, utilizing sustainable and ethically sourced ingredients wherever possible.",https://images.unsplash.com/photo-1582735689369-4fe89db7114c?w=400&h=300&fit=crop,www.springperfume.com,United States,2015,indie,contact@springperfume.com,,,2025-07-18T12:32:10.942225,2025-08-29T13:10:15.525879
cmd87b64d114c9d78e637bd,Springfield,"Springfield is a contemporary fashion brand that offers a variety of clothing, accessories, and fragrances for both men and women. Founded with a vision to create stylish yet affordable fashion, Springfield has expanded its product offerings to include a line of perfumes that reflect the brand's youthful, vibrant aesthetic. The fragrances are designed to complement their apparel, appealing to a young and trendy demographic.",https://images.unsplash.com/photo-15907369626-6c63ac16f3df?w=400&h=300&fit=crop,https://www.springfield.com,Spain,1988,Designer,,,,2025-07-18T12:32:10.942225,2025-08-29T13:10:51.557348
cmd00024cf07e35437bcfb2,Squibb,"Squibb is a less well-known entity in the perfume industry. Historically, it has been recognized as a pharmaceutical company and does not primarily focus on the production of perfumes. Its involvement in the fragrance sector may be limited or non-existent, primarily focusing on medications and biopharmaceuticals. The company emphasizes research and development in health-related products rather than specialty fragrances.",https://images.unsplash.com/photo-1582735689369-4fe89db7114c?w=400&h=300&fit=crop,,,,indie,,,,2025-07-18T12:32:10.942225,2025-08-29T13:10:57.157641
cmd684debf9f2df94371bb2,S''Ram,"S'Ram is a niche perfume company that specializes in creating artisanal fragrances inspired by natural elements and diverse cultures. Established with a vision to offer unique scents, S'Ram emphasizes quality ingredients and craftsmanship in its products, striving for a harmonious blend of creativity and sustainability in the fragrance industry. The brand's story is rooted in a passion for olfactory artistry and a commitment to producing limited-edition scents that tell a story through their unique compositions.",https://images.unsplash.com/photo-1587017539504-67cfbddac569?w=400&h=300&fit=crop,www.sramperfumes.com,United States,2015,niche,info@sramperfumes.com,,,2025-07-18T12:32:10.942225,2025-08-29T13:11:03.173706
cmd6234bed3e2da9217b3d7,Sruli Recht,,https://static1.squarespace.com/static/5bf5943e372b961c98256eb3/t/5efd9be82af517215e3643ad/1593678825565/4.jpg,http://www.srulirecht.com,Australia,2010,niche,,,,2025-07-18T12:32:10.942225,2025-08-29T13:11:11.960147
cmda9bfec1d30ee8e7512a5,St. Ives,"St. Ives is primarily known for its skincare products but has diversified into the fragrance market with body sprays that embody the brand’s commitment to natural ingredients and wellness. Established as a brand focused on harnessing the benefits of nature in beauty products, St. Ives has a story rooted in the idea of using pure, effective ingredients, such as botanicals. They emphasize cruelty-free practices and source their materials responsibly, appealing to the modern consumer's desire for ethical beauty options.",https://www.stives.com/cdn/shop/files/elida_white_logo-5.png?crop=center&height=1000&v=1748457472&width=1000,https://www.stives.com,United States,1980,drugstore,,,,2025-07-18T12:32:10.942225,2025-08-29T13:11:18.717039
cmd1d7b70c0af9addf6b999,St. James de Jussy,"St. James de Jussy is a French perfume house renowned for its commitment to luxury and authenticity in fragrance development. Established with a focus on high-quality ingredients and craftsmanship, the brand seeks to blend tradition and modernity in its creations. The company emphasizes artisanal methods and the heritage of perfumery, often drawing inspiration from their rich history and the art of blend-making to produce captivating scents that resonate with a wide audience.",https://images.unsplash.com/photo-1587017539504-67cfbddac569?w=400&h=300&fit=crop,https://www.stjamesdejussy.com,France,2015,niche,,,,2025-07-18T12:32:10.942225,2025-08-29T13:11:25.203335
cmd52348307a3ee376f4d41,St. Clair Scents,"St. Clair Scents is a boutique fragrance house that specializes in crafting artisanal perfumes inspired by the vibrancy of nature and personal experiences. Founded by a passionate perfumer, the company seeks to create unique scents that evoke memories and emotions, blending high-quality ingredients with innovative techniques. The brand emphasizes sustainability and a personal touch in its creations, aiming to connect consumers with the stories behind each fragrance.",https://images.unsplash.com/photo-1556909114-f6e7ad7d3136?w=400&h=300&fit=crop,https://www.stclairscent.com,United States,2016,indie,contact@stclairscent.com,,,2025-07-18T12:32:10.942225,2025-08-29T13:11:31.824197
cmdfae7701a4e34ff8c7894,St Giles,"St Giles is a luxury perfume company known for its unique formulations and dedication to the art of fragrance-making. The brand focuses on creating high-quality, intricate scent profiles that cater to a niche market of perfume enthusiasts. Their story highlights a commitment to craftsmanship and a passion for olfactory experiences, often collaborating with skilled artisans to develop exclusive fragrances that embody sophistication and creativity.",https://images.unsplash.com/photo-1556909114-f6e7ad7d3136?w=400&h=300&fit=crop,http://www.stgilesfragrance.com,United Kingdom,2018,niche,,,,2025-07-18T12:32:10.942225,2025-08-29T13:11:37.268499
cmdf57ef7729fdcfd919990,St. James of London,"St. James of London is a luxury grooming brand that was established to provide men with high-quality skincare and fine fragrance products. The company traces its roots back to a classic tradition in British perfumery, focused on delivering exquisite and sophisticated scents that reflect the heritage and elegance of British craftsmanship. St. James of London specializes in creating fragrances that are distinctly masculine, combining tradition with modern sensibilities to cater to the discerning gentleman. Their products are designed using the finest ingredients, and each scent is meticulously crafted to provide a unique olfactory experience.",https://stjamesoflondon.com/cdn/shop/files/SJOL_red_logo_copy.jpg?v=1695671787&width=190,https://www.stjamesoflondon.com,United Kingdom,2013,niche,,,,2025-07-18T12:32:10.942225,2025-08-29T13:11:47.235438
cmd7a9e68d3c0bd5c1f0807,St John,"St John is a luxury fashion and lifestyle brand that has expanded its offerings to include fragrances. Established with a focus on timeless elegance and classic styles, St John is known for its high-quality knitwear and sophisticated apparel. The company has ventured into the perfume industry to complement its fashion lines, offering scents that embody the same principles of luxury and refinement. St John’s fragrances are crafted to resonate with their loyal customer base, emphasizing quality and a distinctive sense of style.",https://stjohnknits.com/cdn/shop/files/F25_Nav_Jacket.jpg?v=1755202511&width=4096,https://www.stjohnknits.com,United States,1962,designer,,,,2025-07-18T12:32:10.942225,2025-08-29T13:11:54.717775
cmd7ed32a358810b32b0706,St. Rose,"St. Rose is a niche perfume company founded in 2017, known for its artisanal and handcrafted fragrances that emphasize the beauty of rare, natural ingredients. The brand is recognized for its dedication to sustainability and the artistry of scent creation, often drawing inspiration from various cultures and locations around the world. Each fragrance is intentionally designed to evoke a specific emotion or memory, making them unique and personal experiences for wearers.",https://images.unsplash.com/photo-1582735689369-4fe89db7114c?w=400&h=300&fit=crop,https://strose.com,United States,2017,niche,,,,2025-07-18T12:32:10.942225,2025-08-29T13:12:00.302100
cmdad2be04ce9296bd3bacd,St Tropez,"St Tropez is a renowned brand primarily recognized for its self-tanning products rather than traditional perfumes. Established in the 1990s, the company specializes in providing innovative tanning solutions that allow consumers to achieve a sun-kissed glow without the harmful exposure to UV rays. St Tropez has developed a strong reputation for high-quality formulations that cater to various skin tones and preferences, making it a go-to brand for self-tanning enthusiasts worldwide. Their product line includes self-tanners, gradual tans, and tanning accessories, complemented by a lifestyle branding that embodies the essence of glamorous, healthy skin.",https://images.unsplash.com/photo-1582735689369-4fe89db7114c?w=400&h=300&fit=crop,https://www.sttropeztan.com,United Kingdom,2004,drugstore,,,,2025-07-18T12:32:10.942225,2025-08-29T13:12:06.994885
cmd8bd231675f24693349c7,Stacey Solomon,"Stacey Solomon is a celebrity perfume brand created by the British television personality and singer Stacey Solomon. The company specializes in creating fragrances that embody Solomon's personality, style, and themes of joy and empowerment. The brand aims to connect with shoppers by offering scents that speak to their emotions and experiences. Known for her relatable persona, Solomon's venture into the fragrance industry draws from her popularity as a social media influencer and is designed to appeal to fans and fragrance enthusiasts alike.",https://images.unsplash.com/photo-1587017539504-67cfbddac569?w=400&h=300&fit=crop,https://www.staceysolomon.com,United Kingdom,2021,celebrity,,,,2025-07-18T12:32:10.942225,2025-08-29T13:12:13.646473
cmd818472bcb21f9bde1082,Stacie J,"Stacie J is a niche perfume brand that specializes in creating unique and artisanal fragrances. The company was founded by Stacie Jones, who sought to blend personal creativity with high-quality ingredients to produce captivating scents. The brand has garnered attention for its commitment to sustainability and the use of natural components, appealing to a conscientious consumer base that values ethical production practices. Stacie J often incorporates personal stories into the fragrance development process, allowing each scent to reflect a narrative or experience, thus enhancing its emotional connection with customers.",https://images.unsplash.com/photo-1582735689369-4fe89db7114c?w=400&h=300&fit=crop,https://www.staciej.com,United States,2018,niche,info@staciej.com,,,2025-07-18T12:32:10.942225,2025-08-29T13:12:26.197637
cmd04d82193b76051897ced,Stacked Style,"Stacked Style is a contemporary fragrance company that focuses on creating high-quality, personalized scents for individuals looking to express their unique style. Founded with the vision of combining artistry in perfumery with modern lifestyle choices, Stacked Style emphasizes the use of natural ingredients and sustainable practices in their formulations. Their fragrances appeal to a discerning clientele seeking less conventional scent options.",https://images.unsplash.com/photo-1582735689369-4fe89db7114c?w=400&h=300&fit=crop,,,,indie,,,,2025-07-18T12:32:10.942225,2025-08-29T13:12:32.066784
cmdf433cbe74c145b1164b1,Stag Supply,"Stag Supply is a company that specializes in creating high-quality grooming products, including a range of artisanal perfumes and colognes tailored for men. They emphasize natural ingredients and unique scent profiles that celebrate masculinity and individuality. The company is known for its commitment to craftsmanship, utilizing traditional methods alongside innovative techniques to curate a selection of exclusive fragrances. Their story began with a passion for enhancing personal grooming experiences, particularly for the modern man.",https://images.unsplash.com/photo-15907369626-6c63ac16f3df?w=400&h=300&fit=crop,https://stagsupply.com,United States,,indie,,,,2025-07-18T12:32:10.942225,2025-08-29T13:12:40.229774
cmd1632eb364e289bce586a,Stan Walker,Stan Walker is a New Zealand singer and artist who has ventured into the fragrance industry with the launch of his own perfume line. The brand embodies his personal style and charisma while celebrating his cultural heritage. Stan Walker's perfumes are targeted towards fans and those who appreciate celebrity-driven fragrances. The perfumes often reflect themes of confidence and individuality.,https://images.unsplash.com/photo-1541643600914-78b084683601?w=400&h=300&fit=crop,,New Zealand,,celebrity,,,,2025-07-18T12:32:10.942225,2025-08-29T13:12:45.812023
cmd1e26cbaa8625076092d6,Star Fragrances International,"Star Fragrances International is a leading player in the fragrance industry, specializing in the development and distribution of high-quality perfumes and personal care products. With a focus on innovation and creativity, the company collaborates with renowned perfumers to create unique scents that cater to a diverse clientele. Their story began with a passion for fragrance, and over the years, they have established a reputation for excellence in both quality and design, offering a wide range of products that appeal to various markets across the globe.",https://img.atom.com//public/images/logo.svg,http://www.starfragrances.com,United States,1999,niche,,,,2025-07-18T12:32:10.942225,2025-08-29T13:12:53.751113
cmdb7a46f54dca8cb333b05,Star Nature,"Star Nature is a niche perfume company known for its commitment to using natural ingredients in its fragrance formulations. The brand was founded with the vision of creating unique scents that celebrate the beauty of nature while promoting sustainability. Their story began with a passion for holistic wellness and a focus on eco-friendly practices. Star Nature specializes in crafting artisanal perfumes that are not only delightful to wear but also free from synthetic chemicals and harmful additives, making them suitable for consumers seeking a natural alternative in their fragrance choices.",https://images.unsplash.com/photo-15907369626-6c63ac16f3df?w=400&h=300&fit=crop,www.starnatureperfumes.com,United States,2015,niche,contact@starnatureperfumes.com,,,2025-07-18T12:32:10.942225,2025-08-29T13:12:59.825684
cmde553e466a476ef466ddb,Star Trek,"Star Trek is a multimedia franchise known primarily for its science fiction television series and films. In the fragrance market, Star Trek has licensed its brand to produce a range of themed perfumes that embody the essence of characters and starships from the series. These products appeal to fans of the franchise and enthusiasts of unique, themed fragrances. The perfumes often draw inspiration from the show's diverse settings and technology, offering scents that reflect the spirit of exploration and adventure that Star Trek represents.",https://www.startrek.com/_next/static/media/logo.a5636a77.png,www.startrek.com,United States,1966,celebrity,,,,2025-07-18T12:32:10.942225,2025-08-29T13:13:06.441935
cmdd7057cbfd583f86cf767,Star Wars,"Star Wars is a popular franchise created by George Lucas, which has expanded into various domains, including the perfume industry. The brand has released a collection of fragrances that tap into the themes, characters, and universe of Star Wars. These scents often target fans and collectors, blending the allure of fragrant products with the beloved characters and settings of the franchise. Collaboration with established perfume manufacturers has enabled the creation of unique products that resonate with both fragrance enthusiasts and Star Wars aficionados.",https://images.unsplash.com/photo-1587017539504-67cfbddac569?w=400&h=300&fit=crop,https://www.starwars.com,United States,1977,celebrity,,,,2025-07-18T12:32:10.942225,2025-08-29T13:13:13.446137
cmd3f99df0f2907621398cb,Starck,"Starck is a perfume company founded by the renowned French designer Philippe Starck, known for his innovative and functional design aesthetic. The brand specializes in the creation of unique fragrances that reflect Starck’s design philosophy, emphasizing the connection between scent, identity, and contemporary lifestyle. The perfumes often feature minimalist packaging and conceptual inspiration, appealing to consumers looking for a blend of art and aroma.",https://images.unsplash.com/photo-1556909114-f6e7ad7d3136?w=400&h=300&fit=crop,https://www.starckparfums.com,France,2009,niche,,,,2025-07-18T12:32:10.942225,2025-08-29T13:13:20.129541
cmde0f1b727885489127ed6,Stark Waxing Studio,"Stark Waxing Studio specializes in providing high-quality waxing services in a clean and comfortable environment. While primarily a waxing studio, they are recognized for their unique approach to beauty and self-care, combining professionalism with a personal touch. Their story centers around a commitment to customer satisfaction and education about skincare, making them a reputable choice for those seeking waxing and related services.",https://images.unsplash.com/photo-1582735689369-4fe89db7114c?w=400&h=300&fit=crop,https://starkwaxingstudio.com,United States,,indie,,,,2025-07-18T12:32:10.942225,2025-08-29T13:13:25.917764
cmdbdde0e0d407cf5f6dcb6,Starscents,"Starscents is a unique perfume company that specializes in creating captivating fragrances inspired by celestial themes. Founded by a group of passionate fragrance enthusiasts, the company aims to blend art and science in their perfume-making process. Their offerings are designed to evoke emotions and memories, appealing to a niche market that appreciates the blend of storytelling and scent. The story behind each fragrance draws inspiration from celestial bodies and phenomena, creating an immersive experience for customers.",https://www.starscents.com/cdn/shop/files/whitelogo.png?v=1720897820&width=600,www.starscents.com,United States,2021,niche,contact@starscents.com,,,2025-07-18T12:32:10.942225,2025-08-29T13:13:36.703147
cmdc328f6208be9568c7bef,Starter,"Starter is a brand known for its sports apparel and footwear but has ventured into the fragrance space, creating perfumes that embody the adventurous and active lifestyle associated with the Starter brand. The company emphasizes energetic, youthful scents, often targeted toward a younger demographic that values both style and performance. The story of Starter dates back to its inception in the 1970s, where it gained popularity with its innovative designs in sportswear. The fragrance line seeks to align with its original mission of catering to those who embrace sports and an active lifestyle, embodying elements of playfulness and dynamism.",https://images.unsplash.com/photo-15907369626-6c63ac16f3df?w=400&h=300&fit=crop,,United States,1971,designer,,,,2025-07-18T12:32:10.942225,2025-08-29T13:13:44.053531
cmd1aadce79836cd687d256,Starwood Capital Group,"Starwood Capital Group is a private investment firm primarily focused on global real estate investments, including sectors like hospitality, but they are not directly involved in the perfume industry. They specialize in originating and managing real estate investments across various asset classes, and their approach combines in-depth market knowledge with state-of-the-art analysis.",https://www.starwoodcapital.com/wp-content/themes/starwood/images/scg-logo.svg,https://www.starwoodcapital.com,United States,1991,indie,,,"591 W 24th St, New York, NY 10011, United States",2025-07-18T12:32:10.942225,2025-08-29T13:13:50.431317
cmda110985b4e613ac0f6d4,State of Mind,"State of Mind is a niche perfume brand that focuses on creating unique, artisanal fragrances that evoke emotions and capture the essence of different states of being. Founded by a collective of passionate perfumers, the company aims to blend the art of perfume making with the science of emotional response, resulting in scents that resonate deeply with individuals. Their story began with a shared vision of making fragrances that tell a story rather than simply smell good, allowing wearers to express their identity and emotions through scent.",https://images.unsplash.com/photo-1587017539504-67cfbddac569?w=400&h=300&fit=crop,https://www.stateofmindfragrance.com,United States,2019,niche,contact@stateofmindfragrance.com,,,2025-07-18T12:32:10.942225,2025-08-29T13:13:57.077863
cmd4047357ce81663f64803,Stay Dench,"Stay Dench is a contemporary fragrance brand founded by British comedian and online personality, Michael Dapaah, also known as Big Shaq. The brand focuses on creating unique and playful fragrances that embody confidence and authenticity, often integrating humor and cultural references into their marketing. Stay Dench aims to appeal to modern consumers looking for distinctively crafted scents that express individual personalities and lifestyles.",https://www.staydench.com/cdn/shop/files/stay_dench_white_transparent_WIDE_300x.png?v=1613157294,https://www.staydench.com,United Kingdom,2018,indie,,,,2025-07-18T12:32:10.942225,2025-08-29T13:14:04.027235
cmdecb8b8a398d2692b8822,Stearns,"Stearns is a company that specializes in creating high-quality fragrances, with a unique focus on blending traditional and modern perfume-making techniques. Founded by a team of passionate artisans, their story is rooted in a dedication to craftsmanship and the pursuit of olfactory artistry. They aim to provide luxurious scents that evoke emotions and memories, establishing a niche presence in the fragrance market.",https://images.unsplash.com/photo-15907369626-6c63ac16f3df?w=400&h=300&fit=crop,,,,niche,,,,2025-07-18T12:32:10.942225,2025-08-29T13:14:09.963041
cmd2f44029f3e045b183272,Stefano Ricci,"Stefano Ricci is an Italian luxury fashion brand established in 1972 that specializes in high-end menswear and lifestyle products. Renowned for its exquisite craftsmanship and the finest materials, the brand has expanded its reach into the fragrance sector, introducing opulent perfumes that embody the brand's signature sophistication and elegance. The fragrances are designed to complement the lifestyle of the modern, affluent man, further solidifying Stefano Ricci's identity as a luxury lifestyle brand.",https://www.stefanoricci.com/assets/images/logo-sr.svg,https://www.stefanoricci.com,Italy,1972,designer,,,,2025-07-18T12:32:10.942225,2025-08-29T13:14:20.287319
cmdd80d9d9e19d6a29ca30d,Steffen Schraut,"Steffen Schraut is a contemporary fashion brand that is primarily known for its innovative designs and quality craftsmanship. Although it initially focused on women’s apparel, the brand has expanded into the fragrance market, creating perfumes that encapsulate its fashion-forward ethos. The brand is recognized for its modern aesthetic, combining elegance with a casual essence, which is reflected in both its clothing and fragrance lines. Steffen Schraut's story revolves around a commitment to individuality and expressing personal style through both fashion and scent.",https://steffenschraut.com/wp-content/uploads/2024/11/steffen_schraut_premium_design_website_logo_neu.svg,https://www.steffenschraut.com,Germany,2006,designer,,,,2025-07-18T12:32:10.942225,2025-08-29T13:14:32.350723
cmdacc6c60303f10305e44b,Stella Cadente,"Stella Cadente is a French perfume house known for its unique and artistic approach to fragrance creation. Founded by designer and perfumer, Stella Cadente, the brand emphasizes creativity and individuality, often incorporating whimsical and fantastical elements into its scents. The company seeks to evoke emotions and memories through its carefully crafted perfumes, blending traditional perfume-making techniques with modern concepts. Stella Cadente has made a name for itself in the niche perfume market, appealing to consumers looking for distinctive and high-quality fragrances.",http://www.stellacadente.com/public/uploads/graphics/web_basil_16oz_1000px.jpg,http://www.stellacadente.com,France,1996,niche,,,"35, rue des Petits Champs, 75001 Paris, France",2025-07-18T12:32:10.942225,2025-08-29T13:14:39.742103
cmdb4cfa7c30fc26300e5df,Stella McCartney,"Stella McCartney is a luxury fashion brand founded by British designer Stella McCartney in 2001. The company is renowned for its commitment to sustainability, ethics, and innovation in the fashion industry. McCartney is known for her vegetarian ethos and refusal to use leather or fur in her designs, extending this philosophy into her fragrance line as well. The brand offers a variety of fragrances that are designed to embody natural elements and express personal individuality. Each scent combines fresh ingredients with a sense of sophistication, aligning with the overall aesthetic of the brand.",https://www.stellamccartney.com/on/demandware.static/Sites-smc-na-Site/-/default/dw3b08efb4/images/logo.svg,https://www.stellamccartney.com,United Kingdom,2001,designer,,,,2025-07-18T12:32:10.942225,2025-08-29T13:14:49.991675
cmd1379b0f8d0e2cf7005d9,Stenders,"Stenders is a Latvian-based cosmetics and fragrance company that specializes in the production of high-quality body care products and perfumes. Founded in 2001, Stenders draws inspiration from the natural beauty of the Baltic region and utilizes local ingredients in their creations. The company's mission is to promote well-being and self-care through its aesthetically pleasing and aromatic products, which include a range of perfumes, body scrubs, and bath essentials. With a focus on crafting unique scents that evoke the essence of nature, Stenders has built a loyal customer base both locally and internationally.",https://images.unsplash.com/photo-15907369626-6c63ac16f3df?w=400&h=300&fit=crop,https://www.stenders-aroma.com,Latvia,2001,indie,,,,2025-07-18T12:32:10.942225,2025-08-29T13:14:56.432384
cmda2d9c2ac4f3e0ec856d4,Stendhal,"Stendhal is a perfume company that specializes in creating luxury fragrances, often inspired by the rich heritage of art and culture. The brand was established with the intent of combining the world of perfumery with elegance and sophistication. Stendhal's story is intertwined with an appreciation for beauty and emotion, reflected in their unique fragrance compositions that cater to a discerning clientele. Their specialty lies in crafting perfumes that evoke deep emotional responses, using high-quality ingredients and innovative techniques to achieve a truly luxurious experience.",https://stendhal.fr/wp-content/2021/11/cropped-jardindeville.jpg,https://www.stendhal.fr,France,1999,niche,,,,2025-07-18T12:32:10.942225,2025-08-29T13:15:07.076892
cmdde7ab3e317fe6af00c00,Step Aboard,"Step Aboard is an innovative perfume company that focuses on capturing the essence of travel and adventure within their fragrance lines. The brand aims to evoke memories of exploration and unique experiences through carefully crafted scents that resonate with wanderlust. Established by a group of passionate travelers, Step Aboard emphasizes sustainability and ethical sourcing of ingredients, ensuring that their fragrances not only smell incredible but also tell a story of the places they represent.",https://images.unsplash.com/photo-1587017539504-67cfbddac569?w=400&h=300&fit=crop,https://www.stepaboardfragrance.com,United States,2021,indie,contact@stepaboardfragrance.com,,,2025-07-18T12:32:10.942225,2025-08-29T13:15:14.339120
cmd57398a129516e53e8c52,Stephane Humbert Lucas 777,"Stephane Humbert Lucas 777 is a niche perfume house founded by French perfumer Stephane Humbert Lucas. The brand is known for its luxurious and artistic fragrance creations, often inspired by various cultures, art, and personal experiences. Since its inception, the company has focused on creating high-quality, unique scents that evoke emotion and storytelling, distinguishing itself in the perfume industry with a limited and exclusive range of offerings.",https://images.unsplash.com/photo-1587017539504-67cfbddac569?w=400&h=300&fit=crop,https://www.shl777.com,France,2014,niche,,,,2025-07-18T12:32:10.942225,2025-08-29T13:15:30.434842
cmd5245424d9795359fc850,Stéphane Humbert Lucas,"Stéphane Humbert Lucas is a niche perfume company founded by the renowned perfumer Stéphane Humbert Lucas in 2015. Known for its avant-garde approach to fragrance creation, the brand develops unique and artistic scents that often reflect a thematic concept or story. The company specializes in artisanal, high-quality perfumes crafted with a keen attention to detail and a focus on exceptional ingredients. Each fragrance is designed to evoke emotions and experiences, making them distinctive in the crowded perfume market.",https://images.unsplash.com/photo-1587017539504-67cfbddac569?w=400&h=300&fit=crop,https://www.shl-fragrance.com,France,2015,niche,,,,2025-07-18T12:32:10.942225,2025-08-29T13:15:36.970532
cmd1f67a40de7c5c72c2d44,Stéphanie de Bruijn,"Stéphanie de Bruijn is a high-end perfume company known for its luxurious fragrances that draw inspiration from nature and art. Founded by perfumer Stéphanie de Bruijn, the brand emphasizes craftsmanship and quality, creating unique scents that stand out in the niche perfume market. The company prides itself on sourcing high-quality ingredients to develop olfactory compositions that evoke emotions and memories, catering to a discerning clientele who appreciates artisanal perfumery.",https://images.unsplash.com/photo-1541643600914-78b084683601?w=400&h=300&fit=crop,https://stephaniedebruijn.com,France,2015,niche,,,,2025-07-18T12:32:10.942225,2025-08-29T13:15:43.956306
cmda7aadc37c0c923f3389c,Stéphanie de Monaco,"Stéphanie de Monaco is a fragrance brand associated with Princess Stéphanie of Monaco. Established in the mid-1990s, the company reflects her personal style and preferences in scent design. The brand is known for its luxurious and unique fragrances that encapsulate elements of the glamorous Monaco lifestyle, combining traditional perfumery techniques with modern twists. It often aims to evoke emotional connections through its carefully crafted scent compositions.",https://images.unsplash.com/photo-15907369626-6c63ac16f3df?w=400&h=300&fit=crop,,Monaco,1995,niche,,,,2025-07-18T12:32:10.942225,2025-08-29T13:15:50.455290
cmdb8127e4445a80eaf2763,Stéphanie de Saint-Aignan,"Stéphanie de Saint-Aignan is a niche fragrance company founded by perfume expert Stéphanie de Saint-Aignan. The company focuses on creating artisanal perfumes that emphasize individuality and unique scent profiles, often blending traditional techniques with modern inspirations. Their fragrances are known for their complex compositions and high-quality ingredients, aiming to evoke emotions and personal stories through scent.",https://images.unsplash.com/photo-1587017539504-67cfbddac569?w=400&h=300&fit=crop,https://www.stephaniedesaintaignan.com,France,2016,niche,,,,2025-07-18T12:32:10.942225,2025-08-29T13:15:57.131703
cmd39a77371384d90bf895d,Stephanie Simek,"Stephanie Simek is a boutique perfume company known for its artisan fragrances that emphasize natural ingredients and unique scent compositions. Founded by Stephanie Simek, the company focuses on small-batch production and promotes an intimate connection between scent and personal experience, often exploring themes of nature and emotion in their creations. Each fragrance is carefully crafted, reflecting a commitment to quality and creativity, which has gained a loyal following among fragrance enthusiasts.",https://images.unsplash.com/photo-1556909114-f6e7ad7d3136?w=400&h=300&fit=crop,https://www.stephaniesimek.com,United States,2011,indie,,,,2025-07-18T12:32:10.942225,2025-08-29T13:16:03.684556
cmd9cff16fe8fc07caa05fb,Stephen Burlingham,"Stephen Burlingham is a niche perfume company known for its artisanal approach to fragrance creation. The company specializes in crafting unique, high-quality scents that embody a personal and luxurious experience. With a focus on using natural ingredients and traditional methods, Stephen Burlingham has garnered a reputation for its distinctive olfactory compositions that resonate with fragrance connoisseurs. Their story is rooted in a passion for scent and a dedication to artisanal craftsmanship, aiming to create fragrances that evoke emotions and memories.",https://images.unsplash.com/photo-1541643600914-78b084683601?w=400&h=300&fit=crop,www.stephenburlingham.com,United States,2010,niche,,,,2025-07-18T12:32:10.942225,2025-08-29T13:16:10.256356
cmd37bbb32cfbafd37bf1c5,Stephen Jones,"Stephen Jones is a renowned British milliner who has expanded his creative vision into the world of fragrance. Known for his artistic and avant-garde hat designs that have adorned celebrities and runways alike, Stephen Jones applies his unique aesthetic to his perfume collections. The brand infuses high-fashion artistry with scent, resulting in a niche selection of fragrances that capture the essence of British elegance and modern creativity.",https://www.stephenjonesmillinery.com/sites/default/files/styles/flexslider_mobile/public/2025-02/10-Laser_0.jpg?h=d5422d98&itok=SN0M_5a8,https://www.stephenjonesmillinery.com,United Kingdom,2017,niche,,,,2025-07-18T12:32:10.942225,2025-08-29T13:16:19.718620
cmd5efa6f3e3692527ee2cc,Stepner Collection,"Stepner Collection is a niche fragrance brand that focuses on creating unique, handcrafted perfumes inspired by various themes and emotions. The company prides itself on using high-quality ingredients and artisanal methods to develop scents that resonate personally with consumers. Their story intertwines creativity and passion for perfumery, reflecting a commitment to individuality and sensory experiences.",https://images.unsplash.com/photo-1582735689369-4fe89db7114c?w=400&h=300&fit=crop,www.stepnercollection.com,United States,2018,niche,,,,2025-07-18T12:32:10.942225,2025-08-29T13:16:25.831146
cmd1f59e2a75a8bb29f1267,Steps,"Steps is an innovative perfume company that focuses on creating unique, high-quality fragrances inspired by various aspects of life and the environment. The company aims to connect individuals with their emotions and memories through scent. Founded by a passionate team of fragrance enthusiasts, Steps has rapidly grown in the niche market by prioritizing sustainable sourcing and artisanal production methods, making each scent not just a product, but a storytelling experience.",https://images.unsplash.com/photo-1587017539504-67cfbddac569?w=400&h=300&fit=crop,www.stepsfragrance.com,United States,2017,niche,contact@stepsfragrance.com,,,2025-07-18T12:32:10.942225,2025-08-29T13:16:31.853525
cmddf10cd84c92befb3aed8,Stereoplasm,"Stereoplasm is an innovative perfume company that focuses on creating unique and artistic fragrances. Their approach combines artistic expression with scent, resulting in perfumes that resonate emotionally with users. Founded by a group of creative professionals, Stereoplasm emphasizes the blend of storytelling and olfactory experience in their creations, making their outputs not just perfumes, but evocative ideas captured in bottles. The brand is known for its limited-edition releases and a keen sense of aesthetic that appeals to both fragrance enthusiasts and casual consumers alike.",https://www.stereoplasm.com/cdn/shop/files/logo23_e0b00ec9-28bf-4ccd-80da-fc873968cf23.png?v=1720213833&width=600,https://stereoplasm.com,United States,2012,niche,,,,2025-07-18T12:32:10.942225,2025-08-29T13:16:40.500715
cmd4436119aad5bc67a2181,Sterling Parfums,"Sterling Parfums is a fragrance company specializing in creating a diverse range of high-quality perfumes and fragrances, catering to various markets and preferences. Founded in the United Arab Emirates, the brand focuses on crafting both traditional and contemporary scents, often inspired by the rich cultural heritage of the region. Sterling Parfums is known for its commitment to quality, creativity, and uniqueness in the fragrance industry, offering products that resonate with consumers globally.",https://www.sterlingparfums.com/assets/image/sterling-logo-gold.webp,https://www.sterlingparfums.com,United Arab Emirates,2015,niche,info@sterlingparfums.com,,,2025-07-18T12:32:10.942225,2025-08-29T13:16:47.489176
cmdd7764ddb9abacc390a39,Stern Fragrances Inc,"Stern Fragrances Inc. is a fragrance company known for its innovative approach to scent creation and marketing. Established with a mission to provide unique and high-quality perfumes, the company focuses on enhancing personal expression through fragrances. Over the years, they have built a reputation for working with a diverse range of brands, developing both mass-market and niche fragrances. Their specialty lies in creating fragrances that cater to various consumer preferences and lifestyle choices.",https://images.unsplash.com/photo-1587017539504-67cfbddac569?w=400&h=300&fit=crop,http://www.sternfragrances.com,United States,1997,indie,,,,2025-07-18T12:32:10.942225,2025-08-29T13:16:53.795237
cmd3107a0e2fe4429345e8b,Stetson,"Stetson is an iconic American brand best known for its colognes and fragrances that embody the spirit of the rugged American cowboy. The brand was founded in the late 19th century by John B. Stetson, who initially gained fame for his quality hats. In the 1980s, the Stetson brand expanded into the fragrance market, offering a product line that reflects the same rugged individualism and adventurous spirit as its hat line. Today, Stetson fragrances are popular for their masculine scents that evoke a sense of freedom and the great outdoors.",https://stetson.com/cdn/shop/files/preview_images/db7319118ef4459794f584e241438e94.thumbnail.0000000000_small.jpg?v=1755204230,https://www.stetson.com,United States,1981,designer,,,,2025-07-18T12:32:10.942225,2025-08-29T13:17:01.524599
cmd3eb11bd3060284bf8b40,Steve Madden,"Steve Madden is a well-known footwear and accessories company that has expanded its brand to include a range of fragrances. Founded in 1990, the company has focused on delivering trendy and affordable styles that appeal to a young and fashion-forward demographic. The fragrance line reflects the same ethos of the brand, offering modern and youthful scents that cater to lifestyle and personal expression.",https://images.contentstack.io/v3/assets/blt563c8045b0161467/blteb0066f9e7b26749/670e7eeb75ad177099460b8f/SM_logo_SansSerif_Black_(1).png?quality=80&auto=webp&width=200,https://www.stevemadden.com,United States,1990,designer,,,"52-16 Barnett Ave., Long Island City, NY 11104, United States",2025-07-18T12:32:10.942225,2025-08-29T13:17:09.278121
cmdc8416225ed24be869fd5,Steve McQueen,"Steve McQueen is a fragrance line that pays homage to the legendary American actor and cultural icon. The brand aims to encapsulate the essence of McQueen's adventurous spirit and rugged masculinity through its scents. The perfumes are crafted with the intention of capturing the timeless, classic appeal associated with McQueen, targeting an audience that appreciates authenticity and cinematic heritage.",https://images.unsplash.com/photo-1541643600914-78b084683601?w=400&h=300&fit=crop,https://www.stevemcqueen.com,United States,2010,celebrity,,,,2025-07-18T12:32:10.942225,2025-08-29T13:17:16.295014
cmd0c951e44b859834eaeed,Steve's No Bull***t,"Steve's No Bull***t is a unique perfume company that focuses on creating straightforward, high-quality fragrances without the marketing fluff commonly seen in the industry. The company was founded on the principle of transparency and authenticity, offering scents that reflect real emotions and experiences. Their specialty lies in developing bold and honest fragrance profiles aimed at consumers looking for a sincere expression of scent.",https://images.unsplash.com/photo-1582735689369-4fe89db7114c?w=400&h=300&fit=crop,www.stevesnobull.com,United States,2020,indie,contact@stevesnobull.com,,,2025-07-18T12:32:10.942225,2025-08-29T13:17:22.239339
cmdc5b8f26fda8e57b2b3a3,Stila Corp,"Stila Corp is a cosmetics company known for its high-quality makeup products, including a range of fragrances. Founded by Jeanine Lobell in 1994, Stila aims to empower consumers through artistic and creative tools for self-expression. The brand is recognized for its innovative and user-friendly formulations, frequently incorporating contemporary and artistic aesthetics into its product lines. While primarily a cosmetics brand, Stila has ventured into the perfume market, offering unique scent options that align with their signature style.",https://images.unsplash.com/photo-1582735689369-4fe89db7114c?w=400&h=300&fit=crop,[www.stilacosmetics.com](http://www.stilacosmetics.com),United States,1994,designer,,,,2025-07-18T12:32:10.942225,2025-08-29T13:17:29.236329
cmda66c2d7aed630b05ce4b,Stila,"Stila is a cosmetics brand well known for its innovative approach to beauty products. Originally founded as a makeup line focusing on easy-to-use cosmetics, Stila has expanded its product range to include a selection of perfumes that embody the same ethos of creativity and artistic expression. The brand's signature is a mix of sophisticated designs and high-quality formulations that cater to contemporary consumers. Through their distinctive scents, Stila aims to inspire and enhance beauty, crafting products that resonate with their community's values of self-expression and individuality.",https://www.stilacosmetics.com/cdn/shop/files/new-logo20percent.png?v=1735682374&width=150,https://www.stilacosmetics.com,United States,1994,designer,,,,2025-07-18T12:32:10.942225,2025-08-29T13:17:38.576550
cmdb8b581ab3fe96d35cc36,Stilton Cheese Makers Association,Not found,https://images.unsplash.com/photo-15907369626-6c63ac16f3df?w=400&h=300&fit=crop,,,,indie,,,,2025-07-18T12:32:10.942225,2025-08-29T13:17:43.058936
cmde1a283d256579c6f52a3,Stirling Soap Company,"Stirling Soap Company is a small, family-owned company specializing in handcrafted grooming products, including a range of artisan soaps and shaving goods. Founded by a husband-and-wife team in 2012, the company began with a passion for traditional wet shaving and a commitment to quality. Stirling Soap Company emphasizes the use of high-quality ingredients and offers a wide variety of scents, appealing to both shaving enthusiasts and those looking for natural and effective personal care products.",https://www.stirlingsoap.com/cdn/shop/files/6_INCHVector_logo.png?v=1632927859&width=360,https://www.stirlingsoap.com,United States,2012,indie,,,,2025-07-18T12:32:10.942225,2025-08-29T13:17:49.231422
cmd2c1542e865a25b43582e,Stitch Perfumes,"Stitch Perfumes is a niche perfume company known for its unique and artistic fragrance creations that aim to blend storytelling with scent. With an emphasis on craftsmanship, each perfume is thoughtfully designed to evoke emotions and memories, allowing wearers to experience a personal narrative with every application. The company's story started with a passion for individual expression and the belief that scent can significantly influence mood and identity. Stitch Perfumes specializes in high-quality, handcrafted fragrances using sustainable and ethically sourced ingredients, catering to those who seek distinctive and albeit luxurious olfactory experiences.",https://images.unsplash.com/photo-1587017539504-67cfbddac569?w=400&h=300&fit=crop,,,,niche,,,,2025-07-18T12:32:10.942225,2025-08-29T13:17:55.302839
cmdeae3969c3e619eb826df,Stone Research Labs,"Stone Research Labs is an innovative fragrance development company specializing in creating bespoke perfumes and olfactory experiences for brands and individuals. Founded by a team of experienced perfumers and scent enthusiasts, Stone Research Labs emphasizes research and development in the fragrance industry, utilizing cutting-edge technology and an extensive collection of raw materials to craft unique scents. Their focus is on quality, sustainability, and individuality, positioning themselves as a leader in bespoke fragrance solutions.",https://images.unsplash.com/photo-1541643600914-78b084683601?w=400&h=300&fit=crop,https://stoneresearchlabs.com,United States,2010,indie,info@stoneresearchlabs.com,,,2025-07-18T12:32:10.942225,2025-08-29T13:18:01.062487
cmdaed6500ff342a1217cf7,Stora Skuggan,"Stora Skuggan is a Swedish perfume house that specializes in creating unique and artistic fragrances inspired by mythical landscapes and stories from nature. Founded by a group of passionate perfumers and artists, the company believes in the power of scent to evoke emotions and memories, creating perfumes that are not just fragrances but experiences. Their philosophy revolves around sustainability and artistic expression, combining high-quality ingredients sourced from nature with innovative perfumery techniques.",https://storaskuggan.se/onewebstatic/37542718be.jpg,https://storaskuggan.se,Sweden,2018,niche,,,,2025-07-18T12:32:10.942225,2025-08-29T13:18:08.114479
cmd584b4173d9af8bdabf09,Stories by Eliza Grace,"Stories by Eliza Grace is an indie perfume company that specializes in creating unique, artisanal fragrances inspired by stories and personal experiences. Founded by Eliza Grace, the brand emphasizes the importance of storytelling through scent, crafting perfumes that evoke emotions and memories. Each fragrance is designed to transport the wearer to a specific moment, reflecting a deep connection between scent and storytelling.",https://images.unsplash.com/photo-15907369626-6c63ac16f3df?w=400&h=300&fit=crop,https://storiesbyelizagrace.com,United States,2020,indie,contact@storiesbyelizagrace.com,,,2025-07-18T12:32:10.942225,2025-08-29T13:18:16.484768
cmd555bec1ecd7580827dfb,Stories Parfums,"Stories Parfums is a niche fragrance company that specializes in creating unique and evocative perfumes inspired by storytelling and emotions. The brand focuses on crafting artisanal fragrances that reflect various narratives and experiences, blending art with perfumery to invite wearers into a world of imagination. Each fragrance is designed to evoke a specific story, allowing individuals to express their personality and moods through scent.",https://storiesparfums.com/cdn/shop/files/Stories-Parfums-EmailSig_ec0196fb-f5b1-4a0e-8bd7-fd89575e0d73.png?v=1630532404&width=1134,https://www.storiesparfums.com,France,2019,niche,,,,2025-07-18T12:32:10.942225,2025-08-29T13:18:24.684986
cmd231939e37344a19d5bae,Storm,"Storm is a UK-based lifestyle brand that offers a diverse range of fragrances. Known initially for its stylish watches and accessories, Storm has expanded into the fragrance market, providing a selection of unique and vibrant perfumes that cater to the modern consumer. The company combines contemporary design with quality ingredients, creating scents that reflect current trends and cater to a youthful demographic. Storm fragrances are often characterized by their bold packaging and eclectic fragrances that appeal to various tastes.",https://images.unsplash.com/photo-1541643600914-78b084683601?w=400&h=300&fit=crop,https://www.stormwatches.com/fragrances,United Kingdom,1989,indie,,,,2025-07-18T12:32:10.942225,2025-08-29T14:04:54.437248
cmd47d181c2e151d27d21f4,STR8,"STR8 is a fragrance brand primarily targeted at young men, offering a range of fresh and energetic scents. The brand is known for its vibrant advertising campaigns and youthful image, aiming to connect with a dynamic audience. STR8's philosophy revolves around confidence and self-expression, and it positions itself as an affordable yet stylish option in the fragrance market. The brand has a diverse collection that includes deodorants, aftershaves, and colognes.",https://images.unsplash.com/photo-15907369626-6c63ac16f3df?w=400&h=300&fit=crop,https://www.str8.eu,Germany,2004,drugstore,,,,2025-07-18T12:32:10.942225,2025-08-29T14:05:00.557967
cmd424d227f62fe22c72a62,Strada Parfumerie,"Strada Parfumerie is a niche perfume company known for its artisanal fragrance creations that often draw inspiration from various cultural elements and history. They focus on crafting unique scents that cater to a discerning clientele looking for exclusivity and quality. The company prides itself on using high-quality ingredients and often engages in storytelling through their fragrance lines, showcasing the essence of different locales and experiences.",https://images.unsplash.com/photo-1556909114-f6e7ad7d3136?w=400&h=300&fit=crop,,,,niche,,,,2025-07-18T12:32:10.942225,2025-08-29T14:05:05.782750
cmd39827c7cb68019b8d556,Strange Invisible Perfumes,"Strange Invisible Perfumes is a boutique perfume company specializing in the creation of artisanal fragrances that are natural and crafted using organic ingredients. Founded in 2000 by perfumer and founder Alexandra Balahoutis, the company emphasizes sustainability and eco-friendliness in its production processes. They are known for their unique, bold scent profiles that often draw inspiration from nature and diverse cultural themes. The brand places a strong emphasis on handcrafting their perfumes in small batches, offering a highly curated experience for fragrance enthusiasts.",https://siperfumes.com/cdn/shop/files/SIP_logo_4d6ec1d8-b8a7-4281-b173-7b02d14ae376_160x.png?v=1636080271,https://www.strangeinvisibleperfumes.com,United States,2000,niche,,,"3571 S. La Cienega Blvd, Los Angeles, CA 90016, United States",2025-07-18T12:32:10.942225,2025-08-29T14:05:13.411299
cmdb7ac2575ae88b0c0f28c,Strangelove NYC,"Strangelove NYC is a niche perfume company that specializes in creating high-quality, artisanal fragrances. Founded by a duo passionate about unique scent experiences, Strangelove NYC draws inspiration from the vibrancy and diversity of New York City, utilizing rare and exquisite ingredients. Their offerings are known for their complex compositions and contemporary aesthetics, appealing to a discerning clientele that values craftsmanship in perfumery. The brand emphasizes sustainability and ethical sourcing in its fragrance creation process, making it stand out in the fragrance industry.",https://strangelovenyc.com/cdn/shop/files/Strangelove_logo_800b255f-3d29-408e-b27f-9485f2d4e89b.png?v=1633336726&width=600,https://www.strangelovenyc.com,United States,2018,niche,,,,2025-07-18T12:32:10.942225,2025-08-29T14:05:20.079125
cmd739d2befc30dd0ed3e6d,Strangers Parfumerie,"Strangers Parfumerie is a niche fragrance house known for its artisanal and innovative approach to perfumery. Founded by an artist who draws inspiration from emotional landscapes and evocative experiences, the company specializes in creating unique and thought-provoking scents that tell stories and evoke memories. The brand emphasizes the use of high-quality raw materials and a meticulous craftsmanship process, aiming to provide a personal connection to the olfactory experience.",https://images.unsplash.com/photo-1556909114-f6e7ad7d3136?w=400&h=300&fit=crop,https://www.strangersparfumerie.com,United States,2016,niche,,,,2025-07-18T12:32:10.942225,2025-08-29T14:05:33.674246
cmdcca90f225df653c55fc8,Straub Marbert Beauty Group,"Straub Marbert Beauty Group is a renowned manufacturer and distributor of high-quality perfumes and beauty products, primarily focused on creating unique fragrances that cater to diverse consumer preferences. Established in the beauty industry for decades, the group has cultivated a strong reputation for quality and innovation by utilizing sophisticated fragrance formulations and sustainable practices. Their specialty lies in developing both private label and branded products that reflect contemporary trends while maintaining a commitment to excellence.",https://cdn.shopify.com/s/files/1/0783/7614/1113/files/DHL_logo_rgb.png?v=1692322811,https://www.marbert.de,Germany,1928,niche,,,,2025-07-18T12:32:10.942225,2025-08-29T14:05:40.850643
cmd7d7cde9edc02e4e563b3,StrawberryNET,"StrawberryNET is an online retailer specializing in beauty and fragrance products, offering a wide range of perfumes, skincare, and cosmetics from various brands at discounted prices. Founded in 1998, StrawberryNET began as a small beauty site in Hong Kong and has grown to become a global e-commerce platform, serving customers with authentic products delivered directly to their doorsteps. The company is known for its wide selection of niche and designer fragrances, catering to a diverse clientele with a focus on providing affordable luxury.",https://a.cdnsbn.com/images/sbnlogo2024_purple.png,https://www.strawberrynet.com,Hong Kong,1998,drugstore,,,,2025-07-18T12:32:10.942225,2025-08-29T14:05:47.646046
cmda701386be92254ea3e1e,Strellson,"Strellson is a Swiss fashion brand specializing in men's clothing and lifestyle products, including a range of fragrances. Founded in 1984, it is known for its modern designs that fuse classic elegance with contemporary style. The brand focuses on quality and functionality, appealing to sophisticated customers and emphasizing their unique identity through their perfume offerings. Strellson's fragrance line complements their clothing line, often aimed at a young, urban, and stylish male demographic.",https://www.strellson.com/medias/sys_master/images/images/h0e/hcb/10104515657758/Strellson-Naviteaser-new-mann-mit-schwarzem-anzug-in-der-wueste.jpg,https://www.strellson.com,Switzerland,1984,designer,,,,2025-07-18T12:32:10.942225,2025-08-29T14:05:55.533666
cmd2f5ba4b5b559f9c70854,Strenesse,"Strenesse is a German fashion and lifestyle company known for its high-quality clothing and accessories, which includes a distinct line of fragrances. Established as a premium brand, Strenesse focuses on modern elegance and premium fabrics in its designs. The brand's foray into perfume complements its fashion lines, aiming to embody the same sophistication and chic lifestyle that their clothing represents. Strenesse perfumes are characterized by their refined scents and attention to detail in packaging and branding, appealing to a discerning clientele.",https://strenesse.com/wp-content/uploads/2024/11/STRENESSE_LOGO_300PPI_BLACK.png,https://www.strenesse.com,Germany,1949,designer,,,,2025-07-18T12:32:10.942225,2025-08-29T14:06:04.942065
cmd8ba5c3161ba99bdf9b47,Students of Facultad de Bellas Artes,"Students of Facultad de Bellas Artes is an innovative perfume collective formed by students of the Fine Arts Faculty, focusing on artisanal and creative fragrance designs. This student initiative emphasizes the fusion of artistic expression and olfactory exploration, showcasing unique scent compositions that reflect the diversity of the student body and their artistic visions. The project not only provides hands-on experience in perfume creation but also promotes an understanding of scent as a form of art.",https://images.unsplash.com/photo-1541643600914-78b084683601?w=400&h=300&fit=crop,,,,indie,,,,2025-07-18T12:32:10.942225,2025-08-29T14:06:10.774717
cmd10da88cbdfd4e959a3b8,Studio Break,"Studio Break is a niche perfume company that focuses on creating unique, artistic fragrances inspired by various forms of modern and contemporary art. The brand aims to transcend traditional fragrance boundaries by infusing creativity and cultural narratives into their perfume collections, appealing to connoisseurs and those seeking distinctive scent experiences. Each fragrance tells a story, often infused with pieces of artistic expression and emotion, making them not just scents but a part of a broader artistic dialogue.",https://images.unsplash.com/photo-1556909114-f6e7ad7d3136?w=400&h=300&fit=crop,,United States,,niche,,,,2025-07-18T12:32:10.942225,2025-08-29T14:06:16.520794
cmdccabc83df4ec3cd28bf1,Stüssy,"Stüssy is a globally recognized streetwear brand founded in the early 1980s by Shawn Stüssy. Initially starting as a surfboard business, Stüssy quickly evolved into a cultural icon of streetwear, bridging the gap between surfing, skateboarding, and high fashion. The brand is known for its unique graphics, casual wear, and subcultural influences, and it has a strong reputation in the urban lifestyle and fashion scene. Although primarily known for apparel, Stüssy has also ventured into fragrances as part of its lifestyle offerings, often reflecting the brand's distinctive aesthetics.",https://www.stussy.com/cdn/shop/files/image_6.png?v=1756436717&width=1920,https://www.stussy.com,United States,1980,indie,,,,2025-07-18T12:32:10.942225,2025-08-29T14:06:22.773374
cmdad8eac540ea486ba1f2c,Style & Grace,"Style & Grace is a perfume company that focuses on creating elegant and luxurious fragrances. They are known for their unique blends that often evoke feelings of sophistication and charm. Their story began with the aim to blend modernity with classic perfume-making techniques, targeting consumers who appreciate artisanal craftsmanship and high-quality ingredients. They specialize in developing scents that cater to a diverse audience, offering a range of products from body mists to eau de parfums.",https://images.unsplash.com/photo-1556909114-f6e7ad7d3136?w=400&h=300&fit=crop,https://www.styleandgracefragrance.com,United Kingdom,,indie,,,,2025-07-18T12:32:10.942225,2025-08-29T14:06:28.626180
cmd169fb90a169906d415db,Style Parfum,"Style Parfum is a luxury fragrance company that focuses on tailoring unique scent experiences. Known for their artisanal approach, they blend high-quality natural ingredients with innovative techniques to create distinctive perfumes. Founded by fragrance enthusiasts, the company has made a name for itself by prioritizing personal stories and emotions behind each scent, allowing customers to have a more intimate connection with the fragrance they choose. Their product line includes both unisex and gender-specific fragrances that cater to diverse preferences.",https://images.unsplash.com/photo-1587017539504-67cfbddac569?w=400&h=300&fit=crop,www.styleparfum.com,France,2015,niche,contact@styleparfum.com,,"12 Rue des Fragrances, 75001 Paris, France",2025-07-18T12:32:10.942225,2025-08-29T14:06:34.333057
cmd6cbf97a5464e40c1f487,Styles For Less,"Styles For Less is a retail company that focuses on providing trendy apparel and accessories for young women, including clothing, shoes, and fragrances. The company aims to deliver stylish options at affordable prices, ensuring that customers can express their personal style without overspending. Founded with a commitment to offering the latest fashion trends in a budget-friendly manner, Styles For Less has built a reputation for catering to a diverse and fashion-conscious customer base.",https://stylesforless.com/media/2024/05/sfl_logo_main.png,https://www.stylesforless.com,United States,1984,drugstore,,,,2025-07-18T12:32:10.942225,2025-08-29T14:06:40.985234
cmdbb16ed9a8830cbf24c3b,Suave,"Suave is a well-known personal care brand that primarily focuses on providing affordable toiletries, including fragrance products. Originally established as a hair care brand, Suave has expanded its offerings to include a range of products that cater to different beauty needs, including body sprays and perfumes. The company aims to deliver high-quality products at accessible prices, connecting with a broad consumer base. Suave is recognized for its commitment to value without compromising on the essence of effective beauty solutions.",https://www.suave.com/cdn/shop/files/Suave_Logo_2023_1000x1000.png?v=1728072846,https://www.suave.com,United States,1932,drugstore,,,,2025-07-18T12:32:10.942225,2025-08-29T14:06:46.844937
cmde40d37fdf0cf9f71fc8f,Suavinex,"Suavinex is a Spanish company specializing in the manufacture and distribution of baby products, including a range of fragrances designed for newborns and children. The company focuses on creating safe, gentle, and pleasant scents that cater to the sensitive skin of infants. Established with a commitment to quality and innovation, Suavinex has expanded its product line to include not just perfumes but also feeding bottles, pacifiers, and related accessories, becoming a trusted name among parents seeking reliable and stylish products.",https://www.suavinex.com/medias/logo-sup.png?context=bWFzdGVyfGltYWdlc3w0MTMzN3xpbWFnZS9wbmd8aW1hZ2VzL2hmNi9oZjEvODg3ODM4MDY0NjQzMC5wbmd8MWQyNzhhYzg0ZjRkYmNjODlhNzYzMThhZDhmZjRiZmYyNTY0MzkxYWMxYmNmYWY0NDJlZDgwOTJhMmVmZTViNg,https://www.suavinex.com,Spain,1983,indie,,,,2025-07-18T12:32:10.942225,2025-08-29T14:06:54.167226
cmd2db9600c66912063b30b,Succès de Paris,"Succès de Paris is a niche perfume company known for its high-quality fragrances that capture the essence of Parisian elegance and sophistication. Established as a homage to the rich history of the perfume industry in France, the brand focuses on unique scent profiles, often inspired by French culture and artistry. Its creations are sought after for their artisanal craftsmanship and the use of luxurious ingredients, appealing to those who appreciate the finer details of perfumery.",https://images.unsplash.com/photo-15907369626-6c63ac16f3df?w=400&h=300&fit=crop,https://www.succesdeparis.com,France,2016,niche,,,,2025-07-18T12:32:10.942225,2025-08-29T14:07:00.066460
cmd9fd0bd7406e93ecae1f9,Sucesores B. Faig Gelant,"Sucesores B. Faig Gelant is a perfumery company based in Spain that specializes in the production and distribution of high-quality fragrance products. Founded in 1940, the company has carved a niche in the perfume industry by creating a diverse range of fragrances that appeal to both international and local markets. They are known for their craftsmanship, blending traditional techniques with modern innovation, thus establishing a reputation for quality and uniqueness in their offerings.",https://images.unsplash.com/photo-1587017539504-67cfbddac569?w=400&h=300&fit=crop,http://www.bfaig.com,Spain,1940,niche,,,,2025-07-18T12:32:10.942225,2025-08-29T14:07:05.754217
cmdb2f8763e939bfdb35ebc,Suchel Fragancias,"Suchel Fragancias is a perfume company known for crafting high-quality fragrances that cater to diverse consumer preferences. Founded in the early 1990s, the company has established itself as a leader in the fragrance industry in Latin America. Suchel Fragancias focuses on creating both innovative and classic scents, utilizing a mix of natural and synthetic ingredients to produce unique fragrances. They have a wide range of products, from personal fragrances to home scents, and are dedicated to sustainability and ethical sourcing in their production processes.",https://images.unsplash.com/photo-1582735689369-4fe89db7114c?w=400&h=300&fit=crop,www.suchel.com,Colombia,1995,indie,,,,2025-07-18T12:32:10.942225,2025-08-29T14:07:11.390103
cmd5f078510743131684d57,Sucreabeille,"Sucreabeille is a niche perfume company that specializes in creating unique, artistic fragrances inspired by a wide array of themes, including fantasy, mythology, and sweet confections. Founded by a passionate perfume enthusiast, the brand focuses on crafting quality scents that evoke storytelling and imagination. The company's offerings are often characterized by playful, whimsical packaging and inventive scent compositions, appealing to fragrance lovers who seek something distinctive and personal. Sucreabeille has developed a loyal customer base through its commitment to creative artistry and small-batch production, thereby contributing to the niche perfume market.",https://sucreabeille.com/cdn/shop/files/sucreabeille-logo-full-color-rgb-569px_72ppi_155x.png?v=1665689137,https://sucreabeille.com,United States,2014,niche,,,,2025-07-18T12:32:10.942225,2025-08-29T14:07:19.287321
cmde458f497365ffefe3dd7,Sue Devitt,"Sue Devitt is a cosmetics and fragrance company founded by makeup artist Sue Devitt. The brand is renowned for its focus on utilizing unique ingredients and sophisticated packaging, catering to customers seeking quality products that enhance beauty in a holistic manner. The company offers a range of perfumes that reflect its commitment to craftsmanship and innovative scent profiles, drawing inspiration from Sue's diverse travels and experiences.",https://images.unsplash.com/photo-15907369626-6c63ac16f3df?w=400&h=300&fit=crop,https://www.suedevitt.com,United States,2004,indie,,,,2025-07-18T12:32:10.942225,2025-08-29T14:07:25.055756
