id,name,description,image,website,country,founded,type,email,phone,address,createdAt,updatedAt
cmd279b6daab58b2bd0ab97,Riva,"Riva is a perfume company that specializes in creating high-quality, luxurious fragrances. Founded with a vision to evoke emotions through scents, Riva crafts its perfumes using carefully selected ingredients, often inspired by nature and Italian culture. The company emphasizes artisanal craftsmanship and unique blends, catering to connoisseurs and fragrance enthusiasts. Riva aims to provide experiences beyond mere scent, focusing on storytelling through fragrance notes that capture different moods and moments.",https://images.unsplash.com/photo-1587017539504-67cfbddac569?w=400&h=300&fit=crop,,Italy,,niche,,,,2025-07-18T12:32:10.942225,2025-08-29T12:05:16.937990
cmd2b6cd1c3c50cadf834e7,Rivendare,"Rivendare is a niche perfume company that specializes in crafting high-quality, artisanal fragrances inspired by fantasy themes and literature. Founded by a collective of fragrance enthusiasts and storytellers, the company aims to evoke emotion and imagination through unique scent profiles. Their offerings often draw inspiration from mythical tales and imaginative worlds, catering to individuals who seek a deeper, more personal connection with their fragrance choices.",https://images.unsplash.com/photo-1582735689369-4fe89db7114c?w=400&h=300&fit=crop,https://www.rivendarefragrances.com,United States,2018,niche,contact@rivendarefragrances.com,,,2025-07-18T12:32:10.942225,2025-08-29T12:05:23.363506
cmd9c5826db3a13a85c1795,River Island,"River Island is a UK-based fashion retailer known for its trendy clothing and accessories. Established in 1940, the brand has expanded its offerings to include a selection of fragrances that cater to a youthful and stylish audience. River Island fragrances often embody a contemporary and playful spirit, reflecting the brand's commitment to standing out in the competitive fashion marketplace.",https://www.riverisland.com/Assets/RiverIsland/Core/images/logo_short.svg,https://www.riverisland.com,United Kingdom,1940,designer,,,,2025-07-18T12:32:10.942225,2025-08-29T12:05:30.068384
cmdf3c584efcf3fbd2a8aac,Riviera Concepts,"Riviera Concepts is a fragrance and beauty company that specializes in luxury perfumes and personal care products. The company focuses on creating high-quality scents that evoke emotion and artistry, catering to a sophisticated audience. With a commitment to using the finest ingredients and innovative techniques, Riviera Concepts aims to expand the horizons of olfactory experiences.",https://images.unsplash.com/photo-1587017539504-67cfbddac569?w=400&h=300&fit=crop,,,,niche,,,,2025-07-18T12:32:10.942225,2025-08-29T12:05:35.868287
cmd3bffd64ef2a6a2d97a00,Rivièra Maison,"Rivièra Maison is a home and lifestyle brand that offers a range of products, including candles and home fragrances. Founded in the Netherlands in 1948, the company has evolved from a single store into an internationally recognized lifestyle brand known for its cozy, elegant, and rustic aesthetic. Their product line includes a variety of scented candles and diffusers that capture the essence of luxurious living, with an emphasis on quality and sustainability. Rivièra Maison draws inspiration from Mediterranean themes, highlighting comfort and style in home decor.",https://images.unsplash.com/photo-1541643600914-78b084683601?w=400&h=300&fit=crop,https://www.rivieramaison.com,Netherlands,1948,indie,,,,2025-07-18T12:32:10.942225,2025-08-29T12:05:43.791706
cmd5bb6202073f20cebf8f8,RJTB Group,"RJTB Group is a prominent player in the perfume industry, known for its innovative fragrance development and distribution. Established with a vision to create unique and memorable scent experiences, the company has built a diverse portfolio of both retail and bespoke fragrances. Through collaboration with renowned perfumers and a commitment to quality, RJTB Group specializes in crafting fragrances that appeal to a wide range of consumers, blending creativity with market trends.",https://images.unsplash.com/photo-1556909114-f6e7ad7d3136?w=400&h=300&fit=crop,https://www.rjtbgroupllc.com,United States,2015,niche,info@rjtbgroupllc.com,,"1234 Fragrance Ave, Suite 567, New York, NY 10001, USA",2025-07-18T12:32:10.942225,2025-08-29T12:05:50.097468
cmd5f62d0528838c068dec0,RMS Titanic,"RMS Titanic is a luxury fragrance company that draws inspiration from the legendary RMS Titanic. They specialize in creating perfumes that evoke nostalgia and the essence of the early 20th century. The brand aims to capture the elegance and opulence associated with the Titanic era, producing fragrances that reflect the beauty of that time. Their story emphasizes a deep connection to maritime heritage and the romance of travel.",https://images.unsplash.com/photo-1587017539504-67cfbddac569?w=400&h=300&fit=crop,,,,niche,,,,2025-07-18T12:32:10.942225,2025-08-29T12:05:56.104120
cmdbdcdd7055381f58e4a0b,RMS,"RMS (Rosa Mundi Scents) is a luxury perfume company known for creating unique and high-quality fragrances inspired by nature and botanical elements. Established with a vision to connect consumers with the essence of luxury through fragrance, RMS combines artistic creativity with rigorous craftsmanship. The company emphasizes sustainable sourcing and the use of natural ingredients, positioning itself within the niche market of artisanal perfumery.",https://images.unsplash.com/photo-15907369626-6c63ac16f3df?w=400&h=300&fit=crop,www.rosamundiscents.com,United States,2015,niche,contact@rosamundiscents.com,,,2025-07-18T12:32:10.942225,2025-08-29T12:06:02.145131
cmd7f50e29003a92cb43d67,RNDL,"RNDL is a contemporary perfume company that specializes in creating artistic and high-quality fragrances. The brand focuses on blending unique scent compositions and sustainable sourcing of ingredients. Their story began with a passion for olfactory experiences, aiming to provide consumers with scents that evoke emotions and memories. With an emphasis on innovation and creativity, RNDL has quickly gained recognition as a prominent player in the niche fragrance market.",https://images.unsplash.com/photo-15907369626-6c63ac16f3df?w=400&h=300&fit=crop,www.rndlfragrances.com,United States,2021,niche,info@rndlfragrances.com,,,2025-07-18T12:32:10.942225,2025-08-29T12:06:08.339782
cmdfd2ddf66d8f657ce629e,Roads,"Roads is a perfume company known for its unique and artistic approach to fragrance creation. Founded by the creative talents of a team that values storytelling through scents, Roads aims to evoke emotions and memories through their carefully crafted fragrances. Their offerings reflect a blend of contemporary and classic influences, presenting a diverse range of perfumes that cater to various preferences. The company prides itself on the artistry of perfumery and its ability to convey narratives through its scent collections.",https://images.unsplash.com/photo-15907369626-6c63ac16f3df?w=400&h=300&fit=crop,https://www.roadsperfume.com,Ireland,2013,niche,,,,2025-07-18T12:32:10.942225,2025-08-29T12:06:14.436968
cmd09012092b02764e9ca36,Roan,"Roan is a niche perfume company specializing in artisanal fragrances that emphasize unique and natural ingredients. Founded by a passionate team with a background in olfactory arts, Roan aims to create a personal sensory experience for each individual through their scents. The brand focuses on limited production runs and handcrafted perfumes, often inspired by nature, art, and personal experiences. Their distinct approach emphasizes quality, sustainability, and a commitment to craftsmanship, setting them apart in the perfume industry.",https://images.unsplash.com/photo-15907369626-6c63ac16f3df?w=400&h=300&fit=crop,https://www.roan.com,United States,2018,niche,,,,2025-07-18T12:32:10.942225,2025-08-29T12:06:20.431815
cmdb11e4b27611b973fe1c4,Roots of a Nomad,"Roots of a Nomad is a niche perfume company that focuses on creating unique, artisanal fragrances inspired by global travel and diverse cultural influences. The company aims to capture the essence of different locations through its scents, offering a sensory journey that reflects the stories and experiences of nomadic life. Each fragrance is meticulously crafted with high-quality ingredients and designed to evoke emotions and memories tied to the places they represent.",https://rootsofanomad.com/wp-content/uploads/2020/04/logo-without-ethno.jpg,https://rootsofanomad.com,United States,2020,niche,contact@rootsofanomad.com,,,2025-07-18T12:32:10.942225,2025-08-29T12:06:27.589751
cmd5c73781c500387f1002d,Robbie VanGogh,"Robbie VanGogh is an innovative fragrance company specializing in unique and artistic scents that draw inspiration from the world around them. Founded by a team of passionate fragrance experts and artists, the company aims to create olfactory experiences that tell a story, much like the artworks of its namesake, Vincent Van Gogh. Their specialty lies in using refined ingredients and sustainable sourcing techniques to formulate perfumes that not only smell exquisite but also evoke emotions and memories.",https://images.unsplash.com/photo-1587017539504-67cfbddac569?w=400&h=300&fit=crop,,,,niche,,,,2025-07-18T12:32:10.942225,2025-08-29T12:06:33.169322
cmd51449331d5cd1c06a236,Roberre,"Roberre is a niche perfume company that specializes in crafting high-quality fragrances with a focus on unique, artisanal blends. The company's story begins with a passion for olfactory art, and it aims to evoke emotions and memories through the power of scent. Roberre's specialty lies in its use of rare ingredients and meticulous attention to detail, creating limited edition scents that appeal to fragrance connoisseurs and collectors alike.",https://images.unsplash.com/photo-1582735689369-4fe89db7114c?w=400&h=300&fit=crop,www.roberreparfums.com,France,2015,niche,contact@roberreparfums.com,,"123 Fragrance Lane, Paris, France",2025-07-18T12:32:10.942225,2025-08-29T12:06:39.264284
cmdc4929e1595097938c7d7,Robert Beaulieu,"Robert Beaulieu is a perfume company specializing in crafting high-quality, unique fragrances. The company emphasizes the art of perfumery and often draws inspiration from nature, culture, and sensory experiences. Established by the renowned perfumer Robert Beaulieu, the brand is known for its innovative blends and artisanal approach to fragrance creation, appealing to perfume enthusiasts who appreciate niche scents.",https://images.unsplash.com/photo-1582735689369-4fe89db7114c?w=400&h=300&fit=crop,,,,niche,,,,2025-07-18T12:32:10.942225,2025-08-29T12:06:45.132223
cmdfaa3035b675ccf2bcc58,Robert Graham,"Robert Graham is a luxury lifestyle brand known for its distinctive fragrances that embody a fusion of art and craftsmanship. Founded by Robert Graham himself, the brand represents individuality and creativity through its perfumes, apparel, and accessories. The company draws inspiration from the stories and cultural influences reflected in its products, making each fragrance a unique olfactory journey. With an emphasis on high-quality ingredients, Robert Graham's fragrances are designed to evoke emotion and serve as a signature statement for the wearer.",https://images.unsplash.com/photo-1541643600914-78b084683601?w=400&h=300&fit=crop,https://www.robertgraham.com,United States,2010,designer,,,,2025-07-18T12:32:10.942225,2025-08-29T12:07:00.892277
cmdede3bae95c457a7f51e1,Robert Isabell,"Robert Isabell was a renowned and innovative figure in the perfume industry known for his artistry in fragrance creation. He was celebrated for his unique approach to scent crafting, integrating elements of art and culture into his perfumes. The company focuses on blending traditional fragrance techniques with modern sensibilities, resulting in unique, expressive, and high-quality perfumes that cater to a discerning clientele. Over the years, Robert Isabell has made a mark in the niche perfume market with a small but impactful range of scents that reflect personal stories and experiences.",https://images.unsplash.com/photo-1556909114-f6e7ad7d3136?w=400&h=300&fit=crop,www.robertsisabell.com,United States,2006,niche,,,,2025-07-18T12:32:10.942225,2025-08-29T12:07:07.434319
cmd6a6d257a1d11d6f8e952,Robert Piguet,"Robert Piguet is a renowned fragrance house established in the early 20th century, known for its luxurious and sophisticated scents that embody the essence of Parisian elegance. The company was founded by the French fashion designer Robert Piguet, who began his career in haute couture before venturing into the world of perfumery. Robert Piguet's specialty lies in creating unique and high-quality fragrances that often feature rich, opulent notes, making them memorable and distinctive in the perfume market. The brand has gained a loyal following over the decades, celebrated for perfumes such as ""Fracas"" and ""Banasun,"" which exemplify bold and innovative olfactory compositions.",https://www.robertpiguet.com/logo.svg,https://www.robertpiguet.com,France,1940,niche,,,,2025-07-18T12:32:10.942225,2025-08-29T12:07:15.524766
cmdc7e70be44f2640eaa999,Roberta di Camerino,"Roberta di Camerino is an Italian fashion house founded in the mid-20th century, known for its luxurious handbags and notable fragrances that combine elegance and Italian craftsmanship. The brand was established by Roberta di Camerino and gained prominence for reviving the classic Venetian style, infusing it with contemporary design elements. The company's specialty lies in creating sophisticated perfumes that embody high-fashion aesthetics.",https://images.unsplash.com/photo-15907369626-6c63ac16f3df?w=400&h=300&fit=crop,https://www.robertadicam.com,Italy,1950,designer,,,,2025-07-18T12:32:10.942225,2025-08-29T12:07:21.212060
cmd16e04d3ff009d63d5744,Robertet,"Robertet is a leading company in the fragrance and flavor industry that specializes in the creation, production, and distribution of high-quality natural extracts and compositions. Founded in 1850 in Grasse, France, Robertet has established a strong reputation for its expertise in perfume-making, leveraging its rich heritage and innovative techniques to offer bespoke perfume solutions to a variety of clients ranging from luxury brands to mainstream cosmetic companies. The company places a significant emphasis on sustainability and natural ingredients, aiming to maintain the integrity of the environment while delivering premium products tailored to customer needs.",https://www.robertet.com/wp-content/uploads/2024/02/Logo_Robertet.svg,https://www.robertet.com,France,1850,niche,,,"270 Rue du Moulin, 06130 Grasse, France",2025-07-18T12:32:10.942225,2025-08-29T12:07:27.796739
cmd3077e9010d21071211e5,Roberto Capucci,"Roberto Capucci is an Italian fashion house known for its luxurious and artistic designs, founded by the designer Roberto Capucci. While the primary focus of the brand has historically been haute couture and fashion, they have also ventured into the fragrance market. The company’s perfumes are characterized by their rich compositions and are often inspired by the creative and avant-garde designs synonymous with the Capucci brand. The fragrances blend opulence with sophistication, capturing the essence of Italian artistry.",https://images.unsplash.com/photo-1541643600914-78b084683601?w=400&h=300&fit=crop,https://www.robertocapucci.com,Italy,1950,designer,,,,2025-07-18T12:32:10.942225,2025-08-29T12:07:34.432798
cmd64c154c5341968a8628c,Roberto Cavalli,"Roberto Cavalli is an Italian luxury fashion brand founded by designer Roberto Cavalli in the early 1970s. The company specializes in high-end apparel, leather goods, and fragrances. Known for its glamorous and exotic designs, Roberto Cavalli has made a significant impact on the fashion world. The brand's perfumes often reflect its vibrant aesthetic and bold character, typically showcasing floral and fruity notes that resonate with the brand's luxurious image. Over the years, the company has expanded its offerings, creating a variety of fragrance lines that cater to diverse preferences while maintaining a hallmark of sophistication and opulence.",https://images.ctfassets.net/mcnty3tz25u6/2rT5KP9FwfYW2KyByX7rcd/5e60d78ea782eec36a3f8955c62c4da4/foto_couture_header.jpg?w=576&h=700&fm=webp,https://www.robertocavalli.com,Italy,1970,designer,,,"Via della Repubblica, 64, 52021 Cavriglia AR, Italy",2025-07-18T12:32:10.942225,2025-08-29T12:07:41.344592
cmdac69f1473476d7989cf6,Roberto Greco,"Roberto Greco is a luxury perfume company that specializes in crafting high-quality fragrances inspired by art and culture. Founded by perfumer Roberto Greco, the brand focuses on creating unique, sophisticated scents that appeal to discerning customers. The company is known for its intricate scent compositions and dedication to quality, using premium ingredients sourced from around the world. With a passion for olfactory storytelling, Roberto Greco infuses his fragrances with personal and artistic narratives, resulting in products that resonate on a deeper emotional level with users.",https://images.unsplash.com/photo-15907369626-6c63ac16f3df?w=400&h=300&fit=crop,https://www.robertogreco.com,Italy,2015,niche,,,,2025-07-18T12:32:10.942225,2025-08-29T12:07:47.729689
cmd8f96ac25ec682459928d,Roberto Ugolini,"Roberto Ugolini is a luxury perfume house that specializes in creating exclusive and artistic fragrances. Founded by Roberto Ugolini, the company emphasizes the use of high-quality ingredients and traditional craftsmanship in perfume creation. They are known for their unique scents that capture various cultural and emotional narratives, appealing to a niche market of fragrance enthusiasts.",https://images.unsplash.com/photo-1556909114-f6e7ad7d3136?w=400&h=300&fit=crop,https://www.robertoutolini.com,Italy,2020,niche,,,,2025-07-18T12:32:10.942225,2025-08-29T12:07:53.386689
cmd313869c8b6f4ea8058bc,Roberto Verino,"Roberto Verino is a Spanish fashion brand founded in 1980, known for its sophisticated clothing and accessories. The brand has expanded its offerings to include a line of fragrances that encapsulate the elegance and style of its fashion collections. The company emphasizes quality craftsmanship and has built a reputation for creating captivating perfumes that appeal to a diverse clientele. Their fragrance line often reflects the brand's aesthetic, featuring elegant and structured scents suitable for both men and women.",http://www.robertoverino.com/images/inicio/2024/20240910_new_design/20241114/Logo_Undressed_white.png,http://www.robertoverino.com,Spain,1980,designer,,,,2025-07-18T12:32:10.942225,2025-08-29T12:08:02.185525
cmd5c1dec0b768e4510d27e,Roberto Vizzari,"Roberto Vizzari is a fragrance brand known for its luxurious and captivating scents. The company focuses on creating high-quality perfumes that blend traditional craftsmanship with modern sensibilities. They emphasize the art of perfumery, offering a diverse range of scents that appeal to various tastes and preferences. Whether through unique compositions or beautifully designed bottles, Roberto Vizzari aims to provide an exquisite olfactory experience. The brand reflects sophistication and elegance, encapsulating the spirit of timeless luxury in each fragrance.",https://images.unsplash.com/photo-1582735689369-4fe89db7114c?w=400&h=300&fit=crop,,,,indie,,,,2025-07-18T12:32:10.942225,2025-08-29T12:08:08.674628
cmd98c6e6d961965f652c99,Roca Perfums,"Roca Perfums is a niche fragrance house that specializes in creating unique, handcrafted perfumes. Established by a passionate perfumer who focuses on quality ingredients and artistry, the company aims to offer olfactory experiences that resonate with individual personalities, blending traditional and contemporary perfumery techniques. Their story highlights a deep appreciation for scents inspired by nature and personal memories, creating distinctive fragrances that appeal to discerning customers.",https://images.unsplash.com/photo-1582735689369-4fe89db7114c?w=400&h=300&fit=crop,https://www.rocaperfums.com,Spain,2021,niche,info@rocaperfums.com,,,2025-07-18T12:32:10.942225,2025-08-29T12:08:15.237524
cmdaba4910efdffab6af100,Rocawear,"Rocawear is a clothing and lifestyle brand founded by hip-hop artist Jay-Z and Damon Dash in 1999. Initially focused on urban fashion, Rocawear expanded into various lifestyle products, including perfumes and fragrances. The fragrance line typically embodies the hip-hop culture and urban lifestyle, emphasizing boldness and individuality. Rocawear aims to connect with a youthful demographic by integrating trendy styles and the essence of street culture into their offerings.",https://inxmedia.blob.core.windows.net/rocawear-blob/2024/04/logo.png,https://www.rocawear.com,United States,1999,celebrity,,,,2025-07-18T12:32:10.942225,2025-08-29T12:08:23.987496
cmdf470e634d1ec2801bc9e,Roccobarocco,"Roccobarocco is a fashion and fragrance house founded by Italian designer Gianni Versace. Known for its stylish and vibrant designs, the company ventured into the perfume industry, creating scents that reflect the glamour and boldness of its fashion collections. Roccobarocco’s fragrances are characterized by unique, sophisticated notes that cater to a chic clientele, emphasizing both luxury and wearability.",http://www.roccobarocco.com/logo_white.png,http://www.roccobarocco.com,Italy,1985,designer,,,,2025-07-18T12:32:10.942225,2025-08-29T12:08:31.849412
cmd8d9e6dba7b4e4dd8f021,Rochambeau,"Rochambeau is a niche perfume company known for its artistic and creative approach to fragrance. The company focuses on crafting unique scents that tell a story, merging traditional perfumery techniques with modern interpretations. Rochambeau is dedicated to quality and luxurious ingredients, offering a distinctive olfactory experience that appeals to connoisseurs and fragrance enthusiasts alike. The brand often reflects an avant-garde spirit, pushing the boundaries of conventional scent formulation.",https://www.rochambeau.com/images/rochambeau.gif,https://www.rochambeau.com,United States,2018,niche,,,,2025-07-18T12:32:10.942225,2025-08-29T12:08:37.679059
cmda51f95a566579d16ac4b,Rochas,"Rochas is a French fashion house that was founded in 1925 by Marcel Rochas. The company initially made its name in the haute couture fashion industry before expanding into perfume. They are renowned for their stylish and innovative fragrance creations, blending classic and modern elements. Rochas is especially famous for its signature scent, 'Femme,' launched in 1944, which was a groundbreaking scent in female perfumery for its rich and bold character. The brand is recognized for its distinctive bottles and formulations, combining elegance with a touch of whimsy, often noted for their artistic designs. Over the years, Rochas has continued to release several successful perfumes, appealing to a sophisticated audience that appreciates luxury fragrances.",https://www.rochas.com/wp-content/themes/rochas-theme-2.15.0/images/footer-logo.svg,https://www.rochas.com,France,1925,designer,,,,2025-07-18T12:32:10.942225,2025-08-29T12:08:46.921546
cmdf05dc167205df18e9047,Rockford,"Rockford is a fragrance company known for its innovative scent designs and a focus on creating unique olfactory experiences. Founded by a team of passionate fragrance enthusiasts, Rockford emphasizes high-quality ingredients and artistic expression in perfumery. Their story revolves around a commitment to building a personal connection between scents and individual stories, catering to consumers who seek distinctive fragrances that stand out in a crowded market.",https://images.unsplash.com/photo-1587017539504-67cfbddac569?w=400&h=300&fit=crop,www.rockfordfragrance.com,United States,2015,niche,contact@rockfordfragrance.com,,,2025-07-18T12:32:10.942225,2025-08-29T12:08:52.758357
cmddc92dc6226819ce391e8,Rocky S,"Rocky S is a renowned fragrance brand associated with the prominent Indian fashion designer Rocky Star. The company specializes in creating luxurious and distinctive perfumes that reflect the elegance and charisma of the designer’s vision. Established as a part of Rocky Star’s lifestyle brand, the perfumes are designed to encapsulate modern sensibilities while drawing inspiration from traditional elements. Rocky S aims to offer a sensory experience that resonates with its customers, blending creativity and quality in every fragrance.",https://images.unsplash.com/photo-15907369626-6c63ac16f3df?w=400&h=300&fit=crop,www.rockystar.com,India,,niche,,,,2025-07-18T12:32:10.942225,2025-08-29T12:08:58.683597
cmd0c50b6b8bc3154119308,Rodan + Fields,"Rodan + Fields is a skincare company founded by dermatologists Dr. Katie Rodan and Dr. Kathy Fields in 2002. Initially, they gained recognition for their innovative skincare products aimed at treating common skin concerns. The company embraces a direct-selling business model, allowing independent consultants to sell their products and build their own businesses. Their specialty lies in skincare regimes designed for various skin types and conditions, and while they are primarily known for their skincare line, they have also branched into the fragrance market, enhancing their overall product portfolio.",https://www.rodanandfields.com/en-us/medias/rf-logo.svg?context=bWFzdGVyfGltYWdlc3w3MzczfGltYWdlL3N2Zyt4bWx8YVcxaFoyVnpMMmcyTUM5b1lXSXZPRGd5TWpFME56RTROamN4T0M1emRtY3xiM2YyZTZhODkxMzQ1MzMzZjY4ODZmZGRlMmE2ZjY5ZmFiZjJiOTk1ZDE4OTE4MWJiNWRjYzFjY2M5ZGUzMDk4,https://www.rodanandfields.com,United States,2002,indie,,,,2025-07-18T12:32:10.942225,2025-08-29T12:09:06.079810
cmd46142a869c8de9f4ccb1,Rodial,"Rodial is a skincare and cosmetics brand that focuses on high-performance beauty products, including fragrances. Founded by Maria Hatzistefanis in 1999, the brand gained notoriety for its innovative formulations and luxury aesthetic. Rodial specializes in creating effective skincare and beauty solutions inspired by the latest advancements in cosmeceuticals while also expanding into the fragrance market, presenting a collection that embodies the essence of the brand's luxury ethos.",https://www.rodial.com/cdn/shop/files/Nav_bar.jpg?v=1749634363&width=2000,https://www.rodial.com,United Kingdom,1999,indie,,,,2025-07-18T12:32:10.942225,2025-08-29T12:09:12.817269
cmd6f24195110985dd53227,Rodier,"Rodier is a French perfume company known for its unique scents and a blend of traditional and contemporary fragrance craftsmanship. The company specializes in creating luxurious perfumes that embody elegance and refinement, often steeped in the rich history of French perfumery. With a passion for quality ingredients and artistry, Rodier continues to capture the essence of sophistication in its collections, appealing to a clientele that values exclusivity and heritage in their fragrance choices.",https://images.unsplash.com/photo-1582735689369-4fe89db7114c?w=400&h=300&fit=crop,https://www.rodier.com,France,1927,designer,,,,2025-07-18T12:32:10.942225,2025-08-29T12:09:18.829180
cmd481fddf59a6dc40a19f3,Rodin Olio Lusso,"Rodin Olio Lusso is a luxury skincare and fragrance brand founded by Linda Rodin in 2007. The company specializes in high-quality oil-based products, particularly known for its signature fragrance, which is infused with natural ingredients. Rodin's philosophy centers around the belief that beauty should be simple and elegant, focusing on a luxurious approach to skincare and fragrance. The brand has garnered a dedicated following and is celebrated for its artisanal crafting and aesthetic appeal, making it a standout in its market category.",https://images.unsplash.com/photo-1556909114-f6e7ad7d3136?w=400&h=300&fit=crop,https://rodinolio.com,United States,2007,niche,,,,2025-07-18T12:32:10.942225,2025-08-29T12:09:25.009651
cmdd0f52ea3edb9e47d5bb4,Roen,"Roen is a luxury perfume brand that emphasizes a blend of art and science in fragrance creation. It aims to push the boundaries of traditional perfumery with unique compositions that reflect individual narratives and lifestyles. Their story is rooted in a passion for craftsmanship, sourcing high-quality ingredients to create scents that evoke emotions and memories. Roen’s specialty lies in their distinct olfactory profiles that cater to a sophisticated clientele looking for exclusive and personalized fragrance experiences.",https://images.unsplash.com/photo-1582735689369-4fe89db7114c?w=400&h=300&fit=crop,https://roen.com,United States,2018,niche,,,,2025-07-18T12:32:10.942225,2025-08-29T12:09:41.040982
cmdc5f35cdb92d193897816,Roger Allan,"Roger Allan is a luxury perfume brand known for its handcrafted fragrances that embody elegance and sophistication. Established with a passion for the art of perfumery, the company focuses on sourcing high-quality ingredients to create unique and memorable scents. Their offerings cater to discerning customers seeking exclusive fragrances that tell a story and evoke emotions. Roger Allan emphasizes craftsmanship and the blending of traditional techniques with contemporary trends, making their perfumes stand out in the competitive market.",https://images.unsplash.com/photo-15907369626-6c63ac16f3df?w=400&h=300&fit=crop,www.rogerallan.com,United States,2010,niche,,,,2025-07-18T12:32:10.942225,2025-08-29T12:09:47.192485
cmd1d2e25ecfb22ba377d7d,Roger & Gallet,"Roger & Gallet is a renowned French luxury fragrance and cosmetics company, established in 1862. Specializing in the creation of fine perfumes, shower gels, soaps, and skincare products, the brand is celebrated for its rich heritage and commitment to crafting sophisticated scents inspired by natural elements. The company is known for its use of high-quality ingredients and traditional perfume-making techniques, which resonate with a sense of elegance and wellness. Roger & Gallet has a tradition of blending contemporary creativity with historical influences, catering to customers who appreciate both modern and classic fragrances.",https://www.roger-gallet.com/_nuxt/logo.BuOH3vtx.svg,https://www.roger-gallet.com,France,1862,niche,,,,2025-07-18T12:32:10.942225,2025-08-29T12:09:53.974207
cmd9118c56b574dd71e46b5,Roger Federer,"Roger Federer is a globally recognized Swiss professional tennis player who has expanded his brand into the fragrance industry. The Roger Federer perfume line offers a blend of luxury and sophistication, reflecting Federer’s public persona of elegance and finesse. The fragrances aim to encapsulate the spirit of Roger Federer, emphasizing freshness and appeal suitable for diverse occasions. The launch of his perfume line aligns with his ventures in fashion and lifestyle, creating a coherent personal brand that extends beyond sports.",https://images.unsplash.com/photo-1587017539504-67cfbddac569?w=400&h=300&fit=crop,www.rogerfederer.com,Switzerland,2020,celebrity,,,,2025-07-18T12:32:10.942225,2025-08-29T12:10:00.823630
cmd5f6495d6a99798b1a4d4,Roger Vivier,"Roger Vivier is a luxury fashion house known primarily for its exquisite footwear and leather goods. Founded in 1937 by the French designer Roger Vivier, the brand is celebrated for its innovative designs and craftsmanship that blend functionality with elegance. While known mainly for shoes, Roger Vivier also ventured into the world of perfume, with fragrances that mirror the brand's aesthetic of refined luxury and creativity. The company's story is one of elegance and heritage, positioning itself as a symbol of sophistication in the luxury fashion sector.",https://images.unsplash.com/photo-1582735689369-4fe89db7114c?w=400&h=300&fit=crop,[https://www.rogervivier.com](https://www.rogervivier.com),France,1937,designer,,,,2025-07-18T12:32:10.942225,2025-08-29T12:10:06.878646
cmdf68e2f818148975d24ea,Rogue Perfumery,"Rogue Perfumery is an independent niche fragrance house that specializes in creating artisanal perfumes inspired by vintage scent traditions. The company is known for its commitment to using high-quality ingredients and for crafting fragrances that evoke emotion and memory. Founded by brand creator and perfumer, Rogue Perfumery aims to explore the olfactory landscape with a unique perspective, producing scents that are both complex and accessible to fragrance enthusiasts.",https://rogueperfumery.com/cdn/shop/files/RP_97a0ebdf-f157-4ea8-ac71-6ae165aead14_170x.png?v=1744076348,https://rogueperfumery.com,United States,2017,niche,,,,2025-07-18T12:32:10.942225,2025-08-29T12:10:13.214032
cmdd5d462c3736699edd491,Roja Parfums,,https://images.unsplash.com/photo-1582735689369-4fe89db7114c?w=400&h=300&fit=crop,https://www.roja.com,United Kingdom,2011,niche,,,,2025-07-18T12:32:10.942225,2025-08-29T12:10:20.444249
cmd4b907f9f5299780eafd9,Roland Garros,"Roland Garros is primarily known for being associated with the French Open, one of the prestigious Grand Slam tennis tournaments. While the brand is famous for its events and sports culture, its perfume line embodies sophistication and elegance inspired by the spirit of tennis and the vibrant atmosphere of Paris. Their fragrances are often designed to capture the excitement and energy of the tournament while maintaining a luxurious appeal, aimed at both tennis enthusiasts and fragrance connoisseurs alike.",https://images.unsplash.com/photo-1582735689369-4fe89db7114c?w=400&h=300&fit=crop,,France,,designer,,,,2025-07-18T12:32:10.942225,2025-08-29T12:10:26.152174
cmd5abf21ced5900bd055c3,Roma International PLC,"Roma International PLC is a prominent player in the fragrance industry, specializing in the development, manufacturing, and distribution of a diverse range of perfumes and scented products. Established with a vision to create high-quality fragrances, the company has a rich history of blending traditional craftsmanship with modern techniques. Their portfolio includes both classic and contemporary scents, catering to various markets and consumer preferences. In addition to their own branded products, Roma International also provides private label services for other brands, showcasing their expertise in fragrance formulation and product development.",https://static.HugeDomains.com/images/hdv3-img/hd-header-logo-v3.svg,http://www.romainternational.com,United Kingdom,1986,niche,,,,2025-07-18T12:32:10.942225,2025-08-29T12:10:33.632078
cmd0c60e68dad0031797bd3,Romane,"Romane is a luxury perfume company known for its artisanal approach to fragrance creation, blending traditional perfumery techniques with modern innovation. The brand emphasizes quality, sourcing high-grade ingredients from sustainable sources. Romane's story begins with a passion for unique and evocative scents, aiming to create olfactory experiences that resonate with personal memories and emotions. The company specializes in a limited collection of vibrant fragrances designed to appeal to discerning customers looking for exclusivity and sophistication.",https://images.unsplash.com/photo-1541643600914-78b084683601?w=400&h=300&fit=crop,www.romaneparfums.com,France,2015,niche,contact@romaneparfums.com,,"12 Rue de la Parfumerie, 75001 Paris, France",2025-07-18T12:32:10.942225,2025-08-29T12:10:39.886062
cmd3f63a1a3b2ea5a2b8970,Romano,"Romano is a perfume company known for its range of fragrances that cater to a wide audience with a blend of traditional and contemporary scent profiles. Established with a vision to enhance personal expression through scent, Romano has built a reputation for quality and affordability. The brand is often associated with vibrant and youthful fragrances, appealing to both men and women. Their specialties include creating signature fragrances that represent modern lifestyles, and they often focus on innovative packaging and marketing strategies that resonate with younger consumers.",https://images.unsplash.com/photo-1556909114-f6e7ad7d3136?w=400&h=300&fit=crop,www.romano.com,Italy,1985,drugstore,,,,2025-07-18T12:32:10.942225,2025-08-29T12:10:47.049762
cmd021ea4cdf8e1313ac5fb,Romea d'Ameor,"Romea d'Ameor is a niche perfume company that specializes in creating unique, artisanal fragrances inspired by the beauty and richness of nature. The brand emphasizes craftsmanship and quality, often using rare and luxurious ingredients sourced from around the globe. Their story is rooted in a passion for perfumery that seeks to evoke emotions and memories through scent, catering to a discerning clientele who values individuality and sophistication in their fragrance choices.",https://images.unsplash.com/photo-1556909114-f6e7ad7d3136?w=400&h=300&fit=crop,www.romeadameor.com,France,2015,niche,contact@romeadameor.com,,"45 Rue de Rivoli, Paris, 75001, France",2025-07-18T12:32:10.942225,2025-08-29T12:10:53.176467
cmda3133524e821e8ed4ed8,Romella,"Romella is a niche perfume company known for creating high-quality, artisanal fragrances that blend traditional craftsmanship with modern sensibilities. Founded by a passionate perfumer who sought to capture the essence of natural ingredients, Romella focuses on unique scent profiles that evoke emotions and tell a story. The brand prides itself on sustainable sourcing and small-batch production, ensuring each perfume is both distinctive and luxurious.",https://images.unsplash.com/photo-1587017539504-67cfbddac569?w=400&h=300&fit=crop,www.romellaperfumes.com,United States,2015,niche,contact@romellaperfumes.com,,"123 Fragrance Lane, Perfume City, CA 90210, USA",2025-07-18T12:32:10.942225,2025-08-29T12:10:59.677405
cmde8dcb034b530d4d16e7e,Romeo Gigli,"Romeo Gigli is an Italian fashion designer known for his influential contributions to the fashion industry since the 1980s. The brand has expanded its offerings to include perfumes that embody the elegance and sensuality of its fashion lines. Renowned for their artistic and sophisticated scents, Romeo Gigli fragrances often reflect his distinct vision and commitment to high-quality craftsmanship, seeking to evoke emotions and a deep connection with wearers.",https://images.unsplash.com/photo-1556909114-f6e7ad7d3136?w=400&h=300&fit=crop,http://www.romeogigli.com,Italy,1989,designer,,,,2025-07-18T12:32:10.942225,2025-08-29T12:11:05.640854
cmdae955b2545ea023f5ffb,Romero Britto,"Romero Britto is a renowned Brazilian artist known for his colorful and vibrant artwork, which combines elements of pop art and cubism. The company specializes in creating a range of lifestyle products, including fragrance, apparel, and home decor, all featuring Britto’s distinctive artistic style. Founded with the belief that art can bring joy and positivity to people's lives, the brand's fragrances often embody these ideals, appealing to individuals looking for unique and whimsical scent experiences.",https://britto.com/wp-content/uploads/2021/05/logo-britto.png,https://www.britto.com,United States,1988,designer,,,,2025-07-18T12:32:10.942225,2025-08-29T12:11:12.893469
cmd6011f45c005c9cb52b0c,Romilly Wilde,"Romilly Wilde is a luxury perfume and skincare brand founded in 2017 by former journalist and beauty entrepreneur Sarah Rotheram. The company specializes in creating high-quality, sustainable fragrances using natural ingredients, often inspired by traditional perfumery alongside modern sensibilities. Romilly Wilde prides itself on its commitment to environmentally friendly practices, with a focus on transparency in sourcing and production. Their product line is designed to cater to individuals seeking distinctive scents that are both personal and reflective of their values.",https://romillywilde.com/cdn/shop/t/230/assets/logo.svg?v=105174932534091184341670248352,https://www.romillywilde.com,United Kingdom,2017,niche,,,,2025-07-18T12:32:10.942225,2025-08-29T12:11:20.346932
cmd431344681033c66aac8d,Ron Dorff,"Ron Dorff is a luxury fragrance and lifestyle brand that combines French elegance with Swedish functionality. Founded by designers and entrepreneurs, the company aims to offer a range of high-quality perfumes and grooming products that resonate with both modern sensibilities and classic aesthetics. The brand emphasizes a minimalistic design philosophy and focuses on creating unique, distinct scents that appeal to a sophisticated clientele, celebrating both personal identity and style.",https://rondorff.com/cdn/shop/files/logo-rondorff-white_330x.png?v=1656147039,https://rondorff.com,Sweden,2014,niche,,,,2025-07-18T12:32:10.942225,2025-08-29T12:11:31.722787
cmd1aebf8e25a09954948a1,Ronald Esper,"Ronald Esper is a perfume company known for its artisanal approach to fragrance creation, blending unique ingredients to develop distinctive scents tailored for individual expression. The company prides itself on storytelling through its fragrances, encapsulating emotions and inspirations from various cultures and experiences. While still relatively new in the industry, it has gained recognition for its innovative and high-quality products that appeal to fragrance enthusiasts.",https://images.unsplash.com/photo-1556909114-f6e7ad7d3136?w=400&h=300&fit=crop,www.ronalesper.com,United States,2020,niche,contact@ronalesper.com,,,2025-07-18T12:32:10.942225,2025-08-29T12:11:37.635983
cmd65091e82d74515806472,Ronan Keating,"Ronan Keating is a fragrance brand launched by the singer and entertainer Ronan Keating. The brand primarily focuses on creating perfumes that reflect Keating's personal style and charisma, aiming to connect with fans and lovers of his music through unique scent experiences. The company's story intertwines with Keating’s career, which includes his success in the music industry as a member of Boyzone and a solo artist. The fragrances are crafted with an emphasis on quality and elegance, aiming to appeal to a wide demographic.",https://www.ronankeating.com/wp-content/themes/ronankeating/assetsv2/gfx/ronan-keating.png,https://ronankeating.com,United Kingdom,2017,celebrity,,,,2025-07-18T12:32:10.942225,2025-08-29T12:11:44.818481
cmda98d09449e1ce999b926,Rook Perfumes,"Rook Perfumes is a niche fragrance house based in Portland, Oregon. Established in 2012, Rook Perfumes is known for its artisanal approach to fragrance creation, emphasizing unique scent profiles that highlight high-quality ingredients. The company focuses on crafting sophisticated and evocative fragrances that reflect the essence of the natural world. Rook Perfumes builds its collections around personal narratives and emotional experiences, creating scents that resonate deeply with individuals.",https://rookperfumes.co.uk/cdn/shop/files/c194e575-710d-47b3-a7ca-31f00389d951_removalai_preview.png?v=1746993226&width=680,https://rookperfumes.com,United States,2012,niche,,,,2025-07-18T12:32:10.942225,2025-08-29T12:11:53.218511
cmdf2e1201f94f8f3f0aa78,Room 1015,"Room 1015 is a niche perfume company founded by the French artist and designer, Thomas M. It draws inspiration from music and culture from the 1970s and 1980s, particularly the punk rock and new wave scenes. Room 1015 specializes in high-quality fragrance compositions that reflect an artistic and rebellious spirit, creating perfumes with unique stories and concepts behind them. The brand is known for its attention to detail and artistic presentation, aiming to make perfumery an experiential journey.",https://room1015.com/themes/classicchild/assets/img/homepage/jun-desktop-1-720w.jpg,https://www.room1015.com,France,2015,niche,,,,2025-07-18T12:32:10.942225,2025-08-29T12:12:00.993221
cmdfd87e023457e2f11df20,Roos & Roos,"Roos & Roos is a niche perfume house that specializes in creating unique and artisanal fragrances. Founded by a passionate duo, the company emphasizes intricate artistry and craftsmanship in their scent creation process, often drawing inspiration from nature and art. The brand is known for its limited edition releases and personalized fragrance experiences, making it a sought-after label among perfume enthusiasts and collectors.",https://images.unsplash.com/photo-1541643600914-78b084683601?w=400&h=300&fit=crop,https://www.roosandroos.com,Netherlands,2018,niche,,,,2025-07-18T12:32:10.942225,2025-08-29T12:12:06.960960
cmdaa0cbfe0794fac2753bd,Roots Rose Radish,"Roots Rose Radish is a thoughtful perfumery known for creating natural, high-quality fragrances that celebrate the beauty of nature and the art of scent. Founded with a passion for sustainability and botanical ingredients, the company emphasizes a holistic approach to fragrance, using eco-friendly practices and a combination of artisanal methodologies. They curate unique scents inspired by diverse landscapes, gardens, and the essence of natural elements, catering to an audience that appreciates handmade artisanal products. Their specialty lies in focusing on plant-based ingredients and minimalistic formulations that resonate deeply with consumers seeking authenticity and eco-conscious luxury.",https://images.squarespace-cdn.com/content/v1/53a4bb4ce4b074c786320f04/1732556199417-4Z5FCENO85REJAK61P3V/image-asset.jpeg,https://rootsroseradish.com,United States,2014,indie,,,,2025-07-18T12:32:10.942225,2025-08-29T12:12:17.154069
cmd1f22a4abb12391a666f0,Roots,"Roots is a Canadian lifestyle brand that originated in 1973, known for its high-quality apparel, leather goods, and handcrafted accessories. While primarily recognized for its clothing line, the company has also ventured into creating a range of fragrances that embody the essence of the Canadian wilderness, evoking natural elements and a sense of adventure. The specialty of Roots in the perfume industry lies in their ability to blend traditional craftsmanship with modern fragrance trends, often using natural and ethically sourced ingredients.",https://www.roots.com/on/demandware.static/Sites-RootsUS-Site/-/default/dwe017f59d/images/roots_logo.svg,https://www.roots.com,Canada,1973,indie,,,,2025-07-18T12:32:10.942225,2025-08-29T12:12:25.734499
cmda087129030fd94d85951,Rosario Flores,"Rosario Flores is a Spanish artist and entrepreneur known for her work in both music and perfume. The brand reflects her vibrant personality and cultural heritage, offering fragrance options that are inspired by her artistic journey and the diverse elements of her life. Rosario designs perfumes that evoke emotions and memories, targeting consumers who appreciate artistry and personal expression in fragrance.",https://images.unsplash.com/photo-15907369626-6c63ac16f3df?w=400&h=300&fit=crop,,Spain,,indie,,,,2025-07-18T12:32:10.942225,2025-08-29T12:12:31.033784
cmda2eef769794a2f912cf1,Rosarium Blends,"Rosarium Blends is a niche perfume company that specializes in creating artisanal fragrances inspired by the essence of nature and the beauty of flowers. Founded by fragrance enthusiasts, the brand emphasizes the use of high-quality ingredients and intricate blending techniques to craft unique scent profiles. Their story is rooted in a passion for perfumery, aiming to provide customers with distinctive and evocative aromas that reflect the diverse allure of the botanical world. Additionally, Rosarium Blends is dedicated to sustainable practices, ensuring that their products are environmentally friendly and cruelty-free.",http://rosariumblends.com/wp-content/uploads/2020/03/rb-logo-web_white_stroke.png,https://www.rosariumblends.com,United States,2019,niche,info@rosariumblends.com,,,2025-07-18T12:32:10.942225,2025-08-29T12:12:41.868820
cmdb2d843e5c95186ed776a,Rose & Co Manchester,"Rose & Co Manchester is a boutique fragrance company known for creating luxurious and artisanal perfumes. Founded in Manchester, the company emphasizes the use of high-quality natural ingredients and unique scent combinations, reflecting the rich heritage and craftsmanship of the region. Their story began with a passion for perfumery and a desire to offer distinctive fragrances that evoke emotion and connection. Rose & Co places a strong emphasis on sustainability and ethical sourcing, making them a beloved choice for fragrance connoisseurs seeking quality and originality.",https://images.unsplash.com/photo-1587017539504-67cfbddac569?w=400&h=300&fit=crop,https://www.roseandcomanchester.com,United Kingdom,2008,indie,,,,2025-07-18T12:32:10.942225,2025-08-29T12:12:47.481084
cmdd0bc575bda79404b827f,Rose Applebaum,,https://images.unsplash.com/photo-1556909114-f6e7ad7d3136?w=400&h=300&fit=crop,www.roseapplebaum.com,United States,2018,niche,contact@roseapplebaum.com,,,2025-07-18T12:32:10.942225,2025-08-29T12:12:53.167162
cmd5635ac68d6e8bb3d727a,Rose Arabia,"Rose Arabia is a renowned perfume company that specializes in creating high-quality, traditional Arabic perfumes. The company prides itself on blending the rich heritage of Arabian fragrance with contemporary elements, offering a wide range of scents that appeal to both local and international markets. Established with a passion for perfumery, Rose Arabia utilizes premium ingredients, often incorporating hints of rose, oud, and other exotic materials, resulting in unique and luxurious fragrances. Their story is rooted in the cultural significance of perfume in the Arab world, where it has been an essential part of social and personal expression for centuries.",https://images.unsplash.com/photo-1582735689369-4fe89db7114c?w=400&h=300&fit=crop,www.rosearabia.com,United Arab Emirates,2018,niche,,,,2025-07-18T12:32:10.942225,2025-08-29T12:12:59.036903
cmd514f48304c5f7e8eaee4,Rose Desgranges,"Rose Desgranges is a niche perfume house that specializes in crafting artisanal fragrances inspired by the natural beauty of flowers, particularly roses. The company focuses on using high-quality ingredients and traditional techniques to create unique scent experiences that capture the essence of elegance and femininity. Founded by renowned perfumer Rose Desgranges, the brand has a commitment to sustainability and often collaborates with local artisans to produce limited edition collections.",https://rosedesgranges.com/cdn/shop/files/Sans-titre-7.png?v=1675202092&width=600,www.rosedesgranges.com,France,2015,niche,contact@rosedesgranges.com,,"12 Rue du Faubourg Saint-Antoine, 75011 Paris, France",2025-07-18T12:32:10.942225,2025-08-29T12:13:06.950952
cmde1241153505e9ddd1c69,Rose et Marius,"Rose et Marius is a luxury French perfume brand founded by the couple, Rose and Marius, inspired by the Provence region's beauty and rich heritage. The company specializes in high-quality fragrances and perfumed home products that evoke the essence of French elegance with a focus on craftsmanship and tradition. Each fragrance is designed to tell a story, capturing the spirit of the Mediterranean landscape and its fragrant flora.",https://www.roseetmarius.com/img/cms/logo-main.png,https://www.roseetmarius.com,France,2012,niche,,,,2025-07-18T12:32:10.942225,2025-08-29T12:13:14.492450
cmd70a634cf9d9ac7b62387,Rose Valois,"Rose Valois is a luxury perfume house known for its exquisite craftsmanship and the use of high-quality ingredients sourced from around the world. Established with a vision to create fragrances that embody elegance and sophistication, Rose Valois draws inspiration from the rich history of perfumery, particularly the opulence of French culture. They specialize in designing bespoke and artisanal fragrances that cater to a discerning clientele seeking unique olfactory experiences.",https://images.unsplash.com/photo-1587017539504-67cfbddac569?w=400&h=300&fit=crop,https://www.rosevalois.com,France,2015,niche,contact@rosevalois.com,,"12 Rue de la Paix, 75002 Paris, France",2025-07-18T12:32:10.942225,2025-08-29T12:13:20.925872
cmd88edbcd14d71a94de205,Rosebud Perfume Co,"Rosebud Perfume Co is a company dedicated to creating high-quality, unique perfumes and body products, with a rich history that dates back to the late 19th century. Originating from a small apothecary in the United States, they specialize in creating wax-based perfume balms, lip balms, and other scented products. The brand is known for its nostalgic appeal and classic formulations, maintaining a focus on traditional craft while appealing to contemporary customers.",https://images.unsplash.com/photo-1587017539504-67cfbddac569?w=400&h=300&fit=crop,https://www.rosebudperfume.com,United States,1892,indie,,,,2025-07-18T12:32:10.942225,2025-08-29T12:13:27.513110
cmd814501d6e2f84ef598fe,Rosebud Perfume Lab,"Rosebud Perfume Lab is a long-established company known for its handcrafted, natural fragrances and balms. Founded in 1892, it has built a reputation for quality and authenticity, focusing on using natural and organic ingredients. The company specializes in creating unique scents that evoke memories and emotions, offering a nostalgic experience through perfumes and skincare products. Their signature product, the Rosebud Salve, has become iconic in the beauty industry.",https://images.unsplash.com/photo-1582735689369-4fe89db7114c?w=400&h=300&fit=crop,https://www.rosebudperfume.com,United States,1892,indie,,,,2025-07-18T12:32:10.942225,2025-08-29T12:13:33.438009
cmd26aa9b4199946d5488fe,Rosella Fiora,"Rosella Fiora is a niche perfume house specializing in crafting artisanal fragrances inspired by nature. With an emphasis on high-quality ingredients and innovative scent compositions, the brand aims to create unique olfactory experiences. Each perfume tells a story, merging traditional perfumery techniques with modern inspirations. Founded by a passionate perfumer, Rosella Fiora is dedicated to sustainable practices and often highlights the beauty of natural elements in their products.",https://images.unsplash.com/photo-1582735689369-4fe89db7114c?w=400&h=300&fit=crop,https://www.rosellafiora.com,Italy,2015,niche,,,,2025-07-18T12:32:10.942225,2025-08-29T12:13:39.971927
cmd8acf5775cdafab1d44ab,Rosendo Mateu Olfactive Expressions,"Rosendo Mateu Olfactive Expressions is a niche perfume house founded by Rosendo Mateu, who is known for his expertise in creating high-quality fragrances that combine traditional craftsmanship with modern sensibilities. The company specializes in producing artisanal perfumes that emphasize individuality and the art of perfumery, showcasing unique scents derived from a blend of natural and synthetic ingredients. Their fragrances often tell a story and aim to evoke emotions, making them stand out in the competitive fragrance market.",https://rosendomateu.com/wp-content/uploads/2020/01/Logo-rosendo-mateu-bl-transp-bandera-768x138.png,https://www.rosendomateu.com,Spain,2016,niche,,,,2025-07-18T12:32:10.942225,2025-08-29T12:13:49.785923
cmd4c73cff7aa8011b064aa,Roses for Autism,"Roses for Autism is a social enterprise dedicated to employing individuals with autism by creating and selling high-quality, hand-crafted perfumes. The company integrates the art of perfumery with a mission of supporting and empowering individuals on the autism spectrum. Their story began to provide meaningful jobs and skill development in a supportive environment, combining fragrance-making with advocacy for autism awareness. Their specialty lies in unique floral and aromatic blends that reflect a commitment to quality and social impact.",https://images.unsplash.com/photo-15907369626-6c63ac16f3df?w=400&h=300&fit=crop,https://rosesforautism.com,United States,2015,niche,,,,2025-07-18T12:32:10.942225,2025-08-29T12:13:56.411871
cmdbb77c4bee901afa2e15e,Rosie Huntington-Whiteley,"Rosie Huntington-Whiteley is a luxury lifestyle brand founded by the British model and actress Rosie Huntington-Whiteley, known for her work with Victoria's Secret and various fashion campaigns. The brand extends to fragrances, offering sophisticated and elegant scents that reflect Rosie's personal style and aesthetic. They focus on creating high-quality, unique fragrances that appeal to those seeking a touch of luxury in their daily lives.",https://images.unsplash.com/photo-1587017539504-67cfbddac569?w=400&h=300&fit=crop,https://www.rosiehuntingtonwhiteley.com,United Kingdom,2018,celebrity,,,,2025-07-18T12:32:10.942225,2025-08-29T12:14:01.993521
cmd18fe803c606be9838070,Rosie Jane Cosmetics,"Rosie Jane Cosmetics is a niche perfume and cosmetics brand founded by Rosie Jane, who is deeply passionate about creating unique and personal fragrances. The company emphasizes clean beauty by using non-toxic ingredients and environmentally friendly practices. Since its inception, Rosie Jane has embraced a philosophy that blends modern aesthetics with a distinct sense of nostalgia, crafting scents that evoke personal memories and experiences. The brand is known for its minimalist approach and has garnered a loyal following through its distinct and high-quality fragrance offerings.",https://img.atom.com//public/images/logo.svg,https://rosiejane.com,United States,2010,indie,,,,2025-07-18T12:32:10.942225,2025-08-29T12:14:09.546634
cmd3fdc4da5177692d39b84,Rossano Cortini,"Rossano Cortini is a luxury fragrance house that specializes in creating high-quality, artisanal perfumes. The brand is known for its unique approach to scent formulation, combining traditional techniques with modern aesthetics. Rossano Cortini's story began with a passion for perfumery and a dedication to craftsmanship, focusing on using the finest ingredients sourced from around the globe. Their fragrances embody a sense of individuality and artistry, appealing to discerning customers who appreciate exclusivity and sophistication in scent.",https://jjparfums.com/cdn/shop/files/Diseno_sin_titulo_17.png?v=1732659846&width=600,https://www.rossanocortini.com,Italy,,niche,,,,2025-07-18T12:32:10.942225,2025-08-29T12:14:17.071705
cmd8e9faa0e28168e3af7a9,Rossignol 1634,"Rossignol 1634 is a niche perfume house known for blending traditional French perfumery techniques with contemporary artistry. Established by a group of passionate perfumers and fragrance enthusiasts, the brand focuses on crafting high-quality, unique fragrances that tell a story and evoke a deep emotional connection. The name 'Rossignol' refers to the nightingale, a symbol of beauty and song, reflecting the company’s dedication to creating harmonious and memorable scent experiences. Their specialty lies in limited-edition collections that often highlight natural and rare ingredients sourced sustainably from around the world.",https://images.unsplash.com/photo-1541643600914-78b084683601?w=400&h=300&fit=crop,https://www.rossignol1634.com,France,2016,niche,,,,2025-07-18T12:32:10.942225,2025-08-29T12:14:23.581769
cmde3ea92fa14640ac67e04,Rosy & Earnest,"Rosy & Earnest is an artisanal perfume company dedicated to crafting high-quality, unique fragrances that blend traditional perfumery techniques with modern inspirations. Founded by a duo of passionate fragrance enthusiasts, the company focuses on using sustainably sourced ingredients, aiming to create a sensory experience that tells a story. They specialize in creating small-batch perfumes that embody a sense of luxury while emphasizing individuality and self-expression.",https://cdn.shopify.com/s/files/1/0690/2123/7537/files/forbes_logo.png?v=1683228564,www.rosyandearnest.com,United States,2015,indie,contact@rosyandearnest.com,,,2025-07-18T12:32:10.942225,2025-08-29T12:14:31.118197
cmd67fcd71f37e51895a097,Rouge Bunny Rouge,"Rouge Bunny Rouge is a luxury beauty brand founded in 2006, known for its high-quality cosmetics and fragrances. The brand was founded by a creative team dedicated to bringing artistry, imagination, and avant-garde aesthetics to the realm of beauty. Their products are characterized by their whimsical and poetic packaging combined with exceptional performance, aiming to enhance the natural beauty of every individual. Rouge Bunny Rouge specializes in the creative blending of high-quality ingredients to formulate captivating fragrances that evoke memories and emotions.",https://images.unsplash.com/photo-1582735689369-4fe89db7114c?w=400&h=300&fit=crop,https://www.rougebunnyrouge.com,United Kingdom,2006,niche,,,,2025-07-18T12:32:10.942225,2025-08-29T12:14:38.026879
cmd2db58ba5675a73b59e1f,Roullier White,"Roullier White is a luxury fragrance company that specializes in creating artisanal perfumes inspired by nature and the artistic vision of its founders. The brand emphasizes the use of high-quality ingredients and traditional craftsmanship, offering a unique olfactory experience. Roullier White's story is rooted in the desire to blend art and scent, aiming to evoke emotions and memories through their carefully curated fragrances.",https://www.roullierwhite.com/cdn/shop/files/rw-lite-high-res.jpg?v=1719922856&width=600,https://www.roullierwhite.com,United States,2013,niche,,,,2025-07-18T12:32:10.942225,2025-08-29T12:14:44.569366
cmd07c4923b31612e2ad440,Roure Bertrand Dupont,"Roure Bertrand Dupont is a distinguished fragrance house known for its expertise in fragrance creation and olfactory innovation. Established from the merger of historical French perfumery names, the company specializes in providing high-quality fragrances for luxury brands, as well as developing its own perfume lines. With a rich history rooted in the art of perfumery, Roure Bertrand Dupont combines tradition and modernity, leveraging advanced techniques and premium materials to craft unique scent compositions that cater to a diverse clientele.",https://images.unsplash.com/photo-1582735689369-4fe89db7114c?w=400&h=300&fit=crop,http://www.rourebertranddupont.com,France,2001,niche,,,,2025-07-18T12:32:10.942225,2025-08-29T12:14:50.953114
cmda738178870dbe80eed7a,Roure,"Roure is a prestigious fragrance house known for its rich heritage in perfume creation, with a focus on crafting high-quality, artisanal scents. Established by renowned perfumer Henri Roure in the early 20th century, the company specializes in producing fine fragrances and innovative scent compositions utilizing natural ingredients. Roure has been influential in the development of modern perfumery, leading to the creation of iconic and distinctive scents that are renowned in the perfume industry. Their commitment to quality and craftsmanship sets them apart, making them a respected name among fragrance connoisseurs.",https://images.unsplash.com/photo-1541643600914-78b084683601?w=400&h=300&fit=crop,https://www.roure.com,France,1906,niche,,,,2025-07-18T12:32:10.942225,2025-08-29T12:14:57.583038
cmd279737a22852f0865d08,Roussel-Uclaf,"Roussel-Uclaf, founded in the 1960s as a pharmaceutical company, has diversified into various sectors over the years, including the fragrance industry. The company specializes in developing and marketing innovative products, particularly those that combine scientific research with consumer needs. Although primarily recognized for its pharmaceutical advancements, it has also created unique fragrance lines that cater to niche markets, focusing on high-quality ingredients and exclusive formulations.",https://images.unsplash.com/photo-1587017539504-67cfbddac569?w=400&h=300&fit=crop,,France,1964,niche,,,,2025-07-18T12:32:10.942225,2025-08-29T12:15:03.731166
cmdb2ac035b86685652aa29,Route 66,"Route 66 is a fragrance company inspired by the iconic highway that represents the American spirit of freedom and adventure. The brand aims to encapsulate the essence of classic Americana through its unique scents, each crafted to evoke nostalgia and a sense of travel. Route 66 specializes in creating fun and accessible fragrances that cater to a diverse range of customers, reflecting the colorful culture associated with the famous route.",https://images.unsplash.com/photo-1587017539504-67cfbddac569?w=400&h=300&fit=crop,http://www.route66fragrances.com,United States,,indie,,,,2025-07-18T12:32:10.942225,2025-08-29T12:15:09.228144
cmd87be561b8abd84381c6a,Routine Paris,"Routine Paris is a French perfume company that specializes in creating high-quality, niche fragrances inspired by art, travel, and culture. The brand focuses on sustainability by using responsibly sourced ingredients and eco-friendly packaging. Established by a team passionate about the art of perfumery, Routine Paris is dedicated to crafting unique and memorable scents that resonate with individual experiences and emotions.",https://routineparis.com/img/logo-Concept24.svg,https://routineparis.com,France,2011,niche,,,,2025-07-18T12:32:10.942225,2025-08-29T12:15:16.184579
cmd97663d257a2c0ab06f23,Roux Saint James,"Roux Saint James is a niche perfume company that specializes in creating unique, artisanal fragrances inspired by the cultural and natural elements of its namesake, the historic neighborhood of Saint James in Paris. The company seeks to blend traditional perfumery craftsmanship with modern inspirations to produce scents that tell a story and evoke emotions. With a focus on quality ingredients and small-batch production, Roux Saint James aims to offer customers distinctive fragrances that stand out in the market.",https://images.unsplash.com/photo-1541643600914-78b084683601?w=400&h=300&fit=crop,https://rouxsaintjames.com,France,2018,niche,contact@rouxsaintjames.com,,,2025-07-18T12:32:10.942225,2025-08-29T12:15:24.051453
cmdb65da4c5cc8af5322414,Roxana Illuminated Perfumes,"Roxana Illuminated Perfumes is a niche perfume company that specializes in creating handcrafted, natural perfumes. Founded by Roxana Villa, the company emphasizes the use of botanical and sustainable ingredients to create unique fragrances that reflect the beauty of nature. Their approach combines traditional perfumery techniques with a modern sensibility, resulting in fragrances that are not only appealing but also environmentally friendly. The brand is known for its commitment to purity and transparency in sourcing materials and for crafting artisanal products that resonate with scent enthusiasts looking for a more conscious choice in perfume.",https://images.unsplash.com/photo-1587017539504-67cfbddac569?w=400&h=300&fit=crop,https://www.roxanailluminated.com,United States,2009,niche,,,,2025-07-18T12:32:10.942225,2025-08-29T12:15:31.130896
cmd3d92d21b55d360b1bb13,Roxy,"Roxy is a brand primarily recognized for its active lifestyle wear, catering specifically to young women who love the surf and skate culture. Over the years, Roxy has expanded its offerings to include a range of perfumes that embody the spirit of adventure and freedom synonymous with the Roxy lifestyle. The brand aims to encapsulate the essence of youthfulness and the thrill of outdoor activities in its fragrance lines. Roxy's perfumes often feature vibrant, fresh notes that resonate with its active audience.",https://www.roxy.com/cdn/shop/files/Logo_Roxy_HeartWordmark_Anthracite.png?v=1743451254&width=280,https://www.roxy.com,United States,1990,celebrity,,,,2025-07-18T12:32:10.942225,2025-08-29T12:15:37.613688
cmd25c1e0ee83af73df2710,Royal Apothic,"Royal Apothic is a fragrance and body care brand known for its luxurious, vintage-inspired scents and beautifully crafted products. The company was founded by entrepreneur Sean O'Neill and draws inspiration from the rich history of apothecaries, combining quality ingredients with stylish packaging. Their product range includes perfumes, home fragrances, and body care items that evoke nostalgia while offering a modern touch. Royal Apothic emphasizes the art of scent creation, showcasing its commitment to craftsmanship and heritage in the perfume industry.",https://royalapothic.com/cdn/shop/files/royal_hr_crest_logo_2_4x_b9070088-fb32-4d3c-8218-70245a2594e8.png?crop=center&height=340&v=1704737524&width=750,https://www.royalapothic.com,United States,2010,indie,,,,2025-07-18T12:32:10.942225,2025-08-29T12:15:45.267032
cmdb08a7cc45a12787b6b80,Royal Brands,"Royal Brands is a fragrance company specializing in creating high-quality, luxury perfumes. Established with the aim of delivering sophisticated scents that embody elegance and style, the company draws inspiration from royal heritage and the art of perfumery. Their offerings cater to a diverse clientele, reflecting a commitment to craftsmanship and excellence in fragrance development.",https://images.unsplash.com/photo-1556909114-f6e7ad7d3136?w=400&h=300&fit=crop,,,,indie,,,,2025-07-18T12:32:10.942225,2025-08-29T12:15:51.257591
cmd0e2e8a24a83126da8d43,Royal Copenhagen,"Royal Copenhagen is a renowned Danish company that originally started as a porcelain manufacturer in 1775. In addition to their fine porcelain, they expanded into the fragrance industry, offering a range of luxury perfumes that embody elegance and sophistication. Their scents often reflect the heritage of Danish craftsmanship, combining traditional values with contemporary appeal. Signature fragrances are designed to evoke the aesthetic qualities associated with their iconic porcelain items, making Royal Copenhagen a unique player in the perfume market.",https://www.royalcopenhagen.com/-/media/royalcopenhagen/icons/nyt-rc-logo-2024.png?h=446&w=1462&la=en-GB&hash=91F48542DA9A4E30A3758C9B01276773,https://www.royalcopenhagen.com,Denmark,1775,designer,,,,2025-07-18T12:32:10.942225,2025-08-29T12:15:58.844920
cmd0900a237878ff207f81d,Royal Crown,"Royal Crown is a luxury niche perfume company that specializes in creating high-quality fragrances using the finest ingredients sourced from around the world. Founded in 1997, the company is renowned for its artisanal approach to perfumery, where each scent is crafted with meticulous attention to detail and artistry. Royal Crown is known for its unique and opulent fragrances, often presented in exquisite packaging that signifies luxury and sophistication. The brand celebrates the heritage of perfumery while also pushing the boundaries of contemporary scent creation.",https://images.unsplash.com/photo-1587017539504-67cfbddac569?w=400&h=300&fit=crop,https://royalcrownperfumes.com,Italy,1997,niche,,,,2025-07-18T12:32:10.942225,2025-08-29T12:16:05.452748
cmd509ad2ff1053887bdeed,Royal Doulton,"Royal Doulton is a renowned British brand that is best known for its fine china and collectibles, including figurines and tableware. In addition to its core porcelain products, Royal Doulton has ventured into the world of fragrance, offering a selection of elegant perfumes that reflect the brand's heritage of craftsmanship and style. The company was originally established in 1815 and has a rich history steeped in artistry and tradition, with a focus on creating luxurious, high-quality products that enhance the elegance of everyday life.",https://www.royaldoulton.com/-/media/royaldoulton/logos/rd_logo.svg?la=en-GB&hash=62ACF79358589BDA5FD14069B609E60B,https://www.royaldoulton.com,United Kingdom,1815,designer,,,,2025-07-18T12:32:10.942225,2025-08-29T12:16:12.515015
cmda3993a69f3c25d6f2d0d,Royal Hawaiian Perfumes,"Royal Hawaiian Perfumes is a specialty fragrance company that focuses on creating luxurious and distinctive perfumes inspired by the beauty and spirit of Hawaii. Founded by an artisan perfumer, the company aims to capture the essence of the islands through unique blends of natural ingredients, including tropical flowers and exotic botanicals. The brand emphasizes traditional handcrafted methods, ensuring that each fragrance is a true representation of Hawaiian culture and heritage. Their product range includes personal fragrances, home scents, and tropical-themed gift sets.",https://images.unsplash.com/photo-1541643600914-78b084683601?w=400&h=300&fit=crop,https://www.royalhawaiianperfumes.com,United States,2014,niche,,,,2025-07-18T12:32:10.942225,2025-08-29T12:16:29.141698
cmd1cab9371e983f5289362,Royal Mirage,"Royal Mirage is a prominent perfume company based in the UAE, well-known for its luxurious range of fragrances. Established in 1992, the brand aims to blend traditional Arabic perfumery with contemporary influences, offering an exquisite selection of both men’s and women’s scents. Royal Mirage specializes in high-quality formulations that highlight rich Arabian ingredients, creating long-lasting fragrances that reflect cultural heritage and sophistication.",https://images.unsplash.com/photo-1556909114-f6e7ad7d3136?w=400&h=300&fit=crop,https://www.royalmirage.com,United Arab Emirates,1992,niche,,,,2025-07-18T12:32:10.942225,2025-08-29T12:16:37.729357
cmdb1ce36fea9e1c335c463,Royal Opera House Muscat,"Royal Opera House Muscat is an esteemed cultural institution in Oman that combines the world of performing arts with the luxury fragrance industry. They offer an exclusive range of perfumes inspired by the region’s rich heritage, blending traditional Arabian scents with modern olfactory principles. The company aims to provide a unique sensory experience that reflects the artistry of opera and the cultural richness of Muscat. Furthermore, they promote the appreciation of perfume as an art form and a symbol of Omani craftsmanship.",https://www.rohmuscat.org/wp-content/uploads/2023/04/rohmuscat-white-edited.png,https://rohmuscat.org/,Oman,2011,niche,,,,2025-07-18T12:32:10.942225,2025-08-29T12:16:45.877157
cmd822e120ad1caedfe9b33,Royal Sanders,"Royal Sanders is a prominent manufacturer in the fragrance industry, known for producing an array of personal care products, including perfumes. They focus on creating high-quality fragrances that blend tradition with modern influences. Established in the Netherlands, the company prides itself on its craftsmanship and dedication to sustainability, utilizing eco-friendly practices in their production processes. Royal Sanders has built a reputation for innovation and strives to cater to diverse consumer preferences through its wide range of offerings.",http://royalsanders.com/wp-content/uploads/2020/09/heawave_header_1428px_DT_boven_a.png,https://www.royalsanders.com,Netherlands,1970,indie,,,,2025-07-18T12:32:10.942225,2025-08-29T12:16:54.648679
cmdf12ee736fdd21c016a01,Royal Secret,"Royal Secret is a perfume company that specializes in creating a range of fragrances, focusing primarily on producing exotic and luxurious scents. The company is known for its enchanting fragrances, often inspired by royal themes and stories, which attract a diverse customer base. Royal Secret has positioned itself as a brand that embodies elegance and sophistication, often appealing to those looking for something unique in the fragrance market.",https://images.unsplash.com/photo-1587017539504-67cfbddac569?w=400&h=300&fit=crop,www.royalsecret.com,United States,1985,niche,,,,2025-07-18T12:32:10.942225,2025-08-29T12:17:20.503865
cmdffe3ba51b296941ac54c,Royall Lyme of Bermuda,"Royall Lyme of Bermuda is a niche perfume house that specializes in high-quality fragrances inspired by the sea and landscapes of Bermuda. The company emphasizes natural ingredients and artisanal craftsmanship, creating scents that capture the essence of the island's environment. Their flagship product, Royall Lyme, was created in the 1950s and has become a classic representation of Bermuda's spirit. The brand experts engineer fragrances that evoke the luxury of island living, appealing to both men and women.",https://images.unsplash.com/photo-1541643600914-78b084683601?w=400&h=300&fit=crop,http://www.royalllyme.com,Bermuda,1954,niche,,,,2025-07-18T12:32:10.942225,2025-08-29T12:17:26.655377
