id,name,description,image,website,country,founded,type,email,phone,address,createdAt,updatedAt
cmd9ec708167d2b7a950043,Sìuno,"Sìuno is a luxury perfume brand that specializes in creating artisanal fragrances inspired by nature and personal experiences. The company embraces a philosophy of sustainability and elegance, crafting scents that reflect individuality and sophistication. Established with a mission to provide unique olfactory experiences, Sìuno combines high-quality natural ingredients with innovative perfumery techniques, catering to fragrance enthusiasts who appreciate both artistry and authenticity.",https://images.unsplash.com/photo-1587017539504-67cfbddac569?w=400&h=300&fit=crop,http://www.sìuno.com,Italy,2015,niche,,,,2025-07-18T12:32:10.942225,2025-08-29T12:55:05.169842
cmd2723ed0b8594f697160b,Siwa,"Siwa is an indie perfume brand known for its handcrafted and unique fragrances that celebrate the art of perfumery. The company focuses on using high-quality, natural ingredients to create distinctive scents that evoke a sense of place and emotion. Founded by a group of passionate perfumers, Siwa takes inspiration from various cultural traditions and natural landscapes, resulting in carefully curated fragrance collections that appeal to individuals seeking authenticity and originality in their scent choices.",https://www.siwaperfumes.com/wp-content/uploads/2024/11/siwaaaaaa-1-1024x282.png,www.siwaperfumes.com,United States,2020,indie,contact@siwaperfumes.com,,,2025-07-18T12:32:10.942225,2025-08-29T12:55:15.864274
cmdaf5222b854b132a64a78,Six Scents Parfums,"Six Scents Parfums is a niche perfume company known for its unique collaborations with artists and emerging perfumers. Established in 2008, the brand aims to explore and express various themes and narratives through scent, creating distinct fragrances that tell a story. The company often uses limited editions that not only highlight the artistry of perfumery but also the creative vision of its collaborators, making each fragrance a work of art. Their specialty lies in innovative and conceptual scents that appeal to discerning customers looking for exclusivity and creativity in fragrance.",https://images.unsplash.com/photo-1556909114-f6e7ad7d3136?w=400&h=300&fit=crop,https://www.sixscentsparfums.com,United States,2008,niche,,,,2025-07-18T12:32:10.942225,2025-08-29T12:55:22.706349
cmdce12b0efc3bc1e6b4c4a,SIX,"SIX is a dynamic and innovative fragrance company known for creating unique, high-quality perfumes that capture a blend of creativity and artistic expression. The brand focuses on offering a diverse range of scents that appeal to various customer preferences while emphasizing the importance of sustainability and environmentally friendly practices in their production. Their story began with a vision to make luxurious fragrances accessible, ensuring that each scent resonates with individual identities and experiences. SIX specializes in elevating everyday moments through fragrance, making their products a staple for scent enthusiasts.",https://images.unsplash.com/photo-1541643600914-78b084683601?w=400&h=300&fit=crop,https://www.six.com,Germany,2018,indie,,,,2025-07-18T12:32:10.942225,2025-08-29T12:55:29.592383
cmda226463032eec6f3dbd0,Sixteen92,"Sixteen92 is an indie perfumery based in the United States, founded by the creative force behind the brand, Anne-Sophie. The company specializes in handcrafting unique fragrances inspired by different themes, literary works, and the arts. They emphasize the use of high-quality, carefully sourced ingredients to create artisanal scents that often evoke nostalgia and emotions tied to the experiences of their creators. Known for their evocative blends, Sixteen92 has developed a loyal customer base who appreciate the artistry and storytelling behind each fragrance.",https://sixteen92.com/cdn/shop/files/Logo_Sixteen92.png?v=1669823858&width=150,https://sixteen92.com,United States,2017,indie,,,,2025-07-18T12:32:10.942225,2025-08-29T12:55:36.391099
cmd78971fecc78e450a2663,S.J. Aliman,"S.J. Aliman is a perfume company specializing in the creation of high-quality fragrances that blend traditional craftsmanship with modern sensibilities. The brand is known for its unique compositions that cater to a diverse audience seeking distinctive and memorable scents. S.J. Aliman focuses on sourcing premium ingredients and emphasizes artisanal techniques in their perfume-making process, ensuring each fragrance tells its own story.",https://images.unsplash.com/photo-1587017539504-67cfbddac569?w=400&h=300&fit=crop,,,,indie,,,,2025-07-18T12:32:10.942225,2025-08-29T12:55:42.117637
cmd469f78368e6e62d00821,SJA Perfumes,"SJA Perfumes is a niche perfume company that specializes in crafting high-quality, unique fragrances. Founded by a team of fragrance enthusiasts, SJA Perfumes aims to provide customers with artisanal scents that evoke emotions and memories. Their story is rooted in a passion for perfumery, with an emphasis on using carefully sourced ingredients and traditional methods of production. SJA Perfumes focuses on creating limited edition and bespoke fragrances, making each scent an exclusive experience for the wearer.",https://sjaperfumes.com/wp-content/uploads/2023/06/WhatsApp_Image_2024-12-20_at_11.54.34_AM-removebg-preview-e1735138172632.png,www.sjaperfumes.com,United States,2020,niche,contact@sjaperfumes.com,,,2025-07-18T12:32:10.942225,2025-08-29T12:55:50.111281
cmdd2dc3900cb3ffe765e4d,Sjaak Hullekes,"Sjaak Hullekes is a perfume company that specializes in creating unique, high-quality fragrances. Founded by the Dutch designer Sjaak Hullekes, the brand aligns fashion and fragrance, emphasizing sustainability and artisanal craftsmanship in its creations. Hullekes aims to craft scents that resonate with individuality and personal expression, drawing inspiration from nature and art, ensuring each fragrance is a reflection of a story or emotion.",https://images.unsplash.com/photo-1556909114-f6e7ad7d3136?w=400&h=300&fit=crop,https://www.sjaakhullekes.com,Netherlands,2015,niche,,,,2025-07-18T12:32:10.942225,2025-08-29T12:55:57.395717
cmd98241137b802ebefc8b6,SK-II,"SK-II is a luxury skincare brand that originated in Japan. Launched in 1980, the brand is renowned for its high-quality products that harness the power of Pitera, a natural fermentation byproduct derived from sake making. SK-II was founded based on the remarkable skincare results experienced by a group of sake brewers, leading to a focus on anti-aging and skin luminosity. SK-II's specialty lies in premium skincare formulations, though it also offers a fragrance line that aligns with its beauty ethos, bringing a sophisticated and rejuvenating perfume experience to its consumers.",https://cdn11.bigcommerce.com/s-x3hur0xe4r/content/assets/images/icons/icon-search.svg,https://www.sk-ii.com,Japan,1980,designer,,,,2025-07-18T12:32:10.942225,2025-08-29T12:56:03.767532
cmd2721d8dda5b964571bbd,Skandinavisk,"Skandinavisk is a niche perfume company that captures the essence of the Scandinavian lifestyle through its carefully crafted scents. Founded in 2013, the brand emphasizes simplicity, authenticity, and sustainability, inspired by the nature, culture, and traditions of the Nordic countries. Their fragrance collections include perfumes, candles, and home fragrances that reflect their commitment to quality and a deep connection to their heritage. The brand is known for its elegant packaging and minimalist design, which speaks to the aesthetics of Scandinavian design philosophy.",https://www.skandinavisk.com/on/demandware.static/-/Library-Sites-skandinavisk-shared/default/dwa02d578c/main-logo.svg,https://www.skandinavisk.com,Denmark,2013,niche,,,,2025-07-18T12:32:10.942225,2025-08-29T12:56:10.611802
cmd2550bfa5d5a7b6c302d7,Skeem,"Skeem is a fragrance and home goods company that specializes in crafting unique scents for both personal use and home ambiance. Founded with an emphasis on design and quality, Skeem offers a range of products that include candles, room sprays, and perfumes, all created using thoughtfully sourced ingredients. The company is known for its commitment to sustainability and aesthetic appeal, blending fragrance with artistic design to enhance everyday experiences.",https://images.unsplash.com/photo-15907369626-6c63ac16f3df?w=400&h=300&fit=crop,https://skeemdesigns.com,United States,2004,indie,,,,2025-07-18T12:32:10.942225,2025-08-29T12:56:15.725268
cmd64bee7436bcc6855710b,Skil,"Skil is a perfume company known for its innovative fragrance offerings that cater to a diverse range of consumers. The company emphasizes the use of high-quality ingredients and unique scent profiles, aiming to create memorable olfactory experiences. Skil has built a reputation as a creative and dynamic player in the fragrance industry, appealing to both young and mature audiences. Their story is one of passion for fragrance and a commitment to sustainability, with a focus on eco-friendly practices in sourcing and packaging.",https://images.unsplash.com/photo-1587017539504-67cfbddac569?w=400&h=300&fit=crop,www.skilfragrances.com,United States,2015,indie,contact@skilfragrances.com,,,2025-07-18T12:32:10.942225,2025-08-29T12:56:21.584285
cmd0140a89309f52cf29f00,Sky Is the Limit,"Sky Is the Limit is a perfume company known for creating unique fragrances that inspire and uplift. Established with the vision of providing customers with scents that evoke the feeling of limitless possibilities, they focus on quality ingredients and innovative scent profiles. Their story begins with a passion for fragrance art and a commitment to using sustainable practices in production. The company specializes in crafting limited edition perfumes that cater to both men and women, aiming to capture the essence of adventure and exploration through scent.",https://images.unsplash.com/photo-1582735689369-4fe89db7114c?w=400&h=300&fit=crop,www.skyisthelimitperfumes.com,United States,2018,indie,contact@skyisthelimitperfumes.com,,,2025-07-18T12:32:10.942225,2025-08-29T12:56:27.851594
cmde38062e5eeb5d0d7cb57,Skin by Alison Raffaele,"Skin by Alison Raffaele is a skincare and fragrance company that emphasizes the use of high-quality, natural ingredients to create products that enhance the user's natural beauty. Founded by make-up artist Alison Raffaele, the brand focuses on offering a range of personal care products, including skincare and fragrances, that align with a philosophy of simplicity and effectiveness. The company aims to provide effective solutions for enhancing skin tone and complexion while delivering captivating scents that complement their skincare line.",https://images.unsplash.com/photo-1582735689369-4fe89db7114c?w=400&h=300&fit=crop,http://www.skinbyalisonraffaele.com,United States,2002,indie,,,,2025-07-18T12:32:10.942225,2025-08-29T12:56:34.296311
cmdb7d36174cf8fa73f93ac,Skin Doctors,"Skin Doctors is a skincare brand that specializes in innovative skincare solutions, including perfumes. Established with the goal of providing effective and modern beauty and cosmetic products, Skin Doctors emphasizes merging scientific advancements with personal care. The brand is known for its unique formulas that cater to various skin concerns, resulting in products that embody efficiency and enhancing beauty.",https://skindoctors.com.au/media/logo/stores/64/skidocLogo.png,https://www.skindoctors.com.au,Australia,1997,indie,,,,2025-07-18T12:32:10.942225,2025-08-29T12:56:41.579004
cmd6fbfbd47700d8a96b206,Skinethics,"Skinethics is a perfume company that focuses on creating unique, ethically-sourced fragrances that marry the purity of natural ingredients with innovative scent technology. Established with a commitment to sustainability and eco-friendliness, Skinethics offers a range of perfumes that cater to modern consumers seeking authentic and responsible choices. The brand emphasizes transparency in its sourcing and production processes, aiming to connect consumers with the origins of the scents they wear. Through a blend of artistry and ethical practice, Skinethics has carved out a niche in the growing market for sustainable luxury fragrances.",https://images.unsplash.com/photo-1541643600914-78b084683601?w=400&h=300&fit=crop,www.skinethics.com,United States,2019,indie,contact@skinethics.com,,,2025-07-18T12:32:10.942225,2025-08-29T12:56:57.036741
cmdfc10ca7a021844f1e422,Skinn,"Skinn is a contemporary fragrance company founded by the renowned Indian actor and entrepreneur, R. Madhavan. Established with a vision to create luxurious yet affordable fragrances that evoke the essence of Indian traditions and modernity, Skinn offers a diverse range of perfumes tailored for various personalities and preferences. The brand channels high-quality ingredients and unique scent compositions to create memorable olfactory experiences. Since its inception, Skinn has gained popularity in India for its innovative approach and emphasis on craftsmanship in perfumery.",https://images.unsplash.com/photo-15907369626-6c63ac16f3df?w=400&h=300&fit=crop,https://www.skinn.in,India,2016,indie,,,,2025-07-18T12:32:10.942225,2025-08-29T12:57:02.779655
cmd040d3d25ccbe00868cf1,Skinny Dip,"Skinny Dip is a fashion and lifestyle brand based in the UK, known for its innovative and playful approach to accessories and beauty products, including a collection of unique perfumes. Established with a focus on creating trendy and youthful offerings, Skinny Dip has carved a niche in the accessory market, combining fun designs with a touch of luxury. The brand often incorporates vibrant colors, quirky graphics, and collaborative capsule collections, allowing them to resonate with a diverse, youthful audience. Their fragrances align with this vision, featuring fun, bold scents that mirror the brand's overall aesthetic.",https://www.skinnydiplondon.com/cdn/shop/files/Asset_119_4x_614bdd1f-3a04-4328-b418-2040aaff6058.png?v=1755600517&width=140,https://www.skinnydiplondon.com/,United Kingdom,2015,indie,,,,2025-07-18T12:32:10.942225,2025-08-29T12:57:09.722840
cmd8418bf3b49b7ee9d5476,Skins,"Skins is a unique perfume company based in the Netherlands that specializes in niche fragrances. Founded in 2007, it operates a multi-brand store showcasing a curated collection of luxurious and artisanal perfumes from various niche brands. Skins aims to provide customers with an exceptional olfactory experience, focusing on quality and craftsmanship in perfume making. The company is known for its attention to detail, offering a personalized shopping experience that helps individuals find fragrances that resonate with their personal tastes.",https://www.skins.nl/bundles/skinstheme/assets/logos/skins_logo.svg?1756308168,https://www.skins.nl,Netherlands,2007,niche,,,,2025-07-18T12:32:10.942225,2025-08-29T12:57:16.006311
cmda7f9e63dfffb162813c9,Skirt Cosmetics,"Skirt Cosmetics is a beauty company that offers a diverse range of products focused on enhancing beauty while embracing individuality. They specialize in cosmetics and fragrances, crafting unique scents that resonate with urban sophisticates. Founded on the principle of empowerment through self-expression, Skirt Cosmetics emerged to provide high-quality products that mirror the multifaceted nature of modern consumers. The company's story is rooted in a passion for innovation and inclusivity, providing a platform for customers to explore their unique styles.",https://images.unsplash.com/photo-1587017539504-67cfbddac569?w=400&h=300&fit=crop,,,,indie,,,,2025-07-18T12:32:10.942225,2025-08-29T12:57:21.532383
cmdaa519ac8359799cd15cd,SKKN,"SKKN is a skincare brand launched by celebrity Kim Kardashian that promotes a comprehensive approach to beauty and wellness. The company emphasizes the significance of skincare as the foundation of beauty, focusing on a range of products that cater to various skin types and concerns. Although SKKN primarily specializes in skincare, it also engages in the fragrance industry with scented products designed to complement the skincare line. Founded on the principle of inclusivity, SKKN aims to provide high-quality, effective products that are accessible to a diverse customer base.",https://images.unsplash.com/photo-15907369626-6c63ac16f3df?w=400&h=300&fit=crop,[https://www.skkn.com](https://www.skkn.com),United States,2022,celebrity,,,,2025-07-18T12:32:10.942225,2025-08-29T12:57:28.153511
cmd23ae7023824883743110,SKLVA,"SKLVA is an innovative perfume company dedicated to creating unique, niche fragrances infused with artistic inspirations. Founded by a team of passionate fragrance enthusiasts, the brand focuses on blending high-quality ingredients to create distinctive olfactory experiences. Their story emphasizes sustainability and ethical sourcing, reflecting a commitment to social responsibility in the beauty industry. SKLVA aims to provide consumers with luxury scents that not only tantalize the senses but also tell a story.",https://images.unsplash.com/photo-15907369626-6c63ac16f3df?w=400&h=300&fit=crop,www.sklvafragrances.com,United States,2021,niche,info@sklvafragrances.com,,,2025-07-18T12:32:10.942225,2025-08-29T12:57:34.266442
cmd266e55a733c973baa7db,Skye Botanicals,"Skye Botanicals is a company that specializes in the creation of natural, botanical-based perfumes. Founded with a passion for harnessing the essence of nature, they focus on high-quality ingredients sourced sustainably. The company emphasizes a philosophy of wellness and green living, utilizing essential oils and plant extracts to craft unique fragrances that promote positivity and well-being. Their story includes a commitment to environmental responsibility, and they aim to create products that not only smell beautiful but are also kind to the Earth.",https://static.HugeDomains.com/images/hdv3-img/hd-header-logo-v3.svg,https://www.skyebotanicals.com,United States,2015,indie,info@skyebotanicals.com,,,2025-07-18T12:32:10.942225,2025-08-29T12:57:40.363243
cmd55af0845c4707c88edba,Skylar,"Skylar is a clean fragrance brand that specializes in creating environmentally conscious perfumes using natural ingredients. Founded by Cat Chen in 2017, the company aims to redefine the fragrance experience by eliminating harmful chemicals and focusing on sustainable practices. They offer a range of unique scents designed for a diverse audience, promoting the idea of personal expression through fragrance without compromising health or the environment. Skylar caters to a growing market of consumers seeking ""clean"" beauty products, placing a strong emphasis on transparency and ethical sourcing in their product development.",https://skylar.com/cdn/shop/files/elle-magazine-press-logo.png?v=1725556457,https://skylar.com,United States,2017,indie,,,,2025-07-18T12:32:10.942225,2025-08-29T12:57:46.803121
cmd2835e46b1d6b9fe77c44,Sky+HD,Not found,https://images.unsplash.com/photo-1582735689369-4fe89db7114c?w=400&h=300&fit=crop,,,,indie,,,,2025-07-18T12:32:10.942225,2025-08-29T12:57:51.171848
cmd3bf59405e46297d1f705,Slapiton,"Slapiton is a contemporary perfume company that specializes in creating unique and innovative fragrances. Established with a vision to challenge traditional perfume-making, Slapiton combines unconventional scent profiles with quality ingredients. Their story revolves around a passion for olfactory artistry, aiming to provide customers with a sensory experience that stands out in the crowded fragrance market. They focus on sustainability and eco-friendly practices, sourcing materials ethically and ensuring minimal environmental impact in their production processes.",https://static.HugeDomains.com/images/hdv3-img/hd-header-logo-v3.svg,www.slapiton.com,United States,2018,indie,contact@slapiton.com,,,2025-07-18T12:32:10.942225,2025-08-29T12:57:58.947476
cmd5489466fa306519f10f6,Slatkin,"Slatkin & Co. is a fragrance company known for creating high-quality home fragrances, including candles and scented products. Founded by renowned candle maker Harry Slatkin, the company gained prominence in the early 2000s for its innovative approach to scent, offering products that transform spaces through unique fragrance blends. The brand has an extensive catalog of scents, focusing on seasonal and themed collections, making it a favorite among consumers seeking premium home fragrances.",https://images.unsplash.com/photo-1582735689369-4fe89db7114c?w=400&h=300&fit=crop,https://www.slatkin.com,United States,1991,niche,,,,2025-07-18T12:32:10.942225,2025-08-29T12:58:14.418941
cmd3afd6341bbc190d9707d,Slava Zaitsev,"Slava Zaitsev is a Russian fashion designer and perfumer known for his opulent and luxurious scents that capture the essence of Russian culture and aesthetics. Established in the 1980s, the brand combines haute couture influences with perfume artistry, showcasing a unique blend of traditional methods and modern design. Slava Zaitsev's perfumes often reflect the vibrant colors and elaborate textures found in his fashion collections, appealing to a clientele that appreciates both style and fragrance innovation.",https://images.unsplash.com/photo-15907369626-6c63ac16f3df?w=400&h=300&fit=crop,http://www.slava-zaitsev.ru,Russia,1984,niche,,,,2025-07-18T12:32:10.942225,2025-08-29T12:58:19.994040
cmd8028db19555b72ad219f,Slazenger,"Slazenger is primarily known as a sports equipment and apparel brand, especially famous for its tennis rackets and cricket gear. While they have a presence in the fragrance market, it is not their primary focus. The brand has a rich heritage and is often associated with sports and lifestyle products. However, Slazenger fragrances typically appeal to a broader audience, aiming for affordability and accessibility rather than niche expertise in perfumery.",https://www.slazenger.com/images/ps/slaz/slaz-logo.svg,https://www.slazenger.com,United Kingdom,1881,drugstore,,,,2025-07-18T12:32:10.942225,2025-08-29T12:58:35.560149
cmd8937638bb3325ce49ce9,Slumberhouse,"Slumberhouse is an independent perfume house known for its artisanal approach to fragrance creation. Founded by the perfumer Josh Lobb, the company emphasizes the use of high-quality materials and a unique, often unconventional approach to scent formulation. Slumberhouse is recognized for its intense and complex scents that often draw inspiration from nature and personal experiences. The brand has developed a dedicated following for its distinctive, non-mainstream fragrances, and often produces limited editions and small batch releases.",https://images.unsplash.com/photo-1587017539504-67cfbddac569?w=400&h=300&fit=crop,https://slumberhouse.com,United States,2011,indie,,,,2025-07-18T12:32:10.942225,2025-08-29T12:58:41.910759
cmd8706177b75d39aae9996,Smashbox,"Smashbox is a cosmetics brand that was founded in 1996 by brothers Dean and Davis Factor, who are descendants of the original makeup artist Max Factor. Known for its professional-quality makeup and high-performance products, Smashbox originally gained recognition through its beauty products used for photo shoots and fashion shows. The brand later expanded into fragrance, offering a line of perfumes that reflect the artistry and creativity synonymous with its makeup. Smashbox focuses on creating innovative cosmetics that cater to the modern consumer, emphasizing inclusivity and diversity.",https://images.unsplash.com/photo-1582735689369-4fe89db7114c?w=400&h=300&fit=crop,https://www.smashbox.com,United States,1996,designer,,,,2025-07-18T12:32:10.942225,2025-08-29T12:58:47.709854
cmd695e758dd56126833cf9,Smell Art,"Smell Art is a niche perfume company that specializes in creating unique and artistic fragrances. Founded with the vision of transforming the perception of scent into an art form, Smell Art collaborates with various artists and perfumers to develop sophisticated compositions. The company is dedicated to using high-quality, sustainable ingredients to craft their perfumes, which draws inspiration from various forms of art and culture. They emphasize storytelling through scent, allowing customers to experience a blend of olfactory and artistic expression.",https://images.unsplash.com/photo-1541643600914-78b084683601?w=400&h=300&fit=crop,www.smellart.com,United States,2018,niche,info@smellart.com,,,2025-07-18T12:32:10.942225,2025-08-29T12:58:54.178153
cmdda3800b17268ad4a3c8c,Smell Bent,"Smell Bent is an independent perfume company known for its creative and eclectic fragrances. Founded by perfumer and artist, Bryan K. Ross, the company specializes in crafting unique, artistic scents inspired by a wide range of influences, from pop culture to nature. Smell Bent is recognized for its unconventional approach to fragrance creation, often utilizing high-quality ingredients to produce imaginative and evocative olfactory experiences. The brand embodies an indie spirit, appealing to fragrance enthusiasts looking for distinct and artisanal perfumes.",https://images.unsplash.com/photo-1587017539504-67cfbddac569?w=400&h=300&fit=crop,https://www.smellbent.com,United States,2010,indie,,,,2025-07-18T12:32:10.942225,2025-08-29T12:59:00.398452
cmd78993e16f85a951d7555,Smell THIS,"Smell THIS is a perfume company known for its innovative and personalized fragrance offerings. Established with the intention of making scent creation accessible, the brand focuses on crafting bespoke fragrances that cater to individual preferences and unique personalities. The company prides itself on using high-quality ingredients and sustainable practices while also engaging customers in the fragrance creation process. They also offer workshops and events to educate consumers about the art of perfumery.",https://images.unsplash.com/photo-1587017539504-67cfbddac569?w=400&h=300&fit=crop,www.smellthisfragrance.com,United States,2018,indie,contact@smellthisfragrance.com,,,2025-07-18T12:32:10.942225,2025-08-29T12:59:06.641259
cmd3af3ce4300f16c32a56c,Smells Like Spells,"Smells Like Spells is a niche perfume company that specializes in creating unique and artisanal fragrances inspired by magical themes and mythology. Each fragrance is designed to evoke specific emotions and experiences, often using natural ingredients. Their story highlights an emphasis on creativity and spirituality, encouraging customers to explore the enchanting world of scents as a form of self-expression and personal ritual.",https://smellslikespells.com/wp-content/uploads/2023/05/sls-logo.png,https://www.smellslikespells.com,Poland,2019,niche,support@smellslikespells.com,,,2025-07-18T12:32:10.942225,2025-08-29T12:59:13.704158
cmdac083cc58e91620def22,SmellsandBells,"SmellsandBells is an innovative perfume company specializing in unique and personalized fragrance experiences. The company was founded on the belief that scent has a profound connection to emotions and memories. Their mission is to craft high-quality, artisanal perfumes that tell a story and evoke personal connections. They source the finest ingredients globally and offer a range of products, including bespoke fragrances and seasonal collections. SmellsandBells focuses on sustainability and ethical sourcing, ensuring that their scents are not only luxurious but also environmentally responsible.",https://images.unsplash.com/photo-1556909114-f6e7ad7d3136?w=400&h=300&fit=crop,www.smellsandbells.com,United States,2018,niche,contact@smellsandbells.com,,,2025-07-18T12:32:10.942225,2025-08-29T12:59:30.416859
cmd17df34f58a7862141109,Smiley Beauty,"Smiley Beauty is a vibrant and innovative fragrance company that capitalizes on the iconic Smiley brand, which represents happiness and positivity. They specialize in creating scents that evoke joy and nostalgia, targeting a younger demographic that seeks playful and trendy fragrance options. The company aims to blend the essence of the Smiley brand with unique fragrance notes, resulting in a product line that is both cheerful and distinctive. Smiley Beauty emphasizes the importance of self-expression through scent, connecting consumers with the fun and light-hearted spirit of the Smiley face.",https://static.HugeDomains.com/images/hdv3-img/hd-header-logo-v3.svg,https://www.smileybeauty.com,United States,2021,indie,,,,2025-07-18T12:32:10.942225,2025-08-29T12:59:38.545310
cmdddc3d3310d333d30a35f,Smoke,"Smoke is a niche perfume house known for its unique and artisanal fragrances that incorporate rare and high-quality ingredients. Established with a vision to evoke memories and create emotional connections through scent, the brand focuses on craftsmanship and creativity, offering a portfolio that often features smoky, woody, and warm notes that distinguish their products from mainstream perfumes. The story of Smoke revolves around a passion for olfactory experiences, drawing inspiration from nature and diverse cultural landscapes.",https://www.smokeperfume.com/cdn/shop/files/smoke_logo_500x.png?v=1737235380,www.smokeperfume.com,United States,2018,niche,contact@smokeperfume.com,,,2025-07-18T12:32:10.942225,2025-08-29T12:59:45.476607
cmd513b8b24da3fda19ade7,Snap,"Snap is a modern perfume company that specializes in creating unique, high-quality fragrances that cater to the individual essence of its customers. The company was founded with the mission of harnessing modern trends while paying homage to traditional perfumery techniques, ensuring each scent tells a compelling story. They focus on sustainable and eco-friendly practices in both sourcing materials and packaging, appealing to a conscious consumer base.",https://images.unsplash.com/photo-1582735689369-4fe89db7114c?w=400&h=300&fit=crop,www.snapfragrances.com,United States,2018,indie,hello@snapfragrances.com,,,2025-07-18T12:32:10.942225,2025-08-29T12:59:51.446150
cmd5e05d912d00fe158367c,Snif,"Snif is a contemporary fragrance company that aims to revolutionize the way consumers experience and shop for perfumes. Founded on the principle of inclusivity, Snif provides a curated selection of unique and high-quality scents that cater to a wide range of preferences. The brand emphasizes a direct-to-consumer model that allows for transparency in pricing and product accessibility. Their story began with a desire to remove the intimidation often associated with traditional perfume shopping by offering an approachable and engaging online shopping experience. Snif specializes in creating a diverse array of genderless fragrances, crafted by artisanal perfumers, to suit various moods and occasions.",https://images.unsplash.com/photo-1541643600914-78b084683601?w=400&h=300&fit=crop,https://snif.com,United States,2020,indie,,,,2025-07-18T12:32:10.942225,2025-08-29T12:59:58.962188
cmde4d210fcd178e51e41e8,Sniffapalooza,"Sniffapalooza is an event-based perfume community and organization that celebrates fragrance through workshops, parties, and special events where perfume lovers and industry members can come together to experience niche and luxury scents. Founded by fragrance enthusiasts, it has established itself as a unique space for perfumers, brands, and consumers to engage in the art of scent, offering experiences that deepen the appreciation for the perfume craft. Sniffapalooza thrives on bringing together industry insiders, enthusiasts, and novices for immersive experiences in the world of fragrance.",https://www.sniffapalooza.com/wp-content/uploads/2015/11/cropped-logo.png,https://sniffapalooza.com,United States,2002,niche,,,,2025-07-18T12:32:10.942225,2025-08-29T13:00:07.854567
cmd8839db5e02e6ce61c08f,So...?,"So...? is a British fragrance brand that specializes in affordable, youthful perfumes targeting teenagers and young adults. The company was originally launched in 1998 and quickly gained popularity in the UK and Europe for its playful, vibrant scents packaged in eye-catching designs. So...? has built a name for itself by providing a range of fun, quirky fragrances that resonate with a younger audience, often tied to themes of flirtation and self-expression. Over the years, the brand has expanded its offerings to include various collections that cater to different moods and preferences while maintaining an accessible price point.",https://images.unsplash.com/photo-1541643600914-78b084683601?w=400&h=300&fit=crop,https://www.so-fragrance.com,United Kingdom,1998,drugstore,,,,2025-07-18T12:32:10.942225,2025-08-29T13:00:24.261776
cmde058be25407587b34964,So Oud,"So Oud is a luxury perfume company that specializes in crafting high-quality, niche fragrances. Founded in 2014, the brand draws inspiration from the art of traditional Middle Eastern perfumery, combining unique ingredients to create distinctive scents that reflect both modernity and heritage. So Oud is committed to fine craftsmanship, using rare materials and artisanal techniques to develop their signature fragrances that appeal to discerning customers seeking exclusivity and sophistication.",https://images.unsplash.com/photo-1587017539504-67cfbddac569?w=400&h=300&fit=crop,https://www.sooud.com,United Arab Emirates,2014,niche,,,,2025-07-18T12:32:10.942225,2025-08-29T13:01:11.316414
cmdb9dc78d0815cfbf9776e,Soap & Glory,"Soap & Glory is a British cosmetics brand that specializes in body care products, though it is also known for its fragrances, skincare, and bath products. Established in 2006 by Marcia Kilgore, the brand is recognized for its playful packaging, witty product names, and high-quality formulations. Soap & Glory aims to provide affordable yet glamorous beauty solutions that inspire consumers to feel good about themselves. The company quickly gained a loyal following and became known for its effective products infused with a blend of humorous marketing and retro-chic aesthetics.",https://www.soapandglory.com/xp/global/en/site/header/header-without-signup/_jcr_content/root/container_92681436/image.coreimg.svg/1650364735726/sg-masthead-logo-f.svg,https://www.soapandglory.com,United Kingdom,2006,drugstore,,,,2025-07-18T12:32:10.942225,2025-08-29T13:01:18.159663
cmdfd4ff7775ffc2cec799f,Soap & Paper Factory,"Soap & Paper Factory is a lifestyle brand specializing in high-quality, artisanal personal care products, including perfumes, candles, and body care items. The company is known for its commitment to using natural ingredients and eco-friendly practices, creating unique scents that tell a story through their packaging and design. Founded by a creative team passionate about craftsmanship, Soap & Paper Factory has made a name for itself by blending traditional perfumery with modern aesthetics, leading to a line of products that offer both luxury and daily enjoyment.",https://www.soapandpaperfactory.com/cdn/shop/files/sp-logo.svg?v=1747169998&width=520,https://www.soapandpaperfactory.com,United States,2008,indie,,,,2025-07-18T12:32:10.942225,2025-08-29T13:01:25.071005
cmde244f3aed53936142980,Soaphoria,"Soaphoria is a cosmetic and personal care company focused on creating high-quality, natural products including perfumes, skincare, and soaps. Founded in the heart of Slovenia, their mission is to provide customers with natural, handmade products that are eco-friendly and cruelty-free. Soaphoria emphasizes the use of organic ingredients and traditional craftsmanship in their production process, aiming to create products that are gentle on the skin and environmentally sustainable. Their perfume offerings are known for rich, unique scent compositions that reflect the essence of nature.",https://images.unsplash.com/photo-1541643600914-78b084683601?w=400&h=300&fit=crop,https://www.soaphoria.com,Slovenia,2012,indie,info@soaphoria.com,,,2025-07-18T12:32:10.942225,2025-08-29T13:01:33.391343
cmd79ff139c0e2b3a661f13,Soaptopia,"Soaptopia is a company dedicated to creating artisanal, handmade bath and body products, with a focus on natural and organic ingredients. Founded by a passionate spirit who believes in the power of nature, Soaptopia crafts unique fragrances and formulations that cater to wellness and self-care. The company has a strong commitment to sustainability, offering eco-friendly packaging and prioritizing ethically sourced materials. Their specialty lies in combining high-quality, skin-nurturing ingredients with enjoyable scents to enhance personal care rituals.",https://images.unsplash.com/photo-15907369626-6c63ac16f3df?w=400&h=300&fit=crop,https://www.soaptopia.com,United States,2004,indie,,,,2025-07-18T12:32:10.942225,2025-08-29T13:01:40.667209
cmd2ffe02ae6c7bcd564ee2,Sober,"Sober is a contemporary perfume company that focuses on creating unique, high-quality fragrances inspired by the art of minimalism and emotional expression. Established by a group of fragrance enthusiasts, Sober emphasizes transparency in sourcing its ingredients, prioritizing sustainability, and promoting self-expression through olfactory experiences. The company aims to craft scents that resonate with individual identities, catering to customers looking for genuine and thoughtfully designed fragrances.",https://images.unsplash.com/photo-1582735689369-4fe89db7114c?w=400&h=300&fit=crop,www.soberfragrances.com,United States,2020,niche,contact@soberfragrances.com,,,2025-07-18T12:32:10.942225,2025-08-29T13:01:45.597651
cmd92bace3905a7c488e1d8,Social Creatures,,https://images.unsplash.com/photo-1541643600914-78b084683601?w=400&h=300&fit=crop,www.socialcreatures.com,United States,2019,indie,hello@socialcreatures.com,,,2025-07-18T12:32:10.942225,2025-08-29T13:01:54.196526
cmda66f3d88e824e99c4efd,Societe Parfums Ungaro Sarl,"Société Parfums Ungaro Sarl is a fragrance company affiliated with the fashion designer Emanuel Ungaro. Established as part of the expansion of the Ungaro brand, the company specializes in creating luxurious perfumes that reflect the artistic vision and style of the Ungaro fashion collections. Their fragrances often embody sophistication and elegance, appealing to a discerning clientele. The company is known for its innovative scent compositions that capture the essence of fashion-forward beauty.",https://images.unsplash.com/photo-1587017539504-67cfbddac569?w=400&h=300&fit=crop,,France,1983,designer,,,,2025-07-18T12:32:10.942225,2025-08-29T13:01:59.865601
cmdfeb1856ccbd0085b4bd4,Society Parfums,"Society Parfums is a niche fragrance house that specializes in crafting unique and high-quality perfumes. Established by a group of passionate fragrance enthusiasts, the brand aims to provide distinctive scents that evoke emotions and memories, tapping into the artistry of perfumery. With a focus on using premium raw materials and innovative techniques, Society Parfums works to create olfactory experiences that resonate deeply with individuals. The company prides itself on its commitment to sustainability and ethical sourcing of ingredients, as well as its dedication to artisanal craftsmanship.",https://images.unsplash.com/photo-1556909114-f6e7ad7d3136?w=400&h=300&fit=crop,https://www.societyparfums.com,United States,2016,niche,,,,2025-07-18T12:32:10.942225,2025-08-29T13:02:05.891294
cmd9cfe288a33211869cc2a,Sodip,"Sodip is a fragrance company that specializes in creating and producing high-quality perfumes for various brands. Established in 1986, the company operates in the field of perfumery by offering comprehensive development services including olfactory creation, technical support, and packaging development. Sodip's specialty lies in its innovative approach to scent formulation and custom solutions tailored to meet the unique needs of its clients in the beauty and fashion industries. They pride themselves on blending tradition with modern techniques, making them a notable player in the global fragrance market.",https://images.unsplash.com/photo-1541643600914-78b084683601?w=400&h=300&fit=crop,https://www.sodip.fr,France,1986,niche,,,,2025-07-18T12:32:10.942225,2025-08-29T13:02:13.174530
cmd1d805eef241b9b528374,Sofia Belluci,"Sofia Belluci is a perfume company specializing in niche fragrances that encapsulate luxury and sophistication. Founded by renowned perfumer Sofia Belluci, the brand draws inspiration from art, culture, and personal experiences, resulting in unique scent compositions that are both evocative and memorable. The company emphasizes craftsmanship and quality, using premium ingredients sourced from around the globe. Sofia Belluci aims to provide consumers with distinct scents that celebrate individuality and artistic expression.",https://jjparfums.com/cdn/shop/files/Diseno_sin_titulo_17.png?v=1732659846&width=600,www.sofiabelluci.com,Italy,2015,niche,,,,2025-07-18T12:32:10.942225,2025-08-29T13:02:29.301025
cmd33d763c0a10f5b84ff1f,Sofía Vergara,"Sofía Vergara is a perfume company that operates under the name of its founder, Colombian actress and model Sofía Vergara. The brand was launched to capitalize on Vergara's fame and appeal, offering a range of fragrances aimed at capturing her vibrant personality. These fragrances often emphasize femininity and allure, designed for women who appreciate distinctive and modern scents. The company has successfully created a niche within the celebrity fragrance market, connecting its products to Vergara's image and lifestyle.",https://images.unsplash.com/photo-1556909114-f6e7ad7d3136?w=400&h=300&fit=crop,https://sofiavergara.com,United States,2014,celebrity,,,,2025-07-18T12:32:10.942225,2025-08-29T13:02:36.005589
cmdf98fa650aed09153355a,Softeistanz,"Softeistanz is a boutique perfume company that specializes in creating artisanal fragrances inspired by nature and the elements. The company was founded with the mission of blending traditional perfumery techniques with modern aesthetics, often utilizing rare ingredients sourced from around the world. Softeistanz emphasizes sustainable practices and eco-friendly packaging, appealing to consumers who appreciate luxury scents with an ethical touch. Their unique offerings cater to an affluent clientele looking for personalized and distinctive olfactory experiences.",https://images.unsplash.com/photo-1556909114-f6e7ad7d3136?w=400&h=300&fit=crop,www.softeistanz.com,France,2015,niche,contact@softeistanz.com,,"27 Rue des Fleurs, 75001 Paris, France",2025-07-18T12:32:10.942225,2025-08-29T13:02:41.985325
cmd619dd9194f975ffee16f,Sogémarci,"Sogémarci is a niche perfume company known for producing artisanal fragrances that emphasize unique scent compositions and high-quality ingredients. The brand focuses on creating luxurious and bespoke perfumes that cater to a discerning clientele who appreciate the artistry of fragrance. Founded by a group of passionate fragrance enthusiasts, Sogémarci has garnered a reputation for innovative blends, often inspired by nature and personal experiences. Their collections aim to evoke emotions and memories, making each scent a personal journey for the wearer.",https://images.unsplash.com/photo-1556909114-f6e7ad7d3136?w=400&h=300&fit=crop,,,,niche,,,,2025-07-18T12:32:10.942225,2025-08-29T13:02:48.104417
cmd9d6e7082c8526bde7275,Sohum,"Sohum is a niche perfume company known for its unique and artisanal approach to fragrance creation. Founded by a passionate perfumer, the brand focuses on developing high-quality, handcrafted scents that reflect the essence of nature and personal expression. Their products often incorporate natural ingredients and are crafted with sustainability in mind, appealing to a discerning clientele that values both luxury and responsibility. Sohum's story began with a vision to transform traditional perfumery by integrating modern practices with classic techniques, resulting in signature scents that stand out in the industry.",https://images.unsplash.com/photo-1587017539504-67cfbddac569?w=400&h=300&fit=crop,https://www.sohumfragrances.com,India,2012,niche,hello@sohumfragrances.com,,,2025-07-18T12:32:10.942225,2025-08-29T13:02:54.693138
cmd00a8f8bd51822e2cb9ba,Soivohle (Liz Zorn),"Soivohle is an artisanal perfume company founded by Liz Zorn, specializing in handcrafted fragrances characterized by unique compositions and high-quality ingredients. The company focuses on creating niche perfumes that embody personal storytelling through scent. Established with a commitment to artistic expression and authenticity, Soivohle emphasizes the use of natural materials and traditional perfumery techniques to deliver bespoke olfactory experiences. Liz Zorn's passion for perfume and her background in fine arts and herbalism contribute to distinctive offerings that often draw inspiration from nature, culture, and personal anecdotes.","https://static.wixstatic.com/media/763f94b9fdc844f1a940bef12cb23d82.jpg/v1/fill/w_124,h_186,al_c,q_80,usm_0.66_1.00_0.01,blur_2,enc_avif,quality_auto/763f94b9fdc844f1a940bef12cb23d82.jpg",http://www.soivohle.com,United States,2006,niche,,,,2025-07-18T12:32:10.942225,2025-08-29T13:03:03.813638
cmd07bb68fc9920ea7cecf9,Sol de Janeiro,"Sol de Janeiro is a Brazilian beauty brand renowned for its vibrant and tropical fragrance offerings. Founded in 2015, the company draws inspiration from Brazil's rich culture, lifestyle, and natural beauty. Sol de Janeiro is particularly famous for its signature scents that evoke the warmth and spirit of Brazil, encapsulating notes of coconut, vanilla, and pistachio. The brand's products are often combined with body care, celebrating not only fragrance but also nourishment for the skin. Their specialty lies in blending Brazilian ingredients with global beauty trends to create luxurious and playful scent experiences.",https://soldejaneiro.com/cdn/shop/files/SoldeJaneiro-logo.png?height=34&v=1738144454,https://soldejaneiro.com,United States,2015,indie,,,,2025-07-18T12:32:10.942225,2025-08-29T13:03:10.645675
cmd9bc6e32acfcd40b9d304,Solafa Scents,,https://images.unsplash.com/photo-1556909114-f6e7ad7d3136?w=400&h=300&fit=crop,,,,niche,,,,2025-07-18T12:32:10.942225,2025-08-29T13:03:16.645964
cmdfb7f857070861934fbfc,Solange Azagury-Partridge,"Solange Azagury-Partridge is a luxury fragrance brand founded by British designer Solange Azagury-Partridge. Known for her avant-garde jewelry designs, Azagury-Partridge extended her creative vision into the world of perfumery, launching her first fragrance ""Solange"" in 2003. The brand specializes in creating unique, high-quality scents that encapsulate the essence of individuality and self-expression, often inspired by Azagury-Partridge's experiences and artistic endeavors. The perfumes are characterized by their bold compositions and artistic packaging, often reflecting the influence of her jewelry design background.",https://solange.co.uk/cdn/shop/files/Logo_Website_Header_400px_Green_b24a60a3-402e-47f0-96b1-30d84e7cec72.png?v=1634035524&width=401,http://www.solangeazagurypartridge.com,United Kingdom,2003,niche,,,,2025-07-18T12:32:10.942225,2025-08-29T13:03:23.968594
cmd5ada54d1e05fb09d929b,Solférino,"Solférino is a niche perfume company known for its artisanal fragrance creations that blend traditional techniques with innovative scents. The company focuses on high-quality ingredients sourced from around the world and aims to create unique olfactory experiences that tell a story. Established by a group of passionate perfumers, Solférino prides itself on craftsmanship and limited production, ensuring each fragrance is distinct and exclusive to consumers.",https://images.unsplash.com/photo-1587017539504-67cfbddac569?w=400&h=300&fit=crop,http://www.solférino.com,France,2015,niche,,,,2025-07-18T12:32:10.942225,2025-08-29T13:03:30.112766
cmd8c61d43743b54892461a,Solid State,"Solid State is a modern fragrance brand that specializes in creating high-quality, sustainable, and portable perfume balms designed specifically for men. Founded by a team dedicated to providing a more practical approach to fragrance, Solid State focuses on innovative formulations that are free from harsh chemicals, making them a healthier option for everyday use. Their products are designed to be travel-friendly and easy to apply, allowing consumers to enjoy their signature scents on-the-go.",https://images.unsplash.com/photo-1582735689369-4fe89db7114c?w=400&h=300&fit=crop,https://solidstate.com.au,Australia,2014,indie,contact@solidstate.com.au,,,2025-07-18T12:32:10.942225,2025-08-29T13:03:46.074941
cmdf1c999df86efcf51da7e,Soliflore Perfumery,"Soliflore Perfumery is an independent perfume house specializing in single-note fragrances that emphasize the beauty and complexity of individual floral scents. Founded by a passionate perfumer, the brand focuses on crafting artisanal perfumes that allow wearers to experience the essence of each flower in its purest form. The company is dedicated to using natural ingredients wherever possible, ensuring a high-quality product that reflects the simplicity and elegance of its namesake, 'soliflore,' meaning 'single flower.'",https://images.unsplash.com/photo-1587017539504-67cfbddac569?w=400&h=300&fit=crop,,,,indie,,,,2025-07-18T12:32:10.942225,2025-08-29T13:03:52.031129
cmd8240113e66250f00e278,Solinotes,"Solinotes is a French fragrance brand known for its unique approach to perfumery, offering a range of single-note fragrances that can be layered and combined to create personalized scents. Established in 2014, the brand aims to democratize perfume by providing high-quality, affordable options that celebrate individuality and creativity. Their signature style allows customers to express their personal scent preferences and experiment with various combinations.",https://solinotes.com/cdn/shop/files/logoSOLINOTES_300x.png?v=1668517515,https://www.solinotes.com,France,2014,indie,,,,2025-07-18T12:32:10.942225,2025-08-29T13:03:59.159227
cmdfe7415b3a626ec84b0a4,Solitaire Perfumes,"Solitaire Perfumes is a niche perfume house known for creating exclusive, artisanal fragrances that combine traditional craftsmanship with modern inspirations. Established with a mission to offer scents that evoke emotions and memories, the company emphasizes quality and individuality in each of its creations. The story of Solitaire Perfumes is deeply rooted in the passion for perfumery and an appreciation for unique olfactory experiences, aiming to cater to perfume connoisseurs who seek uncommon and luxurious scents.",https://images.unsplash.com/photo-1582735689369-4fe89db7114c?w=400&h=300&fit=crop,http://www.solitaireperfumes.com,United States,2015,niche,,,,2025-07-18T12:32:10.942225,2025-08-29T13:04:04.915448
cmde6b662303ecbd6d26723,Solstice Scents,"Solstice Scents is a niche perfume company known for its handmade fragrances that often evoke nature and whimsical themes. Founded by a passionate fragrance enthusiast, the brand creates unique and captivating scents using high-quality ingredients. Their story is rooted in the desire to bring the beauty of the natural world and imaginative storytelling into their perfumes. Solstice Scents specializes in artisanal fragrances, solid perfumes, and body care products that are often inspired by the changing seasons and specific locations.",https://www.solsticescents.com/assets/images/LOGOCLEARsmall21.gif,https://www.solsticescents.com,United States,2008,niche,info@solsticescents.com,,,2025-07-18T12:32:10.942225,2025-08-29T13:04:11.832123
cmd959e3aae1f8ffb463f16,Soma Parfums,"Soma Parfums is a niche perfume brand known for its artisanal and high-quality fragrances. The company emphasizes a craftsmanship approach to scent-making, drawing inspiration from natural elements and unique stories behind each creation. Founded by passionate perfumers, Soma Parfums focuses on creating olfactory experiences that evoke emotions and memories, catering to an audience that appreciates luxury and exclusivity in their fragrance choices.",https://images.unsplash.com/photo-1582735689369-4fe89db7114c?w=400&h=300&fit=crop,https://somaparfrums.com,United States,2021,niche,,,,2025-07-18T12:32:10.942225,2025-08-29T13:04:18.767382
cmd71a8823345d4cfb2b487,Soma,,https://www.somaparfums.com/cdn/shop/files/somalogotype.png?v=1728150006&width=500,https://www.somaparfums.com,United States,2013,indie,,,,2025-07-18T12:32:10.942225,2025-08-29T13:04:25.964088
cmd3ef40157dbba8a0a3048,Somens,,https://images.unsplash.com/photo-15907369626-6c63ac16f3df?w=400&h=300&fit=crop,www.somensparfums.com,France,2015,niche,contact@somensparfums.com,,,2025-07-18T12:32:10.942225,2025-08-29T13:04:32.269714
cmdd12e0f3fa8db7adc76d8,Son Venïn,"Son Venïn is a niche perfume company that specializes in crafting artisanal fragrances with unique, evocative themes. The brand is known for its emphasis on storytelling through scent, drawing inspiration from various cultures and experiences. Each fragrance is meticulously blended to create a multisensory experience that evokes memories and emotions. The company prides itself on using high-quality, sustainable ingredients in its formulations, appealing to consumers who value both creativity and ethical practices in perfumery.",https://images.unsplash.com/photo-1582735689369-4fe89db7114c?w=400&h=300&fit=crop,https://www.sonvenin.fr,France,2020,niche,contact@sonvenin.fr,,"35 Rue de la Parfumerie, 75010 Paris, France",2025-07-18T12:32:10.942225,2025-08-29T13:04:40.330071
cmd94bd5a1c22c83ea7d9db,Sonia Kashuk,"Sonia Kashuk is a beauty brand that specializes in makeup and skincare products, renowned for its high-quality formulations at accessible price points. The brand was founded by makeup artist Sonia Kashuk, who sought to create products that combined professional quality with design and affordability. Sonia Kashuk gained fame for her collaboration with Target, where she introduced a range of cosmetics and beauty tools that were stylishly packaged yet affordable, making professional-quality makeup accessible to the average consumer.",https://images.unsplash.com/photo-1587017539504-67cfbddac569?w=400&h=300&fit=crop,https://soniakashuk.com,United States,1999,drugstore,,,,2025-07-18T12:32:10.942225,2025-08-29T13:04:50.809765
cmd1546f55b2a21958fdf9c,Sonia Rykiel,"Sonia Rykiel is a French fashion house founded by designer Sonia Rykiel in 1968, known primarily for its knitwear and innovative designs which often blur the lines between femininity and casual elegance. The brand gained prominence in the fashion industry for its playful and colorful clothes and is recognized for its influence on both haute couture and ready-to-wear collections. Apart from clothing, Sonia Rykiel expanded into the fragrance industry, launching a collection of perfumes that reflect the brand's distinctive style, with a focus on individuality and modernity.",https://www.soniarykiel.com/on/demandware.static/Sites-SR-EU-Site/-/default/dw7351cd56/images_active/header/logo.png,https://www.soniarykiel.com,France,1968,designer,,,,2025-07-18T12:32:10.942225,2025-08-29T13:04:58.278770
cmdaa7a90f06c629c0b5c77,Sonoma Scent Studio,"Sonoma Scent Studio is an independent fragrance house known for its artisanal approach to perfume creation. Founded by perfumer Laurie Stern in 2008, the company focuses on producing high-quality, handcrafted fragrances that reflect the beauty of nature. With an emphasis on natural materials and unique scent compositions, Sonoma Scent Studio appeals to fragrance enthusiasts who appreciate niche perfumes. Their offerings include a range of perfume oils, sprays, and home fragrances, often inspired by the California wine country.",https://images.unsplash.com/photo-15907369626-6c63ac16f3df?w=400&h=300&fit=crop,https://www.sonomascents.com,.,2008,indie,,,,2025-07-18T12:32:10.942225,2025-08-29T13:05:04.944356
cmd80743214d258997a0a6e,Sophia Loren,"Sophia Loren is a renowned Italian actress and international icon who ventured into the fragrance industry, leveraging her fame and timeless elegance to create a line of perfumes. The Sophia Loren perfume collection emphasizes classic femininity, capturing the essence of beauty that has defined her career. The fragrances are marketed with a focus on luxury and sophistication, often inspired by Loren's personal style and artistic persona.",https://images.unsplash.com/photo-1556909114-f6e7ad7d3136?w=400&h=300&fit=crop,,Italy,1981,celebrity,,,,2025-07-18T12:32:10.942225,2025-08-29T13:05:11.042201
cmdb7c40eef0c24c92aafec,Sophie La Girafe,"Sophie La Girafe is primarily known as a brand that produces toys and baby products, gaining significant popularity for their iconic teething toy made of 100% natural rubber. While they are not traditionally positioned within the perfume industry, they have extended their brand into the fragrance sector with a line of children's perfumes that reflect their ethos of using safe and natural materials, designed to emit gentle and playful scents that appeal to children and parents alike. Their story began in France, emphasizing quality and natural production, which resonates well in both their toy and fragrance lines.",https://images.unsplash.com/photo-1556909114-f6e7ad7d3136?w=400&h=300&fit=crop,https://sophielagirafe.com,France,1961,indie,,,,2025-07-18T12:32:10.942225,2025-08-29T13:05:27.807454
cmd020046fdaea3792b7265,Soprano,"Soprano is a niche perfume company known for its unique fragrance compositions that blend traditional and contemporary scents. The company focuses on creating artisanal perfumes using high-quality ingredients sourced from various parts of the world. Soprano emphasizes craftsmanship, often collaborating with renowned perfumers to develop distinctive olfactory experiences. The brand prides itself on limited production runs, ensuring that each fragrance remains exclusive and personal for its clientele. Over the years, Soprano has built a loyal customer base among fragrance connoisseurs who appreciate the artistry behind their offerings.",https://images.unsplash.com/photo-15907369626-6c63ac16f3df?w=400&h=300&fit=crop,www.soprano.com,United States,2015,niche,contact@soprano.com,,"123 Fragrance Lane, New York, NY 10001, USA",2025-07-18T12:32:10.942225,2025-08-29T13:05:35.161676
cmdd82dceae395595b81d36,Sora Dora,"Sora Dora is a niche perfume company that focuses on creating artisanal fragrances inspired by nature and personal experiences. Their philosophy revolves around the belief that scent has a powerful connection to memory and emotion. The brand is known for its blended fragrances which often include sustainably sourced ingredients, emphasizing quality and uniqueness. Sora Dora's creations are often described as storytelling through scent, aiming to provide an immersive olfactory experience for its users.",https://soradora.fr/cdn/shop/files/preview_images/cb62b98777364b7c9f552daf3d5d893e.thumbnail.0000000000.jpg?v=1749128583,www.soradora.com,United States,2018,niche,contact@soradora.com,,,2025-07-18T12:32:10.942225,2025-08-29T13:05:43.025197
cmddf0015dccdddb7d20095,Sorelle Fontana,"Sorelle Fontana is a distinguished perfume house that is renowned for its exquisite fragrances. Founded by the Fontana sisters, who were also celebrated fashion designers, the brand embodies the elegance and style characteristic of Italian luxury. Their perfumes often blend rich, captivating aromas with artistic packaging, reflecting a deep appreciation for craftsmanship and artistry. Sorelle Fontana is dedicated to creating unique scents that resonate with the customers’ emotions and experiences, maintaining a strong connection to their heritage in fashion and elegance.",https://images.unsplash.com/photo-1556909114-f6e7ad7d3136?w=400&h=300&fit=crop,,Italy,1946,niche,,,,2025-07-18T12:32:10.942225,2025-08-29T13:05:50.751497
cmdaa22861fde71520f909a,Sororia Organics,"Sororia Organics is a perfume company specializing in creating organic, natural fragrances that are free from synthetic chemicals. Founded by a group of fragrance enthusiasts passionate about sustainability, the company focuses on crafting perfumes that are not only pleasing to the senses but also environmentally conscious. Their story revolves around a commitment to using ethically sourced ingredients, which resonate with consumers seeking clean beauty alternatives. Sororia Organics emphasizes the importance of transparency in their formulations and engages in community initiatives related to organic farming and eco-responsibility.",https://images.unsplash.com/photo-1582735689369-4fe89db7114c?w=400&h=300&fit=crop,https://sororiaorganics.com,United States,2019,indie,info@sororiaorganics.com,,,2025-07-18T12:32:10.942225,2025-08-29T13:05:56.549153
cmd12ef590430e8efc2fe93,Sortilège Olfactive Arts,"Sortilège Olfactive Arts is a niche perfume company known for its artisanal approach to fragrance creation. Established with the aim to blend art and scent, Sortilège focuses on unique, handcrafted perfumes that evoke emotions and stories through their carefully curated ingredients. The company prides itself on using high-quality materials, often drawing inspiration from cultural and artistic heritage, making their offerings distinctive in the crowded perfume market.",https://images.unsplash.com/photo-1587017539504-67cfbddac569?w=400&h=300&fit=crop,https://sortilegeolfactivearts.com,France,2018,niche,,,,2025-07-18T12:32:10.942225,2025-08-29T13:06:03.229665
cmd84fe4e26963a56f66002,Sospiro,"Sospiro is a luxury fragrance house known for creating exquisite niche perfumes that embody artistry and sophistication. Founded by a group of Italian perfumers and artists, Sospiro seamlessly fuses the elements of classical perfumery with modern aesthetics, drawing inspiration from art, culture, and the rich history of Italy. The brand specializes in crafting perfumes that offer a unique olfactory journey, often characterized by complex compositions and high-quality ingredients, making them highly sought-after in the niche fragrance market.",https://images.unsplash.com/photo-1556909114-f6e7ad7d3136?w=400&h=300&fit=crop,https://sospiroperfume.com,Italy,2011,niche,,,,2025-07-18T12:32:10.942225,2025-08-29T13:06:16.399360
cmd0ef8c40dd61e74782d31,Soul Couture,"Soul Couture is a unique perfume company that focuses on blending modern elegance with artisanal craftsmanship. Their fragrances are inspired by cultural narratives and personal stories, aiming to evoke emotions and memories. Launched with the vision of creating a perfume experience that transcends traditional scent, Soul Couture specializes in high-quality, handcrafted perfumes that resonate with individual identity and lifestyle.",https://images.unsplash.com/photo-1556909114-f6e7ad7d3136?w=400&h=300&fit=crop,www.soulcouture.com,United States,2019,niche,contact@soulcouture.com,,,2025-07-18T12:32:10.942225,2025-08-29T13:06:29.277499
cmd136a3e956ea9067beb9c,Soular Therapy,"Soular Therapy is a niche perfume company specializing in the creation of unique, handcrafted fragrances that incorporate therapeutic aromatherapy principles. Founded on the belief that scent can enhance emotional well-being and promote a positive lifestyle, the company uses high-quality, natural ingredients to formulate their perfumes. Their product line focuses on holistic experiences, offering scents that are designed to uplift, calm, or energize the mind and body. The brand story is rooted in the founder's passion for essential oils and their transformative properties, fostering a connection between olfactory experiences and personal wellness.",https://www.soulartherapy.com/cdn/shop/files/SOULAR_THERAPY_LOGO_2024_-_Edit_d205e3f2-070a-4b40-9f6a-7831e77a2078.png?v=1714412504&width=600,https://www.soulartherapy.com,United States,2018,niche,,,,2025-07-18T12:32:10.942225,2025-08-29T13:06:37.204717
cmd8461fef41629b2ccc208,Souletto,"Souletto is a luxury perfume brand known for its artisanal approach to fragrance creation. Founded by a team of passionate perfumers, the company emphasizes the use of high-quality, natural ingredients sourced globally, creating unique scents that reflect individuality and evoke emotions. Souletto aims to craft exceptional fragrances that tell a story, resonating deeply with its clientele. Their specialty lies in personalizability, allowing customers to create bespoke perfumes tailored to their preferences.",https://images.unsplash.com/photo-1587017539504-67cfbddac569?w=400&h=300&fit=crop,www.souletto.com,France,2015,niche,contact@souletto.com,,"25 Rue des Fleurs, Paris, France",2025-07-18T12:32:10.942225,2025-08-29T13:06:44.025097
cmdac88b2f3e99291db8bad,Source Adage,"Source Adage is a perfume company that specializes in creating unique, artisanal fragrances inspired by nature and the human experience. The brand aims to blend fine perfumery with sustainable practices, using high-quality natural ingredients to craft scents that evoke emotions and memories. Established by a group of fragrance artisans, Source Adage emphasizes storytelling through scent, creating a strong connection between the wearer and their olfactory experience.",https://images.squarespace-cdn.com/content/v1/53cbee48e4b0985ac7936ea0/1607277836272-XYFMIBA5U0NPJRMU8XSE/sourceadageNY_logo_tm_WHITE.png,https://www.sourceadage.com,United States,2018,niche,contact@sourceadage.com,,,2025-07-18T12:32:10.942225,2025-08-29T13:06:50.541775
cmdb59bad0fc6be57255316,Sous le Manteau,"Sous le Manteau is a niche perfume house based in France that specializes in creating unique, artisanal fragrances. The brand focuses on blending traditional perfumery techniques with modern artistic concepts, resulting in innovative scents that tell stories and evoke emotions. Founded by a team of passionate perfumers, Sous le Manteau aims to offer personalized fragrance experiences that cater to individual tastes, often with an emphasis on exclusivity and craftsmanship.",https://reserved.transip.nl/assets/img/headerphoto_reduced.jpg,http://www.souslemanteau.fr,France,2013,niche,,,,2025-07-18T12:32:10.942225,2025-08-29T13:06:57.661725
cmdf6c7b2a37790d7dfe5bb,Southern Comforts,"Southern Comforts is a fragrance company that specializes in creating a unique range of perfumes inspired by the Southern United States. Their products often draw on local culture, traditions, and natural elements to craft alluring scents. The company focuses on high-quality ingredients and artisanal blending techniques to deliver distinctive olfactory experiences. Founded by a group of fragrance enthusiasts, Southern Comforts aims to encapsulate the warmth and hospitality of the South in every bottle, offering an intimate connection to the region’s charm.",https://www.southerncomforts.com/cdn/shop/files/Soco_Logo_2024_1.jpg?v=1730491242&width=600,www.southerncomforts.com,United States,2015,indie,info@southerncomforts.com,,,2025-07-18T12:32:10.942225,2025-08-29T13:07:04.233795
cmde32adb1770eb4840cd5d,Southern Living,"Southern Living is a lifestyle brand that celebrates the culture and values of the Southern United States, offering a variety of products including home goods, food items, and personal fragrances. Their perfumes and scents are often inspired by Southern experiences and natural elements, embodying the warmth and charm of the region. Founded in 1966, the brand has built a reputation for high-quality, fragrant products that enhance the Southern living experience.",https://www.southernliving.com/thmb/WwIFeQCub9e2HLF2du9hLnbdvT4=/432x130/filters:no_upscale():max_bytes(150000):strip_icc()/logo-signal-awards-ae5a9af44d05499d8df9ec0ee7470e4d.png,https://www.southernliving.com,United States,1966,niche,,,,2025-07-18T12:32:10.942225,2025-08-29T13:07:10.506666
cmdd486448d3dced42e105c,Southern Witchcrafts,"Southern Witchcrafts is a small batch perfume company that specializes in artisanal fragrance creation. They focus on crafting unique, evocative scents inspired by folklore, mythology, and nature. Established by a passionate team, Southern Witchcrafts places emphasis on quality ingredients and ethical sourcing, creating fragrances that are not only appealing but also reflect a distinctive and creative narrative. Their products are often characterized by their handmade, artisanal approach and connection to cultural stories.",https://clickdrive.tech/storage/cgg/airbet/img/icon/icon-airbet88.webp,https://southernwitchcrafts.com,United States,2015,indie,,,,2025-07-18T12:32:10.942225,2025-08-29T13:07:18.169873
cmdf69446a21cadd7c77aab,Sow Good,"Sow Good is a socially conscious perfume brand that focuses on creating scents from high-quality, sustainably sourced ingredients. Their story began with a commitment to blend aromatic craftsmanship with environmental awareness, aimed at providing customers with luxurious fragrances while supporting ethical practices. Sow Good places strong emphasis on philanthropy, as a portion of their profits is dedicated to charitable causes that align with their values. They specialize in offering unique, artisanal perfumes that cater to a growing market of eco-friendly consumers.",https://images.unsplash.com/photo-1587017539504-67cfbddac569?w=400&h=300&fit=crop,https://www.sowgood.com,United States,2018,indie,info@sowgood.com,,,2025-07-18T12:32:10.942225,2025-08-29T13:07:24.597487
cmd28e2fe42106fd3c581d9,SP Parfums Sven Pritzkoleit,"SP Parfums Sven Pritzkoleit is a niche fragrance company known for its artisanal approach to perfume creation. Founded by Sven Pritzkoleit, the company focuses on high-quality, unique, and distinct scent profiles that often reflect personal storytelling and artistic expressions. The brand endeavors to craft exclusive perfumes utilizing rare ingredients and innovative blending techniques, appealing to connoisseurs who appreciate the intricacies of fragrance.",https://images.unsplash.com/photo-1556909114-f6e7ad7d3136?w=400&h=300&fit=crop,https://www.svenpritzkoleit.com,Germany,2013,niche,,,,2025-07-18T12:32:10.942225,2025-08-29T13:07:30.393146
cmdaa4db58582004bf058a0,Spaboy,"Spaboy is a company known for its innovative approach in the fragrance industry, specializing in offering a unique range of perfumes that blend aromatherapy and personal care. Founded with the vision of enhancing well-being through scent, Spaboy focuses on creating products that not only smell appealing but also provide therapeutic benefits. The brand emphasizes sustainability and the use of natural ingredients, catering to a conscientious consumer base that values eco-friendly options in personal care.",https://images.unsplash.com/photo-1556909114-f6e7ad7d3136?w=400&h=300&fit=crop,,,,indie,,,,2025-07-18T12:32:10.942225,2025-08-29T13:07:36.462173
cmd0fcddb15a3496af5d400,Space NK,"Space NK is a luxury beauty retailer that specializes in high-end skincare, makeup, and fragrance. Founded in 1991 in London, the company has grown from a single store to a network of locations globally, catering to discerning customers looking for niche and premium brands. Space NK offers a curated selection of products, representing both established and emerging designers in the beauty industry. The brand is known for its focus on customer experience, with knowledgeable staff providing personalized consultations.",https://www.spacenk.com/on/demandware.static/Sites-spacenkgb-Site/-/default/dwf13a95e2/images/logo.svg,https://www.spacenk.com,United Kingdom,1991,niche,,,,2025-07-18T12:32:10.942225,2025-08-29T13:07:44.925889
cmdf7594239fdb9100afbd2,Spadaro,"Spadaro is a perfume company known for its unique and artisanal fragrances that are inspired by nature and life experiences. Founded by passionate perfumers, Spadaro focuses on creating small-batch, hand-crafted perfumes that emphasize quality ingredients and sustainability. The brand strives to connect consumers with the emotional and sensory aspects of fragrance through storytelling and personalized experiences.",https://images.unsplash.com/photo-1541643600914-78b084683601?w=400&h=300&fit=crop,www.spadaroparfums.com,Italy,2015,niche,contact@spadaroparfums.com,,"Via Roma 123, 00100 Roma, Italy",2025-07-18T12:32:10.942225,2025-08-29T13:07:52.274104
cmd811ed6ded472c2b8deb9,SPCC Paris Bleu,"SPCC Paris Bleu is a French perfume company known for crafting high-quality fragrances that embody elegance and sophistication. The company focuses on creating unique olfactory experiences that resonate with luxury and art. Established with a vision to blend modern and traditional perfume-making techniques, SPCC Paris Bleu emphasizes creativity and fine artistry in each fragrance, appealing to discerning customers who appreciate high-end scents that tell a story.",https://www.parisbleu.com/cdn/shop/files/Paris_bleu_logo.png?v=1744196138&width=760,http://www.parisbleu.com,France,,niche,,,,2025-07-18T12:32:10.942225,2025-08-29T13:07:59.567874
cmda181ddc959129ce5e069,SPCC,"SPCC, also known as Scent Perfume Company Corporation, is a renowned player in the fragrance industry, specializing in the creation and distribution of high-quality perfumes. Established with a vision to deliver signature scents that evoke emotions and memories, SPCC combines traditional craftsmanship with innovative fragrance technology. The company has built a reputation for excellence, particularly in custom fragrance creation, catering to both individuals and businesses. Their extensive product line features a range of eau de parfums, colognes, and unique scent blends that resonate with a diverse clientele.",https://images.unsplash.com/photo-1541643600914-78b084683601?w=400&h=300&fit=crop,www.spccfragrances.com,United States,1992,niche,contact@spccfragrances.com,,,2025-07-18T12:32:10.942225,2025-08-29T13:08:05.590490
cmd6597c8c965d693429e62,Société Parisienne de Parfums & Cosmétiques,"Société Parisienne de Parfums & Cosmétiques is a French company specializing in the creation, marketing, and distribution of fragrance and cosmetic products. Established with a focus on high-quality ingredients and elegant packaging, the company aims to cater to a sophisticated consumer base looking for luxurious and unique scents. Their portfolio often includes a blend of both niche and mainstream fragrances, emphasizing craftsmanship and artistry in perfumery. The company's story is rooted in Parisian heritage, reflecting the art and culture of one of the world's perfume capitals.",https://images.unsplash.com/photo-1556909114-f6e7ad7d3136?w=400&h=300&fit=crop,,France,,niche,,,,2025-07-18T12:32:10.942225,2025-08-29T13:08:11.879338
cmd66500123e969a16a00ac,Spectator,"Spectator is a niche perfume company that specializes in creating unique, high-quality fragrances inspired by literature and art. Founded with the vision of capturing the essence of various stories and experiences in scent, the company aims to connect the olfactory senses with emotional and creative narratives. Their offerings often feature artisanal craftsmanship, rare ingredients, and limited-edition collections, making them a favorite among fragrance connoisseurs.",https://images.unsplash.com/photo-1541643600914-78b084683601?w=400&h=300&fit=crop,www.spectatorfragrance.com,United States,2015,niche,contact@spectatorfragrance.com,,,2025-07-18T12:32:10.942225,2025-08-29T13:08:17.918396
cmd48cdb6ce908d7c49840a,Spectral Spirits,"Spectral Spirits is a niche fragrance company that specializes in crafting artisanal perfumes inspired by unique concepts and experiences. Founded by a group of passionate perfumers, the company aims to bring a fresh perspective to scent creation, combining innovative ingredients with traditional craftsmanship to create evocative and memorable fragrances. Their approach emphasizes storytelling through scent, allowing wearers to connect emotionally with the stories behind each fragrance.",https://images.unsplash.com/photo-15907369626-6c63ac16f3df?w=400&h=300&fit=crop,https://spectralspirits.com,United States,2017,niche,contact@spectralspirits.com,,,2025-07-18T12:32:10.942225,2025-08-29T13:08:23.501931
