id,name,description,image,website,country,founded,type,email,phone,address,createdAt,updatedAt
cmda9670543f83ca870a46f,Norma Kamali,"Norma Kamali is a renowned American fashion designer known for her innovative designs and distinctive aesthetic. Founded in the 1970s, the brand gained prominence with its pioneering approach to fashion, blending versatility, femininity, and modernity. While primarily celebrated for its high-fashion clothing, Norma Kamali also offers a curated selection of fragrances that complement the chic and contemporary lifestyle associated with her fashion line. The company emphasizes empowerment and individuality through its products, appealing to a fashion-forward clientele.",https://normakamali.com/cdn/shop/files/website-logo-2025_2000x.png?v=1741175475,https://www.normakamali.com,United States,1982,designer,,,"11 West 42nd Street, Suite 1014, New York, NY 10036, United States",2025-07-18T12:32:10.942225,2025-08-29T09:21:03.086425
cmdad609e2154951d4042af,NorraNorrland,"NorraNorrland is a niche perfume company inspired by the beauty and essence of Northern Sweden. The brand emphasizes a connection to nature, drawing on unique natural ingredients that reflect the pristine landscapes and cultural heritage of the region. NorraNorrland focuses on crafting artisanal fragrances, utilizing sustainable practices, and highlighting local botanicals. Their story revolves around celebrating the untouched nature of the north through scent, creating a sensory experience that evokes the feelings of tranquility and wilderness associated with their homeland.",https://cdn.quickbutik.com/images/7722m/templates/mueltis/assets/logo.png?s=62531&auto=format,www.norranorrland.com,Sweden,2017,niche,info@norranorrland.com,,,2025-07-18T12:32:10.942225,2025-08-29T09:21:11.846446
cmd3546fc1306109a9cbc42,Northfields Tailors,"Northfields Tailors is a bespoke tailoring company that has evolved to include a range of fine fragrances. The company is known for its craftsmanship in tailoring, creating not just suits but also a unique olfactory experience through their fragrances. Their story is rooted in a commitment to quality and individuality, combining traditional tailoring techniques with modern flair.",https://images.unsplash.com/photo-1541643600914-78b084683601?w=400&h=300&fit=crop,https://www.northfieldstailors.com,United Kingdom,2014,niche,,,,2025-07-18T12:32:10.942225,2025-08-29T09:21:19.883080
cmd28c31250e9eef3532622,Norton Simon,"Norton Simon is primarily known as an art museum and cultural institution, but the company also produces a line of fragrances that embody the sophistication and elegance associated with its artistic heritage. The fragrances are designed to appeal to a discerning clientele seeking luxury and uniqueness in their scent choices. The brand features limited edition perfumes inspired by the artwork and collections housed within the museum, focusing on embodying creativity and artistry in fragrance form.",https://images.unsplash.com/photo-1582735689369-4fe89db7114c?w=400&h=300&fit=crop,,United States,1971,niche,,,,2025-07-18T12:32:10.942225,2025-08-29T09:21:25.952948
cmdd80dc0f22bcd695066c1,Nose Blind Productions,"Nose Blind Productions specializes in creating unique scent experiences and olfactory narratives, combining artistry and fragrance innovation to craft bespoke perfumes. The company began its journey with a vision to transform how individuals perceive and interact with scents, aiming to evoke emotions and memories through scent. Their specialty lies in blending rare and high-quality ingredients to develop custom fragrances that reflect personal stories and preferences.",https://images.unsplash.com/photo-15907369626-6c63ac16f3df?w=400&h=300&fit=crop,,,,indie,,,,2025-07-18T12:32:10.942225,2025-08-29T09:21:32.130103
cmda11ec902d4fc8a966d50,Nose Music,"Nose Music is an avant-garde perfume company that specializes in creating unique and artistic fragrances that reflect the intersection of scent and sound. Founded by a collective of artists and perfumers, the company is dedicated to exploring how music influences olfactory experiences and vice versa. They curate limited edition fragrances inspired by different musical genres and compositions, aiming to evoke emotions and memories through the synergy of scent and sound. Their approach is distinctively creative, prioritizing artistry and originality over conventional commercial perfumery.",https://images.unsplash.com/photo-1587017539504-67cfbddac569?w=400&h=300&fit=crop,www.nosemusic.com,United States,2018,niche,info@nosemusic.com,,,2025-07-18T12:32:10.942225,2025-08-29T09:21:39.718897
cmd5507c43196f063d9da2f,Nose of Gatsby,"Nose of Gatsby is a niche fragrance company that focuses on creating unique and luxurious scents inspired by the opulence and elegance of the 1920s Jazz Age. Founded by a passionate perfumer, the brand aims to evoke nostalgia and sophistication through its carefully crafted fragrances that blend classic and modern olfactory elements. Their specialty lies in providing artisanal, handcrafted perfumes that cater to those seeking distinctive and memorable scents, distinguished by high-quality ingredients and careful attention to detail.","https://static.wixstatic.com/media/db5683_b5c10c1835e84cd7a049240d72c50bd0~mv2.png/v1/fill/w_369,h_37,al_c,q_85,usm_0.66_1.00_0.01,enc_avif,quality_auto/db5683_b5c10c1835e84cd7a049240d72c50bd0~mv2.png",https://www.noseofgatsby.com,United States,2019,niche,contact@noseofgatsby.com,,,2025-07-18T12:32:10.942225,2025-08-29T09:21:47.812267
cmd1e30f3e700d94a68d87c,Nostalgia Collection,,https://images.unsplash.com/photo-15907369626-6c63ac16f3df?w=400&h=300&fit=crop,[www.nostalgiacollection.com](http://www.nostalgiacollection.com),United States,2018,niche,,,,2025-07-18T12:32:10.942225,2025-08-29T09:21:54.819302
cmde4e5c04241bdc1438f76,Nostalgia Perfumery,"Nostalgia Perfumery specializes in crafting artisanal perfumes that evoke memories and emotions through unique scent compositions. Founded with the vision of creating fragrances that tell stories, Nostalgia Perfumery embraces a blend of traditional techniques and modern innovation. Each fragrance is thoughtfully developed using high-quality, natural ingredients aimed at transporting the wearer to a specific nostalgic moment or feeling. The brand's commitment to sustainability and responsible sourcing further sets it apart in the fragrance industry.",https://images.unsplash.com/photo-1541643600914-78b084683601?w=400&h=300&fit=crop,https://nostalgiaperfumery.com,United States,2015,indie,info@nostalgiaperfumery.com,,,2025-07-18T12:32:10.942225,2025-08-29T09:22:01.393530
cmd8123c0b4d6ec6b776907,Nostara,"Nostara is a niche perfume company known for its artisanal approach to fragrance creation. Founded by a group of perfumers and fragrance enthusiasts, the brand draws inspiration from historical scents and forgotten olfactory experiences, striving to revive them in modern formulations. Nostara specializes in creating unique, handcrafted perfumes that focus on storytelling through scent, blending rare ingredients that evoke emotions and memories. Their collections are designed to resonate on a personal level, making them a favorite among fragrance connoisseurs who appreciate the artistry behind each bottle.",https://images.unsplash.com/photo-15907369626-6c63ac16f3df?w=400&h=300&fit=crop,,,,niche,,,,2025-07-18T12:32:10.942225,2025-08-29T09:22:07.195429
cmd617b1b2c06b2ed449e49,Nosu,"Nosu is a niche fragrance house specializing in artisanal, handcrafted perfumes inspired by a blend of traditional and modern olfactory techniques. Founded by a group of passionate perfumers, Nosu aims to create unique scents that evoke emotions and memories. Each fragrance is crafted with an emphasis on high-quality ingredients, ensuring an authentic sensory experience. The company's philosophy revolves around personal stories and the art of storytelling through scent, appealing to those looking for individuality in their fragrance choices.",https://images.unsplash.com/photo-15907369626-6c63ac16f3df?w=400&h=300&fit=crop,https://www.nosufragrances.com,United States,2018,niche,info@nosufragrances.com,,,2025-07-18T12:32:10.942225,2025-08-29T09:22:13.848382
cmd22e8b9f2e0dee8ceac17,NOT Perfumes,"NOT Perfumes is a contemporary fragrance brand focused on exploring the essence of individuality and personal expression through scents. The brand was founded with the vision of creating perfumes that inspire and empower wearers to embrace their unique identities. Their philosophy revolves around simplicity and authenticity, often employing minimalist designs and innovative scent combinations. NOT Perfumes has garnered a reputation for its high-quality ingredients and creative scent profiles, appealing to a diverse audience looking for something distinct in the fragrance market.",https://images.unsplash.com/photo-15907369626-6c63ac16f3df?w=400&h=300&fit=crop,www.notperfumes.com,United States,2018,niche,contact@notperfumes.com,,,2025-07-18T12:32:10.942225,2025-08-29T09:22:21.067160
cmd21782944da94b1d58cef,Not So Funny Any,"Not So Funny Any is an innovative perfume company known for its humorous and playful approach to fragrance. Founded by a group of talented perfumers, the brand aims to challenge traditional notions of luxury perfumery by infusing wit and creativity into its scent collections. Each fragrance tells a story, often inspired by everyday moments and experiences, making them relatable yet unique. The company specializes in creating scents that are bold, unconventional, and designed to evoke nostalgia and joy.",https://cdn.myshoptet.com/usr/www.notsofunnyany.com/user/logos/logo-1.png,https://www.notsofunnyany.com,United States,2018,indie,contact@notsofunnyany.com,,,2025-07-18T12:32:10.942225,2025-08-29T09:22:28.409423
cmd194df69623b97bb88d37,Note di Profumum,"Note di Profumum is a niche perfume house that specializes in creating high-quality, artisanal fragrances with a strong emphasis on craftsmanship and unique olfactory compositions. Established in 1996, the brand is known for its sophisticated and luxurious perfumes, which are inspired by the beauty of the natural world and are designed to evoke strong emotions and memories. The company prides itself on using the finest raw materials sourced from around the globe, making each scent a personal and artistic statement. Their product line includes a variety of exclusive fragrances that cater to a discerning clientele seeking individuality and sophistication in their personal scent.",https://images.unsplash.com/photo-15907369626-6c63ac16f3df?w=400&h=300&fit=crop,https://www.notediprofumum.com,Italy,1996,niche,,,,2025-07-18T12:32:10.942225,2025-08-29T09:22:34.986196
cmdcee9bec0c80b257ed6bc,Note Fragrances,"Note Fragrances is an innovative perfume company that specializes in creating unique and personal fragrance experiences. Founded with the belief that a fragrance is more than just a scent, Note Fragrances aims to evoke emotions, memories, and moments through their carefully crafted perfumes. They focus on blending high-quality ingredients with artistic expression to deliver distinctive fragrances that cater to diverse preferences. The brand emphasizes the importance of creativity in scent formulation, presenting perfumes that resonate on a personal and emotional level.",https://www.noteology.com/cdn/shop/t/19/assets/logo.png?v=85624992401817857841736380709,https://notefragrances.com,United States,2018,indie,,,,2025-07-18T12:32:10.942225,2025-08-29T09:22:44.903895
cmd04ed006febad3e1b7f13,Notebook Fragrances,"Notebook Fragrances is a perfume company that specializes in creating unique, handcrafted fragrances inspired by literary themes and personal stories. The brand aims to evoke emotions and memories through scent, drawing inspiration from various narratives, characters, and literary styles. Founded by a group of fragrance enthusiasts and literature lovers, Notebook Fragrances offers a diverse range of scents that are designed to resonate with the individual experiences of its customers, bringing an element of storytelling to the art of perfumery.",https://images.unsplash.com/photo-1582735689369-4fe89db7114c?w=400&h=300&fit=crop,,,,indie,,,,2025-07-18T12:32:10.942225,2025-08-29T09:22:50.665587
cmd3b2ffea24e41e37dafb6,Noteology,"Noteology is a fragrance brand that focuses on creating personalized and bespoke scents tailored to the individual preferences of its clients. Founded with the philosophy of empowering customers to explore their olfactory identities, Noteology combines elements of artistry and science to curate unique perfume experiences. The company is known for its immersive scent discovery process, allowing customers to engage deeply with the craft of perfumery and find fragrances that resonate with their personalities and lifestyles. Their specialty lies in the bespoke nature of their offerings, creating an intimate connection between the scents and the wearers.",https://www.noteology.com/cdn/shop/t/19/assets/logo.png?v=85624992401817857841736380709,https://noteology.com,United States,2017,indie,,,,2025-07-18T12:32:10.942225,2025-08-29T09:22:57.625666
cmd815129aa41c7ad80c373,Notez Library,"Notez Library is a boutique fragrance company that focuses on creating unique, artisanal perfumes inspired by various aspects of literature and art. Established with a vision to blend the world of scents with storytelling, each fragrance represents a chapter or a theme, allowing customers to experience the essence of a narrative through aroma. The brand prides itself on using high-quality ingredients and artisanal methods while fostering an intimate relationship with its clientele through personalized scent experiences.",https://images.unsplash.com/photo-1582735689369-4fe89db7114c?w=400&h=300&fit=crop,https://www.notezlibrary.com,United States,2015,niche,contact@notezlibrary.com,,"123 Scent Avenue, Aroma City, CA 90001",2025-07-18T12:32:10.942225,2025-08-29T09:23:04.052294
cmd3f7db010f2cc09cf96a8,Notino,,https://www.notino.com/img/flags/flag-be.svg,https://www.notino.com,Czech Republic,2004,drugstore,,,,2025-07-18T12:32:10.942225,2025-08-29T09:23:11.418426
cmd5f5f1058b7f9e770e1b0,Nougat,"Nougat is a British fragrance company known for its luxurious and sweetly scented products, including perfumes and body care offerings. Established by a passion for creating delightful aromas, the company focuses on delivering high-quality fragrances that evoke elegance and indulgence. Their products often feature notes of confectionery, fruits, and flowers, catering to a clientele that appreciates unique and artisanal fragrances. Nougat emphasizes quality materials and the creative process behind scent formulation, positioning itself as a purveyor of niche fragrances in the market.",https://www.nougatlondon.com/cdn/shop/files/nougat_london_logo.png?v=1727773329,https://www.nougatlondon.com,United Kingdom,1996,niche,,,,2025-07-18T12:32:10.942225,2025-08-29T09:23:18.715717
cmd8c1f7ca114eb298fe50f,Nousence,"Nousence is a contemporary perfume company that emphasizes the artistry and creativity behind fragrance creation. They focus on crafting unique and personalized scents, often using high-quality, sustainable ingredients. The company is known for its innovative approach to perfumery, blending traditional craftsmanship with modern concepts to create captivating fragrances that resonate with a diverse clientele. Their story is rooted in a passion for olfactory experiences and aims to disrupt the mainstream perfume market by offering bespoke options that cater to individual preferences.",https://www.nousence.com/cdn/shop/files/Logo_freigestellt_4.png?v=1643894715&width=600,https://www.nousence.com,United States,2019,niche,contact@nousence.com,,,2025-07-18T12:32:10.942225,2025-08-29T09:23:25.920056
cmddd4472bb668fd3a9c690,Nouveau Paris,"Nouveau Paris is a niche perfume company that specializes in crafting artisanal fragrances inspired by the rich culture and history of Paris. Founded on the belief that scent is a form of art, Nouveau Paris focuses on unique compositions that combine traditional perfume-making techniques with contemporary influences. Their story began with a passion for olfactory storytelling, celebrating the essence of Paris through thoughtfully designed perfumes. Nouveau Paris aims to create an experience rather than just a product, focusing on high-quality ingredients and sustainability.",https://images.unsplash.com/photo-1587017539504-67cfbddac569?w=400&h=300&fit=crop,www.nouveaunotes.com,France,2015,niche,contact@nouveaunotes.com,,"123 Rue de la Parfum, Paris, France",2025-07-18T12:32:10.942225,2025-08-29T09:23:33.076373
cmd3f4f270a6474b45bbbdf,Nova,"Nova is a niche perfume company that specializes in creating unique, handcrafted fragrances. Founded by a group of passionate perfumers, the brand emphasizes the use of natural ingredients and sustainable practices in its production. Their story began in a small artisanal workshop, where they experimented with various scent profiles inspired by nature and cultural elements. Today, Nova is known for its exclusive limited-edition perfumes and a personalized customer experience, often allowing clients to create custom scents.",https://static.HugeDomains.com/images/hdv3-img/hd-header-logo-v3.svg,www.novaperfumes.com,United States,2015,niche,contact@novaperfumes.com,,"123 Aroma Lane, Scent City, CA 90210, USA",2025-07-18T12:32:10.942225,2025-08-29T09:23:39.638235
cmd51a22c6331b0e70e6a67,Novae Plus,"Novae Plus is a perfume company that specializes in creating unique and high-quality fragrances for both men and women. The brand emphasizes innovation and creativity in its fragrance compositions, often drawing inspiration from various cultural and natural elements. Their product lines typically include personal fragrances, scented candles, and other olfactory products. Novae Plus aims to cater to a discerning clientele that values individuality and artisanal craftsmanship in perfumery.",https://static.HugeDomains.com/images/hdv3-img/hd-header-logo-v3.svg,www.novaeplus.com,United States,2020,niche,contact@novaeplus.com,,,2025-07-18T12:32:10.942225,2025-08-29T09:23:47.209118
cmde176359cc5b8c26601c6,Novaya Zarya,"Novaya Zarya is a historic Russian perfume company, established in 1864, known for its wide range of fragrances and traditional approach to perfumery. The company has a storied history, being one of the oldest perfumeries in Russia, and has a reputation for high-quality, affordable perfumes. They specialize in classic scents that appeal to a broad segment of the market, often emphasizing local ingredients and cultural motifs in their fragrance profiles.",https://images.unsplash.com/photo-1582735689369-4fe89db7114c?w=400&h=300&fit=crop,http://novayazarya.ru/,Russia,1864,drugstore,,,,2025-07-18T12:32:10.942225,2025-08-29T09:23:54.334167
cmd9dad2eb56a71c8fa8a65,Novellista,"Novellista is a niche perfume brand that focuses on crafting high-quality, artisanal fragrances. Founded by a team of passionate perfumers, the company aims to blend literary inspiration with olfactory artistry, creating scents that tell stories and evoke emotions. Each fragrance is meticulously blended using the finest raw materials, emphasizing individuality and creativity in the world of perfume. Novellista's unique approach often intertwines themes from literature and art, providing a distinctive experience for fragrance enthusiasts who seek more than just a scent but a narrative.",https://data.eu.cntmbr.com/givet/givet/556e3392-8741-49b9-9483-38b08c0b146a.svg,https://www.novellista.com,United Kingdom,2016,niche,,,,2025-07-18T12:32:10.942225,2025-08-29T09:24:02.499620
cmd18f499e14df14e9b70c6,Now Smell This,"Now Smell This is an influential online magazine and community dedicated to the perfume industry. Founded in 2006 by industry expert and writer, Nancy McNally, the website serves as a resource for fragrance enthusiasts and professionals alike. It features reviews of newly released perfumes, articles on fragrance trends, and discussions about the art of perfumery. The platform has built a substantial following due to its in-depth analysis and user-friendly format, catering to both novices and experienced connoisseurs.",https://images.unsplash.com/photo-15907369626-6c63ac16f3df?w=400&h=300&fit=crop,"serves as a resource for fragrance enthusiasts and professionals alike. It features reviews of newly released perfumes, articles on fragrance trends, and discussions about the art of perfumery. The platform has built a substantial following due to its in-depth analysis and user-friendly format, catering to both novices and experienced connoisseurs.",United States,2006,indie,,,,2025-07-18T12:32:10.942225,2025-08-29T09:24:08.386772
cmd0fbb8498bf0f8742aa7e,Noxell,"Noxell Corporation is a well-known leader in the fragrance and personal care industry, renowned for its innovative products that cater to a diverse audience. The company has a rich history and a dedication to creating quality fragrances that appeal to all demographics. Noxell specializes in developing both fragrance and beauty products that combine quality ingredients with appealing packaging. They are recognized for their strong branding and effective marketing strategies, which have contributed to their success in the competitive perfumery market.",https://images.unsplash.com/photo-15907369626-6c63ac16f3df?w=400&h=300&fit=crop,https://www.noxell.com,United States,1982,drugstore,,,,2025-07-18T12:32:10.942225,2025-08-29T09:24:14.978974
cmdc3bb382091e9fea0210e,Noya,"Noya is an innovative perfume company that specializes in creating high-quality, customizable fragrances. Founded on the principle of empowering individuals to express themselves through scent, Noya offers a unique online platform where customers can select from various fragrance notes to craft their personalized perfumes. The brand emphasizes sustainability, using eco-friendly processes and materials in its production, and aims to make fragrance creation an accessible and enjoyable experience for everyone.",https://images.unsplash.com/photo-1541643600914-78b084683601?w=400&h=300&fit=crop,https://noya.com,United States,2018,indie,support@noya.com,,,2025-07-18T12:32:10.942225,2025-08-29T09:24:31.617750
cmd1079418322aa02930533,Noyz,"Noyz is a contemporary fragrance brand focusing on creating unique and artistic scents that resonate with personal expression and individuality. Established by a group of passionate olfactory designers and artists, the company aims to blend modernity with the rich heritage of perfumery. Specializing in high-quality, innovative formulations, Noyz is dedicated to offering a sensory journey through its distinctive fragrances.",https://images.unsplash.com/photo-1587017539504-67cfbddac569?w=400&h=300&fit=crop,www.noyzparfums.com,France,2021,niche,contact@noyzparfums.com,,,2025-07-18T12:32:10.942225,2025-08-29T09:24:38.072368
cmd0f88c5a80879f307013d,NSEW North South East West,"NSEW North South East West is a niche perfume company that specializes in unique and artisanal fragrances inspired by geographic themes. Founded by a team of fragrance enthusiasts, the company aims to evoke the essence of different regions through scent. Each of their perfumes tells a story and reflects the culture and natural elements of a specific direction, allowing customers to experience a sense of travel and exploration through fragrance.",https://images.unsplash.com/photo-1587017539504-67cfbddac569?w=400&h=300&fit=crop,https://www.nsewnorthsoutheastwest.com,United States,2018,niche,contact@nsewnorthsoutheastwest.com,,"123 Fragrance Way, Los Angeles, CA 90001, United States",2025-07-18T12:32:10.942225,2025-08-29T09:24:44.783700
cmd7a8daadda80c4f3bb915,Nu_Be,"Nu_Be is a contemporary perfume company known for its innovative scents that blend traditional fragrance techniques with modern artistry. Established by a group of fragrance enthusiasts, Nu_Be focuses on creating unique and sustainable perfumes that cater to a diverse clientele. The brand emphasizes the importance of self-expression and individuality through scent, often drawing inspiration from various cultural influences and personal stories. Their specialty lies in crafting limited-edition collections that appeal to those seeking unique olfactory experiences.",https://images.unsplash.com/photo-1541643600914-78b084683601?w=400&h=300&fit=crop,https://nu-be.com,France,2018,indie,contact@nu-be.com,,,2025-07-18T12:32:10.942225,2025-08-29T09:24:50.720016
cmd93caf885307da9c5ff75,Nude Beauty,"Nude Beauty is a modern fragrance and beauty brand that emphasizes the use of natural and clean ingredients. The company focuses on creating perfumes that evoke a sense of authenticity and individuality, appealing to those who appreciate artisanal and thoughtfully crafted products. Their story revolves around promoting self-expression and confidence through scent, with a commitment to sustainability and transparency in their ingredient sourcing. Nude Beauty specializes in creating unique and sensory-rich fragrances that cater to the modern consumer's desire for both quality and eco-friendliness.",https://images.unsplash.com/photo-1587017539504-67cfbddac569?w=400&h=300&fit=crop,www.nudebeauty.com,United States,2019,indie,,,,2025-07-18T12:32:10.942225,2025-08-29T09:24:56.981037
cmd29213493424e441230f8,Nuhi,"Nuhi is a niche perfumery brand known for its exclusive, artisanal fragrances that emphasize natural ingredients and unique scent profiles. The company was founded by a group of fragrance enthusiasts who sought to create perfumes that tell a story and reflect individual personality. Nuhi specializes in crafting limited-edition scents, promoting the idea of personal expression through fragrance. Their dedication to quality and craftsmanship sets them apart in the competitive perfume market.",https://images.unsplash.com/photo-15907369626-6c63ac16f3df?w=400&h=300&fit=crop,www.nuhiparfums.com,United States,2015,niche,info@nuhiparfums.com,,,2025-07-18T12:32:10.942225,2025-08-29T09:25:02.669792
cmddd5885960f8980bd0bdc,Nuhr,,https://images.unsplash.com/photo-15907369626-6c63ac16f3df?w=400&h=300&fit=crop,www.nuhrperfume.com,United States,2020,niche,info@nuhrperfume.com,,,2025-07-18T12:32:10.942225,2025-08-29T09:25:08.613364
cmd87f6e3e19c3a66f5fe7a,Nui Cobalt Designs,"Nui Cobalt Designs is an artisan fragrance company specializing in handcrafted perfumes and other scented products, including room sprays and solid perfumes. The brand is known for its unique creations that draw inspiration from a variety of themes, including mythology and nature. Founded by a passionate artist, Nui Cobalt Designs emphasizes high-quality ingredients and small-batch production, creating fragrances that resonate with individual expression and creativity. The company has garnered a loyal following for its whimsical and evocative scent profiles.",https://nuicobaltdesigns.com/cdn/shop/t/2/assets/logo.png?v=141415435292468616491493225161,https://nuicobaltdesigns.com,United States,2019,indie,,,,2025-07-18T12:32:10.942225,2025-08-29T09:25:16.346345
cmdf6f6bed2202ae51dbb6e,Nullpunkt,"Nullpunkt is an innovative fragrance company known for its unique approach to scent creation, focusing on minimalism and the intersection of art and olfactory experience. Founded by a group of perfumers and artists, the brand emphasizes a curated selection of high-quality ingredients to craft distinctive perfumes that evoke emotions and memories. Their collections often explore abstract concepts, making each fragrance a storytelling experience.",https://images.unsplash.com/photo-1582735689369-4fe89db7114c?w=400&h=300&fit=crop,https://nullpunktfragrance.com,Germany,2019,niche,contact@nullpunktfragrance.com,,,2025-07-18T12:32:10.942225,2025-08-29T09:25:22.168672
cmdff814aa1172fb6aa8ce2,Nunzia Giuliano,"Nunzia Giuliano is a perfume company known for its elegant and artisanal fragrance creations. Founded by the eponymous Nunzia Giuliano, the brand is dedicated to crafting high-quality perfumes that reflect a unique blend of tradition and modernity. The company's story begins with a passion for scent and a commitment to artistic expression, making each fragrance a work of art. Specializing in niche fragrances, Nunzia Giuliano often draws inspiration from a variety of cultural and historical references, offering a distinctive olfactory experience.",https://images.unsplash.com/photo-1587017539504-67cfbddac569?w=400&h=300&fit=crop,http://www.nunziagiuliano.com,Italy,2015,niche,,,,2025-07-18T12:32:10.942225,2025-08-29T09:25:28.305902
cmd52d685d5f7fbfb9f4ca1,Nuori,"Nuori is a Copenhagen-based skincare and fragrance company that focuses on creating fresh, high-quality products with a commitment to natural ingredients and sustainability. Founded in 2015 by Nordic entrepreneur Nuori, the brand is known for its modern approach to the beauty industry, emphasizing that beauty products should not only be effective but also pure and ethical. Nuori specializes in crafting a limited number of products, ensuring that they are produced in small batches to maintain freshness and potency. Their fragrance offerings are inspired by the philosophy of purity and simplicity, aligning with the company's overall ethos of health and sustainability.",https://nuori.com/cdn/shop/articles/NUORI_Hourglass_banner_488a12fc-03c7-460a-83d7-5a9db06d2b1f_600x.jpg?v=1750256595,https://nuori.com,Denmark,2015,indie,,,,2025-07-18T12:32:10.942225,2025-08-29T09:25:35.736056
cmd900f9a2dea5f584066cb,Nuparfums,"Nuparfums is a fragrance company that focuses on creating high-quality, unique scents that often blend traditional and modern olfactory elements. Founded with a vision to bring artistry into perfumery, Nuparfums delivers a curated collection of fragrances that cater to sophisticated clientele. Their specialty lies in crafting niche perfumes that emphasize individuality and personal expression, often utilizing rare ingredients and innovative combinations in their formulations.",https://images.unsplash.com/photo-1587017539504-67cfbddac569?w=400&h=300&fit=crop,,,,niche,,,,2025-07-18T12:32:10.942225,2025-08-29T09:25:41.757345
cmd2d1fedc440978f5da65c,Nusa Art of Scent,"Nusa Art of Scent specializes in creating artisanal fragrances that are inspired by the natural beauty and diverse cultures of Indonesia. The brand focuses on using high-quality, natural ingredients to provide unique scents that reflect the essence of their heritage. Their journey began with a deep appreciation for traditional perfumery techniques and a mission to blend them with modern olfactory trends.",https://nusaartofscent.com/cdn/shop/files/logo_horizontal.png?v=1734120839,https://nusaartofscent.com,Indonesia,2019,niche,,,,2025-07-18T12:32:10.942225,2025-08-29T09:25:51.557022
cmde50dec8abf24a69e21ac,NuSkin,,https://images.unsplash.com/photo-1582735689369-4fe89db7114c?w=400&h=300&fit=crop,https://www.nuskin.com,United States,1984,designer,,+1 801-345-1000,,2025-07-18T12:32:10.942225,2025-08-29T09:25:59.525411
cmd5bed2c79a6745b66b35a,Nusuk,"Nusuk is a luxury perfume company based in Saudi Arabia, specializing in the creation and distribution of high-quality Arabic fragrances and oils. The brand focuses on blending traditional Arabian perfumery with modern aesthetics, resulting in unique scent experiences that are deeply rooted in cultural heritage. Nusuk has gained recognition for its artisanal approach, using natural ingredients sourced from around the region, and aims to cater to a sophisticated audience that appreciates the richness of Arabian scents.",https://images.unsplash.com/photo-15907369626-6c63ac16f3df?w=400&h=300&fit=crop,https://nusuk.com,Saudi Arabia,2018,niche,,,,2025-07-18T12:32:10.942225,2025-08-29T09:26:15.477642
cmd729e92c7599220a8fd6d,Nutrimetics,"Nutrimetics is an established brand specializing in high-quality skincare and beauty products, including a range of fragrances. The company originated in the 1960s with a vision to develop a holistic approach to skincare, combining nature and science. Over the years, Nutrimetics has expanded its product lines to include cosmetics, nutritional supplements, and personal care items, all while emphasizing natural ingredients and ethical practices. They specialize in direct selling, allowing consultants to promote and distribute their products directly to consumers.",https://images.unsplash.com/photo-1587017539504-67cfbddac569?w=400&h=300&fit=crop,https://www.nutrimetics.com.au,Australia,1968,indie,,,,2025-07-18T12:32:10.942225,2025-08-29T09:26:23.377278
cmdb404016a15fb6bd8f561,Nuxe,"Nuxe is a French skincare and cosmetics company founded in 1990 by Aliza Jabès. The brand is renowned for its luxurious, natural beauty products, which include skincare, body care, and hair care items. Nuxe's specialty lies in combining natural ingredients with scientific expertise, creating formulations that hydrate, nourish, and enhance the skin's natural beauty. Their popular fragrance line features products inspired by nature and designed to evoke a sense of well-being and sensuality. With a commitment to efficiency and sensory experiences, Nuxe has carved a niche in both the skincare and fragrance markets.",https://us.nuxe.com/cdn/shop/files/logo.svg?v=1718287615&width=266,https://www.nuxe.com,France,1990,indie,,,"12 Rue de Tilsit, 75017 Paris, France",2025-07-18T12:32:10.942225,2025-08-29T09:26:31.648405
cmd98b22ef299ee5e81f7dd,Nyakio Kamoche Grieco,"Nyakio Kamoche Grieco is a beauty and fragrance brand, founded by Nyakio Kamoche Grieco. The brand is inspired by African heritage and beauty traditions, particularly focusing on the use of natural ingredients sourced from Africa. Nyakio aims to celebrate the unique qualities of African culture and its impact on beauty while providing high-quality fragrances that embody these values. Their perfume collection is well-regarded for its artisanal approach and is designed to evoke emotion and tell a story through scent.",https://images.unsplash.com/photo-1556909114-f6e7ad7d3136?w=400&h=300&fit=crop,https://www.nyakiokamochegrieco.com,United States,2018,indie,,,,2025-07-18T12:32:10.942225,2025-08-29T09:26:38.283909
cmdf707c69f7202f38d0f58,NYC Nail,"NYC Nail is a company that specializes in the production of nail care products, including nail polishes and accessories. They focus on providing high-quality products that cater to beauty enthusiasts and nail professionals alike. NYC Nail aims to inspire creativity and individuality through their wide range of colors and finishes. The brand is well-known for its commitment to inclusivity and affordability, making it a popular choice among consumers who appreciate fashionable and accessible nail care.",https://images.unsplash.com/photo-15907369626-6c63ac16f3df?w=400&h=300&fit=crop,,United States,,indie,,,,2025-07-18T12:32:10.942225,2025-08-29T09:26:44.165682
cmd5770ee0b6ddac268112a,Nych,"Nych is a contemporary perfume brand that specializes in creating unique, artisanal fragrances that blend modern and traditional scent-making techniques. The company prides itself on sourcing high-quality ingredients and crafting its products in small batches to ensure exclusivity and authenticity. Nych aims to offer consumers a sensory experience that is deeply connected to art and culture, often collaborating with artists and designers to reflect their creative visions in the scent profiles.",https://images.unsplash.com/photo-1582735689369-4fe89db7114c?w=400&h=300&fit=crop,www.nychfragrance.com,United States,2021,niche,contact@nychfragrance.com,+1 (800) 555-0199,"15 Artisan Way, Suite 200, New York, NY 10001, United States",2025-07-18T12:32:10.942225,2025-08-29T09:26:50.826423
cmd79702c5c6fde533b15e3,Nyita,"Nyita is an innovative perfume company that specializes in crafting unique and bespoke fragrances. Founded by a team of passionate fragrance enthusiasts, the company prides itself on using high-quality, sustainable ingredients to create signature scents that resonate with individual personalities and experiences. Their story revolves around a commitment to olfactory artistry, where every bottle tells a story and captures the essence of emotions and memories. Nyita is dedicated to offering a luxurious experience in the world of personal fragrance, often collaborating with renowned perfumers to develop exclusive and limited edition collections.",https://images.unsplash.com/photo-15907369626-6c63ac16f3df?w=400&h=300&fit=crop,www.nyitaperfumes.com,United States,2020,indie,contact@nyitaperfumes.com,,,2025-07-18T12:32:10.942225,2025-08-29T09:26:57.242864
cmdd32196aa3df98d3186e1,NYPM,"NYPM is a niche perfume company that specializes in creating unique, high-quality fragrances inspired by various themes and emotions. Founded by a group of passionate perfumers, their mission is to evoke personal stories through scent. NYPM places a strong emphasis on craftsmanship and the use of fine ingredients in their collection, which appeals to fragrance enthusiasts seeking distinct olfactory experiences.",https://images.unsplash.com/photo-1582735689369-4fe89db7114c?w=400&h=300&fit=crop,www.nypmfragrances.com,United States,2020,niche,contact@nypmfragrances.com,,,2025-07-18T12:32:10.942225,2025-08-29T09:27:03.611632
cmd782fcb0fe387b240c573,64° Reykjavik Distillery,"64° Reykjavik Distillery is an Icelandic company known for producing premium hand-crafted spirits, notably gin and vodka, infused with unique local botanicals. The company was founded with a vision to highlight the natural ingredients and rich heritage of Iceland. They have expanded their offerings to include artisanal perfumes that capture the essence of Iceland's landscapes and aromas, using quality ingredients and traditional distillation methods.",https://images.unsplash.com/photo-1541643600914-78b084683601?w=400&h=300&fit=crop,https://64reykjavikdistillery.com,Iceland,2017,indie,,,,2025-07-18T12:32:10.942225,2025-08-29T09:27:09.250187
cmd97f4de59d61af9efca1c,Ôrəbella,"Ôrəbella is a boutique perfume company dedicated to crafting unique and bespoke fragrances that celebrate individuality and artistry. Founded with a passion for olfactory creativity, the brand emphasizes the use of high-quality natural ingredients and artisanal techniques. Their story began with a commitment to sustainability and elegance, leading to a range of products that cater to discerning customers seeking distinctive scents. Each fragrance is meticulously developed to encapsulate emotions and experiences, producing an aromatic journey that resonates with luxury and personal expression.",https://images.unsplash.com/photo-1556909114-f6e7ad7d3136?w=400&h=300&fit=crop,www.orabella.com,United States,2018,niche,info@orabella.com,,,2025-07-18T12:32:10.942225,2025-08-29T09:27:15.831982
cmd45c0a6bd876481a426b6,Örök Fragrances,"Örök Fragrances is an artisanal perfume company that focuses on creating unique, hand-crafted fragrances inspired by nature and personal experiences. Founded with a passion for scent and a commitment to quality, Örök Fragrances utilizes sustainable sourcing methods and eco-friendly practices in their manufacturing process. Their perfumes are designed to evoke emotions and memories, making each fragrance a personal journey for the wearer. They specialize in small-batch production to ensure exclusivity and attention to detail.",https://images.unsplash.com/photo-1541643600914-78b084683601?w=400&h=300&fit=crop,https://orokfragrances.com,Hungary,2019,niche,contact@orokfragrances.com,,,2025-07-18T12:32:10.942225,2025-08-29T09:27:22.013744
cmdc0ed24e909dd7323a7e9,& Other Stories,"& Other Stories is a fashion and beauty brand that specializes in women’s clothing, accessories, and beauty products including fragrances. Launched as a subsidiary of the H&M group, the brand focuses on offering a wide variety of style options, integrating European fashion influences. Their perfume collections are a key part of their offerings, emphasizing unique scent profiles and artistic designs that cater to diverse customer preferences. The company's story revolves around creating a platform for artistic expression in both fashion and beauty.",https://images.unsplash.com/photo-1582735689369-4fe89db7114c?w=400&h=300&fit=crop,https://www.stories.com,Sweden,2013,indie,,,,2025-07-18T12:32:10.942225,2025-08-29T09:27:40.989827
cmdd82993667f05d982432d,O Boticário,,https://images.unsplash.com/photo-1556909114-f6e7ad7d3136?w=400&h=300&fit=crop,https://www.boticario.com.br,". O Boticário specializes in manufacturing a wide range of products including perfumes, skincare, makeup, and personal care items, with a strong focus on sustainability and natural ingredients. The brand is known for its innovative fragrances and its commitment to environmental responsibility, often using eco-friendly packaging and promoting cruelty-free practices.",1977,drugstore,,,,2025-07-18T12:32:10.942225,2025-08-29T09:27:47.924522
cmd057291c5a06dd6e1db79,O.P.S.O,"O.P.S.O is a contemporary perfume company known for its artistic and bold fragrances that often explore unconventional scent combinations. The brand prides itself on creating unique olfactory experiences that resonate with the individuality and emotions of its consumers. Founded by a group of fragrance enthusiasts, O.P.S.O aims to challenge traditional norms in the perfume industry by focusing on craftsmanship and creative storytelling through scents. Their specialty lies in blending rare ingredients sourced from around the world to produce high-quality, niche fragrances that appeal to a discerning clientele.",https://images.unsplash.com/photo-1587017539504-67cfbddac569?w=400&h=300&fit=crop,www.opso.fr,France,2015,niche,contact@opso.fr,,,2025-07-18T12:32:10.942225,2025-08-29T09:27:54.855088
cmd82ecfdcb60657eeb3b61,Oak Essentials,"Oak Essentials is a clean beauty brand that specializes in uncomplicated skincare and fragrance. Founded by the entrepreneur and content creator, Oak Essentials focuses on harnessing the power of natural ingredients to create effective, eco-friendly products that promote wellness and simplicity. The company values transparency in its formulations and aims to provide a holistic experience through its thoughtfully crafted perfumes and skincare offerings.",https://oakessentials.com/cdn/shop/t/702/assets/OE-logo-desktop.svg?v=132681762669934340961755730441,https://www.oakessentials.com,United States,2020,indie,,,,2025-07-18T12:32:10.942225,2025-08-29T09:28:01.915135
cmdf83aa1b0cde5dbdabb10,Oak,"Oak is a niche perfume brand that specializes in creating unique, high-quality fragrances inspired by nature. The company focuses on using sustainably sourced ingredients to create scents that evoke the essence of various environments, particularly forests and natural landscapes. Established by fragrance enthusiasts, Oak aims to offer a more holistic and environmentally conscious approach to perfumery, appealing to customers who appreciate artisanal craftsmanship.",https://images.unsplash.com/photo-1556909114-f6e7ad7d3136?w=400&h=300&fit=crop,https://www.oakfragrances.com,United States,2018,niche,contact@oakfragrances.com,,,2025-07-18T12:32:10.942225,2025-08-29T09:28:07.672382
cmd586460957200fdae7b7e,Oakcha,"Oakcha is a perfume company known for its commitment to providing a luxury fragrance experience at an accessible price point. Established with a vision to disrupt the traditional perfume market, Oakcha blends artistic fragrance creation with sustainable and environmentally conscious practices. The brand emphasizes quality ingredients and handcrafted formulations, focusing on innovative scent combinations that resonate with a diverse clientele. Their story is rooted in a passion for personal expression through fragrance, allowing customers to find their unique scent signature.",https://www.oakcha.com/cdn/shop/files/Teen_Vogue_logo.svg-3.png?v=1697561661&width=165,https://oakcha.com,United States,2017,indie,,,,2025-07-18T12:32:10.942225,2025-08-29T09:28:16.579611
cmdda1c34d2e306b4a472d5,Obey,"Obey is a contemporary lifestyle brand that expands beyond fashion into various domains, including fragrances. They aim to embody a sense of individualism and artistic expression, using inspiration from street culture and art. While primarily known for their apparel, Obey has ventured into the perfume industry, creating scents that appeal to a younger demographic seeking to express their unique style and personality.",https://obeyclothing.com/cdn/shop/files/MENS_SWEATERS_-_NAV.jpg?v=1755203693&width=860,https://www.obeyclothing.com,United States,2001,indie,,,,2025-07-18T12:32:10.942225,2025-08-29T09:28:24.026577
cmdbf0bb64fb1ad363532f6,Obvious Parfums,"Obvious Parfums is a niche perfume company that focuses on creating transparent, minimalist fragrances with a commitment to sustainability and eco-friendly practices. Founded by a visionary team that values simplicity and quality, they aim to demystify the perfume experience and provide customers with scents that are versatile and uncomplicated. Their approach includes using high-quality, sustainable ingredients and offering fragrance compositions that have a clear and honest olfactory narrative.",https://www.obviousparfums.com/img/logo-1719490639.jpg,https://www.obviousparfums.com,France,2016,niche,contact@obviousparfums.com,,,2025-07-18T12:32:10.942225,2025-08-29T09:28:32.169852
cmd9727841ef1e029fa4513,Obvious,"Obvious is a fragrance company that emphasizes transparency and simplicity in their product formulations. Founded on the principles of sustainability and ethical sourcing, Obvious creates high-quality perfumes that are free from unnecessary ingredients, focusing on the essence of each scent. The brand is known for its commitment to environmental responsibility and uses accessible pricing to democratize fine fragrances.",https://images.unsplash.com/photo-1556909114-f6e7ad7d3136?w=400&h=300&fit=crop,https://www.obvious.fr,France,2016,niche,contact@obvious.fr,,,2025-07-18T12:32:10.942225,2025-08-29T09:28:39.189361
cmdabc91a9a9cf23c2c6dcf,Ocean Pacific,"Ocean Pacific, often referred to as OP, started as a surfwear brand in the 1970s and has since diversified into lifestyle products, including fragrances. Known for its youthful, beach-inspired aesthetics, the company encapsulates the essence of California surf culture in its perfume line, making its fragrances appealing to a demographic that values originality and casual style. The brand emphasizes vibrant and refreshing scents that evoke the coastal lifestyle.",https://inxmedia.blob.core.windows.net/oceanpacific-blob/2024/05/logo.png,https://www.oceanpacific.com,United States,1972,designer,,,,2025-07-18T12:32:10.942225,2025-08-29T09:28:47.604688
cmd40f24aae501c706e6dbb,OCMA,"OCMA (Organized Commerce of Materials and Aromas) is a relatively new fragrance company that specializes in creating bespoke perfumes using a combination of traditional techniques and modern scent technology. Founded by a team of perfumers and artisans, OCMA aims to cater to individuals seeking unique and personalized fragrance experiences. The brand is known for its commitment to high-quality ingredients, sustainability, and artistry in perfumery, setting trends in the niche fragrance market.",https://images.squarespace-cdn.com/content/v1/63c759c9553450750ab76a68/ff78c97a-d42e-4aa6-a8c4-78da8e809b3d/OCMA_Logotype_RGB_Black.png?format=1500w,https://www.ocmafragrances.com,United States,2020,niche,contact@ocmafragrances.com,,,2025-07-18T12:32:10.942225,2025-08-29T09:28:55.114460
cmd1d184a5370d9d2ba5f04,Octavia Morgan,"Octavia Morgan is a luxury perfumery specializing in artisanal fragrances. Founded by philanthropist and perfumer Octavia Morgan, the brand takes a holistic approach to fragrance-making, emphasizing sustainable practices and high-quality, natural ingredients. The company's story is deeply rooted in a passion for fine arts and nature, and it seeks to create scents that evoke emotions and memories. Their specialty lies in crafting unique, bespoke perfumes that cater to individual preferences, allowing customers to express their identity through custom scents.",https://octaviamorgan.com/cdn/shop/files/imgi_167_los-angeles-times-logo-png-transparent_41fda362-287f-490a-9185-8f716d3044af.png?v=1753269489&width=3200,https://www.octaviamorgan.com,United Kingdom,2016,niche,info@octaviamorgan.com,,,2025-07-18T12:32:10.942225,2025-08-29T09:29:02.310528
cmd96cb86ef350067a89b9f,Oddity,"Oddity is a unique perfume company that focuses on creating captivating and unconventional fragrances. Born from a desire to break away from traditional scent conventions, Oddity seeks to explore new olfactory landscapes by crafting perfumes that tell stories and evoke emotions. Their ethos revolves around creativity and experimentation, resulting in limited-edition collections and niche offerings that resonate with fragrance enthusiasts looking for something extraordinary.",https://images.unsplash.com/photo-1556909114-f6e7ad7d3136?w=400&h=300&fit=crop,https://www.oddityperfume.com,United States,2020,niche,,,,2025-07-18T12:32:10.942225,2025-08-29T09:29:08.291034
cmd9b9d8d883441ab393a46,Ode Paris,"Ode Paris is a niche perfume company known for its artisanal approach to fragrance creation. The brand emphasizes the use of high-quality ingredients and craftsmanship, drawing inspiration from the rich cultural heritage of France to curate unique olfactory experiences. The company prides itself on producing distinct fragrances that evoke a sense of place and emotion, connecting the wearer to the essence of Parisian life.",https://images.unsplash.com/photo-1541643600914-78b084683601?w=400&h=300&fit=crop,https://www.odeparis.com,France,2018,niche,contact@odeparis.com,,"123 Rue du Faubourg Saint-Martin, 75010 Paris, France",2025-07-18T12:32:10.942225,2025-08-29T09:29:14.800617
cmd782caa9a0f6fd9b159ef,Odem Swiss Perfumes,"Odem Swiss Perfumes is a luxury fragrance house known for its artisanal approach to perfume creation. Founded on the principles of crafting unique and sophisticated scents, Odem combines traditional Swiss craftsmanship with high-quality ingredients sourced globally. Their story is rooted in a passion for aromatic artistry, leading to an exclusive line of niche fragrances that appeal to discerning customers who appreciate both the craft and the individuality of the scents.",https://images.unsplash.com/photo-15907369626-6c63ac16f3df?w=400&h=300&fit=crop,https://odemswissperfumes.com,Switzerland,2018,niche,contact@odemswissperfumes.com,,,2025-07-18T12:32:10.942225,2025-08-29T09:29:21.271856
cmd3b4304709bad8b98ffbb,Odeon Perfumes,"Odeon Perfumes is a luxury perfume house known for its artisanal approach to fragrance creation. The company was founded with the mission of crafting unique and evocative scents that transport wearers to different emotional landscapes. Their specialty lies in using high-quality ingredients sourced from around the world, with a focus on sustainability and ethical practices in perfumery. Odeon Perfumes emphasizes storytelling through its fragrances, with each scent inspired by specific themes and experiences that evoke memories and emotions.",https://images.unsplash.com/photo-1541643600914-78b084683601?w=400&h=300&fit=crop,www.odeonperfumes.com,France,2020,niche,info@odeonperfumes.com,,"45 Rue de l'Opéra, 75002 Paris, France",2025-07-18T12:32:10.942225,2025-08-29T09:29:28.504418
cmd21cfba8214c0c8ab38f0,Odette Toilette,"Odette Toilette is a niche perfume company that specializes in creating unique and artistic scents. Established in 2010 by its founder, it focuses on the storytelling aspect of fragrance and often collaborates with artists and perfumers to produce limited edition perfumes. The brand is known for its emphasis on the experience of wearing perfume as a form of art, and it often hosts interactive events to educate consumers about fragrance creation.","https://static.wixstatic.com/media/5a810c_e6471ef3177549cba22512bdaf1435c4~mv2.png/v1/crop/x_0,y_74,w_972,h_555/fill/w_476,h_271,al_c,q_85,usm_0.66_1.00_0.01,enc_avif,quality_auto/5a810c_e6471ef3177549cba22512bdaf1435c4~mv2.png",https://www.odettetoilette.com,United Kingdom,2010,niche,,,,2025-07-18T12:32:10.942225,2025-08-29T09:29:34.439169
cmd5c6ce8667c28b28619f1,Odin New York,"Odin New York is a niche fragrance company that specializes in unique and contemporary perfumes, drawing inspiration from global travels and cultural experiences. Founded in 2009 by Han Shin and Patrick Kelly, the brand aims to create fragrances that reflect personal expression and identity. Each scent is crafted with meticulous attention to detail, often featuring unexpected combinations of ingredients that appeal to the modern sensibility. Odin New York has built a reputation for its artistry and originality in the perfume industry, catering to a discerning clientele who seek alternatives to mass-market fragrances.",https://odinnewyork.com/cdn/shop/files/Odin_logo_d4e1274f-cd01-41ff-843f-8897020537c2_x50.png?v=1613676840,https://www.odinnewyork.com,United States,2009,niche,,,,2025-07-18T12:32:10.942225,2025-08-29T09:29:41.884239
cmd634ca67312ffaae30ebf,Odorata,"Odorata is a fragrance company specializing in creating unique and high-quality perfumes. The company prides itself on using natural ingredients and traditional methods of perfumery, ensuring that each scent tells a story and evokes distinct emotions. Founded by a team of passionate fragrance creators, Odorata emphasizes craftsmanship and artistry, offering products that reflect the essence of artisanal perfumery. Their philosophy revolves around the belief that every fragrance should resonate on a personal level with the wearer, making them stand out in the competitive perfume market.",https://images.unsplash.com/photo-1556909114-f6e7ad7d3136?w=400&h=300&fit=crop,https://www.odoratafragrances.com,United States,2015,niche,contact@odoratafragrances.com,,"123 Fragrance Lane, Los Angeles, CA 90001, USA",2025-07-18T12:32:10.942225,2025-08-29T09:29:48.080846
cmda7cb291ba7d3a92d4916,Odoratika,"Odoratika is a perfume company that specializes in creating unique, artisanal fragrances that evoke the beauty of nature and the essence of various experiences. Founded by a passionate perfumer, the company aims to elevate the art of fragrance by using high-quality, sustainably sourced ingredients. Odoratika's perfumes are inspired by travel and personal memories, offering customers an olfactory journey through their distinct scent collections.",https://images.unsplash.com/photo-1582735689369-4fe89db7114c?w=400&h=300&fit=crop,www.odoratika.com,United States,2015,niche,contact@odoratika.com,,,2025-07-18T12:32:10.942225,2025-08-29T09:29:53.660500
cmdb2f01b481cce5ec63189,Odore Mio,"Odore Mio is a niche perfume company that specializes in creating artisanal fragrances characterized by their unique blends and high-quality ingredients. Founded with a passion for olfactory art, the brand focuses on producing evocative scents that tell stories and evoke emotions. The company emphasizes craftsmanship and often collaborates with renowned perfumers to create limited-edition collections, thereby appealing to connoisseurs of luxury perfumes. Their story is rooted in the exploration of various cultures and nature, aiming to capture a sense of place in every bottle.",https://odoremio.com/wp-content/uploads/2019/12/OM-LOGO-OMB10.png,https://www.odoremio.com,Italy,2015,niche,,,,2025-07-18T12:32:10.942225,2025-08-29T09:30:06.483590
cmdf8ee819ae7e8231fa62d,Odori,"Odori is an innovative fragrance company that specializes in creating bespoke perfumes crafted by following a unique artistic vision. Founded by perfume artists, Odori aims to blend traditional perfumery techniques with modern inspirations to produce exclusive scents that evoke emotional and sensory experiences. The company's philosophy centers around the idea of “art in fragrance,” where each fragrance tells a story, reflecting the culture and environment from which it is inspired.",https://images.unsplash.com/photo-1556909114-f6e7ad7d3136?w=400&h=300&fit=crop,https://www.odoriforni.com,Italy,2009,niche,,,,2025-07-18T12:32:10.942225,2025-08-29T09:30:12.271259
cmd45ccb6ab615b70ff16eb,ODOU Magazine,"ODOU Magazine is a digital platform dedicated to exploring the world of fragrances. It provides insight into perfume reviews, fragrance trends, and industry news. The company focuses on highlighting emerging perfume brands and niche fragrances, catering to a community of fragrance enthusiasts who seek deeper knowledge about scents and the artistry behind them. ODOU Magazine also serves as a resource for consumers and perfumers, showcasing different collections and educating readers about olfactory experiences.",https://images.unsplash.com/photo-1582735689369-4fe89db7114c?w=400&h=300&fit=crop,https://odoumagazine.com,United States,2018,niche,,,,2025-07-18T12:32:10.942225,2025-08-29T09:30:20.550694
cmdcf57fee46d11f717f6a3,O'Driù,"O'Driù is an Italian niche perfume house that specializes in creating unique fragrances inspired by Italian culture and nature. Founded by perfumer and creator Alberto Morillas, the brand focuses on artisanal production methods and high-quality natural ingredients. O'Driù is dedicated to crafting personal and emotional scents that evoke memories and experiences, making each fragrance a sensory journey.",https://images.unsplash.com/photo-1556909114-f6e7ad7d3136?w=400&h=300&fit=crop,https://www.odriu.fr,Italy,2016,niche,,,,2025-07-18T12:32:10.942225,2025-08-29T09:30:26.407487
cmd6ea563816b1e7a689fc3,Odur,"Odur is a niche perfume company specializing in crafting unique and artisanal fragrances. Founded with the vision of creating olfactory experiences that tell a story, Odur places a strong emphasis on using high-quality natural ingredients. Their philosophy revolves around sustainability and careful sourcing, aiming to minimize environmental impact while delivering distinctive scents that cater to a diverse clientele. The brand has quickly gained recognition in the fragrance community for its dedication to artistic expression and innovation in perfumery.",https://images.unsplash.com/photo-1556909114-f6e7ad7d3136?w=400&h=300&fit=crop,https://www.odurparfums.com,France,2020,niche,contact@odurparfums.com,,"12 Rue de la Parfumerie, 75002 Paris, France",2025-07-18T12:32:10.942225,2025-08-29T09:30:33.054912
cmd0516baa10b73769ff34c,Odyon,"Odyon is a niche perfume company that specializes in creating unique and artisanal fragrances. Founded by a team of passionate fragrance enthusiasts, Odyon emphasizes quality and craftsmanship, offering a carefully curated selection of scents inspired by art, culture, and nature. The company aims to provide customers with an immersive olfactory experience, differentiating itself by focusing on rare ingredients and bespoke creations.",https://images.unsplash.com/photo-1587017539504-67cfbddac569?w=400&h=300&fit=crop,www.odyonparfums.com,France,2018,niche,contact@odyonparfums.com,,"12 Rue des Fleurs, 75001 Paris, France",2025-07-18T12:32:10.942225,2025-08-29T09:30:39.969367
cmd684983ea270094819553,Off-White,"Off-White is an Italian luxury fashion label founded by designer Virgil Abloh, known for its streetwear aesthetics that blend high fashion with contemporary culture. The brand has made a significant mark in the fashion industry with its diverse product range, which includes apparel, accessories, and fragrances. Off-White has gained attention for its unique branding strategies, distinctive designs characterized by the use of quotation marks, bold graphics, and its signature diagonal stripes. The company exemplifies a modern approach to luxury, encapsulating the spirit of youth and urban life.",https://images.ctfassets.net/k88xsg6yjish/1ZK5vdF8vZTSrYOsQg2cKx/b2bd494f958bda9e826137919ac3730c/Nuovo_progetto_-_2025-03-25T145122.042.jpg?w=576&h=324&fm=avif,https://www.off---white.com/,Italy,2012,designer,,,,2025-07-18T12:32:10.942225,2025-08-29T09:30:47.453353
cmda3106f924566a4ff9527,Officina delle Essenze,"Officina delle Essenze is an Italian niche perfume house that specializes in the creation of high-quality, artisanal fragrances. Founded by perfumer Antonio Gardoni in 2015, the company draws inspiration from traditional Italian perfume-making techniques and emphasizes the use of natural ingredients sourced from various parts of the world. Officina delle Essenze focuses on craftsmanship, with each scent being meticulously crafted to capture unique olfactory experiences that reflect nature and emotions. Their collections often include a variety of scent families, showcasing both bold and subtle aromas.",https://www.officinadelleessenze.com/wp-content/uploads/2016/10/Logo-rosso.png,https://www.officinadelleessenze.com,Italy,2015,niche,,,,2025-07-18T12:32:10.942225,2025-08-29T09:30:53.632982
cmd11edfa22341fcd2dbf2c,Officine del Profumo,"Officine del Profumo is an Italian niche fragrance house that specializes in crafting high-quality, artisanal perfumes. Founded in Florence, the company draws inspiration from traditional perfumery techniques, creating unique and sophisticated scents that reflect the cultural heritage of Tuscany. Their perfumes are known for their use of natural ingredients and emphasis on unique olfactory experiences, often resulting in limited-edition releases and bespoke options.",https://images.unsplash.com/photo-1582735689369-4fe89db7114c?w=400&h=300&fit=crop,[www.officinedelprofumo.com](http://www.officinedelprofumo.com),Italy,2013,niche,,,,2025-07-18T12:32:10.942225,2025-08-29T09:31:00.518405
cmd2534eba77ac4c509de2e,Officine Universelle Buly 1803,"Officine Universelle Buly 1803 is a French luxury perfume and skincare brand known for its artisanal approach to fragrance and beauty products. Established by Ramdane Touhami and Vanessa Scoffier, the company prides itself on using traditional methods and high-quality ingredients, creating a unique blend of historical influences and contemporary design. Their signature offerings include perfumes, scented candles, and body care products, all presented in beautifully crafted packaging reminiscent of a bygone era, with an emphasis on both luxurious and practical items. The brand has garnered a loyal following for its innovative, olfactory experiences and environmental consciousness.",https://buly1803.com/cdn/shop/files/updated-logo.svg?v=1681295325&width=700,https://www.buly1803.com,France,2014,niche,,,,2025-07-18T12:32:10.942225,2025-08-29T09:31:09.691023
cmd0a00ebb55d873fed714b,Ogallala Bay Rum,"Ogallala Bay Rum is a company that specializes in the creation of traditional bay rum products, which include colognes, aftershaves, and grooming necessities. The brand embodies the spirit of the Old West, drawing inspiration from the historical use of bay rum in grooming products. The company prides itself on crafting high-quality, authentic fragrances using natural ingredients, catering to those who appreciate classic grooming rituals with a rugged charm.",https://images.unsplash.com/photo-1556909114-f6e7ad7d3136?w=400&h=300&fit=crop,https://www.ogallalabayrum.com,United States,1996,indie,,,,2025-07-18T12:32:10.942225,2025-08-29T09:31:16.121621
cmd9d14479bba66d67a3ae8,Ohana Mahaalo,"Ohana Mahaalo is a perfume company known for its luxurious and unique fragrances inspired by the Hawaiian culture. The brand focuses on creating high-quality, artisanal scents that evoke the beauty and essence of the Hawaiian Islands. With a commitment to craftsmanship and personal expression, Ohana Mahaalo crafts its perfumes from natural ingredients, promoting an eco-conscious approach. Their scent collections often reflect a narrative, drawing inspiration from the landscapes, flora, and cultural heritage of Hawaii.",https://images.unsplash.com/photo-1556909114-f6e7ad7d3136?w=400&h=300&fit=crop,https://www.ohanamahaalo.com,United States,2013,indie,,,,2025-07-18T12:32:10.942225,2025-08-29T09:31:22.646930
cmd681bc6aa58bfb5ba43b0,OHTOP,"OHTOP is a contemporary fragrance company that specializes in crafting unique and innovative scents that transcend traditional perfume boundaries. Founded with a passion for art and olfactory expression, OHTOP aims to introduce users to a curated selection of fragrances that highlight diverse cultural inspirations and personal storytelling. Each scent is formulated using high-quality ingredients to create distinctive aromas suitable for various occasions. The brand has garnered attention for its commitment to sustainability, employing eco-friendly practices in both sourcing and packaging.",https://images.unsplash.com/photo-1556909114-f6e7ad7d3136?w=400&h=300&fit=crop,,,,indie,,,,2025-07-18T12:32:10.942225,2025-08-29T09:31:27.413443
cmdd2c281cf353f1e954ff7,Oilily,"Oilily is a Dutch fashion brand known for its unique and colorful textile designs, particularly for children's clothing and accessories. The brand is recognized for its whimsical and playful style that embodies a sense of fun and creativity. Oilily expands its creativity into the fragrance industry, producing perfumes that reflect the brand's vibrant aesthetic. Their scents convey a spirit of adventure and imaginative storytelling, aligning with the overall identity of the brand.",https://www.oilily.com/cdn/shop/files/OILILY_logo_SWOOSH-RGB_270x.png?v=1719997165,https://www.oilily.com,Netherlands,1963,designer,,,,2025-07-18T12:32:10.942225,2025-08-29T09:31:34.638925
cmdd7892116cbdb67e7df14,OJ Perrin,"OJ Perrin is a luxury perfume company that specializes in creating artisanal fragrances. Founded by perfumer Olivier J. Perrin, the brand focuses on high-quality raw materials and meticulous craftsmanship. The company is known for its unique and evocative scents that blend contemporary and traditional olfactory elements, aimed at connoisseurs of fine fragrances. Over the years, OJ Perrin has cultivated a reputation for exclusivity and sophistication in the growing niche perfume market.",https://images.unsplash.com/photo-1587017539504-67cfbddac569?w=400&h=300&fit=crop,www.ojperrin.com,France,2012,niche,,,,2025-07-18T12:32:10.942225,2025-08-29T09:31:40.606482
cmdb0ead8bf7aa5077f6617,Ojar,"Ojar is a luxury perfume brand that specializes in crafting exquisite fragrances inspired by the rich cultural heritage of Oman. The name 'Ojar' reflects a deep connection to Omani traditions and the craftsmanship involved in perfume making. The company offers a range of artisanal scents, highlighting natural ingredients and unique olfactory experiences. Each fragrance is designed to tell a story and evoke emotions tied to the history and landscape of the Arabian Peninsula. Ojar emphasizes high-quality ingredients and meticulous craftsmanship, appealing to perfume connoisseurs seeking exclusive and distinctive scents.",https://images.unsplash.com/photo-15907369626-6c63ac16f3df?w=400&h=300&fit=crop,https://www.ojar.com,Oman,2017,niche,,,,2025-07-18T12:32:10.942225,2025-08-29T09:31:50.171840
cmd5d7d7e98e9194049d4cb,OK Fine,"OK Fine is a contemporary fragrance company that specializes in creating unique, sensory experiences through their innovative perfumes. The brand focuses on blending traditional fragrance-making techniques with modern themes, aiming to appeal to a diverse audience. Established with a vision to redefine personal fragrance, OK Fine prides itself on sourcing high-quality ingredients and promoting sustainability. Their growth story involves a commitment to craftsmanship and an understanding of the evolving perfume market, allowing them to carve a niche for themselves in the industry.",https://framerusercontent.com/images/2hzvzF0AR0JRRD3iMbncPSRWEY.png,www.okfine.com,United States,2018,indie,info@okfine.com,,,2025-07-18T12:32:10.942225,2025-08-29T09:31:56.944605
cmd2d673d627eb9df45acf1,Okaïdi,"Okaïdi is a French brand specializing in children's clothing, footwear, and accessories. The company emphasizes the importance of creativity, playfulness, and comfort in its designs, aimed at children aged 0 to 14 years. Founded in 1996, Okaïdi has built a reputation for quality, stylish apparel that promotes freedom of movement for children. The brand's story reflects a commitment to sustainability and social responsibility, striving to deliver products that are ethically sourced and environmentally friendly.",https://images.unsplash.com/photo-1582735689369-4fe89db7114c?w=400&h=300&fit=crop,https://www.okaidi.com,France,1996,indie,,,,2025-07-18T12:32:10.942225,2025-08-29T09:32:03.741397
cmdcfa53aac92571371764a,Olay,,https://cdn11.bigcommerce.com/s-gud7r2x2lu/images/stencil/242x70/olay-logo-2024_1738333746__38326.original.png,https://www.olay.com,United States,1952,drugstore,,,,2025-07-18T12:32:10.942225,2025-08-29T09:32:11.504761
cmd249a54c953125db6cfef,Old Bond Street,"Old Bond Street is a distinguished name in the men's grooming and fragrance industry, renowned for its luxurious colognes and shaving products. The company's story dates back to its establishment, rooted in the heart of London, where it gained prominence for its quality and craftsmanship. Old Bond Street specializes in offering a wide range of traditional and contemporary fragrances, blending classic scents with modern influences to appeal to discerning customers. Their products emphasize a refined and sophisticated approach to men’s grooming, aligning with the heritage of British elegance.",https://images.unsplash.com/photo-1587017539504-67cfbddac569?w=400&h=300&fit=crop,https://www.oldbondstreet.com,United Kingdom,1970,niche,,+44 20 7514 3470,"24 Old Bond Street, London, W1S 4PZ, United Kingdom",2025-07-18T12:32:10.942225,2025-08-29T09:32:18.980424
cmdb6b7ccfd67f1d20da4ad,Old England,"Old England is a niche perfume house known for its unique fragrance compositions that draw inspiration from British culture, history, and landscapes. Established with a vision to create scents that evoke a sense of nostalgia and tradition, the company specializes in artisanal perfumes, blending traditional techniques with modern sensibilities. Their offerings often feature high-quality natural ingredients and are designed to appeal to connoisseurs of fine fragrances.",https://images.unsplash.com/photo-15907369626-6c63ac16f3df?w=400&h=300&fit=crop,,United Kingdom,,niche,,,,2025-07-18T12:32:10.942225,2025-08-29T09:32:24.665463
cmd17fa5ca61a62a489264f,Old Navy,"Old Navy is a retail clothing and accessories brand under the Gap Inc. umbrella, known for offering trendy apparel at affordable prices. Founded in 1994, the brand gained popularity for its playful styles and inclusive sizing. In addition to clothing, Old Navy has expanded its offerings to include a range of personal care products, including fragrances that are often marketed as fun, casual, and accessible, catering primarily to families and younger demographics.",https://images.unsplash.com/photo-1582735689369-4fe89db7114c?w=400&h=300&fit=crop,https://oldnavy.gap.com/,United States,1994,drugstore,,,"900 Cherry Avenue, San Bruno, CA 94066, United States",2025-07-18T12:32:10.942225,2025-08-29T09:32:30.338731
cmddbf7adb4f11c6ceb08f8,Oleg Cassini,"Oleg Cassini is a fragrance company that embodies the legacy of the renowned fashion designer Oleg Cassini, who was known for his elegant and sophisticated designs. The company creates a range of perfumes that reflect his timeless aesthetic and style, appealing to consumers who appreciate luxury and elegance in their fragrance choices. The brand emphasizes artistry in fragrance creation and offers products that resonate with both classic and modern sensibilities.",https://cdn.shopify.com/s/files/1/0904/4797/0599/files/floral_family_dot_image.png?v=1741676834,http://www.olegcassini.com,United States,2001,designer,,,,2025-07-18T12:32:10.942225,2025-08-29T09:32:37.599975
cmd1265fb5951ba95d2861a,Olfactik,"Olfactik is a niche perfume company that specializes in creating unique and artisanal fragrances. The company emphasizes a creative approach to perfumery, focusing on high-quality ingredients and individual expression through scent. Olfactik prides itself on offering a personalized fragrance experience, often allowing customers to explore various scent blends and discover what resonates with their personal style. Established with a passion for craftsmanship and innovation in olfactory design, Olfactik serves a discerning clientele that seeks distinctive fragrances that stand out in the market.",https://images.unsplash.com/photo-1541643600914-78b084683601?w=400&h=300&fit=crop,https://www.olfactik.com,France,2012,niche,contact@olfactik.com,,,2025-07-18T12:32:10.942225,2025-08-29T09:32:44.566157
cmd722aa7118e2e4613d2f4,Olfactive O,"Olfactive O is a niche perfume company that focuses on creating unique and complex fragrances inspired by olfactory storytelling. Founded by a passionate perfumer, the company prides itself on the craftsmanship and artistry behind each scent, utilizing high-quality ingredients and innovative techniques to offer consumers an exclusive experience. Their range features both unisex and gender-specific fragrances, designed to evoke emotions and memories through the art of scent.",https://images.squarespace-cdn.com/content/v1/5cf67aa9924cda0001204035/1cd9adbe-b8ae-4595-ab15-af3ec08d5da2/ESMag_logo_2022-1.png,https://olfactiveo.com,France,2017,niche,contact@olfactiveo.com,,"12 Rue du Faubourg Saint-Antoine, 75011 Paris, France",2025-07-18T12:32:10.942225,2025-08-29T09:32:51.479288
cmddfff78964ec6fb655aa9,Olfactive Pharmacy,"Olfactive Pharmacy is a niche perfume house founded by industry veterans who focus on creating artisanal fragrances that combine therapeutic qualities with olfactory pleasure. The brand emphasizes the connection between scent and emotional health, offering a unique range of perfumes designed to enhance well-being and stimulate the senses. They craft their products using high-quality ingredients and innovative scent compositions, positioning themselves as leaders in the niche fragrance market.",https://images.unsplash.com/photo-15907369626-6c63ac16f3df?w=400&h=300&fit=crop,https://www.olfactivepharmacy.com,United States,2016,niche,not found,not found,not found,2025-07-18T12:32:10.942225,2025-08-29T09:32:57.359650
cmdd8fd264d01f279ad9722,Olfactive Studio,"Olfactive Studio is a niche perfume house that uniquely combines the world of photography with the art of perfumery. Founded by a French entrepreneur, Olivier de Serres, it draws inspiration from the art of photography to create fragrances that tell a story and evoke emotions. Each perfume is paired with a photograph, serving as a visual representation of the scent, and the brand emphasizes the olfactory interpretation of images. Their specialty lies in the evocative nature of their fragrances, which often express abstract themes and personal experiences.",https://www.olfactivestudio.com/cdn/shop/files/logo_slogan_white.png?v=1613525741&width=200,https://olfactivestudio.com,France,2011,niche,,,,2025-07-18T12:32:10.942225,2025-08-29T09:33:04.902832
