id,name,description,image,website,country,founded,type,email,phone,address,createdAt,updatedAt
cmdb4c81dc873681cab7fff,Ilsa Fragrances,"Ilsa Fragrances is an innovative perfume company that specializes in creating unique and high-quality fragrances. Founded with a vision to provide a sensory experience that evokes emotions and memories, Ilsa Fragrances draws inspiration from nature and art. The brand emphasizes artisanal craftsmanship and sustainable sourcing of ingredients, ensuring that each scent reflects a commitment to excellence and environmental responsibility. With a blend of creativity and tradition, Ilsa Fragrances aims to connect people through the power of scent.",https://images.unsplash.com/photo-1541643600914-78b084683601?w=400&h=300&fit=crop,https://www.ilsafragrances.com,United States,2019,niche,contact@ilsafragrances.com,,,2025-07-18T12:32:10.942225,2025-08-28T16:51:27.729914
cmd8cecd6f3ea0a6e398714,Ilum Dean,"Ilum Dean is a boutique fragrance house that specializes in niche perfumes crafted with high-quality and rare ingredients. The company was founded on the principle of creating unique scent experiences that evoke emotions and memories. Their story began with a passion for perfumery and a commitment to artistry, allowing customers to explore a world of distinctive aromas that are often not found in mainstream markets. Ilum Dean focuses on personalization, offering bespoke fragrances catered to individual preferences.",https://images.unsplash.com/photo-1556909114-f6e7ad7d3136?w=400&h=300&fit=crop,https://www.ilumdean.com,United States,2020,niche,hello@ilumdean.com,,,2025-07-18T12:32:10.942225,2025-08-28T16:51:35.245714
cmdd673a7d94d3213118c3d,Imaginary Authors,"Imaginary Authors is a niche perfume company that specializes in creating unique and innovative fragrances inspired by fictional stories and characters. Founded in 2012 by Josh Meyer, the brand's narrative-driven approach sets it apart in the fragrance market. Each scent is accompanied by a short story, designed to evoke emotions and inspire creativity through its olfactory art. Imaginary Authors aims to craft experiences rather than just perfumes, making each fragrance a whimsical exploration of imagination and storytelling.",https://imaginaryauthors.com/cdn/shop/files/Logo_1950x600_493af985-2309-4790-bc0b-543aba174375.png?v=1730117257&width=320,https://imaginaryauthors.com,United States,2012,niche,,,,2025-07-18T12:32:10.942225,2025-08-28T16:51:41.326298
cmd5c55890d54314b698d21,Iman,"Iman is a fragrance brand developed by Iman Abdulmajid, a Somali-American supermodel and entrepreneur. The brand was created to celebrate diversity and offer high-quality fragrances that cater to a wide range of consumers, particularly those who appreciate unique scents. Iman’s approach involves blending classic and modern elements, with fragrances that embody sophistication and elegance, reflecting her multicultural background and experiences.",https://images.unsplash.com/photo-1587017539504-67cfbddac569?w=400&h=300&fit=crop,https://www.imanfragrance.com,United States,2007,indie,,,,2025-07-18T12:32:10.942225,2025-08-28T16:51:47.422592
cmdea95dd0e2179e5b9fb91,ime,"ime is a contemporary perfume house that specializes in creating unique, artisanal fragrances. The brand focuses on sustainability and the use of high-quality natural ingredients sourced from around the globe. Founded by a group of passionate fragrance enthusiasts, ime aims to provide a personal olfactory experience that reflects individuality and creativity. Their collection features a range of scents designed to evoke emotions and cater to diverse preferences, emphasizing the art of perfumery while promoting eco-friendly practices.",https://images.unsplash.com/photo-1582735689369-4fe89db7114c?w=400&h=300&fit=crop,,,,indie,,,,2025-07-18T12:32:10.942225,2025-08-28T16:51:53.015218
cmd04734337a366023d1be9,IMH Perfume,"IMH Perfume is a fragrance company specializing in high-quality, handcrafted scents. Their commitment to using premium ingredients and traditional perfumery techniques sets them apart in the industry. IMH Perfume focuses on creating unique, artistic fragrances that cater to individual preferences and experiences, aiming to evoke emotions and memories through scent. The company has been gaining recognition for its personalized approach and dedication to sustainability in fragrance production.",https://images.unsplash.com/photo-15907369626-6c63ac16f3df?w=400&h=300&fit=crop,,,,indie,,,,2025-07-18T12:32:10.942225,2025-08-28T16:51:58.462662
cmde06f8fa546955fe2e403,Immortal Mine,"Immortal Mine is a boutique perfume company that specializes in crafting unique, artisanal fragrances that blend traditional perfume-making techniques with modern sensibilities. Founded by a team of passionate perfumers, the brand focuses on sustainability and the use of high-quality, natural ingredients to create memorable scents. Their story begins with a commitment to revive the art of perfumery, emphasizing individuality and storytelling through scent. Immortal Mine has gained acclaim for their evocative fragrance collections that resonate with a diverse clientele.",https://images.unsplash.com/photo-15907369626-6c63ac16f3df?w=400&h=300&fit=crop,www.immortalmine.com,United States,2015,niche,contact@immortalmine.com,,,2025-07-18T12:32:10.942225,2025-08-28T16:52:04.696464
cmd93aa71fec8493bff4dad,Immortal Perfumes,"Immortal Perfumes is a niche perfume company known for creating unique, high-quality fragrances inspired by the art of perfumery. Founded by a passionate artisan, the company focuses on using natural and organic ingredients to craft scents that evoke emotions and memories. Their story revolves around a commitment to sustainability and innovation, blending traditional techniques with contemporary trends to create a holistic fragrance experience. Immortal Perfumes prides itself on small batch production, ensuring each scent is distinct and thoughtfully curated.",https://images.squarespace-cdn.com/content/v1/61006a251879fd760abe2576/682e4176-614f-4e1e-8971-4acd2a06b9a5/Immortal+Perfumes+Logo.png?format=1500w,www.immortalperfumes.com,United States,2015,niche,info@immortalperfumes.com,,,2025-07-18T12:32:10.942225,2025-08-28T16:52:11.218799
cmd52f33d962f862089b8a1,Impala,"Impala is a perfume company that specializes in creating unique, high-quality fragrances. They are known for their commitment to using quality ingredients and innovative scent compositions, appealing to both contemporary and classical fragrance lovers. The company places a strong emphasis on sustainability and ethical sourcing practices, which resonates well with today's environmentally conscious consumers. Founded by a team of passionate fragrance enthusiasts, Impala aims to redefine personal scent experiences by offering distinctive and memorable perfumes.",https://images.unsplash.com/photo-1556909114-f6e7ad7d3136?w=400&h=300&fit=crop,,,,indie,,,,2025-07-18T12:32:10.942225,2025-08-28T16:52:16.689393
cmde05ce5b48c71c06e0874,Imperio Lusso,"Imperio Lusso is a niche perfume company known for its unique and luxurious fragrances that blend traditional perfumery techniques with modern artistry. Founded by a team of passionate perfumers, the company aims to create exclusive scents that evoke emotions and tell stories. Their expertise lies in sourcing rare ingredients from around the world to craft high-quality perfumes that cater to connoisseurs of fine fragrance. The brand positions itself in the luxury segment of the market, offering a curated selection of fragrances that embody elegance and sophistication.",https://images.unsplash.com/photo-1582735689369-4fe89db7114c?w=400&h=300&fit=crop,http://www.imperiolusso.com,Italy,2015,niche,,,,2025-07-18T12:32:10.942225,2025-08-28T16:52:23.375968
cmd36bb0bbae521d123a8e8,Impulse,"Impulse is a British perfume brand known for its affordable and youthful fragrances. Launched in the mid-1990s, Impulse gained popularity quickly among young women and teens by offering a range of body sprays that are both invigorating and suitable for everyday wear. The brand is recognized for its vibrant packaging and marketing campaigns that resonate with a youthful audience, often promoting a sense of empowerment and individuality through scent. Over the years, Impulse has expanded its product offering to include various fragrance collections designed to cater to diverse preferences and styles.",https://images.unsplash.com/photo-1587017539504-67cfbddac569?w=400&h=300&fit=crop,https://www.impulse.co.uk,United Kingdom,1995,drugstore,,,,2025-07-18T12:32:10.942225,2025-08-28T16:52:40.575462
cmd264f2508288ca69e6066,In Astra,"In Astra is an innovative perfume company that focuses on creating unique, high-quality fragrances inspired by various themes and emotions. Founded by a team of passionate perfumers, the company emphasizes artisanal craftsmanship and sustainable sourcing of ingredients. Their story revolves around a commitment to elevate the olfactory experience, often collaborating with artists and designers to infuse creativity into their scent collections, making them stand out in the niche fragrance market.",https://inastra.com/wp-content/uploads/2025/05/ELLE_Magazine_logo.jpg,https://www.inastra.com,United States,2018,niche,contact@inastra.com,,"123 Fragrance Lane, Aromaview, CA 90001, United States",2025-07-18T12:32:10.942225,2025-08-28T16:52:51.694594
cmd44a390ea2ca716d2bf26,in fieri,"in fieri is a niche perfume company that specializes in crafting unique and artisanal fragrances. The brand focuses on the concept of ""in progress"" or ""becoming,"" which reflects its commitment to continuous evolution and innovation in scent creation. Established by a team of passionate perfumers, in fieri aims to challenge conventional fragrance norms by combining unexpected elements and high-quality ingredients to produce captivating scents that tell a story. Each fragrance is carefully designed to evoke emotions and experiences, making in fieri a distinctive player in the luxury perfume market.",https://images.unsplash.com/photo-1587017539504-67cfbddac569?w=400&h=300&fit=crop,https://www.infieri.com,France,2017,niche,contact@infieri.com,,"18 Rue de la Paix, 75002 Paris, France",2025-07-18T12:32:10.942225,2025-08-28T16:52:58.572155
cmd4825d11b92301afbd41f,In Fiore,"In Fiore is a luxury fragrance company that specializes in creating high-quality, artisanal perfumes and body care products. Founded by Julie Elliott, the brand focuses on using natural ingredients and traditional perfumery techniques. They are known for their dedication to botanical ingredients and sustainable sourcing, crafting fragrances that emphasize both complexity and subtlety. In Fiore operates with a holistic approach to beauty, promoting a lifestyle that integrates fine fragrances with wellness.",https://infiore.net/cdn/shop/files/In_Fiore_Logo_a86e85b4-8723-4128-86fc-02f9b2057921_x65.png?v=1613730504,https://www.infiore.net,United States,2014,niche,,,,2025-07-18T12:32:10.942225,2025-08-28T16:53:06.179414
cmdbc19a78b0b702a76cec6,In Somnio Per Fume,"In Somnio Per Fume is a niche perfume company that specializes in creating ethereal and dream-inspired fragrances. The brand focuses on artistry and craftsmanship, with a commitment to using high-quality ingredients to evoke the emotions and sensations of dreams. Founded by a passionate perfumer who believes in the transformative power of scent, the company aims to offer unique olfactory experiences that transport users to a different realm. Their collections are often inspired by poetry and the whimsical nature of dreams, making their offerings distinctive in the crowded fragrance market.",https://cdn.sumup.store/assets/v2420.0.0/storefront/images/sumup-footer-logo.7a423614.svg,www.insomnioperfume.com,Italy,2018,niche,contact@insomnioperfume.com,,,2025-07-18T12:32:10.942225,2025-08-28T16:53:13.847032
cmd61e61efcb0e6966a9fc3,In Style USA,"In Style USA is a fragrance company known for providing a diverse range of perfumes, colognes, and body sprays targeted primarily towards the mass market. The company focuses on creating affordable and accessible scents that resonate with contemporary preferences. While specific details about their founding story and specialty are less publicly documented, they emphasize quality formulations while ensuring a fashion-forward approach to their products.",https://images.unsplash.com/photo-15907369626-6c63ac16f3df?w=400&h=300&fit=crop,,United States,,drugstore,,,,2025-07-18T12:32:10.942225,2025-08-28T16:53:19.323722
cmd84a3ec740df90180a1a6,INCC Parfums,"INCC Parfums is a prominent player in the fragrance industry known for creating a diverse range of high-quality perfumes. Founded with a focus on innovation and creativity, the company has developed a reputation for its unique scents that appeal to a broad audience. INCC Parfums prides itself on blending traditional perfumery techniques with modern trends, crafting fragrances that are both luxurious and accessible. Over the years, the company has expanded its portfolio, collaborating with various brands to provide customized fragrances tailored to specific markets and customer preferences.",https://images.unsplash.com/photo-1587017539504-67cfbddac569?w=400&h=300&fit=crop,https://www.inccparfums.com,France,2011,niche,,,,2025-07-18T12:32:10.942225,2025-08-28T16:53:25.638068
cmdaf708a4c68db9f8ba478,Incos Ltd,"Incos Ltd is a perfume company that specializes in the manufacture and distribution of fragrances and personal care products. Established with a focus on quality and innovation, the company has carved a niche in the fragrance industry by creating unique scent profiles that appeal to a diverse clientele. Incos Ltd prides itself on using high-quality ingredients and maintaining sustainable practices in its production processes.",https://images.unsplash.com/photo-1541643600914-78b084683601?w=400&h=300&fit=crop,http://www.incosltd.com,United Kingdom,2004,indie,info@incosltd.com,,,2025-07-18T12:32:10.942225,2025-08-28T16:53:32.070840
cmdd4c895df5558fe4b1b79,Indices Parfums,"Indices Parfums is a luxury perfume house that specializes in creating high-quality, artisanal fragrances. Founded by a team of passionate perfumers and fragrance aficionados, the company focuses on offering a unique olfactory experience through the use of rare and exotic ingredients. The brand’s story is rooted in a deep appreciation for the art of perfumery, drawing inspiration from different cultures and heritage to craft scents that evoke emotion and memorable moments. Indices Parfums prides itself on its dedication to craftsmanship and the personalization of fragrances, allowing customers to find or create a scent that reflects their individuality.",https://images.unsplash.com/photo-1587017539504-67cfbddac569?w=400&h=300&fit=crop,https://www.indicesparfums.com,France,2018,niche,contact@indicesparfums.com,,,2025-07-18T12:32:10.942225,2025-08-28T16:53:40.139810
cmd360b1c0b12315c062fea,Indie Scents,"Indie Scents is a niche perfume company that focuses on creating unique, high-quality fragrances inspired by various artistic expressions. Founded by a team of fragrance enthusiasts and creatives, Indie Scents aims to deliver distinctive scents that tell a story and evoke emotions. Their specialty lies in crafting artisanal fragrances that often incorporate unexpected ingredients, appealing to consumers looking for one-of-a-kind scents.",https://cdn11.bigcommerce.com/s-46bc8/images/stencil/102x41/logomobilerev1_1733687723__65240.original.gif,www.indiescents.com,United States,2018,indie,info@indiescents.com,,,2025-07-18T12:32:10.942225,2025-08-28T16:53:46.752921
cmda5ad0e36901b3a412b59,IndieScents.com,"IndieScents.com is an online retailer specializing in niche and indie perfumes. They focus on providing a platform for independent fragrance makers to showcase their unique scents that are often not available in mainstream markets. Their story begins with a passion for individuality in fragrance, promoting artisans and crafting a community of scent enthusiasts. The specialty of IndieScents revolves around curating a diverse collection of high-quality, unique perfumes that push the boundaries of conventional fragrance offerings.",https://cdn11.bigcommerce.com/s-46bc8/images/stencil/102x41/logomobilerev1_1733687723__65240.original.gif,https://www.indiescents.com,United States,2019,indie,,,,2025-07-18T12:32:10.942225,2025-08-28T16:53:53.366846
cmd513a42646d0ab54b7895,Indigo Cosmetics,"Indigo Cosmetics is a fragrance company known for its unique and artistic approach to scent creation. Established with the aim to offer consumers exclusive and evocative fragrances, Indigo Cosmetics focuses on using high-quality ingredients and innovative perfumery techniques. Their story is rooted in a passion for individuality and exploration, which is reflected in their product range that appeals to a diverse clientele looking for something beyond mainstream offerings. The specialty of Indigo Cosmetics lies in crafting niche scents that evoke emotions and memories, making each fragrance a personal journey.",https://images.unsplash.com/photo-1556909114-f6e7ad7d3136?w=400&h=300&fit=crop,www.indigocosmetics.com,United States,2019,niche,,,,2025-07-18T12:32:10.942225,2025-08-28T16:54:01.289216
cmd85c32764e0ebdf7d894e,Indigo Perfumery,"Indigo Perfumery is a niche fragrance retailer known for its carefully curated selection of artisanal perfumes from independent and lesser-known brands. Founded by a team passionate about unique and quality scents, the company focuses on offering personalized service and an informative shopping experience for fragrance enthusiasts. They emphasize the artistry behind perfumery, showcasing products that often utilize rare ingredients and innovative formulations.",https://indigoperfumery.com/cdn/shop/files/logo.png?v=1655824148&width=300,https://www.indigoperfumery.com,United States,2016,niche,contact@indigoperfumery.com,,,2025-07-18T12:32:10.942225,2025-08-28T16:54:07.547721
cmdf1644a882f1a71a306b2,Indigo Wild,"Indigo Wild is an eco-friendly personal care company specializing in handcrafted, aromatic products, including perfumes, made with natural ingredients. Founded by Jody Murray in 1996, the company emphasizes the use of pure botanicals and essential oils, and is known for creating distinctive scents that reflect a connection to nature. Their offerings also include soaps, lotions, and other bath products, all promoting wellness and sustainability in personal care. Indigo Wild is committed to transparent sourcing and environmentally conscious practices.",https://www.indigowild.com/cdn/shop/files/Subscription_Mobile_Pod.png?crop=center&v=1725656069&width=478,https://www.indigowild.com,United States,1996,indie,,,,2025-07-18T12:32:10.942225,2025-08-28T16:54:14.039971
cmd649cffbeccbada38292c,Inditex,"Inditex, short for Industria de Diseño Textil, is a multinational clothing company based in Spain known primarily for its fashion retailing under various brands including Zara, Massimo Dutti, and Pull&Bear. While Inditex primarily operates in the fashion industry, some of its brands offer perfumes and beauty products which are marketed alongside their clothing lines. The company was founded in 1985, focusing on a business model that emphasizes rapid turnaround in fashion trends and a unique supply chain process that keeps costs down and efficiency high.",https://www.inditex.com/itxcomweb/_next/static/media/logo_big.e3164328.svg,https://www.inditex.com,Spain,1985,designer,,,,2025-07-18T12:32:10.942225,2025-08-28T16:54:21.489419
cmd40673af409fc6a8d395e,Indult,"Indult is a niche perfume house renowned for its exceptional artisanal fragrances, focusing on high-quality ingredients and craftsmanship. Founded in Paris, the brand was inspired by the founders' passion for creating perfumes that evoke emotions and memories. They specialize in unique compositions, often drawing from diverse cultural influences, and are committed to an ethical approach in sourcing their materials. Indult is particularly known for its signature scent, ""Tihota,"" which beautifully blends vanilla with other elements, establishing a strong cult following among fragrance enthusiasts.",https://images.unsplash.com/photo-1541643600914-78b084683601?w=400&h=300&fit=crop,https://indult.com,France,2003,niche,,,,2025-07-18T12:32:10.942225,2025-08-28T16:54:29.958172
cmd13cfb328bb570419ca82,Industria,"Industria is a perfume company that specializes in creating high-quality, artisanal fragrances. They focus on blending traditional perfume-making techniques with modern creativity, resulting in unique scents that cater to a niche market. Established by a team of fragrance experts, Industria aims to provide an exclusive olfactory experience, emphasizing craftsmanship and premium ingredients in their perfumes.",https://images.unsplash.com/photo-1556909114-f6e7ad7d3136?w=400&h=300&fit=crop,www. industriafragrances.com,Italy,2015,niche,contact@industriafragrances.com,,"Via dei Profumi 25, Florence, Italy",2025-07-18T12:32:10.942225,2025-08-28T16:54:36.438223
cmdc23cca11cf74232d807a,Ineke,"Ineke is a niche fragrance house known for its artisanal and bespoke approach to perfumery. Founded by Ineke Ruhland, the company emphasizes the artistry of scent creation, melding unique ingredients into captivating compositions that tell stories and evoke memories. Every fragrance is crafted with meticulous care and presents both contemporary and classic influences, appealing to discerning customers who appreciate individuality in their scent choices. Since its launch, Ineke has developed a loyal following and is recognized for its creativity and high-quality standards in the perfume industry.",https://images.squarespace-cdn.com/content/v1/5b70e6c77e3c3aa2183a05cc/1604878372219-96C9U76RKCYUXSR8MX5S/INeKE_Logo_600x600.jpg,https://www.ineke.com,United States,2006,niche,,,,2025-07-18T12:32:10.942225,2025-08-28T16:54:43.235204
cmda15724a1be05d108f413,Ines de la Fressange,"Ines de la Fressange is a French fashion model, designer, and actress, known for her timeless style and elegance. The company, founded by Ines de la Fressange, specializes in exquisite perfumes that capture a blend of Parisian charm and sophistication. Launched as part of her lifestyle brand, the fragrances embody a chic and refined aesthetic reflective of Ines’s own personal style, often inspired by her experiences in fashion and art. The company emphasizes quality ingredients and craftsmanship in creating scents that appeal to the modern, sophisticated consumer.",https://images.unsplash.com/photo-1582735689369-4fe89db7114c?w=400&h=300&fit=crop,https://www.inesdelafressange.com,France,2011,designer,,,,2025-07-18T12:32:10.942225,2025-08-28T16:54:53.467270
cmdd8048770f94c37962baf,Inessance,"Inessance is a French perfume house founded by a passionate group of perfumers and fragrance experts. The company specializes in creating unique and artistic fragrances that emphasize a blend of quality ingredients and innovative olfactory compositions. Inessance strives to offer a fresh take on traditional perfume-making, focusing on craft and creativity, often developing scents that challenge conventional norms. Their approach includes a commitment to sustainability and transparency in sourcing materials, which aligns with contemporary consumer values.",https://images.unsplash.com/photo-1587017539504-67cfbddac569?w=400&h=300&fit=crop,https://inessance.fr,France,2017,niche,,,,2025-07-18T12:32:10.942225,2025-08-28T16:55:01.084043
cmd37f4d7a72c67dcad5c42,Infiniment Coty Paris,"Infiniment Coty Paris is a fragrance brand that represents the heritage of Coty, a leading global beauty company. Founded by François Coty in the early 20th century, the brand focuses on creating innovative and expressive scents that cater to a diverse audience. Infiniment Coty Paris combines traditional perfumery art with modern elements, crafting fragrances that evoke emotions and memories. The brand is known for its commitment to quality and elegance, providing customers with luxurious scent experiences.",https://www.coty.com/_next/image?url=https%3A%2F%2Fimages.contentstack.io%2Fv3%2Fassets%2Fblted39bd312054daca%2Fblt0aeff3ce26d29c12%2F66e97585c4217a441dc6ffaa%2FCoty_com_homepage_banner_2024_desktop.jpg&w=3840&q=90,https://www.coty.com,France,1904,designer,,,,2025-07-18T12:32:10.942225,2025-08-28T16:55:07.839076
cmd1ebf744db390db6c849f,Infusion Organique,"Infusion Organique is a niche fragrance company that specializes in creating artisanal perfumes and home fragrances using high-quality, natural ingredients. Founded with a commitment to sustainability and environmental consciousness, the brand reflects an ethos of simplicity and elegance in its scent compositions. Infusion Organique combines traditional perfumery techniques with modern sensibilities, offering an array of clean, sophisticated fragrances that cater to discerning consumers who appreciate luxury and nature alike. The company is known for its unique scent blends and eco-friendly practices, making a significant mark in the niche perfume market.",https://www.infusionorganique.com/top-view-raspberries-with-leaves-bowl-cup-tea-with-raspberries-green-surface.jpg,www.infusionorganique.com,United States,2006,niche,,,,2025-07-18T12:32:10.942225,2025-08-28T16:55:15.388696
cmd491085433aadc9f10251,Inglot,"Inglot is a cosmetics company best known for its high-quality makeup products, including a range of fragrances. Founded in 1983 by Wojciech Inglot in Poland, the brand focuses on creating innovative formulations, vivid color palettes, and extensive customization options. Over the years, Inglot has expanded its product line to include perfumes that resonate with its commitment to quality and creativity, making it a favorite among beauty enthusiasts.",https://inglotcosmetics.com/img/logo-1715947222.svg,https://inglotcosmetics.com,Poland,1983,indie,,,,2025-07-18T12:32:10.942225,2025-08-28T16:55:25.453929
cmd9d4f157eac7c3cfa2ac0,Ingredients,"Ingredients is a niche perfume brand that emphasizes the use of natural and sustainable ingredients to create high-quality fragrances. They focus on transparency in sourcing and production, aiming to educate consumers about the raw materials used in perfumery. The brand was founded with a philosophy of minimalism and craftsmanship, drawing inspiration from global cultures and nature. Their unique blends often feature a balance of rare essential oils and modern synthetic notes.",https://images.unsplash.com/photo-1556909114-f6e7ad7d3136?w=400&h=300&fit=crop,,,,niche,,,,2025-07-18T12:32:10.942225,2025-08-28T16:55:30.927512
cmdc132caf84441118bf896,Ingrid Starnes,"Ingrid Starnes is a New Zealand-based fragrance house founded by designer Ingrid Starnes. The company specializes in creating unique, artisanal perfumes that reflect the essence of New Zealand's natural landscapes and urban environments. Offering a compelling blend of sophistication and originality, Ingrid Starnes' fragrances are characterized by their complex compositions and artistry, appealing to a niche market of perfume enthusiasts looking for distinctive scents. The brand’s emphasis on quality ingredients and craftsmanship sets it apart in the perfume industry.",https://images.unsplash.com/photo-1582735689369-4fe89db7114c?w=400&h=300&fit=crop,https://ingridstarnes.com,New Zealand,2012,niche,,,,2025-07-18T12:32:10.942225,2025-08-28T16:55:38.515236
cmd2c1b13b457d9260b02f2,Ingrid,"Ingrid is a perfume company that focuses on creating high-quality, sophisticated fragrances inspired by the diverse nature of femininity and beauty. Founded with the intention of providing an olfactory experience that transcends time and trends, Ingrid's offerings often highlight unique ingredients and craftsmanship. The brand emphasizes artisanal processes and seeks to connect with consumers through stories behind each scent.",https://images.unsplash.com/photo-1582735689369-4fe89db7114c?w=400&h=300&fit=crop,,,,indie,,,,2025-07-18T12:32:10.942225,2025-08-28T16:55:43.800836
cmd2201697af1c70ef025d9,Initio,"Initio is a niche perfume brand known for its luxurious and unique fragrances. Established by a passionate team of perfumers, Initio focuses on exploring the art of fragrance creation by blending high-quality ingredients with innovative techniques. The company draws inspiration from the mystical and transformative powers of scents, often emphasizing the emotional and psychological aspects of fragrance. Each perfume in their collection is crafted to evoke deep feelings and memories, making each scent a personal journey for the wearer. Their offerings are often characterized by bold combinations, rich compositions, and a signature depth that sets them apart in the perfume industry.",https://images.unsplash.com/photo-1582735689369-4fe89db7114c?w=400&h=300&fit=crop,https://initio-parfums.com,France,2015,niche,,,,2025-07-18T12:32:10.942225,2025-08-28T16:55:50.425691
cmd0e539ca0b7679423e309,Ink + Ocean Botanicals,"Ink + Ocean Botanicals is a niche perfume company that specializes in creating natural and botanical-based fragrances. Founded with a commitment to sustainability and eco-consciousness, the brand emphasizes the use of organic ingredients sourced from nature. Their unique scents are designed to evoke the tranquil essence of the ocean and its surroundings. The company aims to provide customers with luxurious, yet environmentally friendly fragrance options, focusing on holistic wellness and self-expression through scent.",https://images.unsplash.com/photo-1556909114-f6e7ad7d3136?w=400&h=300&fit=crop,https://www.inkoceanbotanicals.com,United States,2018,niche,hello@inkoceanbotanicals.com,,,2025-07-18T12:32:10.942225,2025-08-28T16:55:56.448412
cmd82e20e7922759a6b6efb,Innisfree,"Innisfree is a South Korean cosmetic brand founded by the parent company Amorepacific in 2000. The brand is renowned for its commitment to natural ingredients sourced from Jeju Island, South Korea, and it specializes in skincare and beauty products, including a wide range of perfumes. Innisfree focuses on environmental sustainability and eco-consciousness, incorporating green practices in both product development and packaging, thus catering to consumers who value natural and clean beauty products.",https://inm-cdn.innisfree.com/origin-image/display/banner/c366c025-2fcb-4954-b682-e1f42c1a0b1a.jpg,https://www.innisfree.com,South Korea,2000,indie,,,,2025-07-18T12:32:10.942225,2025-08-28T16:56:03.597236
cmd1f88dfd5c024f095515e,InnoFairs Messe,"InnoFairs Messe is a prominent organization that specializes in hosting trade fairs and exhibitions specifically focused on the perfume and fragrance industry. They play a vital role in connecting manufacturers, suppliers, and retailers, providing a platform for networking, showcasing new products, and facilitating business opportunities within the fragrance sector. Their fairs often feature a diverse range of companies, including niche brands, designer labels, and indie creators, making them a critical hub for industry innovation and collaboration.",https://images.unsplash.com/photo-1556909114-f6e7ad7d3136?w=400&h=300&fit=crop,www.innofairsmesse.com,Germany,,niche,,,,2025-07-18T12:32:10.942225,2025-08-28T16:56:09.534476
cmdae3b75754920aba9d436,Innovia Technology,"Innovia Technology is a company focused on advanced scent technologies. They specialize in developing innovative scent delivery systems and fragrances, often working with brands across various industries to enhance sensory experiences. The company leverages cutting-edge research and development in the field of olfaction and scent innovations, aiming to create unique atmospheric and personal fragrance solutions.",https://images.unsplash.com/photo-1587017539504-67cfbddac569?w=400&h=300&fit=crop,,,,indie,,,,2025-07-18T12:32:10.942225,2025-08-28T16:56:15.478385
cmde2375625b2387532704c,Innoxa,"Innoxa is an Australian-based fragrance and cosmetics company known for its dedication to creating quality products that enhance beauty and well-being. Established with a focus on purity and natural ingredients, Innoxa has a rich heritage in the formulation of perfumes as well as skincare and makeup products. Over the years, the brand has become synonymous with accessible luxury, aiming to cater primarily to those who seek elegant and timeless scents without the high price tag. Innoxa emphasizes botanical extracts and has developed a unique identity within the competitive fragrance market.",https://innoxa.com.au/cdn/shop/files/logo_400x_af598685-1774-410b-a831-c0cfedb878f9_small.png?v=1670803812,https://www.innoxa.com.au,Australia,1930,indie,,,,2025-07-18T12:32:10.942225,2025-08-28T16:56:22.122098
cmddcd96547b78707329e5f,Insider Parfums,"Insider Parfums is a niche perfume house known for its exclusive and artisanal fragrances. The company focuses on high-quality ingredients and craftsmanship, creating unique scents that cater to customers looking for one-of-a-kind olfactory experiences. Founded by a passionate team with deep roots in the fragrance industry, Insider Parfums aims to inspire and elevate personal expression through the art of perfumery.",https://insiderparfums.com/cdn/shop/files/Insider_Parfums_logo_final-02.png?v=1721119302&width=1828,www.insiderparfums.com,United States,2018,niche,contact@insiderparfums.com,,,2025-07-18T12:32:10.942225,2025-08-28T16:56:29.108260
cmdcc3653371cbd3ceda778,Insignia,"Insignia is a luxury perfume company that specializes in crafting high-quality, sophisticated fragrances. The brand emphasizes the importance of fine ingredients and expert craftsmanship, drawing inspiration from art and culture to create scents that are both unique and evocative. Established with a vision to redefine the luxury perfume market, they focus on storytelling through scent, allowing customers to connect emotionally with their products.",https://images.unsplash.com/photo-1587017539504-67cfbddac569?w=400&h=300&fit=crop,www.insigniaparfums.com,United States,2015,niche,info@insigniaparfums.com,,,2025-07-18T12:32:10.942225,2025-08-28T16:56:35.138013
cmd94c987dc3c04a3148326,Inspirations by Payard,"Inspirations by Payard is a fragrance company known for crafting unique and evocative scents that draw inspiration from the rich heritage and artistic vision of its founder. The brand emphasizes the artistry of perfume-making, often combining elements from various cultures to create luxurious and memorable experiences. Their product line typically includes a diverse range of fragrances catering to both men and women, celebrating the essence of creativity and refinement.",https://images.unsplash.com/photo-1587017539504-67cfbddac569?w=400&h=300&fit=crop,www.payardfragrances.com,United States,,niche,,,,2025-07-18T12:32:10.942225,2025-08-28T16:56:41.104302
cmd4ff0248de1ce9e692cbd,Inspiritu,"Inspiritu is a contemporary perfume company that focuses on creating unique and evocative scents inspired by various emotions and experiences. With a commitment to sustainability and the use of high-quality, natural ingredients, Inspiritu aims to provide its customers with a sensory journey that connects them to their inner selves and the world around them. The company's story began with a vision to craft fragrances that are not only delightful but also tell a story, allowing wearers to express their individuality through scent.",https://www.inspiritu.com/tun2u-hosting.jpg,www.inspiritu.com,United States,2015,indie,contact@inspiritu.com,,,2025-07-18T12:32:10.942225,2025-08-28T16:56:47.858397
cmdc1fdfb66a99eaa97bb13,Institut Tres Bien,"Institut Tres Bien is a niche perfume company that specializes in creating high-quality, artisanal fragrances. Founded in the spirit of individuality and storytelling, the brand emphasizes unique scent experiences that reflect creativity and innovation in perfumery. Their products often highlight the artistry of fragrance composition and are crafted using fine raw materials sourced from around the world, catering to discerning customers looking for exclusive and distinctive scents.",https://images.unsplash.com/photo-1556909114-f6e7ad7d3136?w=400&h=300&fit=crop,https://institut-tres-bien.com,France,2020,niche,contact@institut-tres-bien.com,,,2025-07-18T12:32:10.942225,2025-08-28T16:56:53.751897
cmd239bf046269f7bac12fd,Instituto Español,"Instituto Español is a Spanish company founded in 1903, known for producing a wide range of personal care products, including perfumes. Over its long history, the company has specialized in creating fragrances that cater to various demographics, nurturing a legacy of quality and affordability. They are recognized for their dedication to tradition while embracing modern trends in scent formulation. Additionally, they have established a strong presence in both domestic and international markets, focusing on accessibility of their products.",https://institutoespanol.com/wp-content/uploads/2021/03/logo-60.png,https://www.institutoespanol.com,Spain,1903,drugstore,,,,2025-07-18T12:32:10.942225,2025-08-28T16:57:03.236573
cmdd73cb0c3e17fdc127899,Instyle ActivEssence,"Instyle ActivEssence is a modern perfume company that focuses on creating unique and bold fragrances. Their story began with a vision to develop scents that not only evoke emotions but also reflect personal identity. The brand specializes in using high-quality ingredients while embracing sustainability in their production processes. Their philosophy intertwines tradition with contemporary design, aiming to bring a sense of luxury and accessibility to the fragrance industry.",https://images.unsplash.com/photo-1541643600914-78b084683601?w=400&h=300&fit=crop,www.instyleactivessence.com,United States,2015,indie,contact@instyleactivessence.com,,,2025-07-18T12:32:10.942225,2025-08-28T16:57:10.431105
cmd53a57b54f78d2a199f15,Intelligent Nutrients,"Intelligent Nutrients is a company founded by entrepreneur and Whole Foods Market co-founder Horst Rechelbacher in 2008, focusing on creating organic and naturally derived personal care products, including perfumes. The brand is committed to providing sustainable, eco-friendly products that are free from harmful chemicals and toxins, promoting overall health and wellness while enhancing beauty and vitality. Intelligent Nutrients positions itself as a pioneer in the field of clean and green beauty, advocating for environmental sustainability and consumer safety.",https://intelligentnutrients.com/cdn/shop/files/I-N_Logo_April_2025_White_300px.png?v=1744839152&width=301,https://www.intelligentnutrients.com,United States,2008,indie,,,,2025-07-18T12:32:10.942225,2025-08-28T16:57:17.058775
cmdd6f9f85fd311bcb8454b,Intelligent Skincare,"Intelligent Skincare is a perfume and skincare company that focuses on creating high-quality, eco-friendly products aimed at enhancing natural beauty through innovative formulations. The brand is known for its commitment to using sustainable ingredients and environmentally conscious practices in production. Their story revolves around the idea of merging sophisticated fragrance with advanced skincare solutions, allowing consumers to enjoy both benefits in one product line.",https://images.squarespace-cdn.com/content/v1/556f0ae7e4b00d4b3011ec92/1433341012782-HOTFG4Y02QXAN4NNIHW5/Intelligent+Skincare+Logo+PDF.png?format=1500w,https://www.intelligentskincare.com,United Kingdom,,indie,,,,2025-07-18T12:32:10.942225,2025-08-28T16:57:22.605497
cmd0b60fd1f8459de5bcbd4,Intelligent,"Intelligent is a perfume company that specializes in creating innovative and high-quality fragrances designed to enhance personal expression and individuality. The company prides itself on its ability to blend cutting-edge technology with traditional perfumery methods to craft unique scent profiles. Intelligent's story began with a vision to revolutionize the fragrance industry by focusing on sustainability and ethical sourcing of ingredients, ensuring that each product tells a story while remaining environmentally conscious.",https://images.unsplash.com/photo-1582735689369-4fe89db7114c?w=400&h=300&fit=crop,,,,indie,,,,2025-07-18T12:32:10.942225,2025-08-28T16:57:28.265714
cmd91be28f76a3b16b5c7b3,Inter Parfums,"Inter Parfums, Inc. is a prominent global player in the fragrance industry, involved in the development, production, and marketing of a diverse portfolio of fragrance products. Established in 1984, the company specializes in creating and distributing fragrances for both luxury and lifestyle brands. Inter Parfums collaborates with renowned fashion houses and celebrities to produce signature scents that resonate with their brand identities. With a focus on innovation and quality, Inter Parfums has built a reputation for its ability to capture the essence of its partners' brands in captivating fragrance form.",https://images.unsplash.com/photo-1556909114-f6e7ad7d3136?w=400&h=300&fit=crop,https://www.interparfumsinc.com,United States,1984,designer,,+1 (212) 983-0102,"551 Fifth Avenue, 15th Floor, New York, NY 10176, USA",2025-07-18T12:32:10.942225,2025-08-28T16:57:35.233862
cmd0d392416035d3717acc6,Intercosma West,"Intercosma West is a leading provider in the fragrance industry, specializing in the development and manufacture of private label and branded fragrances. The company has carved a niche for itself by focusing on innovative perfume solutions, catering to a diverse clientele that includes cosmetic companies, retailers, and luxury brands. Established in the early 2000s, Intercosma West combines creativity with cutting-edge technology to produce high-quality fragrances that resonate with consumers globally. Their expertise spans product development, scent creation, and marketing strategies, making them a key player in both the industrial and retail fragrance markets.",https://images.unsplash.com/photo-15907369626-6c63ac16f3df?w=400&h=300&fit=crop,https://www.intercosmawest.com,United States,2003,indie,,,,2025-07-18T12:32:10.942225,2025-08-28T16:57:42.490978
cmd1749a6540caa6a38d95f,International Classic Brands,"International Classic Brands is a well-established player in the fragrance industry, specializing in the creation and distribution of a diverse range of scent products. The company focuses on both classic and contemporary perfume lines, catering to various consumer preferences. With a rich history in the fragrance business, they emphasize quality and unique packaging, often drawing inspiration from timeless designs and cultural influences in their scent compositions.",https://images.unsplash.com/photo-1587017539504-67cfbddac569?w=400&h=300&fit=crop,http://www.internationalclassicbrands.com,United States,1982,designer,,,,2025-07-18T12:32:10.942225,2025-08-28T16:57:48.363499
cmd3f6d2ea3425db2c20d7d,International Cosmetics and Perfumes,"International Cosmetics and Perfumes (ICP) is a prominent player in the global fragrance market, specializing in the manufacture and distribution of high-quality perfumes and cosmetics. Established in 1984 in Dubai, UAE, the company has a rich heritage in the fragrance industry, focusing on the creation of signature scents that appeal to a diverse clientele. ICP collaborates with various renowned fragrance houses and brands, allowing them to offer a wide range of products including fine fragrances, skincare, and personal care items. Their commitment to quality and innovation has made them a trusted name in the industry.",https://images.unsplash.com/photo-1587017539504-67cfbddac569?w=400&h=300&fit=crop,https://www.icp-uae.com,United Arab Emirates,1984,niche,,,,2025-07-18T12:32:10.942225,2025-08-28T16:57:55.484012
cmddfe50184e78c27cd40bd,International Perfume Bottle Association,"The International Perfume Bottle Association (IPBA) is dedicated to the preservation and promotion of perfume and scent-related collectibles. Established by a group of passionate collectors and enthusiasts, the organization focuses on the appreciation and history of perfume bottles, including their artistic and technical design elements. They facilitate events, exhibitions, and networking among collectors, as well as providing resources for education related to the art of perfumery and the history of fragrance packaging.",https://www.ipba.org/sites/main/www/images/logo.png,https://www.ipba.org,United States,1994,niche,,,,2025-07-18T12:32:10.942225,2025-08-28T16:58:04.271620
cmd4fc41bf8fc5e1c31f196,Interneeds,"Interneeds is a dynamic perfume company specializing in creating innovative, high-quality fragrances for a diverse customer base. Established with a passion for scent, Interneeds focuses on understanding the emotional connection people have with fragrances and aims to enhance the everyday lives of its consumers. The company prides itself on using premium ingredients and modern scent technology to develop unique olfactory experiences. With a strong emphasis on sustainability and ethical sourcing, Interneeds also strives to minimize its environmental impact while producing exciting new fragrances that cater to market trends.",https://images.unsplash.com/photo-15907369626-6c63ac16f3df?w=400&h=300&fit=crop,,,,indie,,,,2025-07-18T12:32:10.942225,2025-08-28T16:58:10.499495
cmd093acaa717de1c63b023,Intertrade Europe,"Intertrade Europe specializes in the development and distribution of fine fragrances, as well as personal care products. Founded with a vision to combine creativity with a strong sense of marketing and innovation, they offer a wide array of scents catering to both emerging brands and established names in the perfume industry. Their expertise lies in sourcing high-quality ingredients and the creation of unique formulations, aimed at enhancing the customer experience and providing distinctive fragrances that stand out in the market.",https://images.unsplash.com/photo-1556909114-f6e7ad7d3136?w=400&h=300&fit=crop,https://www.intertrade-europe.com,Italy,1994,niche,,,,2025-07-18T12:32:10.942225,2025-08-28T16:58:16.081389
cmd2e748257866053c059f1,Intimate Brands,,https://images.unsplash.com/photo-1587017539504-67cfbddac569?w=400&h=300&fit=crop,https://www.intimatebrands.com,United States,1992,designer,,,,2025-07-18T12:32:10.942225,2025-08-28T16:58:34.267422
cmd1149208aec8970ec3a6f,Intimate Research,"Intimate Research is an innovative perfume company that focuses on creating fragrances that resonate with intimate emotions and personal connections. Established by a team of fragrance enthusiasts and researchers, the company combines scientific insights into scent perception with artistic fragrance creation, cultivating a niche market for sophisticated and meaningful scents. Their offerings often explore themes of intimacy, connection, and personal exploration, setting them apart in the industry.",https://images.unsplash.com/photo-1556909114-f6e7ad7d3136?w=400&h=300&fit=crop,www.intimateresearch.com,United States,2015,niche,info@intimateresearch.com,,,2025-07-18T12:32:10.942225,2025-08-28T16:58:41.241645
cmd138192b52ba51bc3b395,Intimissimi,"Intimissimi is a well-known lingerie and intimate apparel brand, part of the Calzedonia Group, which also offers a range of fragrances. Established in 1996 in Italy, the brand has successfully positioned itself in the fashion industry by providing products that blend elegance, comfort, and sexuality. Intimissimi is especially recognized for its attention to quality fabrics and craftsmanship, appealing to a broad demographic of women. Their line of perfumes complements the brand’s identity, focusing on sensuality and intimacy, enhancing the overall customer experience with their domestic collection that often reflects the same aesthetic as their apparel.",https://www.intimissimi.com/on/demandware.static/-/Library-Sites-IntimissimiContentLibrary/default/dw69511bf1/images/hp/splash/intimissimi-logo.svg,https://www.intimissimi.com,Italy,1996,designer,,,,2025-07-18T12:32:10.942225,2025-08-28T16:58:48.467514
cmd60372967442a05504089,Investindustrial,"Investindustrial is an Italian investment firm specializing in private equity and special situations. Although not a direct perfume company, Investindustrial has invested in several brands within the beauty and personal care sector, including fragrance companies. Their specialty lies in identifying and nurturing businesses with high growth potential, often through strategic partnerships and operational improvements. The firm has a strong focus on European markets and is known for its successful management of portfolio companies.",https://www.investindustrial.com/docroot/site-investindustrial/img/content/main-logo.svg,https://www.investindustrial.com,Italy,1990,indie,,,,2025-07-18T12:32:10.942225,2025-08-28T16:58:55.369402
cmdeaaa9bed6d20db21bd60,Invisible Places,"Invisible Places is a niche perfume brand dedicated to crafting uniquely personal fragrances that evoke memory and emotion. Founded by a group of renowned perfumers and creative artists, the company focuses on blending elements of olfactory art with personal storytelling, allowing each fragrance to represent an invisible experience or memory. Their specialty lies in creating small-batch, artisanal scents that are exclusive and often limited edition, emphasizing quality and individuality.",https://images.unsplash.com/photo-1587017539504-67cfbddac569?w=400&h=300&fit=crop,https://www.invisibleplaces.com,Portugal,2018,niche,contact@invisibleplaces.com,,,2025-07-18T12:32:10.942225,2025-08-28T16:59:01.448319
cmdd726a715f5081151ccdb,IPD Fragrances,"IPD Fragrances is a company specializing in the development and production of private label fragrances for various retailers and brands. Established in response to the growing demand for personalized scent offerings, IPD Fragrances focuses on creating unique fragrance formulations tailored to individual market needs. Their expertise in scent creation and innovative packaging solutions allows clients to enhance their brand portfolios with quality fragrances that resonate with consumers.",https://images.unsplash.com/photo-15907369626-6c63ac16f3df?w=400&h=300&fit=crop,https://www.ipdfragrances.com,United States,2009,indie,,,,2025-07-18T12:32:10.942225,2025-08-28T16:59:06.764225
cmd6813e4e909ade4b1e3a8,Ipuro,"Ipuro is a fragrance company specializing in home fragrances, including scented candles, room sprays, and diffuser products. Founded in Germany, Ipuro focuses on creating high-quality, innovative scent experiences designed to enhance living environments. The brand is committed to using natural and sustainable materials in their products, ensuring an appealing sensory experience while promoting a sense of well-being. Since its inception, Ipuro has expanded its product lines and gained recognition across various markets for its sophisticated scents and distinctive packaging.",https://www.ipuro.com/cdn/shop/files/ipuro-logo-white.png?v=1694533313&width=140,https://www.ipuro.com,Germany,2004,indie,,,,2025-07-18T12:32:10.942225,2025-08-28T16:59:13.873634
cmd45679673e1a7f8cc647d,Irene Mulle,"Irene Mulle is a niche perfume company known for its unique, artisanal fragrances. Established with a vision to blend art with olfactory experiences, they focus on creating limited-edition scents that reflect the heritage and culture of various inspirations. Each fragrance is crafted with high-quality ingredients, often sourced sustainably, and tells a story that resonates with the wearer. The brand emphasizes individuality and self-expression through expertly formulated blends, catering to a discerning clientele seeking distinct scent experiences.",https://images.unsplash.com/photo-15907369626-6c63ac16f3df?w=400&h=300&fit=crop,https://www.irenemulle.com,United States,2015,niche,info@irenemulle.com,,,2025-07-18T12:32:10.942225,2025-08-28T16:59:20.253155
cmd6ec6595ed563a607ed05,Irié Wash,"Irié Wash is a boutique perfume brand that specializes in creating unique scents derived from natural ingredients. The company emphasizes sustainability and artisanal craftsmanship, offering a range of fragrances that are inspired by various cultures and nature. Their story began with a passion for high-quality, environmentally-friendly perfumes, aiming to provide consumers with an alternative to synthetic fragrances.",https://images.unsplash.com/photo-1556909114-f6e7ad7d3136?w=400&h=300&fit=crop,www.iriewash.com,United States,2020,indie,contact@iriewash.com,,,2025-07-18T12:32:10.942225,2025-08-28T16:59:27.073989
cmdfa93d009ec81e4acaf4a,Irma Armanet,"Irma Armanet is a fragrance house known for its unique and artistic approach to perfume creation. The company was founded by Irma Armanet, who has a deep passion for scent and a background in art and design. The brand focuses on small-batch, artisanal perfumes that blend traditional techniques with contemporary inspirations. Each fragrance tells a story, often drawing from cultural and personal narratives. Irma Armanet has gained acclaim for its commitment to quality ingredients and innovative scent compositions, appealing to fragrance connoisseurs who seek individuality and authenticity in their scent choices.",https://images.unsplash.com/photo-1541643600914-78b084683601?w=400&h=300&fit=crop,http://www.irmaarmanet.com,France,2017,niche,,,"12 Rue des Archives, Paris, France",2025-07-18T12:32:10.942225,2025-08-28T16:59:33.874033
cmd893ff949fa41fb014930,Irma Shorell,"Irma Shorell is a boutique perfume company known for its unique and artistic fragrance creations. Founded by Irma Shorell in the 1980s, the brand is characterized by a dedication to high-quality ingredients and an artisanal approach to perfume making. As a pioneer in the niche fragrance market, Irma Shorell creates exceptional scents that often incorporate elements inspired by nature and the arts, aiming to evoke emotion and memories through olfactory experiences.",https://irmashorell.com/cdn/shop/files/Irma_Shorell_signature_iso.png?v=1712721103&width=556,http://www.irmashorell.com,United States,1980,niche,,,,2025-07-18T12:32:10.942225,2025-08-28T16:59:41.817998
cmdf96f6b1179cca4ffc059,Iruela,,https://images.unsplash.com/photo-1556909114-f6e7ad7d3136?w=400&h=300&fit=crop,www.iruela.com,Spain,2015,niche,,,,2025-07-18T12:32:10.942225,2025-08-28T16:59:47.755989
cmd94c15950f87f3cd39899,Irving Rice Cosmetics,"Irving Rice Cosmetics is a fragrance and beauty company specializing in the development of high-quality perfumes. The company was founded by fragrance expert Irving Rice, who envisioned creating unique scents that cater to diverse consumer preferences. Known for blending traditional and contemporary fragrance techniques, Irving Rice Cosmetics offers a range of luxury products that appeal to both casual wearers and fragrance connoisseurs.",https://images.unsplash.com/photo-1582735689369-4fe89db7114c?w=400&h=300&fit=crop,,United States,1981,indie,,,,2025-07-18T12:32:10.942225,2025-08-28T16:59:53.255041
cmd22a1bccdadd36ca670d9,Irving Rice,"Irving Rice is a perfume company known for its expertise in fragrance creation, focusing on unique scent compositions that cater to a discerning clientele. The company has a rich history in the perfume industry, emphasizing craftsmanship and quality. Irving Rice specializes in niche fragrances, often drawing inspiration from art, culture, and nature to create their signature scents.",https://images.unsplash.com/photo-1556909114-f6e7ad7d3136?w=400&h=300&fit=crop,www.irvingrice.com,United States,2005,niche,,,,2025-07-18T12:32:10.942225,2025-08-28T17:00:00.888153
cmdb412fd140b3ba7efcd07,Isaac Mizrahi,"Isaac Mizrahi is a well-known American fashion designer who has expanded his brand into the perfume industry. Founded in the 1980s, Mizrahi's fragrances reflect his eclectic and stylish vision, incorporating unique and vibrant notes that appeal to a diverse clientele. His perfume lines often embody a sense of luxury and creativity akin to his fashion collections. Over the years, Isaac Mizrahi has gained recognition for blending classic and contemporary elements in both his apparel and fragrance offerings, establishing himself as a key player in the world of haute couture and lifestyle branding.",https://images.unsplash.com/photo-1556909114-f6e7ad7d3136?w=400&h=300&fit=crop,[https://www.isaacmizrahi.com](https://www.isaacmizrahi.com),United States,1987,designer,,,,2025-07-18T12:32:10.942225,2025-08-28T17:00:08.126830
cmd652d05e62807e12507c3,Isabel Derroisné,"Isabel Derroisné is a French niche perfume house known for its artisanal approach to fragrance creation. The brand focuses on crafting unique, high-quality scents that blend traditional techniques with contemporary aesthetics. Established by perfume creator Isabel Derroisné, the company has carved a niche in the luxury perfume market, emphasizing exceptional ingredients and storytelling through scent. Their offerings often reflect a deep connection to nature and art, aiming to evoke emotions and memories through olfactory experiences.",https://images.unsplash.com/photo-1582735689369-4fe89db7114c?w=400&h=300&fit=crop,https://www.isabelderroisne.com,France,2016,niche,,,,2025-07-18T12:32:10.942225,2025-08-28T17:00:14.622371
cmdd1b8f337b7bb1b9fae30,Isabel Queiroz do Vale,,https://images.unsplash.com/photo-1541643600914-78b084683601?w=400&h=300&fit=crop,http://www.isabelqueirozdovale.com,Portugal,2015,niche,,,,2025-07-18T12:32:10.942225,2025-08-28T17:00:21.154701
cmd5a48942ac12cc831931d,Isabel Toledo,"Isabel Toledo was a prominent fashion designer known for her unique blend of handcrafted artistry and modern design. While primarily recognized for her contributions to fashion, she briefly ventured into the perfume market, integrating her aesthetic and passion for color and texture into her fragrance line. Toledo's work is characterized by its vibrant, bold elements, and she emphasized the importance of storytelling through her creations. Her fragrances are an extension of her fashion philosophy, capturing the essence of her vibrant designs and Hispanic heritage.",https://images.unsplash.com/photo-1582735689369-4fe89db7114c?w=400&h=300&fit=crop,,USA,,niche,,,,2025-07-18T12:32:10.942225,2025-08-28T17:00:27.041564
cmdc7168b4d2345fbe99917,Isabel,"Isabel is a contemporary perfume company that specializes in creating unique and artfully crafted fragrances. The brand was founded with a vision to blend the elegance of traditional perfumery with modern aesthetics, appealing to a diverse audience. Their collections often evoke memories and emotions, drawing inspiration from nature and personal experiences. Isabel positions itself within the niche of artisanal perfume makers, focusing on quality ingredients and sustainable practices to create bespoke scents that resonate with individual identities.",https://images.unsplash.com/photo-15907369626-6c63ac16f3df?w=400&h=300&fit=crop,www.isabelperfume.com,United States,2016,niche,info@isabelperfume.com,,,2025-07-18T12:32:10.942225,2025-08-28T17:00:33.920768
cmd1a2400606518503430cd,Isabela Capeto,"Isabela Capeto is a Brazilian fashion designer and entrepreneur known for her unique approach to perfumery. The company emphasizes a connection between fashion and fragrance, creating scents that embody the spirit of Brazilian culture and nature. With a focus on high-quality ingredients and artisanal craftsmanship, Isabela Capeto offers a limited range of exclusive perfumes that reflect her artistic vision and personal experiences. The brand is recognized for its vibrant aesthetic and storytelling capabilities through fragrance.",https://images.tcdn.com.br/files/1345112/themes/49/img/settings/Prancheta_logo.png?9ce3a054befd0bbdd9478a484405892f,http://www.isabelacapeto.com.br/,Brazil,2014,niche,,,,2025-07-18T12:32:10.942225,2025-08-28T17:00:41.624632
cmd43b49df160288afde6c8,Isabell,"Isabell is a luxury perfume company known for crafting exquisite fragrances that evoke elegance and sophistication. The company focuses on using high-quality ingredients sourced from around the world to create unique scent profiles. Established with a mission to blend art and science in perfumery, Isabell has garnered a dedicated following for its artisanal approach and carefully curated collections. The brand emphasizes personalization, offering bespoke scent consultations and custom fragrance creations for discerning customers seeking a signature aroma.",https://images.unsplash.com/photo-1587017539504-67cfbddac569?w=400&h=300&fit=crop,www.isabellperfumes.com,United States,2015,niche,info@isabellperfumes.com,,,2025-07-18T12:32:10.942225,2025-08-28T17:00:48.410916
cmd35d150e00181dab4a708,Isabella Kristensen,"Isabella Kristensen is a luxury perfume house that specializes in creating artisanal fragrances. Founded by Danish perfumer Isabella Kristensen, the brand is known for its commitment to using high-quality ingredients and traditional craftsmanship. The company aims to capture the essence of luxurious and natural scents, often drawing inspiration from the Scandinavian landscape and culture. Isabella Kristensen’s perfumes are characterized by their complexity and uniqueness, appealing to a niche market of fragrance connoisseurs seeking exclusivity and depth in their olfactory experiences.",https://images.unsplash.com/photo-1541643600914-78b084683601?w=400&h=300&fit=crop,https://isabellakristensen.com,Denmark,2014,niche,,,,2025-07-18T12:32:10.942225,2025-08-28T17:00:55.579214
cmd05b126cbc06ccd1c9906,Isabella Rossellini,"Isabella Rossellini's fragrance line is an extension of her artistic persona, combining elements of nature with sophisticated scents. Inspired by her personal philosophy regarding beauty and femininity, the brand has garnered attention for its unique approaches to perfumery that engage with themes of sustainability and organic ingredients. The fragrances are characterized by their blend of classic and modern perfumery techniques, aimed at both evoking emotions and celebrating individuality. Rossellini's involvement in the development of her perfumes reflects her dedication to quality and creative expression, leading to a niche offering in the fragrance market.",https://images.unsplash.com/photo-15907369626-6c63ac16f3df?w=400&h=300&fit=crop,https://www.isabellarossellini.com,United States,1999,niche,,,,2025-07-18T12:32:10.942225,2025-08-28T17:01:02.964090
cmd658e653c81a2a0c719ac,Isabelle Larignon,"Isabelle Larignon is a niche perfume house known for its artisanal approach to fragrance creation. Founded by perfumer Isabelle Larignon, the company emphasizes high-quality ingredients and unique scent compositions, reflecting a personal storytelling aspect in each fragrance. The brand embraces both traditional and modern techniques in perfumery, aiming to create scents that resonate on an emotional level with users.",https://isabellelarignon.com/cdn/shop/files/IL_LOGO_TYPOGRAMME_3_lignes_NOIR.png?v=1753199575&width=600,http://www.isabellelarignon.com,France,2013,niche,,,,2025-07-18T12:32:10.942225,2025-08-28T17:01:10.954611
cmd8dd973bc913a09a46ed6,Isabey,"Isabey is a French perfume house founded in 1924, known for its elegant and sophisticated fragrances that draw inspiration from nature and historical motifs. The brand integrates traditional techniques with innovative approaches to create luxurious scent experiences. Their specialty lies in crafting unique perfumes that often feature rare and high-quality ingredients, making them treasured collectibles among perfume enthusiasts.",https://images.unsplash.com/photo-1582735689369-4fe89db7114c?w=400&h=300&fit=crop,https://www.isabey.com,France,1924,niche,,,,2025-07-18T12:32:10.942225,2025-08-28T17:01:17.490414
cmdf8c6bcbc793ed45b450b,Isadora,"Isadora is a fragrance company that specializes in creating captivating and unique scents. The brand is known for its innovative approach to perfumery, using high-quality ingredients to craft distinct fragrances that cater to a diverse clientele. Isadora's story began with a passion for artistry in scent creation, focusing on both traditional and modern perfumery techniques. They aim to inspire emotions and memories through their various fragrance offerings, targeting consumers who appreciate individuality in scent.",https://images.unsplash.com/photo-1556909114-f6e7ad7d3136?w=400&h=300&fit=crop,https://www.isadoraparfums.com,Sweden,2020,niche,info@isadoraparfums.com,,,2025-07-18T12:32:10.942225,2025-08-28T17:01:24.562392
cmda57f5f6bafbd48cd5e93,Isotta Fraschini,"Isotta Fraschini is a luxury perfume house known for its high-quality, artisanal fragrances. The company originated from the historic Italian automotive brand Isotta Fraschini, which was established in the early 20th century. Leveraging its legacy of craftsmanship and attention to detail, Isotta Fraschini transitioned into the perfume industry, focusing on creating unique scents that embody elegance and sophistication. The brand is dedicated to blending traditional techniques with modern innovation, offering a range of perfumes that appeal to discerning customers.",https://isottafraschini.com/wp-content/uploads/2025/02/logo-website-header.png,https://www.isottafraschini.com,Italy,2020,niche,,,,2025-07-18T12:32:10.942225,2025-08-28T17:01:35.102867
cmdb26e32a5ebba473f44d2,Issey Miyake,"Issey Miyake is a renowned Japanese fashion designer known for his innovative and artistic approach to design. Established in 1970, the Issey Miyake brand has extended its philosophy of ‘living beauty’ into the fragrance industry, offering scents that emphasize simplicity, individuality, and a connection to nature. The brand's first fragrance, L'Eau d'Issey, launched in 1992, became a global icon due to its unique blend of fresh floral and aquatic notes. Issey Miyake is dedicated to using cutting-edge technology in fragrance creation, often focusing on natural materials and sustainable practices.",https://www.isseymiyake.com/cdn/shop/t/3/assets/exp-logo.svg?v=152887727321034772761655530564,https://www.isseymiyake.com,Japan,1970,designer,,,,2025-07-18T12:32:10.942225,2025-08-28T17:01:42.308603
cmdfaf5f28442d0c72d1fe4,Italart,"Italart is a specialized perfume company known for its expertise in crafting high-quality, luxury fragrances. It focuses on creating unique scent compositions that cater to discerning customers who appreciate artisanal perfumery. Established with a vision to blend artistic expression with olfactory innovation, Italart has gained recognition for its quality ingredients and commitment to sustainability.",https://images.unsplash.com/photo-1587017539504-67cfbddac569?w=400&h=300&fit=crop,,,,indie,,,,2025-07-18T12:32:10.942225,2025-08-28T17:01:47.990612
cmda9b7149b8b93051444d7,ITF Cosmetics,"ITF Cosmetics is a globally recognized fragrance manufacturer and distributor that focuses on producing a diverse range of perfumes and cosmetics. Established in 1981, the company develops both original and licensed fragrance lines, catering to various market segments. ITF Cosmetics has built a reputation for its innovative approach to scent creation, utilizing cutting-edge technology and extensive market research to create captivating fragrances that resonate with consumers worldwide. The brand works with various partners, including celebrities and fashion houses, to bring exclusive perfume collections to the market.",https://images.unsplash.com/photo-1556909114-f6e7ad7d3136?w=400&h=300&fit=crop,https://www.itfcosmetics.com,United States,1981,designer,,,,2025-07-18T12:32:10.942225,2025-08-28T17:01:55.536813
cmde726acfc8c3913305a6d,Iunx,"Iunx is a luxury perfume brand founded by renowned perfumer Olivia Giacobetti in 2003. The company is known for its artisanal approach to fragrance creation, emphasizing quality and creativity. Iunx captures the essence of fragrant materials from natural sources and offers a collection of unique perfumes that often evoke memories and emotions. The brand creates a sensory experience through its poetic approach to scent, exploring the bond between perfumes and life's fleeting moments.",https://assets.superlander.com/newimages/mu-logo.png,https://iunx.com,France,2003,niche,,,,2025-07-18T12:32:10.942225,2025-08-28T17:02:02.092432
cmdf70d04e480f493bfb666,Ivana Trump,"Ivana Trump is a perfume brand associated with the former model and businesswoman Ivana Trump. The company specializes in creating fragrances that reflect a combination of style, femininity, and elegance, often inspired by Ivana’s personal style and experiences. The brand aims to capture the essence of glamour and sophistication in its product offerings, appealing to a diverse clientele who appreciate celebrity-endorsed scents. The line of perfumes has been marketed heavily, reflecting Ivana's identity and lifestyle.",https://images.unsplash.com/photo-1556909114-f6e7ad7d3136?w=400&h=300&fit=crop,,United States,1995,celebrity,,,,2025-07-18T12:32:10.942225,2025-08-28T17:02:08.147502
cmdacdae1f64ed5db381335,Ivanka Trump,"Ivanka Trump Fragrances is a brand that offers a range of perfumes created by Ivanka Trump, an American businesswoman and former advisor to the President of the United States. The brand is known for its sophisticated and elegant scents designed to embody empowerment and confidence. Ivanka Trump launched her fragrance line as part of her broader lifestyle brand that includes fashion and accessories. The perfumes typically feature a blend of floral and fruity notes, appealing to a diverse customer base that seeks luxury and femininity.",https://www.ivankatrump.com/assets/ivanka_logo.png,https://www.ivankatrump.com/,United States,2016,celebrity,,,,2025-07-18T12:32:10.942225,2025-08-28T17:02:15.410481
cmdc9f3a69d963b04f63614,IWP International,"IWP International is a prominent player in the perfume industry, specializing in the creation and distribution of fine fragrances. Established with a commitment to quality and innovation, the company has developed a diverse portfolio of fragrances that cater to various consumer preferences. Their expertise lies in combining traditional perfumery techniques with modern trends to craft unique scent profiles. IWP International services both the retail and wholesale markets, ultimately aiming to deliver exceptional perfumes that resonate with audiences globally.",https://images.unsplash.com/photo-1587017539504-67cfbddac569?w=400&h=300&fit=crop,http://www.iwp-international.com,United Arab Emirates,1988,niche,,,,2025-07-18T12:32:10.942225,2025-08-28T17:02:21.797361
cmdffb88598b10b9b11d677,IXXI,"IXXI is a fragrance company that specializes in unique and artisanal perfumes. Founded by a team of passionate scent creators, IXXI aims to redefine the personal fragrance experience with a diverse range of olfactory creations that cater to various preferences and styles. Their philosophy revolves around creativity, craftsmanship, and sustainability, often using high-quality ingredients that are ethically sourced. The brand is known for its innovative approach and has garnered attention for its distinctive fragrances and visually appealing packaging.",https://images.unsplash.com/photo-15907369626-6c63ac16f3df?w=400&h=300&fit=crop,www.ixxi-fragrance.com,France,2019,niche,,,,2025-07-18T12:32:10.942225,2025-08-28T17:02:27.935627
cmdfc72fc8c507989231e90,IZOD,"IZOD is an American brand known primarily for its sportswear, but it has expanded its offerings to include a line of fragrances. The brand serves a younger demographic, promoting a casual and sporty lifestyle through its clothing and scent products. Founded in the 1930s, IZOD has evolved into an iconic label, reflecting classic American style with modern flair. The fragrance line complements its apparel by reflecting the same casual yet stylish ethos.",https://izod.com/cdn/shop/files/IZOD_LOGO-01_135x.png?v=1631420563,https://www.izod.com,United States,1938,designer,,,,2025-07-18T12:32:10.942225,2025-08-28T17:02:34.860476
cmd6aca5cb18a89709ccffc,Ilana Jivago,"Ilana Jivago is a luxury perfume company specializing in artisanal fragrances that are inspired by global cultures and memories. Founded by Ilana Jivago, the brand emphasizes craftsmanship, using high-quality ingredients to create unique scent profiles. The company originated from Jivago's passion for art, nature, and the emotional connections that scents evoke. Their perfumes are known for storytelling through fragrance and often incorporate rare ingredients sourced from around the world.",https://images.unsplash.com/photo-1582735689369-4fe89db7114c?w=400&h=300&fit=crop,https://www.jivagoparfums.com,United States,1996,niche,,,,2025-07-18T12:32:10.942225,2025-08-28T17:02:41.221096
cmdf1ee0512733f0a96f555,J & E Atkinsons,"J & E Atkinsons is a historic perfumery known for its exceptional fragrances and grooming products. Established in 1799 by James Atkinson, the brand has roots in the art of crafting fine perfumes and has built a reputation for quality and elegance over more than two centuries. J & E Atkinsons specializes in creating luxurious scents that reflect the heritage and style of British perfumery, focusing on traditional methods and high-quality ingredients. The brand is particularly recognized for its classic formulations and signature scents, appealing to discerning customers looking for sophisticated and timeless fragrances.",https://images.unsplash.com/photo-1541643600914-78b084683601?w=400&h=300&fit=crop,https://www.atkinsons1781.com,United Kingdom,1799,niche,,,,2025-07-18T12:32:10.942225,2025-08-28T17:02:48.268950
cmde40a1bc781eeffe823eb,James Heeley,"James Heeley is a niche perfume brand founded by British designer James Heeley in 2006. The company specializes in creating distinctive and high-quality fragrances that incorporate both traditional perfume-making techniques and innovative approaches. Heeley's philosophy emphasizes the art of subtlety in fragrance, often inspired by nature and personal experiences. The brand stands out for its unique scents and eco-friendly practices, leveraging high-quality raw materials, with a focus on artisanal craftsmanship. Their fragrances appeal to connoisseurs seeking individuality and authenticity in their perfume choices.",https://www.jamesheeley.com/img/logo.jpg?1686822784,https://www.jamesheeley.com,United Kingdom,2006,niche,,,,2025-07-18T12:32:10.942225,2025-08-28T17:03:05.804184
cmdecae7b0799fe2db1576b,J Casanova,"J Casanova is a niche perfume company known for its artisanal approach to fragrance creation. Founded by perfumer José Casanova, the company specializes in developing unique and evocative scents that draw from a rich heritage of olfactory craftsmanship. The brand aims to create fragrances that tell a story and evoke emotions, often using high-quality, sustainably sourced ingredients. J Casanova's commitment to artistry and individual expression has distinguished it within the competitive perfume industry.",https://images.unsplash.com/photo-1582735689369-4fe89db7114c?w=400&h=300&fit=crop,https://www.jcasanova.com,United States,2017,niche,contact@jcasanova.com,,,2025-07-18T12:32:10.942225,2025-08-28T17:03:13.711692
cmd5120b6b1e190f7f591f3,J. Crew,"J. Crew is a popular American retailer known primarily for its stylish clothing and accessories, including a limited range of fragrances. Founded in 1983, J. Crew offers modern, classic styles that appeal to a diverse clientele. The company emphasizes quality materials and craftsmanship in its offerings, blending preppy aesthetics with contemporary style. Over the years, J. Crew has expanded its product line to include a curated selection of perfumes, often collaborating with established fragrance houses to create exclusive scents that align with their brand identity and lifestyle.",https://images.unsplash.com/photo-1556909114-f6e7ad7d3136?w=400&h=300&fit=crop,https://www.jcrew.com,United States,1983,designer,,,,2025-07-18T12:32:10.942225,2025-08-28T17:03:30.144478
