id,name,description,image,website,country,founded,type,email,phone,address,createdAt,updatedAt
cmd0d15565212e3584d96d8,Gents Scents,"Gents Scents is a niche perfume company that specializes in creating unique and captivating fragrances aimed at discerning gentlemen. The company prides itself on using high-quality ingredients and an artisanal approach to perfume-making. Founded by a group of fragrance enthusiasts, Gents Scents has built a reputation for its sophisticated scent compositions that range from fresh and fruity to musky and woody, appealing to a wide variety of preferences. Their story is rooted in a passion for crafting distinctive scents that resonate with individual personalities.",https://images.unsplash.com/photo-1556909114-f6e7ad7d3136?w=400&h=300&fit=crop,,,,niche,,,,2025-07-18T12:32:10.942225,2025-08-28T15:43:21.771173
cmda7b7ef53bd54cf16868e,Genyum,"Genyum is a contemporary perfume company that specializes in creating high-quality, innovative fragrances. The brand focuses on crafting unique scent profiles that blend traditional perfumery techniques with modern sensibilities. Founded by passionate fragrance enthusiasts, Genyum aims to offer luxurious, yet accessible, perfumes that resonate with a diverse clientele. The company is known for its commitment to sustainability, using eco-friendly materials and ethical practices in its production processes.",https://images.unsplash.com/photo-1541643600914-78b084683601?w=400&h=300&fit=crop,www.genyumparfums.com,France,2018,niche,contact@genyumparfums.com,,"123 Fragrance St., Paris, France, 75001",2025-07-18T12:32:10.942225,2025-08-28T15:43:28.610287
cmdc4973c2bd750441347b8,Geo F Trumper,"Geo F Trumper is a distinguished British perfumer and grooming brand established in 1875. The company is renowned for its quality shaving products and fragrances, specializing in classic scents that evoke traditional British craftsmanship. Originally starting as a barber shop in London's Mayfair district, Geo F Trumper has built a legacy of luxurious grooming products that blend sophisticated fragrances with old-world techniques. The brand is particularly known for its use of natural ingredients and has a loyal customer base, including royalty and international celebrities.",https://www.trumpers.com/wp-content/themes/trumpers/images/header-logo-mobile.png,https://www.trumpers.com,United Kingdom,1875,niche,,,,2025-07-18T12:32:10.942225,2025-08-28T15:43:34.964772
cmd6d9744f878e807b0e8d2,Geoffrey Beene,"Geoffrey Beene is an American fashion brand known for its luxury clothing and accessories, which also has a notable presence in the fragrance industry. The company was founded by designer Geoffrey Beene in 1970 and has since established a reputation for high-quality and innovative fragrances, showcasing a blend of timeless elegance and contemporary flair. The brand focuses on offering sophisticated scents that appeal to discerning consumers and reflects the artistic vision of its founder. Over the years, Geoffrey Beene has created several iconic perfumes that resonate with a wide audience, ultimately contributing to the firm’s legacy in the world of fashion and fragrance.",https://images.squarespace-cdn.com/content/v1/62d9c8c4a0453c15de41a3b8/16f75e2d-80c1-4915-a1a3-a4e0b55d8080/Geoffrey+Beene+Logo.png?format=1500w,https://www.geoffreybeene.com,United States,1970,designer,,,,2025-07-18T12:32:10.942225,2025-08-28T15:43:42.935284
cmd469cd40edef0e6320b8f,George Gina & Lucy,"George Gina & Lucy is a German fashion brand known primarily for its unique handbags, accessories, and a scented perfume range. Established in the early 2000s, the brand gained popularity for its playful designs and vibrant colors, appealing to a youthful audience seeking expressive fashion items. The company thrives on creativity and innovation, expanding its product lines to include signature fragrances that reflect the playful spirit of the brand.",https://cdn.shopify.com/s/files/1/0529/6642/4774/files/logo3_png-01.png?v=1749293402,https://www.george-gina-lucy.com,Germany,2004,designer,,,,2025-07-18T12:32:10.942225,2025-08-28T15:43:51.576711
cmd8a9c2beed459a842c64c,George Kordahi,"George Kordahi is a luxury fragrance company known for its unique, artisanal scents that blend traditional craftsmanship with modern olfactory trends. Founded by George Kordahi, the brand showcases a selection of high-quality perfumes inspired by rich cultural heritages. The company focuses on creating personalized luxury experiences through their exclusive and often limited-edition fragrances, appealing to discerning customers who appreciate uniqueness and quality.",https://www.georgekordahi.com/img/svg/home-run.svg,www.georgekordahi.com,Lebanon,2020,niche,,,,2025-07-18T12:32:10.942225,2025-08-28T15:43:57.852462
cmde92f5a5e13bfaedac1eb,George Takei,"George Takei is a celebrity perfume brand inspired by the renowned actor and activist George Takei. The company focuses on creating unique fragrances that embody Takei's values of diversity, inclusivity, and positivity. The brand captures the essence of Takei's personality and career, celebrating his legacy in a glamorous yet approachable manner. The perfumes often reflect elements associated with his public persona and fandom, appealing to both fragrance lovers and admirers of Takei's work.",https://images.unsplash.com/photo-1556909114-f6e7ad7d3136?w=400&h=300&fit=crop,https://georgetakeifragrance.com,United States,2021,celebrity,,,,2025-07-18T12:32:10.942225,2025-08-28T15:44:03.797621
cmdc3116e469fc7c33d9ce7,Georges Rech,"Georges Rech is a French fashion and fragrance company founded by designer Georges Rech. The brand encompasses a range of products, including fashion apparel and accessories, but it is particularly noted for its fragrance line. Georges Rech perfumes emphasize elegance and sophistication, typically characterized by refined and contemporary scents that resonate with the essence of French luxury. Over the years, the brand has created a number of popular fragrances aimed primarily at a discerning clientele seeking to express their individuality through scent.",https://images.unsplash.com/photo-1587017539504-67cfbddac569?w=400&h=300&fit=crop,https://www.georgesrech.com,France,1970,designer,,,,2025-07-18T12:32:10.942225,2025-08-28T15:44:13.157502
cmd7570a24e6b96debc2d23,Georgette Mosbacher,"Georgette Mosbacher is a renowned American entrepreneur and businesswoman who has established her own line of fragrances. Her perfumes typically embody sophistication and elegance, often reflecting her personal style and approach to beauty. Georgette Mosbacher’s fragrances are designed to convey a sense of luxury and confidence, infused with unique notes that aim to please a diverse clientele. Mosbacher’s story is marked by her success in various business ventures, and she is well-known not only for her fragrances but also for her contributions to the beauty and fashion industry.",https://images.unsplash.com/photo-15907369626-6c63ac16f3df?w=400&h=300&fit=crop,https://www.georgettemosbacher.com,United States,2017,indie,,,,2025-07-18T12:32:10.942225,2025-08-28T15:44:20.659592
cmd47bcbff98dbcb0b4548c,Georgina Rodríguez,"Georgina Rodríguez is a celebrity fragrance brand founded by the well-known figure and model Georgina Rodríguez. The brand focuses on creating unique and luxurious perfumes that reflect Rodriguez's personal style and elegance. While it is still relatively new in the fragrance market, it emphasizes branding associated with celebrity influence and appeals to fans of Rodríguez, merging fashion, beauty, and lifestyle into its product offerings.",https://images.unsplash.com/photo-15907369626-6c63ac16f3df?w=400&h=300&fit=crop,https://georginarodriguez.com,Spain,2022,celebrity,,,,2025-07-18T12:32:10.942225,2025-08-28T15:44:26.757245
cmd5f1998aa61a3ffae1dc5,Geparlys,"Geparlys is a fragrance company that specializes in creating and distributing a diverse range of perfumes. The company is known for offering a variety of scents that cater to different consumer preferences, including both eau de parfum and eau de toilette options. Geparlys' products are often characterized by their affordable pricing and accessible distribution, making them popular among a wide audience looking for quality fragrances at a reasonable cost. The brand has developed a reputation for providing trendy and modern scents, appealing to both men and women.",https://geparlys.com/cdn/shop/files/SIGNATURE-Photo-Prestige.jpg?v=1756214588&width=2000,https://www.geparlys.com,France,1983,designer,,,,2025-07-18T12:32:10.942225,2025-08-28T15:44:34.960995
cmd72063097d5da04fbc40a,Gerani,"Gerani is a niche perfume company that specializes in the creation of high-quality, artisanal fragrances. The company draws inspiration from natural ingredients, using a holistic approach to scent development, focusing on sustainability and the art of perfumery. Founded by a team of passionate perfumers, Gerani emphasizes unique olfactory experiences, aiming to connect the wearer with nature and personal memories through their thoughtfully crafted scents.",https://images.unsplash.com/photo-1556909114-f6e7ad7d3136?w=400&h=300&fit=crop,www.geraniperfumes.com,France,2016,niche,contact@geraniperfumes.com,+33 1 23 45 67 89,"12 Rue des Parfumeurs, 75001 Paris, France",2025-07-18T12:32:10.942225,2025-08-28T15:44:41.344606
cmd569ca1db6fc11e499f5f,Gérard Danfre,"Gérard Danfre is a perfumery company known for creating high-quality niche fragrances. The company emphasizes artisanal craftsmanship and unique scent profiles, which are carefully formulated using select ingredients. Founded by perfumer Gérard Danfre, the brand has a commitment to innovation and creativity in the fragrance sector, devising both classic and contemporary scents tailored to discerning customers who appreciate the artistry of perfumery.",https://images.unsplash.com/photo-15907369626-6c63ac16f3df?w=400&h=300&fit=crop,www.gerarddanfre.com,France,1999,niche,info@gerarddanfre.com,,,2025-07-18T12:32:10.942225,2025-08-28T15:44:47.305553
cmd23426d7f850876e14ec0,Gérard Monet,"Gérard Monet is a niche perfume company that specializes in creating high-quality, artisanal fragrances. The brand is known for its dedication to craftsmanship and the use of exquisite ingredients, often inspired by nature and a rich cultural heritage. Gérard Monet aims to offer unique scents that tell a story and provide an immersive sensory experience. The company has a strong emphasis on artistry in perfumery, balancing traditional methods with innovative techniques to create distinctive fragrances that appeal to sophisticated consumers.",https://images.unsplash.com/photo-15907369626-6c63ac16f3df?w=400&h=300&fit=crop,,,,niche,,,,2025-07-18T12:32:10.942225,2025-08-28T15:44:53.451611
cmd55814cc81f85c509ed5f,Geren Ford,"Geren Ford is a niche fragrance company known for its unique and artisanal scents that capture a blend of artistic inspiration and personal expression. Founded by designer and perfumer Geren Ford, the brand blends creativity with craftsmanship to offer high-quality perfumes that reflect individual identity and artistry. Geren Ford's products are characterized by their distinctive scents and thoughtful compositions, positioning themselves as a favorite among enthusiasts seeking exclusive and bold fragrance options.",https://images.unsplash.com/photo-1541643600914-78b084683601?w=400&h=300&fit=crop,https://www.gerenford.com,United States,2008,niche,,,,2025-07-18T12:32:10.942225,2025-08-28T15:45:11.003905
cmdd677db510089d21934d5,Germaine de Capuccini,"Germaine de Capuccini is a well-known professional skincare brand that has expanded into the fragrance sector, offering luxury perfumes that reflect their commitment to quality and innovative ingredients. Founded in 1964 by Germaine de Capuccini, the company has a rich history rooted in the principles of high skincare standards, integrating them into their perfume lines. Their products often feature unique formulations and the influence of natural extracts, aimed at enhancing personal well-being and beauty.",https://www.germainedecapuccini.com/static/version1756198714/frontend/Project/default/es_ES/images/logo.svg,https://www.germaine-de-capuccini.com,Spain,1964,designer,,,,2025-07-18T12:32:10.942225,2025-08-28T15:45:23.769067
cmd746cc0a634696325ddf6,Germaine Monteil Cosmetics Corp,"Germaine Monteil Cosmetics Corp is a renowned company in the beauty and fragrance industry, established in the mid-20th century by French perfumer Germaine Monteil. The company specializes in creating high-quality perfumes and cosmetics that are characterized by their elegant formulations and sophisticated packaging. Known for its French heritage, Germaine Monteil has built a reputation for blending traditional craftsmanship with modern trends, offering a range of products that appeal to discerning customers looking for luxury beauty items.",https://images.unsplash.com/photo-1582735689369-4fe89db7114c?w=400&h=300&fit=crop,http://www.germainemonteil.com,United States,1936,designer,,,,2025-07-18T12:32:10.942225,2025-08-28T15:45:34.619475
cmd520a37639fec153e57c9,Germaine Monteil,"Germaine Monteil is a French perfume and cosmetics company that specializes in creating luxurious scents and skincare products. Founded in the 1930s by the visionary Germaine Monteil, the brand captures the essence of elegance and sophistication, combining French artistry with the principles of skincare science. The company is known for its commitment to high-quality ingredients and innovative formulations, appealing to consumers seeking both fragrance and skincare products. The brand has a rich heritage, celebrating femininity and empowerment through its offerings.",https://images.unsplash.com/photo-1556909114-f6e7ad7d3136?w=400&h=300&fit=crop,https://www.germaine-monteil.com,France,1936,designer,,,,2025-07-18T12:32:10.942225,2025-08-28T15:45:41.522658
cmd356f342df872841086e8,Gerry Weber,"Gerry Weber is a German fashion and lifestyle brand that also specializes in fragrances. Established in 1973, the company offers a range of products including women's clothing, accessories, and perfumes. Their fragrance line reflects the brand's commitment to quality and contemporary style, catering primarily to women who embrace elegance and sophistication. Over the years, Gerry Weber has grown into a globally recognized brand, emphasizing both fashion and beauty through its diverse product offerings.",https://www.gerryweber.com/banner-gw-desktop.jpg,https://www.gerryweber.com,Germany,1973,designer,,,,2025-07-18T12:32:10.942225,2025-08-28T15:45:48.873615
cmdfc48906310d550a6d31e,Gervais Chardin,"Gervais Chardin is a niche perfume house known for producing high-quality, artisanal fragrances that emphasize unique olfactory experiences. Founded by perfume creator Gervais Chardin, the brand has a philosophy centered around blending traditional craftsmanship with contemporary artistry. The company sources rare and natural ingredients to create signature scents, focusing on storytelling through fragrance. Each perfume often reflects the culture and emotion behind its creation, providing a deeply personal experience for wearers.",https://images.unsplash.com/photo-1587017539504-67cfbddac569?w=400&h=300&fit=crop,http://www.gervaischardin.com,France,2015,niche,,,,2025-07-18T12:32:10.942225,2025-08-28T15:45:56.914274
cmd741126cc388691e83b34,GH Bass,"GH Bass & Co. is primarily known for its high-quality footwear, particularly its iconic penny loafers. The brand was founded in 1876 by George Henry Bass, and while it is predominantly a footwear company, it has ventured into lifestyle products, including fragrance selections that complement its heritage of classic American craftsmanship. Their specialty lies in merging traditional craftsmanship with modern aesthetics, maintaining its legacy as a leader in quality footwear.",https://www.ghbass.com/cdn/shop/files/logo-gh-bass.png?v=1717022344&width=274,https://www.ghbass.com,United States,1876,designer,,,"10 Deangelo Drive, Wilton, CT 06897, United States",2025-07-18T12:32:10.942225,2025-08-28T15:46:04.367592
cmde65a89d136af169a8623,Ghawali,"Ghawali is a luxurious perfume house specializing in creating high-quality, artisanal fragrances that are inspired by the rich heritage and culture of the Middle East. Established with a passion for storytelling through scent, Ghawali combines traditional perfumery techniques with modern aesthetics. Their range of offerings includes a variety of oriental and contemporary fragrances, often utilizing rare and natural ingredients to create unique and captivating olfactory experiences. The brand aims to embody the essence of Arabian hospitality and luxury, reflecting the artistry and craftsmanship of the region.",https://ae.ghawali.com/cdn/shop/files/New_logo_1_1024x1024.png?v=1724152915,https://ghawali.com,United Arab Emirates,2018,niche,,,,2025-07-18T12:32:10.942225,2025-08-28T15:46:12.649412
cmd89a9d2a96e9ce5ac76d1,GHD,"GHD (Good Hair Day) is primarily recognized for its premium hair styling tools and products, which include hair straighteners, curlers, and other styling tools. Although GHD is not primarily a perfume company, it has ventured into the beauty industry, producing hair care products centered around achieving sleek, styled hair. They focus on innovation and high-quality materials to enhance the overall hair styling experience. The brand has built a strong identity associated with professional hair stylists and salon-quality results.",https://images.unsplash.com/photo-1541643600914-78b084683601?w=400&h=300&fit=crop,https://www.ghdhair.com,United Kingdom,2001,indie,,,,2025-07-18T12:32:10.942225,2025-08-28T15:46:19.725300
cmdeaa5258524d397b14687,Gherardini,"Gherardini is a renowned Italian luxury brand established in 1885, notable for its high-quality leather goods, accessories, and, more recently, perfumes. The company prides itself on a long history of craftsmanship and innovation, blending traditional artisanal techniques with contemporary design. Gherardini perfumes are characterized by their elegance and refinement, reflecting the brand's heritage and dedication to luxury. The fragrances often incorporate unique olfactory profiles inspired by Italian culture and art, making them coveted items among perfume enthusiasts.",https://www.gherardini.com/cdn/shop/files/logo-nero-gherardini-2.png?v=1752365676&width=800,https://www.gherardini.com,Italy,1885,designer,,,,2025-07-18T12:32:10.942225,2025-08-28T15:46:27.401905
cmd0c3b0dd6eaf37e37dffb,Ghost Ship,"Ghost Ship is a niche perfume company that specializes in creating fragrance experiences inspired by the sea and maritime adventures. The brand's philosophy revolves around evoking emotions and memories associated with coastal living and oceanic elements, focusing on unique scent compositions that transport users to distant shores. Ghost Ship aims to connect individuals with the spirit of exploration and the ambiance of the ocean through scent, featuring both men's and women's fragrances crafted with high-quality ingredients.",https://images.unsplash.com/photo-1556909114-f6e7ad7d3136?w=400&h=300&fit=crop,,,,niche,,,,2025-07-18T12:32:10.942225,2025-08-28T15:46:33.918237
cmd110669f8c32c776763ed,Ghost,"Ghost is a British fragrance brand known for its ethereal and feminine scents. Founded in 1999, the brand started as a fashion label before transitioning to the fragrance industry. Ghost has gained a reputation for its unique, captivating perfumes inspired by the essence of nostalgia and emotion. Their fragrances often feature floral and woody notes, catering to a broad audience looking for distinctive and evocative scents. The brand focuses on creating timeless perfumes that connect with the wearer’s personal experience, resonating with themes of beauty and romance.",https://ghostfragrances.com/cdn/shop/files/Nav_Bar_Logo.png?crop=center&height=62&v=1748874294&width=360,https://www.ghostfragrances.com,United Kingdom,1999,designer,,,,2025-07-18T12:32:10.942225,2025-08-28T15:46:41.272840
cmd101f08978b1a18120787,Gian Marco Venturi,"Gian Marco Venturi is an Italian fragrance brand known for its unique and modern scents. Founded by the designer Gian Marco Venturi, the company aims to combine creativity with a touch of elegance, offering a range of perfumes that reflect contemporary lifestyle and fashion trends. The brand has gained recognition for its stylish packaging and high-quality ingredients, making it a popular choice among fragrance enthusiasts.",https://images.unsplash.com/photo-15907369626-6c63ac16f3df?w=400&h=300&fit=crop,http://www.gianmarcoventuri.com,Italy,1983,designer,,,,2025-07-18T12:32:10.942225,2025-08-28T15:46:47.169058
cmda85fd7f164c99b4bf9d9,Gianfranco Ferré,"Gianfranco Ferré is an Italian fashion house founded by the designer Gianfranco Ferré in 1985. Known as the ‘Architect of Fashion,’ Ferré brought a unique blend of classic elegance and modern aesthetic to his designs, which include haute couture clothing and accessories. The brand expanded into the fragrance sector with the introduction of perfumes that reflect the luxurious and sophisticated ethos of its fashion lines. The fragrances are celebrated for their distinctive scents and elegant packaging, embodying a refined sense of style that resonates well in the luxury market.",https://images.unsplash.com/photo-1541643600914-78b084683601?w=400&h=300&fit=crop,[www.gianfrancoferré.com](http://www.gianfrancoferré.com),Italy,1985,designer,,,,2025-07-18T12:32:10.942225,2025-08-28T15:46:54.633082
cmdfec255f99dafaab24d44,Gianluca Bulega,"Gianluca Bulega is a perfume company renowned for its unique and artisanal fragrances that blend exquisite ingredients and innovative techniques. The brand focuses on crafting high-quality scents that reflect a balance of tradition and modernity, often drawing inspiration from art and nature. Gianluca Bulega aims to create an olfactory experience that resonates with individual identities and stories, making each fragrance a personal statement. Their commitment to craftsmanship and exclusivity positions them in the niche perfume market, targeting connoisseurs and those seeking distinctive, luxurious scents.",https://images.unsplash.com/photo-1582735689369-4fe89db7114c?w=400&h=300&fit=crop,www.gianlucabulega.com,Italy,2015,niche,,,,2025-07-18T12:32:10.942225,2025-08-28T15:47:01.170373
cmdf633c82dd09b687d7038,Gianni Campagna,"Gianni Campagna is an Italian fragrance company known for its unique blends and luxurious scents that reflect the rich history and artistry of Italian perfumery. The company specializes in high-quality niche fragrances, focusing on craftsmanship and the use of premium raw materials. Gianni Campagna's story is rooted in a passion for perfumery and a deep understanding of olfactory design, leading to creations that are both innovative and timeless.",https://images.unsplash.com/photo-1582735689369-4fe89db7114c?w=400&h=300&fit=crop,https://www.giannicampagna.it,Italy,2012,niche,,,,2025-07-18T12:32:10.942225,2025-08-28T15:47:07.898865
cmdcbf59db5e88c9e1f6ef2,Giardini di Toscana,"Giardini di Toscana is an artisanal perfume company that specializes in crafting high-quality fragrances inspired by the natural beauty and landscapes of Tuscany. The brand is dedicated to encapsulating the essence of the Italian countryside, using traditional methods and high-quality ingredients to create unique and evocative scents. Their story is rooted in a passion for nature and a deep appreciation for the artisanal craft of perfumery, blending contemporary trends with historical influences to offer a product that speaks to both the heart and the senses.",https://www.giardiniditoscana.com/cdn/shop/files/Giardini_Logo.svg?v=1728575794&width=600,https://www.giardiniditoscana.com,"side, using traditional methods and high-quality ingredients to create unique and evocative scents. Their story is rooted in a passion for nature and a deep appreciation for the artisanal craft of perfumery, blending contemporary trends with historical influences to offer a product that speaks to both the heart and the senses.",2006,niche,,,,2025-07-18T12:32:10.942225,2025-08-28T15:47:14.929716
cmdd871ddbadbe16eebbf2a,Giardino Benessere,"Giardino Benessere is a perfume company that specializes in creating high-quality, artisanal fragrances inspired by the beauty of nature and the concept of wellness. The company is known for its use of natural ingredients and blends that evoke the feeling of tranquility and harmony. Founded with the vision to promote well-being through scent, Giardino Benessere focuses on crafting unique olfactory experiences that resonate with the essence of well-being and serenity.",https://images.unsplash.com/photo-1541643600914-78b084683601?w=400&h=300&fit=crop,www.giardinobenessere.com,Italy,2018,niche,info@giardinobenessere.com,,,2025-07-18T12:32:10.942225,2025-08-28T15:47:23.197390
cmd05d18cf9b2d3f249c362,Gibbs Pepsodent Ltd,"Gibbs Pepsodent Ltd is a renowned company primarily known for its oral care products such as toothpaste and mouthwash; however, they also have a diverse range of personal care products, including fragrances. The company has a long-standing history in the consumer goods sector, focusing on quality and consumer satisfaction. Their specialties include formulating products that cater to customer preferences while adhering to safety standards and regulations.",https://images.unsplash.com/photo-1582735689369-4fe89db7114c?w=400&h=300&fit=crop,,United Kingdom,1958,drugstore,,,,2025-07-18T12:32:10.942225,2025-08-28T15:47:29.762434
cmd48f59cf2c0f381cf120d,Gigantic Parfums,"Gigantic Parfums is a forward-thinking fragrance company known for its innovative and artistic approach to perfume creation. Established by a group of passionate perfumers and fragrance enthusiasts, the company focuses on crafting unique and memorable scents that stand out in the market. Gigantic Parfums aims to blend traditional perfumery techniques with modern artistry, often drawing inspiration from diverse cultural themes and personal stories. They are committed to using high-quality ingredients and sustainable practices in their production processes, gaining a reputation for their niche market offerings and creative marketing campaigns.",https://images.unsplash.com/photo-1541643600914-78b084683601?w=400&h=300&fit=crop,https://www.giganticparfums.com,United States,2017,niche,contact@giganticparfums.com,,,2025-07-18T12:32:10.942225,2025-08-28T15:47:36.443362
cmde3d79f6494f834f17c9f,Gilbert Henry,"Gilbert Henry is a perfume company known for its unique and artisanal fragrances that combine traditional perfume-making techniques with modern sensibilities. Established by a team passionate about scent, they aim to create evocative and memorable perfumes that tell a story and evoke emotions. The company focuses on high-quality ingredients, sustainability, and craftsmanship, appealing to discerning customers who appreciate niche fragrances.",https://images.unsplash.com/photo-1541643600914-78b084683601?w=400&h=300&fit=crop,www.gilberthenryparfums.com,France,2015,niche,contact@gilberthenryparfums.com,,"123 Fragrance Lane, Grasse, France",2025-07-18T12:32:10.942225,2025-08-28T15:47:43.330100
cmdc62791031ee68d13fc59,Gilles Cantuel,"Gilles Cantuel is a French fragrance company that specializes in creating innovative and unique perfumes. Established in 1985, the company is known for its blend of creativity and quality ingredients, aimed at producing high-end fragrances that appeal to discerning customers. Gilles Cantuel focuses on both personal and home fragrances, often drawing inspiration from art and culture to develop scents that evoke emotions and memories. Their products include a range of perfumes that are marketed under various brand names.",https://images.unsplash.com/photo-15907369626-6c63ac16f3df?w=400&h=300&fit=crop,http://www.gillescantuel.com,France,1985,niche,,,,2025-07-18T12:32:10.942225,2025-08-28T15:47:51.235328
cmd4b2b6ca36bb0a2e75d24,Gillette Series,"Gillette Series is a brand under Procter & Gamble that primarily focuses on grooming and personal care products, including a notable line of men's fragrances. Founded on the principle of innovation in shaving technology, their perfumes are designed to evoke freshness and confidence, aligning with the overall ethos of their grooming products. The Gillette Series aims to meet the needs and preferences of modern men, ensuring a complete grooming experience.",https://cdn11.bigcommerce.com/s-dukhrgn8mp/images/stencil/original/content/img/header/m.Logo_Gillette_Blue.png,https://gillette.com,United States,1901,drugstore,,,,2025-07-18T12:32:10.942225,2025-08-28T15:47:57.913492
cmd4c407b6858525f1f21db,Gillette,"Gillette is primarily known as a brand that specializes in men's grooming products, predominantly razors and shaving supplies. While Gillette does not have a standalone perfume line, the brand is associated with various grooming products that occasionally include scented elements aimed at enhancing the shaving experience. Over the years, Gillette has become synonymous with quality and innovation in personal care, focusing on men's grooming needs. The brand is owned by Procter & Gamble and has a rich history of marketing campaigns that enhance the lifestyle image of its products.",https://cdn11.bigcommerce.com/s-dukhrgn8mp/images/stencil/original/content/img/header/m.Logo_Gillette_Blue.png,https://www.gillette.com,United States,1901,drugstore,,,,2025-07-18T12:32:10.942225,2025-08-28T15:48:05.375996
cmd112c9e697a0c0d3c717d,Gilly Hicks Sydney,"Gilly Hicks Sydney is a lifestyle brand that specializes in intimate apparel and fragrance products inspired by the Australian coastal lifestyle. Established as a subsidiary of Abercrombie & Fitch, the company initially gained popularity for its swimwear and loungewear before expanding into the fragrance market, focusing on scents that embody a relaxed, beachy vibe, resonating with the essence of Sydney.",https://images.unsplash.com/photo-1556909114-f6e7ad7d3136?w=400&h=300&fit=crop,https://www.gillyhicks.com,United States,2009,indie,,,,2025-07-18T12:32:10.942225,2025-08-28T15:48:11.882959
cmdc63a9ce6c5c521eafd72,Gin Tonic Fragrances,,https://images.unsplash.com/photo-1587017539504-67cfbddac569?w=400&h=300&fit=crop,https://gintonicscents.com,Netherlands,2018,niche,info@gintonicscents.com,,,2025-07-18T12:32:10.942225,2025-08-28T15:48:18.611158
cmd0714bf5a4a3b168cd1c8,Gina Liano,"Gina Liano is an Australian celebrity and entrepreneur who launched her own line of perfumes. Known for her vibrant personality and style, Gina's perfume offerings aim to reflect her luxurious lifestyle and passion for fragrance. The brand is characterized by its elegant and unique scents, often inspired by her personal experiences and travels. Gina Liano has garnered attention not just for her perfumes but also for her appearances in media, particularly reality television.",https://images.unsplash.com/photo-1582735689369-4fe89db7114c?w=400&h=300&fit=crop,https://www.ginaliano.com.au,Australia,2015,celebrity,,,,2025-07-18T12:32:10.942225,2025-08-28T15:48:25.555345
cmdef958b93c10dfbe00aa3,Ginestet,"Ginestet is a French perfume house founded in the post-war period, known for its emphasis on crafting high-quality, sophisticated fragrances. The company specializes in blending traditional and contemporary techniques to create unique olfactory experiences. With a commitment to artistry and craftsmanship, Ginestet has earned a reputation for its elegant and refined perfumes that appeal to a discerning clientele. The company's philosophy revolves around the idea of storytelling through scent, capturing the essence of different moments and places.",https://images.unsplash.com/photo-15907369626-6c63ac16f3df?w=400&h=300&fit=crop,[https://www.ginestet-parfum.com](https://www.ginestet-parfum.com),France,1946,niche,,,,2025-07-18T12:32:10.942225,2025-08-28T15:48:31.601210
cmd7a6419c0eeba1255616d,Gingerlily Cosmetics,"Gingerlily Cosmetics is a UK-based beauty brand specializing in high-quality, nature-inspired personal care and fragrance products. They focus on using natural ingredients and sustainable practices in their formulations to create luxurious yet affordable beauty solutions. With a commitment to ethical sourcing and environmentally friendly packaging, Gingerlily Cosmetics has developed a loyal following among consumers who prioritize organic and eco-conscious products. Their story emphasizes a blend of botanical sophistication and wellness, reflecting their dedication to skincare and self-care through fragrance.",https://images.unsplash.com/photo-1582735689369-4fe89db7114c?w=400&h=300&fit=crop,https://gingerlilycosmetics.com,United Kingdom,2016,indie,,,,2025-07-18T12:32:10.942225,2025-08-28T15:48:38.031561
cmd0badcddee7129d32a226,Giorgio Armani,"Giorgio Armani S.p.A is an Italian luxury fashion house founded by designer Giorgio Armani. The company is renowned for its haute couture, ready-to-wear clothing, accessories, and fragrances. Armani established the brand in the late 1970s and it quickly became one of the leading luxury brands in the world. The company's fragrances are known for their refined elegance and sophisticated compositions, appealing to both men and women. Their scent line includes iconic releases such as Acqua di Gio and Si, which reflect the brand's commitment to timeless sophistication.",https://images.unsplash.com/photo-1541643600914-78b084683601?w=400&h=300&fit=crop,https://www.armani.com,Italy,1975,designer,,,"Via Borgonuovo, 21, 20122 Milano MI, Italy",2025-07-18T12:32:10.942225,2025-08-28T15:48:47.097117
cmd90610e8cb17d2741ea0c,Giorgio,,https://images.unsplash.com/photo-1587017539504-67cfbddac569?w=400&h=300&fit=crop,https://www.giorgioarmanifragrances.com,Italy,1984,designer,,,,2025-07-18T12:32:10.942225,2025-08-28T15:49:03.704463
cmd8c586dfd4e589d983f29,Giorgio Beverly Hills,,https://images.unsplash.com/photo-15907369626-6c63ac16f3df?w=400&h=300&fit=crop,https://www.giorgiobeverlyhills.com,United States,1981,designer,,,,2025-07-18T12:32:10.942225,2025-08-28T15:49:10.467243
cmd537415455ef88cfabf9e,Giorgio Monti,"Giorgio Monti is a unique perfume company that specializes in creating high-quality, artisanal fragrances. With a deep commitment to craftsmanship and creativity, the brand infuses its scents with a distinctive blend of traditional perfumery techniques and modern sensibilities. The company has a rich history rooted in the artistic culture of perfume-making, aiming to tell stories through its carefully curated scents, often inspired by nature and personal experiences.",https://images.unsplash.com/photo-15907369626-6c63ac16f3df?w=400&h=300&fit=crop,,,,niche,,,,2025-07-18T12:32:10.942225,2025-08-28T15:49:17.265169
cmdc4b1c73bba366f0e3df4,Giorgio Valenti,"Giorgio Valenti is a perfume company known for creating fragrances that blend traditional craftsmanship with modern sensibilities. Established in 1978, the brand is celebrated for its unique scents that cater to both men and women. The company prides itself on its commitment to quality and innovation, using carefully selected ingredients to produce captivating fragrances. Over the years, Giorgio Valenti has built a loyal customer base and is particularly noted for its appealing packaging and accessible luxury.",https://images.unsplash.com/photo-1582735689369-4fe89db7114c?w=400&h=300&fit=crop,,Italy,1978,indie,,,,2025-07-18T12:32:10.942225,2025-08-28T15:49:22.726689
cmdc36d3db8d6fef82d2e88,Giovanna Antonelli,"Giovanna Antonelli is a Brazilian actress and entrepreneur who ventured into the perfume industry by launching her own line of fragrances. With a strong background in the entertainment industry, she combines her artistic vision with contemporary olfactory trends to create signature scents that resonate with her personal style and cultural influences. The brand reflects a blend of elegance and femininity, making it appealing to a wide audience.",https://giovannaantonelli.com.br/wp-content/uploads/2025/07/logo-missao-protagonista.svg,https://giovannaantonelli.com.br/,Brazil,2015,celebrity,,,,2025-07-18T12:32:10.942225,2025-08-28T15:49:30.022577
cmdc8c001851e4a3244b556,Giovanni Marquez,,https://images.unsplash.com/photo-1541643600914-78b084683601?w=400&h=300&fit=crop,[www.giovannimarquez.com],United States,2015,niche,,,,2025-07-18T12:32:10.942225,2025-08-28T15:49:35.910777
cmd5770da2cc9908a5723fe,Girard,"Girard is a niche perfume company known for its unique and high-quality fragrances, which often focus on artistic and creative scents that capture the essence of various inspirations. The brand has a rich history in perfumery, emphasizing craftsmanship and a deep understanding of scent compositions. Their specialty lies in creating distinctive olfactory experiences that appeal to connoisseurs and fragrance lovers alike, often utilizing rare ingredients to set their fragrances apart.",https://images.unsplash.com/photo-1541643600914-78b084683601?w=400&h=300&fit=crop,,France,1921,niche,,,,2025-07-18T12:32:10.942225,2025-08-28T15:49:41.200660
cmdec382b06b2f6ee7694de,Girlactik Beauty,"Girlactik Beauty is a cosmetics brand known for its innovative makeup products and fragrances. Founded by a passionate entrepreneur, the company emphasizes high-quality, luxurious beauty products that enable self-expression and creativity. They have carved out a niche in the beauty industry with their unique offerings, blending makeup with scent in their perfume lines, which often target a younger demographic seeking trendy, yet affordable beauty solutions.",https://images.unsplash.com/photo-1587017539504-67cfbddac569?w=400&h=300&fit=crop,https://girlactik.com,United States,2000,indie,,,,2025-07-18T12:32:10.942225,2025-08-28T15:49:47.023928
cmd9bed879f3cc57e00e858,Gisada,"Gisada is a luxury perfume company based in Switzerland, known for creating high-quality, sophisticated fragrances that embody elegance and uniqueness. Founded by a family dedicated to the art of perfumery, Gisada combines artisanal craftsmanship with a modern sensibility, focusing on rich, layered scents that reflect both tradition and contemporary tastes. The brand has cultivated a reputation for exclusivity and high standards in fragrance creation, appealing to discerning customers seeking distinctive and memorable perfumes.",https://www.gisada.com/cdn/shop/files/Gisada_Logo_Black_v2.0.png?height=108&v=1741034956,https://gisada.com,Switzerland,2011,niche,,,,2025-07-18T12:32:10.942225,2025-08-28T15:49:53.932300
cmd79d116a3113f8dfc9254,Gisèle Denis,"Gisèle Denis is an artisan perfume house based in France that specializes in creating bespoke fragrances. The company was founded with the vision of blending traditional perfumery techniques with modern artistry to craft unique and personal scents. Their emphasis on quality ingredients and craftsmanship allows them to produce exceptional fragrances that appeal to connoisseurs and everyday users alike. The brand has built a strong reputation for its commitment to olfactory artistry, creating fragrances that tell stories and evoke emotions, making them popular among fragrance enthusiasts looking for something distinctive.",https://www.giseledenis.com/img/cms/home/gisele-denis-logo-1653456037.png,https://www.giseledenis.com,France,2005,niche,,,,2025-07-18T12:32:10.942225,2025-08-28T15:50:02.571454
cmd8a55de8e019d7c1baa0d,Gisou,"Gisou is a hair care and fragrance brand founded by Negin Mirsalehi, a Dutch influencer and entrepreneur. The company specializes in honey-infused hair treatments, styling products, and signature perfumes inspired by the founder's familial bee-keeping heritage. Gisou aims to offer high-quality, nature-based beauty products while promoting love and nourishment for hair. The brand's story is intertwined with a commitment to sustainability and the use of natural ingredients derived from the Mirsalehi bee garden.",https://gisou.com/cdn/shop/files/logo.svg?crop=center&height=26&v=1747393877&width=58,https://gisou.com,Netherlands,2015,indie,,,,2025-07-18T12:32:10.942225,2025-08-28T15:50:12.453165
cmd90dd04b85146215014b5,Gissah,"Gissah is a niche perfume house that focuses on creating exclusive and high-quality fragrances. The brand combines traditional perfumery techniques with modern inspirations to craft unique scents that tell a story and evoke emotions. Founded by a team of passionate perfumers, Gissah emphasizes the importance of artisanal craftsmanship, sourcing rare ingredients from around the globe, and catering to a discerning clientele looking for distinctive and personal olfactory experiences.",https://gissah.com/base/static/img/country_flags/us.png?height=25,https://gissah.com,United Arab Emirates,2016,niche,info@gissah.com,,,2025-07-18T12:32:10.942225,2025-08-28T15:50:19.634412
cmd3d1c160f022bf893b5a3,Gitano,"Gitano is a perfume company that specializes in creating unique and bold fragrances that reflect a free-spirited lifestyle. Founded with the ethos of celebrating individuality and self-expression, Gitano aims to evoke a sense of adventure and wanderlust through its scent offerings. The brand often draws inspiration from elements of nature and diverse cultural influences, creating a distinctive olfactory experience that resonates with modern consumers who seek authenticity in their fragrance choices.",https://images.unsplash.com/photo-15907369626-6c63ac16f3df?w=400&h=300&fit=crop,,,,indie,,,,2025-07-18T12:32:10.942225,2025-08-28T15:50:25.949229
cmda4b82518acfe0b099fae,Giulietta Capuleti,"Giulietta Capuleti is a niche perfume company that specializes in creating unique and artisanal fragrances. The company draws inspiration from literary and historical themes, particularly focusing on the character Giulietta Capuleti from Shakespeare's ""Romeo and Juliet"". Their perfumes often aim to evoke emotion and storytelling through scent, combining luxurious ingredients to create captivating and memorable olfactory experiences.",https://images.unsplash.com/photo-1541643600914-78b084683601?w=400&h=300&fit=crop,,,,niche,,,,2025-07-18T12:32:10.942225,2025-08-28T15:50:31.877118
cmd865bcf55d7c2f77ce628,Givaudan,,https://www.givaudan.com/sites/givaudanweb.int/files/styles/convert_to_jpg/public/2025-07/giv-2025-cdp-scores-800x800_0.webp.jpg?itok=9GZFm8t7,https://www.givaudan.com,Switzerland,1895,niche,,+41 22 809 6111,,2025-07-18T12:32:10.942225,2025-08-28T15:50:39.275354
cmdfb30c4423b1e3ed6ed2b,Give Back Beauty,,https://images.unsplash.com/photo-1582735689369-4fe89db7114c?w=400&h=300&fit=crop,[www.givebackbeauty.com](http://www.givebackbeauty.com),United States,2020,indie,,,,2025-07-18T12:32:10.942225,2025-08-28T15:50:45.594143
cmdf3a5e91d9f833fc72c9a,Givenchy,"Givenchy is a French luxury fashion and perfume house founded by designer Hubert de Givenchy in 1952. The brand is renowned for its sophisticated and elegant designs that combine timeless style with modern aesthetics. Givenchy's perfume line features a range of iconic fragrances, including the classic ""L'Interdit"" and the popular ""Very Irresistible"". Their specialty lies in creating unique scents that embody elegance and luxury, often inspired by the brand's fashion collections.",https://images.unsplash.com/photo-1556909114-f6e7ad7d3136?w=400&h=300&fit=crop,https://www.givenchy.com,France,1952,designer,,,"3 Avenue George V, 75008 Paris, France",2025-07-18T12:32:10.942225,2025-08-28T15:50:53.640380
cmd087063aef53094d9eb19,Giver Profumi,"Giver Profumi is an Italian perfume house known for its artisanal approach to fragrance-making. Founded by a team of passionate perfumers, the brand focuses on crafting unique and high-quality scents that reflect a blend of contemporary and traditional elements. Their story intertwines a love for the art of perfumery with sustainable practices, sourcing rare ingredients from around the world. Giver Profumi specializes in creating niche fragrances that encapsulate the essence of emotional experiences, aiming to evoke specific memories and sentiments in the wearer.",https://images.unsplash.com/photo-1556909114-f6e7ad7d3136?w=400&h=300&fit=crop,https://www.giverprofumi.com,Italy,2016,niche,,,,2025-07-18T12:32:10.942225,2025-08-28T15:50:59.773888
cmdbf8eef9f9cb9eea44069,Giverny,"Giverny is a luxury perfume company known for its artisanal fragrances that draw inspiration from nature, art, and emotion. The brand aims to evoke memories and feelings through carefully crafted scents, often featuring unique blends that stand out in the niche market. Giverny seeks to create an olfactory experience that transcends mere fragrance, turning it into a form of personal expression. Their story is rooted in the philosophy of connecting with nature and art, reflecting the tranquility and beauty of the gardens of Giverny, France, where Monet famously created many of his masterpieces.",https://images.unsplash.com/photo-1541643600914-78b084683601?w=400&h=300&fit=crop,www.givernyperfumes.com,France,2016,niche,contact@givernyperfumes.com,,,2025-07-18T12:32:10.942225,2025-08-28T15:51:06.767615
cmdabd82ec7fc751154f8e4,Giviemme,"Giviemme is an Italian niche perfume brand known for creating high-quality fragrances that blend traditional craftsmanship with modern perfumery techniques. The company specializes in artisanal perfumes that are designed to evoke emotions and memories, often inspired by nature and personal experiences. Giviemme prides itself on using the finest natural ingredients and sustainable practices in its perfume production, making each fragrance a unique olfactory journey.",https://images.unsplash.com/photo-1541643600914-78b084683601?w=400&h=300&fit=crop,www.giviemme.com,Italy,2020,niche,,,,2025-07-18T12:32:10.942225,2025-08-28T15:51:13.229284
cmdcbcbbd4b25efa62353ab,Glade,"Glade is a brand of air fresheners and home fragrance products, widely recognized for its use of innovative technology to deliver fresh scents. Established as a line of cleaning products under SC Johnson, Glade specializes in providing house fragrances through various formats including sprays, plugins, candles, and automatic dispensers. The brand's story began in the late 1950s when it introduced its first air freshener products, marking a significant turn in home care and ambiance enhancement. Today, Glade is known for its diverse range of fragrances aimed at creating an inviting atmosphere in homes.",https://www.glade.com/_next/image?url=https%3A%2F%2Fedge.sitecorecloud.io%2Fscjohnsonana080-dart-production-40df%2Fmedia%2Fproject%2Fdart%2Fglade%2Fimages%2Fheader%2Fglade-logo_a.svg%3Fh%3D88%26iar%3D0%26w%3D88&w=256&q=75,https://www.glade.com,United States,1956,drugstore,,,,2025-07-18T12:32:10.942225,2025-08-28T15:51:20.450392
cmd8043bb1d5cc721effddc,Glamfume,"Glamfume is a contemporary perfume company that focuses on creating affordable luxury fragrances. With a mission to bridge the gap between high-end and budget-friendly perfumes, Glamfume offers a range of scents that are inspired by popular designer fragrances, allowing consumers to enjoy luxurious aromas without breaking the bank. The company's ethos revolves around accessibility, quality, and a dedication to customer satisfaction. Glamfume has rapidly built a reputation for its unique and inviting scent profiles that cater to diverse preferences.",https://images.unsplash.com/photo-15907369626-6c63ac16f3df?w=400&h=300&fit=crop,www.glamfume.com,United States,2019,indie,,,,2025-07-18T12:32:10.942225,2025-08-28T15:51:26.372094
cmdc702b0b9873616b278a8,Glasshouse,"Glasshouse is an Australian fragrance company known for its high-quality candles and home fragrances, as well as personal perfumes. Established in 2006, Glasshouse specializes in creating a variety of unique and richly scented products that evoke unforgettable memories and experiences. Their commitment to craftsmanship and the use of fine materials is evident in their luxurious fragrances, which have gained popularity both locally and internationally. The brand aims to create an immersive sensory experience and emphasizes the importance of scent in enhancing everyday moments.",https://www.glasshousefragrances.com/cdn/shop/files/check-circle.svg?v=14733311001636678553,https://glasshousefragrances.com,Australia,2006,indie,,,,2025-07-18T12:32:10.942225,2025-08-28T15:51:33.821413
cmd8cfdd62b95c1fa8d6d3c,Gleam,"Gleam is a contemporary perfume company that specializes in creating unique and luxurious fragrances. Founded with the vision of merging art and scent, the brand focuses on individuality and the emotional connections people have with perfume. Gleam's signature blends often incorporate high-quality, ethically sourced ingredients, and they emphasize sustainability in their production process. The brand has gained recognition for its innovative marketing approach and engagement with customers through personalized scent experiences.",https://images.unsplash.com/photo-1587017539504-67cfbddac569?w=400&h=300&fit=crop,www.gleamfragrances.com,United States,2018,indie,contact@gleamfragrances.com,,,2025-07-18T12:32:10.942225,2025-08-28T15:51:40.308346
cmd156644c026957b08e49e,Glee,"Glee is a perfume company known for its vibrant and youthful fragrances inspired by the music and themes from the popular television series ""Glee."" Leveraging the show's fanbase, Glee has created a line of fragrances that capture the essence of joy, friendship, and self-expression. Their products are designed to resonate with fans of the series and those who appreciate whimsical, fun scents. The company specializes in offering fragrances that appeal to a younger demographic, combining playful notes with catchy design elements in their packaging.",https://images.unsplash.com/photo-1582735689369-4fe89db7114c?w=400&h=300&fit=crop,www.gleepfragrances.com,United States,2013,celebrity,,,,2025-07-18T12:32:10.942225,2025-08-28T15:51:46.948094
cmd0d759a43ed442fa3aba5,Glenn Bracke,"Glenn Bracke is an innovative perfume company that focuses on crafting unique and artisanal fragrances. Established by Glenn Bracke, a perfumer with a passion for blending traditional techniques with contemporary aesthetics, the company aims to create scents that evoke emotion and tell stories. With a dedication to quality and artistry, Glenn Bracke emphasizes the use of high-quality, sustainable ingredients in their formulations, making each fragrance not just a scent but an experience.",https://images.unsplash.com/photo-1582735689369-4fe89db7114c?w=400&h=300&fit=crop,www.glennbracke.com,United States,2013,indie,contact@glennbracke.com,,,2025-07-18T12:32:10.942225,2025-08-28T15:51:53.045430
cmd7130459619ea75404f56,Glenn Perri,"Glenn Perri is a fragrance company known for creating unique and diverse scents. The brand focuses on delivering high-quality perfumes that cater to different tastes and preferences, making it a popular choice for a wide audience. The company has carved out a niche in the competitive perfume market by emphasizing creativity and craftsmanship in their formulations. Glenn Perri is recognized for offering an extensive array of fragrances for both men and women, often drawing inspiration from various cultural influences and modern trends.",https://images.unsplash.com/photo-1582735689369-4fe89db7114c?w=400&h=300&fit=crop,https://glennperri.com,USA,2004,indie,,,,2025-07-18T12:32:10.942225,2025-08-28T15:52:02.332297
cmdfce94b6e0580c43f188a,Global Goddess,"Global Goddess is a perfume company dedicated to creating unique, high-quality fragrances that draw inspiration from diverse cultures and natural ingredients. Founded with the vision of empowering individuals to express their identity through scent, Global Goddess positions itself as a brand that celebrates the beauty of global diversity. The company emphasizes ethical sourcing and sustainable practices, highlighting their commitment to environmental responsibility while offering a wide range of captivating perfumes.",https://images.unsplash.com/photo-1582735689369-4fe89db7114c?w=400&h=300&fit=crop,www.globalgoddess.com,United States,2015,indie,,,,2025-07-18T12:32:10.942225,2025-08-28T15:52:11.078304
cmdf1660ad66b0fad472f70,Globe,"Globe is a niche perfume company that focuses on crafting unique, artisanal fragrances inspired by the beauty of nature and global culture. Founded by a team of fragrance enthusiasts, Globe aims to create scents that evoke emotional connections and memorable experiences. Their story began with a passion for exploring diverse olfactory landscapes, leading to the development of signature scents that celebrate individuality and creativity. Specializing in small-batch production, Globe emphasizes quality ingredients and sustainable sourcing practices.",https://images.unsplash.com/photo-1587017539504-67cfbddac569?w=400&h=300&fit=crop,https://www.globefragrances.com,United States,2015,niche,contact@globefragrances.com,,"123 Aroma Lane, Fragrance City, CA 90210",2025-07-18T12:32:10.942225,2025-08-28T15:52:17.803981
cmd374deaa1aed39c1df0f5,Glöd by Sophie Elise,"Glöd by Sophie Elise is a perfume brand founded by Norwegian influencer and entrepreneur Sophie Elise Isachsen. The brand is focused on creating unique and evocative fragrances that reflect personal stories and emotions. With a commitment to sustainability and quality, Glöd aims to offer a luxurious fragrance experience while promoting self-expression and individuality. The company's story is rooted in Sophie Elise’s passion for beauty and her desire to create products that resonate with her audience, blending personal taste with the latest trends in the fragrance industry.",https://images.unsplash.com/photo-1587017539504-67cfbddac569?w=400&h=300&fit=crop,https://glodbysophieelise.com,Norway,2021,indie,,,,2025-07-18T12:32:10.942225,2025-08-28T15:52:23.649119
cmd40bb8dd737b68911b267,Gloria Guggenheim,"Gloria Guggenheim is a luxury perfume brand known for its artisanal fragrances that blend traditional techniques with modern aesthetics. The company draws inspiration from the historical significance of the Guggenheim family in art and culture, aiming to create scents that evoke sophistication and elegance. Their specialty lies in crafting unique, limited-edition perfumes that appeal to discerning customers looking for exclusivity and artistry in fragrance.",https://images.unsplash.com/photo-1541643600914-78b084683601?w=400&h=300&fit=crop,https://www.gloriaguggenheim.com,United States,2021,niche,contact@gloriaguggenheim.com,,,2025-07-18T12:32:10.942225,2025-08-28T15:52:29.881184
cmdb452257f35021ab67554,Gloria Ortiz,"Gloria Ortiz is a Spanish perfume company that specializes in creating high-quality, luxurious fragrances. The brand is known for its elegant scents which often draw inspiration from diverse cultures and experiences. Founded by the designer Gloria Ortiz, the company started with a focus on fashion accessories and gradually expanded into perfumes, capturing the essence of sophistication and femininity. The perfumes often reflect the artistry and creativity associated with Ortiz's fashion background, offering a unique blend of contemporary and classic fragrance notes.",https://images.unsplash.com/photo-1541643600914-78b084683601?w=400&h=300&fit=crop,www.gloriaortiz.com,Spain,1998,designer,,,,2025-07-18T12:32:10.942225,2025-08-28T15:52:40.282844
cmd2c2c72e98e8e78e0ee8c,Gloria Vanderbilt,"Gloria Vanderbilt is a renowned American fashion brand that has extended its influence into the perfume industry. The company is known for its stylish and sophisticated fragrances that reflect the essence of the Gloria Vanderbilt lifestyle. Founded by the artist and actress Gloria Vanderbilt in the 1970s, the brand combines the artistry of fashion with the allure of scent, creating perfumes that appeal to a broad audience. Their specialty lies in offering chic and approachable fragrances that encapsulate the spirit of modern elegance.",https://images.unsplash.com/photo-1556909114-f6e7ad7d3136?w=400&h=300&fit=crop,https://www.gloriavanderbilt.com,United States,1976,designer,,,,2025-07-18T12:32:10.942225,2025-08-28T15:52:46.659626
cmdab89a22e9e7fc9f67dd5,Gloss.com,"Gloss.com is a prominent online retailer specializing in perfumes and personal care products. The company offers a curated selection from various brands, focusing on unique and niche fragrances. Founded with the vision of simplifying the search for quality scents, Gloss.com provides a customer-friendly experience with detailed product descriptions and customer reviews. They aim to connect fragrance enthusiasts with both established and emerging brands, making high-quality perfumes accessible to a wider audience.",https://images.unsplash.com/photo-1556909114-f6e7ad7d3136?w=400&h=300&fit=crop,https://www.gloss.com,United States,2014,niche,,,,2025-07-18T12:32:10.942225,2025-08-28T15:52:53.278121
cmdff8089f336fbff8781d7,Gloss Moderne,"Gloss Moderne is a luxury fragrance brand known for its high-quality, modern scents that blend elegance and sophistication with a contemporary aesthetic. The company aims to create fragrances that not only enhance personal style but also provide a luxurious experience in everyday life. Established with a vision to redefine fragrance, Gloss Moderne crafts its products with careful attention to detail, ensuring a unique olfactory experience that appeals to a discerning clientele. Their offerings often include a range of products that embrace clean beauty principles and high-end appeal, focusing on sustainable practices within the fragrance industry.",https://glossmoderne.com/cdn/shop/files/GLOSS_MODERNE_LOGO_WHITE_small.png?v=1660898590,https://glossmoderne.com,United States,2010,indie,,,,2025-07-18T12:32:10.942225,2025-08-28T15:53:00.357932
cmd2957b3cea7e652a536db,Glossier,"Glossier is a beauty brand founded on the principle of accessible and personal skincare and makeup products. The company was launched in 2014 by Emily Weiss, originally starting as a beauty blog called “Into The Gloss.” Glossier specializes in creating products that promote natural beauty and skincare, encouraging consumers to embrace their individuality. The brand's ethos is built around community feedback, leading to the development of innovative products through direct engagement with its customers.",https://www.glossier.com/cdn/shop/t/1298/assets/search-icon.svg?v=17597307012293460771755708030,https://www.glossier.com,United States,2014,indie,,,,2025-07-18T12:32:10.942225,2025-08-28T15:53:07.392505
cmd8c03eec05785029309d0,Glynn Manson and Peter Kedge,"Glynn Manson and Peter Kedge is a niche perfume company known for their artistry and innovation in fragrance creation. Established by two renowned perfumers, the company focuses on unique, high-quality scents that blend traditional craftsmanship with contemporary aesthetics. Their fragrances are often inspired by personal experiences and travel, making each scent a storytelling piece that resonates with customers looking for something distinct and exclusive.",https://images.unsplash.com/photo-1556909114-f6e7ad7d3136?w=400&h=300&fit=crop,,,,niche,,,,2025-07-18T12:32:10.942225,2025-08-28T15:53:12.895259
cmd1f0a9cd1108ad063f91e,Go Smile,"Go Smile is a brand primarily known for its innovative approach to oral care, particularly teeth whitening products. While primarily focusing on dental cosmetics, they also have ventured into creating scents and freshening products, integrating aspects of fragrance with their oral hygiene solutions. Founded by a dentist, Dr. Paul A. B. Wilson, the brand aims to enhance smiles through both health and aesthetics. Their specialty lies in formulating products that promote a healthy smile while providing a refreshing sensory experience.",https://images.unsplash.com/photo-1587017539504-67cfbddac569?w=400&h=300&fit=crop,https://www.gosmiles.com,United States,2002,indie,,,,2025-07-18T12:32:10.942225,2025-08-28T15:53:19.378505
cmd8f3b1476a9460ef7a66b,Gobin Daudé,"Gobin Daudé is a French perfume house that specializes in creating niche fragrances that embody the art of perfumery. Founded by the experienced perfumer, Gobin Daudé, the brand focuses on handcrafted creations that blend unique ingredients to convey distinct narratives and emotions through scent. The company is known for its artisanal approach, drawing from both modern and traditional techniques to produce high-quality, sophisticated perfumes aimed at connoisseurs. Their story is deeply rooted in a passion for olfactory exploration, and they offer a curated selection of fragrances that are often limited in production, emphasizing exclusivity and creativity.",https://images.unsplash.com/photo-1541643600914-78b084683601?w=400&h=300&fit=crop,https://gobindaude.com,France,2011,niche,,,,2025-07-18T12:32:10.942225,2025-08-28T15:53:25.590840
cmd3e49a0ac8c536df957ff,Gocce di Byron,"Gocce di Byron is a niche perfume house based in Italy, renowned for its exclusive and artisanal fragrance creations. The brand draws inspiration from the rich literary heritage of Lord Byron, infusing his romantic savoir-faire into each scent. Gocce di Byron specializes in crafting unique and evocative perfumes that evoke depth and emotion, utilizing the finest raw materials and luxurious compositions. Their portfolio is characterized by sophisticated fragrances that tell stories and transport the wearer into a world of elegance and artistry.",https://images.unsplash.com/photo-15907369626-6c63ac16f3df?w=400&h=300&fit=crop,https://www.goccedibyron.com,Italy,2019,niche,,,,2025-07-18T12:32:10.942225,2025-08-28T15:53:34.264839
cmd278435a7c8149fac6479,Godet,"Godet is a historic perfume house based in France, renowned for its artisanal approach to fragrance creation. Founded in 1796, Godet has a rich heritage of crafting perfumes that evoke the essence of luxury and sophistication. The company specializes in high-quality, handcrafted fragrances, often characterized by their unique compositions and carefully sourced ingredients. Over the years, Godet has been committed to maintaining the art of perfumery by combining traditional methods with innovative practices, thus providing a distinctive olfactory experience that resonates with connoisseurs of fine fragrances.",https://www.godet.fr/wp-content/uploads/2019/12/logogodet-2019.png,https://www.godet.fr,France,1796,niche,,,,2025-07-18T12:32:10.942225,2025-08-28T15:53:44.281387
cmd4b78d2bd35be04220742,Gold Milano,"Gold Milano is a luxury fragrance brand known for its high-quality, artisanal perfumes. Established to bring a captivating olfactory experience to perfume enthusiasts, the brand emphasizes a blend of luxury and sophistication with contemporary interpretations of classic scents. Gold Milano focuses on sourcing superior ingredients, often highlighting traditional Italian craftsmanship in the perfume-making process. The company is dedicated to sustainability and often collaborates with emerging artisans to create unique fragrances that tell a story, enriching the personal scent journey of its customers.",https://images.unsplash.com/photo-1582735689369-4fe89db7114c?w=400&h=300&fit=crop,https://www.goldmilano.com,Italy,2019,niche,,,,2025-07-18T12:32:10.942225,2025-08-28T15:53:50.903032
cmda0e8c57a88a3e50b5842,Golddigga,"Golddigga is a contemporary fashion and lifestyle brand that offers a diverse range of products, including clothing, accessories, and fragrance. With a focus on bold designs and vibrant aesthetics, the brand aims to appeal to a youthful audience. Although primarily known for its apparel, Golddigga has successfully ventured into the perfume market, creating fragrances that align with its fashion-forward ethos. The company places a strong emphasis on creating unique scents that resonate with their target demographic, capturing the essence of youthful exuberance and individuality.",https://images.unsplash.com/photo-1556909114-f6e7ad7d3136?w=400&h=300&fit=crop,https://www.golddigga.com,United Kingdom,,indie,,,,2025-07-18T12:32:10.942225,2025-08-28T15:53:57.595844
cmd2d745f675773182a9855,Goldfield & Banks,"Goldfield & Banks is an Australian perfume house that specializes in creating high-quality niche fragrances inspired by the unique landscapes and botany of Australia. Founded by artisan perfumer Dimitri Weber in 2016, the brand aims to encapsulate the essence of Australia’s nature and culture in its scents. Each fragrance is crafted with a commitment to using natural ingredients, and the company emphasizes storytelling through scent, celebrating the natural beauty of the Australian environment.",https://www.goldfieldandbanks.com/cdn/shop/files/HAMILL_GoldfieldAndBanks_LOGO_A5.jpg?crop=center&height=5760&v=1650440463&width=2531,https://goldfieldandbanks.com.au,Australia,2016,niche,,,,2025-07-18T12:32:10.942225,2025-08-28T15:54:04.470589
cmde76f33f55a5bdb78b23b,Goldmusk,"Goldmusk is a fragrance company known for crafting high-quality, luxurious perfumes that offer a unique olfactory experience. The company specializes in producing artisanal scents, emphasizing the use of premium raw materials and innovative blends. Goldmusk aims to appeal to discerning customers who appreciate individuality and elegance in their fragrance choices. Their story traces back to a passion for scent-making and an ambition to capture the essence of nature in every bottle, forging a connection between the wearer and their surroundings.",https://images.unsplash.com/photo-1582735689369-4fe89db7114c?w=400&h=300&fit=crop,www.goldmusk.com,United States,2015,niche,contact@goldmusk.com,,,2025-07-18T12:32:10.942225,2025-08-28T15:54:10.800579
cmd241b800ec21b7bc8c739,Golf le Fleur,"Golf le Fleur is a lifestyle brand founded by artist Tyler, the Creator, known for its vibrant color palettes and whimsical aesthetics. The brand encompasses a range of products, including fashion and accessories, but it is particularly noted for its line of fragrances inspired by Tyler's personal experiences and the themes of nature and nostalgia. Their perfumes evoke a sense of individuality and creativity, appealing to a younger, trend-oriented audience.",https://golflefleur.com/cdn/shop/files/JOGGER_MOB.jpg?v=1754595761&width=768,https://golflefleur.com,United States,2017,celebrity,,,,2025-07-18T12:32:10.942225,2025-08-28T15:54:17.195331
cmd4540fcb640c1ff6b0821,Good Chemistry,"Good Chemistry is a fragrance company known for creating vegan and cruelty-free perfumes. The brand focuses on using natural ingredients and sustainable practices to craft unique scents that celebrate individuality. Launched in response to a demand for clean and eco-friendly fragrances, Good Chemistry emphasizes inclusivity with its diverse range of scents that appeal to various gender identities and personal preferences.",https://images.unsplash.com/photo-1541643600914-78b084683601?w=400&h=300&fit=crop,https://www.goodchemistryfragrance.com,United States,2016,indie,,,,2025-07-18T12:32:10.942225,2025-08-28T16:06:50.045880
cmd2a62ef13b20504232a8d,Good Skin,"Good Skin is a perfume company that focuses on crafting high-quality fragrances that promote natural beauty and skin health. The brand emphasizes the integration of skincare benefits with its perfumes, creating a distinctive line of products that appeal to consumers looking for both scent and skincare solutions. Good Skin aims to redefine the interaction between scent and skin care, emphasizing the emotional and sensory experience of fragrance.",https://images.unsplash.com/photo-1582735689369-4fe89db7114c?w=400&h=300&fit=crop,,,,indie,,,,2025-07-18T12:32:10.942225,2025-08-28T16:06:56.312899
cmd9c019dd36b17d65f78dc,Goodfellow & Co.,"Goodfellow & Co. is a private label brand owned by Target Corporation that specializes in men's clothing and accessories, including scent and personal care products. Known for its modern and tailored aesthetic, the brand was launched to provide stylish yet affordable options for the contemporary man. While primarily recognized for apparel, Goodfellow & Co. has increasingly included grooming products, reflecting the brand's commitment to providing a full lifestyle experience.",https://images.unsplash.com/photo-1587017539504-67cfbddac569?w=400&h=300&fit=crop,https://www.target.com/c/goodfellow-co/-/N-56f0t,United States,2015,drugstore,,,,2025-07-18T12:32:10.942225,2025-08-28T16:07:04.263923
cmd29b0c30e5a2e5aeebecb,GoodTrueBeautiful,"GoodTrueBeautiful is a fragrance company known for creating high-quality, sustainable perfumes that celebrate natural ingredients and holistic wellness. The company emphasizes environmental responsibility and uses ethically sourced materials to craft their products. Their story began with a commitment to clean beauty and a mission to empower individuals to embrace their true selves through scent. They aim to provide a fragrant experience that aligns with personal values of goodness, truth, and beauty.",https://static.HugeDomains.com/images/hdv3-img/hd-header-logo-v3.svg,https://www.goodtruebeautiful.com,United States,2018,indie,,,,2025-07-18T12:32:10.942225,2025-08-28T16:07:10.938447
cmddc9e9f5f9ccb3590f498,Google,"Google has not traditionally been recognized as a perfume company. It is primarily a multinational technology company that specializes in Internet-related services and products, which include online advertising technologies, a search engine, cloud computing, software, and hardware. However, as part of their product diversification, they have ventured into lifestyle products that may include fragrances in partnership or through subsidiary brands. They are known for their innovative approach and integration of technology and design in various product lines.",https://images.unsplash.com/photo-15907369626-6c63ac16f3df?w=400&h=300&fit=crop,https://www.google.com,United States,1998,"Not applicable (Google does not fall under the specified categories of 'niche', 'designer', 'indie', 'celebrity', or 'drugstore' for perfumes)",,,"1600 Amphitheatre Parkway, Mountain View, CA 94043, USA",2025-07-18T12:32:10.942225,2025-08-28T16:07:18.774467
cmd04f90783517013823e17,Goop,"Goop is a lifestyle brand founded by actress Gwyneth Paltrow in 2008. It began as a weekly email newsletter offering a curated selection of recommendations for wellness, fashion, beauty, and travel. Over the years, Goop has expanded into a prominent online platform and retail store selling a range of products, including skincare, wellness supplements, clothing, home goods, and a line of fragrances. Each fragrance in Goop's collection is designed with an emphasis on clean ingredients and scents that evoke emotional connections and experiences, reflecting the brand's ethos of well-being and self-expression.",https://images.unsplash.com/photo-15907369626-6c63ac16f3df?w=400&h=300&fit=crop,https://goop.com,United States,2008,indie,"newsletter offering a curated selection of recommendations for wellness, fashion, beauty, and travel. Over the years, Goop has expanded into a prominent online platform and retail store selling a range of products, including skincare, wellness supplements, clothing, home goods, and a line of fragrances. Each fragrance in Goop's collection is designed with an emphasis on clean ingredients and scents that evoke emotional connections and experiences, reflecting the brand's ethos of well-being and self-expression.",,,2025-07-18T12:32:10.942225,2025-08-28T16:07:24.871796
cmd618a517787e550a132d3,Gorilla Perfume [Lush],"Gorilla Perfume is a distinctive perfume division of Lush, a company known for its ethical approach to cosmetics and personal care. Launched originally in 2006, Gorilla Perfume was created to bring unique and imaginative fragrances to the market, with a strong emphasis on ethical sourcing and environmentally-friendly practices. Each fragrance tells a story and often reflects the ethos of the Lush brand. Their creations are often linked to specific themes or inspirations, setting them apart in the perfume industry. They are notorious for their handmade, fresh perfumes that challenge traditional scent profiles.",https://images.unsplash.com/photo-1556909114-f6e7ad7d3136?w=400&h=300&fit=crop,https://www.lush.com/uk/en/c/gorilla-perfume,United Kingdom,2006,indie,,,"29 High Street, Poole, Dorset, BH15 1AB, United Kingdom",2025-07-18T12:32:10.942225,2025-08-28T16:07:32.135105
cmdca0942c719df80362ef8,Gosh,"Gosh is a cosmetics brand that originated in Denmark and offers a variety of products, including fragrances. The company is known for its innovative and high-quality products that cater to both makeup enthusiasts and everyday consumers. Gosh emphasizes creativity and individuality in its offerings, making it a popular choice among consumers looking for unique scents and cosmetics.",https://images.unsplash.com/photo-1556909114-f6e7ad7d3136?w=400&h=300&fit=crop,https://www.gosh.dk,Denmark,1945,drugstore,,,,2025-07-18T12:32:10.942225,2025-08-28T16:07:38.143358
cmd7663fd3acee7a2364c56,Gosha Rubchinskiy,"Gosha Rubchinskiy is a contemporary fashion brand founded by Russian designer Gosha Rubchinskiy. Known for its streetwear aesthetic and integration of Soviet-era influences, the brand exemplifies a blend of high fashion and youth culture. Besides clothing, Gosha Rubchinskiy has ventured into the world of perfume, offering products that reflect the same ethos as its apparel lines — merging cultural references with modern design. The brand has carved a unique niche within the fashion world, gaining popularity among urban and youth demographics.",https://gosharubchinskiy.com/cdn/shop/files/91827028a82a2b243f41f178297fd3c1.svg?v=1744236153&width=1600,https://www.gosharubchinskiy.com,Russia,2008,designer,,,,2025-07-18T12:32:10.942225,2025-08-28T16:07:45.019046
cmdab3474bd6dba3b378726,Gossip Girl,"Gossip Girl is a perfume brand inspired by the popular television series of the same name, which aired from 2007 to 2012. The fragrances aim to capture the essence of the characters and the glamorous lifestyle depicted in the show. The brand is known for its youthful, trendy appeal, offering scents that embody sophistication and allure, often reflecting the themes of love, friendship, and rivalry that the series portrayed.",https://images.unsplash.com/photo-1556909114-f6e7ad7d3136?w=400&h=300&fit=crop,,United States,2010,celebrity,,,,2025-07-18T12:32:10.942225,2025-08-28T16:07:50.914634
