id,name,description,image,website,country,founded,type,email,phone,address,createdAt,updatedAt
cmdb6c02c0b3843a6db0f6a,Gothmetic,"Gothmetic is a niche perfume company specializing in fragrances that embrace the darker, gothic aesthetic while also incorporating unique and innovative scent combinations. Founded by individuals passionate about alternative culture, the brand aims to create a connection through scent that resonates with those who appreciate the goth lifestyle. Their collections often feature notes inspired by dark literature, art, and subculture, appealing to connoisseurs of unconventional aromas.",https://img.sedoparking.com/templates/images/hero_nc.svg,www.gothmetic.com,United States,2021,niche,contact@gothmetic.com,,,2025-07-18T12:32:10.942225,2025-08-28T16:08:08.232690
cmdc17889c44605b89a9297,Goti,"Goti is a luxury fragrance company known for its unique and artistic approach to perfume creation. Founded by the Italian perfumer Paolo Goti, the brand emphasizes the use of high-quality natural ingredients and innovative scent compositions. Goti's perfumes often reflect a deep understanding of the art of perfumery, merging craftsmanship with contemporary aesthetics. The brand is celebrated for its distinctive bottles and packaging, which are designed to be as artistic as the fragrances themselves, creating a holistic sensory experience. Goti has established a niche in the high-end perfume market, appealing to connoisseurs and collectors.",https://images.unsplash.com/photo-15907369626-6c63ac16f3df?w=400&h=300&fit=crop,https://gotiperfumes.com,Italy,2006,niche,,,,2025-07-18T12:32:10.942225,2025-08-28T16:08:15.038698
cmda0761a09928c00365563,Goya,,https://images.unsplash.com/photo-1582735689369-4fe89db7114c?w=400&h=300&fit=crop,,,,indie,,,,2025-07-18T12:32:10.942225,2025-08-28T16:08:21.178532
cmda7d0785a6acae5c0ef03,Grace de Monaco,"Grace de Monaco is a luxury fragrance company that embodies the elegance and sophistication associated with the Principality of Monaco. Founded to celebrate the heritage and culture of Monaco, the brand is renowned for its high-quality and distinctive perfumes that capture the essence of the Mediterranean lifestyle. The company focuses on crafting unique scents that blend traditional perfumery techniques with modern inspirations, setting itself apart in the niche fragrance market.",https://images.unsplash.com/photo-15907369626-6c63ac16f3df?w=400&h=300&fit=crop,https://www.gracedemonaco.com,Monaco,2012,niche,,,,2025-07-18T12:32:10.942225,2025-08-28T16:08:27.562884
cmd64ebe69a0311ca6d2015,Graff,"Graff is a luxury jewelry and watch company that has expanded into the perfume industry, creating exquisite fragrances that reflect the elegance and sophistication associated with its brand. Founded by Laurence Graff in 1960, the company specializes in offering high-end products, including stunning diamonds and luxury goods while focusing on the finest craftsmanship. The fragrances are designed to embody the same opulence and artistry that define Graff's renowned jewelry collections.",https://www.graff.com/on/demandware.static/Sites-Graff_US-Site/-/default/dw54fe328f/images/logo.svg,https://www.graff.com,United Kingdom,1960,designer,,,,2025-07-18T12:32:10.942225,2025-08-28T16:08:34.279512
cmd8512309828d1b333ef6d,Graffiti Parfums,"Graffiti Parfums is an avant-garde fragrance company that specializes in creating unique and unconventional scents inspired by urban art and culture. The brand aims to merge the worlds of olfactory art and street culture, appealing to a diverse audience that appreciates creativity and self-expression through fragrances. Each perfume in their collection aims to evoke emotions and capture the essence of modern life and artistry.",https://images.unsplash.com/photo-1587017539504-67cfbddac569?w=400&h=300&fit=crop,www.graffiti-parfums.com,USA,2022,niche,contact@graffiti-parfums.com,,,2025-07-18T12:32:10.942225,2025-08-28T16:08:40.467370
cmd3e92a87b213107d7be8f,Graham & Pott,"Graham & Pott is a bespoke fragrance house based in London, specializing in artisanal perfumes that combine natural ingredients with innovative scent compositions. Founded by Marc and Carrie Graham-Pott, the brand focuses on creating unique, narrative-driven fragrances that embody the art of storytelling through scent. The company prides itself on using high-quality, sustainable materials and embraces a philosophy of transparency in sourcing and production.",https://cdn.shopify.com/extensions/863328f3-c398-408d-bc05-8efc6b33ed9c/planet-19/assets/logo.png,www.grahamandpott.com,United Kingdom,2015,niche,,,,2025-07-18T12:32:10.942225,2025-08-28T16:08:47.172503
cmdbf30c2216f89481c52cb,Granado,"Granado is a Brazilian fragrance and personal care company that specializes in creating high-quality perfumes, soaps, and other beauty products. Founded in 1870, Granado has a rich history and is known for its artisanal approach to manufacturing, using natural ingredients. The brand remains a historic symbol of tradition in Brazil, blending nostalgia with modern concepts in the beauty and fragrance industry. Granado's product line includes a wide variety of scented products that often celebrate Brazilian culture and nature.",https://www.granado.com.br/image/logos/care.webp?__frsh_c=afd2b43ba455ac31c1b9cd7a12aee0729864c65f,https://www.granado.com.br,Brazil,1870,indie,,,,2025-07-18T12:32:10.942225,2025-08-28T16:08:56.813910
cmd1ae7da09504e652d60b9,Grandiflora,"Grandiflora is an Australian perfume company founded by the renowned perfumer and botanist Saskia Havekes. The brand is characterized by its commitment to crafting artisanal fragrances that celebrate the uniqueness of various flowers and botanicals. Inspired by the environment and her passion for natural ingredients, Havekes has created a collection that merges fine perfumery with an appreciation for the beauty of florals. Grandiflora is known for its luxurious and distinctive scents, which often draw from organic sources, setting it apart as a niche player in the fragrance market.",https://www.grandiflora.com.au/assets/templates/grandi/images/logo.png,https://www.grandiflora.com.au,Australia,2015,niche,,,,2025-07-18T12:32:10.942225,2025-08-28T16:09:05.013754
cmdca36ab33a0838575193c,Grandiflorum,"Grandiflorum is a niche perfume company known for its artisanal approach to fragrance creation. They focus on using high-quality, natural ingredients to craft unique scents that emphasize floral notes and sustainable practices. Grandiflorum aims to evoke emotional memories and experiences through their carefully balanced fragrances, making each scent a personal journey for the wearer. The company's story revolves around a deep appreciation for the art of perfumery, inspired by nature and traditional craft techniques.",https://images.unsplash.com/photo-1587017539504-67cfbddac569?w=400&h=300&fit=crop,https://www.grandiflorum.com,France,2015,niche,contact@grandiflorum.com,+33 1 23 45 67 89,"12 Rue des Fragrances, 75001 Paris, France",2025-07-18T12:32:10.942225,2025-08-28T16:09:12.748808
cmdc19739af5f321e6716cf,Graphite,"Graphite is a niche perfume house that specializes in creating unique and artistic fragrances inspired by various elements of nature and personal experiences. The company emphasizes high-quality ingredients and craftsmanship, often working with renowned perfumers to develop their distinct scent profiles. Graphite aims to cater to an audience that appreciates the artistry behind fragrance and seeks to express individuality through scent.",https://images.unsplash.com/photo-15907369626-6c63ac16f3df?w=400&h=300&fit=crop,https://www.graphiteperfume.com,United States,2019,niche,contact@graphiteperfume.com,,,2025-07-18T12:32:10.942225,2025-08-28T16:09:18.614897
cmda2058fb0a759816757c0,Grassroots,"Grassroots is a unique perfume company that focuses on creating high-quality, sustainable fragrances inspired by nature. Founded by a team of passionate scent enthusiasts, the company is dedicated to using ethically sourced ingredients and promoting environmental responsibility in the perfume industry. Grassroots specializes in crafting artisanal scents that evoke the beauty of natural landscapes, aiming to connect users with the essence of the earth. Their commitment to sustainability is evident in both their ingredients and packaging, appealing to eco-conscious consumers.",https://images.unsplash.com/photo-1556909114-f6e7ad7d3136?w=400&h=300&fit=crop,www.grassrootsfragrance.com,United States,2018,indie,info@grassrootsfragrance.com,,,2025-07-18T12:32:10.942225,2025-08-28T16:09:24.903603
cmd819f1ce8de5aa3e9a641,Gratiae,"Gratiae is a luxury skincare and fragrance brand that emphasizes natural ingredients and holistic beauty. Founded with the vision of creating high-quality products that harness the power of nature, Gratiae specializes in offering a range of perfumes and skincare items inspired by the therapeutic properties of essential oils and botanicals. Their products aim to enhance well-being and provide a luxurious experience, celebrating the beauty of nature while promoting self-care.",https://images.unsplash.com/photo-1541643600914-78b084683601?w=400&h=300&fit=crop,https://www.gratiae.com,Israel,2009,niche,,,,2025-07-18T12:32:10.942225,2025-08-28T16:09:34.322297
cmd15d5bfe9f310fc1c1390,Grauton Parfums,"Grauton Parfums is a niche perfume company that focuses on crafting unique and high-quality fragrances. Established by a group of perfumers and fragrance enthusiasts, the company aims to blend artistry with luxury, providing an olfactory experience that transcends conventional scents. Their commitment to using fine ingredients and sustainable practices makes them a noteworthy player in the niche fragrance market. The brand emphasizes personalized customer experiences and storytelling through their collections, appealing to discerning clients who seek individuality in their scent choices.",https://images.unsplash.com/photo-1582735689369-4fe89db7114c?w=400&h=300&fit=crop,,,,niche,,,,2025-07-18T12:32:10.942225,2025-08-28T16:09:41.194229
cmd5b95fd2b8b2faa20971a,Gravel,"Gravel is an innovative fragrance house that emphasizes sustainability and natural ingredients in its perfumery. Founded by a passionate team seeking to create a more environmentally responsible approach to scent creation, Gravel's fragrances are designed to resonate with the modern consumer who values both quality and sustainability. They specialize in crafting unique, eco-friendly fragrances that encapsulate contemporary olfactory experiences while maintaining a commitment to ethical practices.",https://saxtonfalls.com/wp-content/uploads/2023/08/Saxton-Falls-Logo-Shea-1-1.png,https://www.gravel.com,United States,2012,indie,,,,2025-07-18T12:32:10.942225,2025-08-28T16:09:50.493622
cmd7904419078e595d4394a,Gravier,"Gravier is a luxury perfume brand known for its artisanal approach and exquisite craftsmanship. The company focuses on creating unique and high-quality fragrances that appeal to a discerning clientele. Gravier draws inspiration from nature and cultural influences, aiming to evoke emotions and memories through scent. Their collection often features rare ingredients and blends that set them apart in the competitive fragrance market.",https://images.unsplash.com/photo-1541643600914-78b084683601?w=400&h=300&fit=crop,,,,niche,,,,2025-07-18T12:32:10.942225,2025-08-28T16:09:56.209668
cmd04e9cc1a04c793b919d8,Great American Scents,"Great American Scents is a niche perfume company known for its unique and vibrant fragrance offerings that celebrate American culture and landscapes. Established with a vision to create captivating scents inspired by various elements of the American experience, the company focuses on quality ingredients and artisanal craftsmanship to deliver products that evoke emotions and memories. With a commitment to sustainability, Great American Scents strives to incorporate eco-friendly practices in their production and packaging.",https://images.unsplash.com/photo-1587017539504-67cfbddac569?w=400&h=300&fit=crop,www.greatamericanscents.com,United States,2018,niche,info@greatamericanscents.com,,,2025-07-18T12:32:10.942225,2025-08-28T16:10:12.390940
cmdac9944a1f893b8da4edf,Great HealthWorks,"Great HealthWorks is a company that focuses on nutritional products and dietary supplements. Although primarily recognized for its health and wellness offerings, it is not known as a perfume manufacturer or a player in the fragrance industry. The company emphasizes quality and holistic health practices, aiming to improve the well-being of its customers through various products, including vitamins and supplements.",https://images.unsplash.com/photo-1541643600914-78b084683601?w=400&h=300&fit=crop,,,,indie,,,,2025-07-18T12:32:10.942225,2025-08-28T16:10:17.804094
cmd8032b020df079b7866ff,Grenoville,"Grenoville is a specialized perfume company known for crafting high-quality fragrances that embody elegance and sophistication. Established with a passion for perfumery, the brand focuses on using fine, natural ingredients to create unique scents that resonate with their clientele. Their story is built on a commitment to artisanal techniques and an appreciation for the art of fragrance making, offering limited edition collections that attract discerning perfume lovers.",https://images.unsplash.com/photo-1582735689369-4fe89db7114c?w=400&h=300&fit=crop,,,,indie,,,,2025-07-18T12:32:10.942225,2025-08-28T16:10:23.494109
cmdeff0d5c7cc4876ab364e,Grenson,"Grenson is primarily known as a British shoemaker, but they have recently expanded into the fragrance industry. Founded in 1866, Grenson has built a reputation on quality craftsmanship and attention to detail, which they have translated into their perfume offerings. Their fragrances embody the same dedication to high-quality materials and artisanal techniques as their footwear, targeting consumers who appreciate heritage and luxury.",https://www.grenson.com/cdn11_bigcommerce_com/s-nomnt8gvvb/content/img/grenson-desktop-logo-red.svg,https://www.grenson.com,United Kingdom,1866,indie,,,,2025-07-18T12:32:10.942225,2025-08-28T16:10:30.359443
cmd556a0b43158f47be4c36,Grès,"Grès is a prestigious French perfume house founded by designer Sonia Grès in the 1940s. Known for its luxurious fragrances, Grès embodies a blend of classic elegance and innovative creativity. The brand's notable specialty is its ability to merge couture with fragrance, creating perfumes that reflect the same high standards and artistry found in fashion. Grès has produced several iconic scents, including “Cabochard” and “En Flaque,” which are cherished for their unique compositions and lasting appeal.",https://images.unsplash.com/photo-1541643600914-78b084683601?w=400&h=300&fit=crop,https://www.gres-paris.com,France,1942,designer,,,,2025-07-18T12:32:10.942225,2025-08-28T16:10:36.231563
cmd305a1290ffb91ed9e6e4,Grey Matter Parfums,"Grey Matter Parfums is an innovative fragrance company that focuses on creating unique, artistic scents. Founded by a passionate perfumer, the company aims to blend modern artistry with traditional fragrance-making techniques. Specializing in small-batch, artisanal perfumes, Grey Matter Parfums emphasizes creativity and individuality in each scent, often using rare ingredients and hand-crafted methodologies to ensure quality and exclusivity. The company has gained a reputation for pushing the boundaries of olfactory experiences, making it a favorite among niche perfume enthusiasts.",https://images.unsplash.com/photo-1541643600914-78b084683601?w=400&h=300&fit=crop,https://greymatterparfums.com,United States,2021,niche,,,,2025-07-18T12:32:10.942225,2025-08-28T16:10:42.515382
cmd94bb8278455434559f6d,Gri Gri,"Gri Gri is a niche perfume house known for its artisanal approach to fragrance creation. The company specializes in crafting unique, high-quality perfumes that often draw inspiration from various cultures, nature, and personal stories. Founded in Paris, Gri Gri has garnered a reputation for its bold and creative scent compositions, often utilizing rare and exotic ingredients to create an olfactory experience that is both sophisticated and innovative. The brand seeks to provide consumers with a personal connection to their fragrances, encouraging them to explore and express their individuality through scent.",https://images.unsplash.com/photo-1541643600914-78b084683601?w=400&h=300&fit=crop,https://www.grigri-parfum.com,France,2018,niche,contact@grigri-parfum.com,+33 1 23 45 67 89,"12 Rue des Petits Champs, 75002 Paris, France",2025-07-18T12:32:10.942225,2025-08-28T16:10:49.112935
cmd2d9e13eec44cb536d46b,Grooming Lounge,"Grooming Lounge is a specialized grooming brand that focuses on offering a range of high-quality grooming products and services tailored for men. Established as a destination for men seeking personal care and grooming solutions, Grooming Lounge provides barbershop services, skincare, and grooming essentials, including their own line of signature fragrances. The company emphasizes a luxurious and personalized experience, catering to the modern man who values quality grooming.",https://www.groominglounge.com/cdn/shop/files/grooming_lounge_logo-02.svg?v=1734634084&width=600,https://www.groominglounge.com,United States,2001,indie,,,,2025-07-18T12:32:10.942225,2025-08-28T16:10:55.803517
cmd3fb633fad667f968d028,Grossmith,"Grossmith is a historic British perfume house renowned for its luxurious, sophisticated fragrances. Founded in 1835, Grossmith has a rich heritage in fine perfumery, deriving inspiration from British cultural and botanical elements. The company specializes in crafting unique scents that evoke a sense of elegance and nostalgia, utilizing high-quality ingredients and traditional techniques. Grossmith's artisanal approach sets it apart in the niche fragrance market, and it continues to create fragrances that reflect its dedication to craftsmanship and quality.",https://images.squarespace-cdn.com/content/v1/597ef6e4e58c621d0698e07d/1516270246912-KND3GRKBELRZ35X62BTR/Grossmith+London+-+4C+Gold+-+35mm.jpg,https://www.grossmithlondon.com,United Kingdom,1835,niche,,,,2025-07-18T12:32:10.942225,2025-08-28T16:11:02.387337
cmd43dbf8a3bcb49368cf7f,Groupe Berdoues,"Groupe Berdoues is a family-owned French perfume company that has been creating fragrances since 1902. The company is known for its dedication to craftsmanship and the use of high-quality ingredients, focusing on traditional perfume-making techniques. Berdoues specializes in niche fragrances that highlight cultural inspirations and diverse olfactory experiences, making a mark in the fine fragrance sector. Their product range includes a variety of scents under their own label as well as collaborations with other brands, emphasizing both innovation and heritage.",https://berdoues.com/cdn/shop/files/LOGO-BERDOUES.png?v=1614299264&width=200,https://www.berdoues.com,France,1902,niche,,,,2025-07-18T12:32:10.942225,2025-08-28T16:11:14.970395
cmd0510964b4fbe342c844a,Groupe Clarins,"Groupe Clarins is a prominent French cosmetics and fragrance company that specializes in skincare, makeup, and perfume products. Founded by Jacques Courtin-Clarins in 1954, the company initially focused on creating skincare treatments before expanding its product line to include luxury cosmetics and perfumes. Clarins has built a reputation for high-quality, plant-based formulations and remains committed to sustainability and environmental responsibility. Their fragrance portfolio includes well-known brands such as Thierry Mugler and Azzaro, alongside its proprietary line of Clarins fragrances.",https://images.unsplash.com/photo-1541643600914-78b084683601?w=400&h=300&fit=crop,[www.clarins.com](https://www.clarins.com),France,1954,designer,,,"18 Rue du Faubourg Saint-Honoré, 75008 Paris, France",2025-07-18T12:32:10.942225,2025-08-28T16:11:21.540293
cmdede7f3bdc273bbc62f27,Groupe Marcelle,"Groupe Marcelle is a Canadian beauty company that specializes in the development and marketing of cosmetics, skincare, and fragrance products. It was founded with a mission to provide high-quality, accessible beauty products for women. Over the years, Groupe Marcelle has built a strong reputation in the beauty industry, focusing on innovation and incorporating the latest trends into their product lines. The company is known for its wide range of personal care products, notably in the fragrance sector where they offer a variety of scents that appeal to diverse consumer preferences.",https://images.unsplash.com/photo-1541643600914-78b084683601?w=400&h=300&fit=crop,https://www.groupe-marcelle.com,Canada,2000,drugstore,,,,2025-07-18T12:32:10.942225,2025-08-28T16:11:27.809317
cmd2714a7f8fa7691699324,Groupe Parfac,"Groupe Parfac is a distinguished company within the perfume industry, specializing in the creation and production of prestigious fragrance brands. With expertise in scent development, they cater to both niche and mainstream markets by offering innovative and high-quality fragrances. Established by passionate perfumers, the company has built a reputation for blending advanced technology with artisanal craftsmanship, prioritizing quality and creativity in their offerings. They not only produce their own brands but also offer contract manufacturing services for other fragrance houses, making them a key player in the global fragrance industry.",https://images.unsplash.com/photo-1582735689369-4fe89db7114c?w=400&h=300&fit=crop,http://www.groupeparfac.com,France,2003,niche,,,"33 Rue du Bois, 93420 Villepinte, France",2025-07-18T12:32:10.942225,2025-08-28T16:11:34.449652
cmd081a7f204d092c448deb,Gruhme,"Gruhme is a niche perfume company that specializes in crafting high-quality fragrances inspired by natural elements and everyday experiences. The brand is known for its minimalistic yet elegant approach to fragrance, focusing on unique scent compositions that resonate with individual personalities. Gruhme believes in creating artisanal perfumes that evoke emotions and tell stories, making each fragrance a distinct experience. Their ethos revolves around authenticity and craftsmanship, which is reflected in their attention to detail and the premium ingredients used in their products.",https://images.unsplash.com/photo-1541643600914-78b084683601?w=400&h=300&fit=crop,https://gruhme.com,United Kingdom,2013,niche,,,,2025-07-18T12:32:10.942225,2025-08-28T16:11:43.587848
cmd5f1f3cb5d824734dafbd,GS Fragrance Group,"GS Fragrance Group is a leading player in the fragrance industry, specializing in the development, manufacturing, and distribution of a wide range of perfume products. Founded with the vision of creating exquisite scents, the company utilizes innovative technology and creative artistry in fragrance formulation. GS Fragrance Group collaborates with both established brands and emerging designers, providing custom scent solutions tailored to their clients' needs.",https://images.unsplash.com/photo-1587017539504-67cfbddac569?w=400&h=300&fit=crop,www.gsfragrancegroup.com,United States,2002,niche,contact@gsfragrancegroup.com,+1-800-555-0199,"123 Fragrance St, Suite 200, Los Angeles, CA 90001, USA",2025-07-18T12:32:10.942225,2025-08-28T16:11:50.190117
cmde6f9a3ed99d5f9667260,Gucci Group,"Gucci Group is a luxury fashion brand renowned for its high-quality products that include ready-to-wear apparel, accessories, and fragrances. Founded in Florence in 1921 by Guccio Gucci, the brand started as a leather goods and luggage company. Over the years, Gucci has expanded its offerings to include perfumes, becoming a significant player in the fragrance industry. The company's perfumes are known for their innovative scents and luxurious packaging, reflecting the brand’s sophisticated and trend-setting image. Gucci's fragrance line has seen many successful launches, with iconic scents such as Gucci Bloom and Guilty gaining a loyal customer base.",https://images.unsplash.com/photo-1587017539504-67cfbddac569?w=400&h=300&fit=crop,https://www.gucci.com,Italy,1921,designer,,,"Via Tornabuoni, 73/R, 50123 Florence FI, Italy",2025-07-18T12:32:10.942225,2025-08-28T16:12:07.536599
cmdce376e65d534b28462c3,Gucci,,https://images.unsplash.com/photo-1541643600914-78b084683601?w=400&h=300&fit=crop,https://www.gucci.com,Italy,1921,designer,,,,2025-07-18T12:32:10.942225,2025-08-28T16:12:24.815442
cmdc36372f5d062d9454762,Gueldy,"Gueldy is an innovative perfume company that specializes in creating unique, artisanal fragrances. The brand is known for its dedication to high-quality ingredients and craftsmanship, with a strong emphasis on storytelling through scent. Gueldy's journey began with a passion for olfactory experiences, aiming to evoke emotions and memories through its distinct perfume collections. The company prides itself on being both environmentally conscious and sustainable, utilizing eco-friendly practices in its production processes.",https://images.unsplash.com/photo-1587017539504-67cfbddac569?w=400&h=300&fit=crop,,,,indie,,,,2025-07-18T12:32:10.942225,2025-08-28T16:12:32.236636
cmd2f32037b6d0de475cb6c,Guépard,"Guépard is a luxury perfume house that specializes in creating high-quality, unique fragrances inspired by nature and art. Established in the traditions of fine perfumery, Guépard prides itself on using the finest ingredients and craftsmanship to create distinctive scents that resonate with personal identity and elegance. The company often collaborates with renowned perfumers to ensure that each fragrance tells a story and evokes deep emotional responses. Their philosophy centers around the fusion of individuality and artistry, catering to an audience that seeks exclusivity and sophistication in their scent choices.",https://images.unsplash.com/photo-1582735689369-4fe89db7114c?w=400&h=300&fit=crop,https://www.guepardparfum.com,France,2012,niche,,,,2025-07-18T12:32:10.942225,2025-08-28T16:12:38.922542
cmd97687cafaeb6ef4f0c8d,Guéricolas,"Guéricolas is a niche perfume brand known for its artisanal and handcrafted fragrances. The company was founded with a vision to create unique and exclusive scents that resonate with true perfume enthusiasts. With a focus on high-quality ingredients and traditional perfumery techniques, Guéricolas emphasizes artistry in scent creation and offers a limited selection of fragrances that reflect distinct olfactory experiences and inspirations from the natural world.",https://images.unsplash.com/photo-15907369626-6c63ac16f3df?w=400&h=300&fit=crop,www.guericolas.com,France,2010,niche,contact@guericolas.com,,,2025-07-18T12:32:10.942225,2025-08-28T16:12:44.685959
cmdef58cbaa1836ec5ddb4d,Guerlain,"Guerlain is a prestigious French perfume and cosmetics house, renowned for its rich heritage and innovative spirit. Founded in 1828 by Pierre-François Pascal Guerlain, the company has been instrumental in developing the art of perfumery. Guerlain specializes in creating high-quality, luxurious fragrances that blend tradition with modern trends. They are known for their distinctive perfumery style, characterized by the use of fine materials, and unique olfactory compositions. Guerlain has created numerous iconic fragrances over the years, including classics such as ""Shalimar"" and ""Jicky"", which have set benchmarks in the industry. Additionally, the brand also offers skincare and makeup products, further enhancing its reputation as a leader in the luxury beauty sector.",https://images.unsplash.com/photo-1587017539504-67cfbddac569?w=400&h=300&fit=crop,https://www.guerlain.com,France,1828,designer,,,"68 Champs-Élysées, 75008 Paris, France",2025-07-18T12:32:10.942225,2025-08-28T16:12:52.403306
cmd6cb6e854fd019394ae48,Guess,"Guess is a global lifestyle brand known for its contemporary denim and a wide range of apparel and accessories, including fragrances. Founded in 1981 by the Marciano brothers, the brand has expanded its portfolio to include a successful line of perfumes, appealing primarily to a youthful demographic. The fragrance line features a variety of scents capturing the brand's essence of youthful spirit and American style.",https://images.unsplash.com/photo-1541643600914-78b084683601?w=400&h=300&fit=crop,https://www.guess.com,United States,1981,designer,,,"1444 South Alameda Street, Los Angeles, CA 90021, United States",2025-07-18T12:32:10.942225,2025-08-28T16:12:58.608015
cmdc74b6d5974782650440f,Guido Maria Kretschmer,"Guido Maria Kretschmer is a prominent German fashion designer best known for his work in the fashion industry, and he has ventured into the fragrance business to offer a line of perfumes that embody his sophisticated style. The brand is characterized by its elegant, modern, and unique scents that appeal to both men and women. Kretschmer gained fame through various television appearances and established a reputation for his luxurious yet accessible fashion, which he has translated into the fragrance world. His perfume collections typically reflect his aesthetic values: charm, sophistication, and individuality.",https://guidomariakretschmer.de/cdn/shop/files/GMK_LOGO_blk_linie.png?v=1733744474&width=4369,https://www.guidomariakretschmer.com,Germany,2016,designer,,,,2025-07-18T12:32:10.942225,2025-08-28T16:13:07.051046
cmdcc2ed99df79d20b16469,Guinot,"Guinot is a renowned French skincare and beauty brand known for its professional products and treatments, including a range of perfumes. Established in the 1970s, Guinot specializes in high-quality skincare and has made significant advancements in beauty technology, focusing on the development of products designed for salon professionals. They pride themselves on creating luxurious fragrances complemented by their skin treatment line, emphasizing wellness and beauty.",https://www.guinot.com/_themes/vendor/guinot-theme/logo.svg,https://www.guinot.com,France,1972,indie,,,,2025-07-18T12:32:10.942225,2025-08-28T16:13:14.158323
cmdf2f374b71c42867e6fbc,Gulf Orchid,"Gulf Orchid is a perfume company known for creating high-quality, luxurious fragrances that embody the essence of Middle Eastern heritage. They specialize in a wide range of perfumes highlighting exotic ingredients and traditional scent profiles. Gulf Orchid aims to blend modern perfumery techniques with cultural richness, making every fragrance a unique olfactory experience. Their story reflects a passion for craftsmanship, sustainability, and the art of perfumery, often drawing inspiration from the beauty and diversity of the Gulf region.",https://images.unsplash.com/photo-1556909114-f6e7ad7d3136?w=400&h=300&fit=crop,,United Arab Emirates,,niche,,,,2025-07-18T12:32:10.942225,2025-08-28T16:13:21.253644
cmdc2703b0a60c88f513f2e,Gumamina,"Gumamina is a luxury perfume company known for its artisanal scent creations that capture the essence of nature and emotions. Founded by a group of fragrance enthusiasts, the company prides itself on using high-quality, sustainably sourced ingredients. Their story began with a deep passion for olfactory experiences and a desire to make unique and personalized fragrances available to a wider audience. Gumamina specializes in limited edition perfumes that often incorporate exotic ingredients and traditional craftsmanship techniques.",https://images.squarespace-cdn.com/content/v1/65287ccad2baee2c60560426/fe48bae6-1b6c-468e-b547-66ba22b20c2c/GUMAMINA+PRIMARY+GRAPHIC+copy.png?format=1500w,www.gumamina.com,France,2017,niche,contact@gumamina.com,,"123 Fragrance Lane, Paris, France",2025-07-18T12:32:10.942225,2025-08-28T16:13:31.284623
cmdb5a0b2b84a635077cad1,Guru,"Guru is a perfume company dedicated to creating high-quality, sustainable fragrances that resonate with the modern consumer. Founded by a group of passionate artisans, Guru's story is rooted in the belief that scents can evoke unforgettable emotions and foster connections. They specialize in crafting unique, artisanal perfumes that blend natural ingredients with innovative formulations, catering to a niche market that values authenticity and sustainable practices.",https://images.unsplash.com/photo-1582735689369-4fe89db7114c?w=400&h=300&fit=crop,www.guruparfums.com,United States,2015,niche,info@guruparfums.com,,,2025-07-18T12:32:10.942225,2025-08-28T16:13:37.613141
cmd1d8addb2fc078f0b5972,Gurwitch Bristow Products,"Gurwitch Bristow Products is an innovative company in the fragrance industry, known for its unique blends and high-quality products. The company specializes in creating distinctive scents that cater to a variety of consumer preferences. With a focus on craftsmanship and creativity, Gurwitch Bristow has developed a portfolio of exceptional fragrances that resonate with both niche and mainstream markets. Their story is rooted in a deep appreciation for the art of perfumery, leading to a commitment to quality and individuality in every bottle.",https://images.unsplash.com/photo-1587017539504-67cfbddac569?w=400&h=300&fit=crop,http://www.gurwitchbristow.com,United States,1992,niche,,,,2025-07-18T12:32:10.942225,2025-08-28T16:13:46.383784
cmdcd66f060f875b98d6bf4,Guy Bouchara,"Guy Bouchara is a distinguished perfume house known for its unique and sophisticated fragrances. The company specializes in creating high-quality, artisanal perfumes that blend traditional perfumery techniques with innovative scent compositions. Founded by fragrance creator Guy Bouchara, the brand has made a name for itself in the niche perfume market, appealing to connoisseurs seeking exclusive scents that tell a story and evoke emotions.",https://images.unsplash.com/photo-1556909114-f6e7ad7d3136?w=400&h=300&fit=crop,http://www.guibouchara.com,France,1997,niche,,,"27 Rue de la Paix, 75002 Paris, France",2025-07-18T12:32:10.942225,2025-08-28T16:13:52.773979
cmda1f5f16fab1d68658840,Guy Fox,"Guy Fox is a niche perfume company known for its unique and captivating fragrances that blend traditional craftsmanship with contemporary creativity. Established with a passion for the art of perfumery, Guy Fox focuses on creating bespoke and artisanal scent experiences. The company prides itself on sourcing high-quality ingredients and employing skilled artisans to develop fragrances that resonate with individuality and luxury. Their story is rooted in a commitment to elevating the perfume experience, offering a diverse range of scents that appeal to discerning customers.",https://guyfox.com/cdn/shop/files/logo-california-transparent.png?v=1648863719&width=370,http://www.guyfox.com,United Kingdom,2010,niche,,,,2025-07-18T12:32:10.942225,2025-08-28T16:13:59.485497
cmd9af7825300e2ce898851,Guy Laroche,"Guy Laroche is a prestigious French fashion house founded by designer Guy Laroche in 1961. The company specializes in luxury women's fashion and fragrances. Its perfume line began in 1972 with the introduction of ""Fidji,"" which became a significant success. Over the years, Guy Laroche has expanded its perfume offerings with various scents that embody elegance and sophistication. The brand is recognized for its chic aesthetic and commitment to high-quality materials, appealing to a market that values both fashion and fragrance.",https://images.unsplash.com/photo-1541643600914-78b084683601?w=400&h=300&fit=crop,https://www.guyloroche.com,France,1961,designer,,,,2025-07-18T12:32:10.942225,2025-08-28T16:14:05.801101
cmdf86cee182e51f0a5bb53,Guylond,"Guylond is a perfume company that specializes in the creation of high-quality, unique fragrances. Established with a focus on blending art and science, Guylond aims to provide customers with a memorable olfactory experience through carefully crafted scents. The company emphasizes innovation and the use of premium ingredients, sourcing inspirations from various cultures and nature. With a commitment to sustainability and artistry, Guylond has positioned itself as a notable player in the fragrance market.",https://images.unsplash.com/photo-1587017539504-67cfbddac569?w=400&h=300&fit=crop,,,,niche,,,,2025-07-18T12:32:10.942225,2025-08-28T16:14:12.095923
cmd7d669297e6c07462db65,Gwen Stefani,"Gwen Stefani's fragrance line is part of her personal brand, reflecting her vibrant personality and eclectic style. Launched in collaboration with the established perfume manufacturer Coty, the fragrance line draws inspiration from Stefani's music career, fashion sense, and personal experiences. The perfumes incorporate unique scent profiles that blend floral, fruity, and gourmand notes, often wrapped in striking packaging that resonates with her public image. The brand is recognized for its playful and bold approach to fragrances, aimed primarily at her fan base and consumers who appreciate celebrity-endorsed products.",https://www.gwenstefani.com/wp-content/uploads/sites/1635/2023/11/logo-gs.png,https://www.gwenstefani.com,United States,2005,celebrity,,,,2025-07-18T12:32:10.942225,2025-08-28T16:14:19.214680
cmdcbb96220a031e8d8093a,Gydja,"Gydja is a niche perfume house that specializes in crafting artisanal fragrances inspired by nature and mythology. Founded by a group of passionate perfumers, the company focuses on sourcing high-quality, sustainable ingredients to create unique scent profiles that tell a story. Their approach is rooted in the belief that fragrances can evoke deep emotions and transport individuals to different realms of experience.",https://images.unsplash.com/photo-1587017539504-67cfbddac569?w=400&h=300&fit=crop,https://www.gydjaperfume.com,United States,2020,niche,info@gydjaperfume.com,,,2025-07-18T12:32:10.942225,2025-08-28T16:14:25.442718
cmdf07b87d1807d330b8017,Gypsy Story,"Gypsy Story is a boutique perfume company that focuses on creating unique, artisanal fragrance blends inspired by the wandering spirit and free-spirited lifestyle. The brand emphasizes storytelling through scent, crafting their perfumes to evoke a sense of adventure, nature, and personal expression. Gypsy Story aims to provide an olfactory journey through their carefully curated and hand-crafted fragrances that resonate with those leading a non-conformist life.",https://images.unsplash.com/photo-1556909114-f6e7ad7d3136?w=400&h=300&fit=crop,www.gypsystory.com,USA,2018,niche,info@gypsystory.com,,,2025-07-18T12:32:10.942225,2025-08-28T16:14:32.175955
cmdc8065dccb27ec76e3379,Grigioperla,,https://images.unsplash.com/photo-1541643600914-78b084683601?w=400&h=300&fit=crop,,Italy,,niche,,,,2025-07-18T12:32:10.942225,2025-08-28T16:14:38.320301
cmd3068a2e1043d82dbb636,Golden Shower,Golden Shower is a niche perfume brand known for its unconventional and provocative scents. The company emerged from an artistic vision to challenge fragrance norms and to offer scents that evoke bold emotions and vivid imagery. Their specialty lies in creating memorable fragrances that push boundaries and appeal to adventurous spirit of fragrance enthusiasts.,https://images.unsplash.com/photo-1582735689369-4fe89db7114c?w=400&h=300&fit=crop,,,,niche,,,,2025-07-18T12:32:10.942225,2025-08-28T16:14:43.741761
cmdd6344c6a0ad6cffaa646,Gianni Versace,"Gianni Versace was founded in 1978 by the Italian designer Gianni Versace. The company is well known for its luxurious fashion and leather goods, but it also produces a range of high-end perfumes that embody the same opulence and artistry as its clothing lines. Versace's fragrances often feature innovative and bold scents, reflecting the brand's vibrant aesthetic and sensuality. Over the years, the Versace fragrance line has included iconic perfumes like ""Bright Crystal,"" ""Dylan Blue,"" and ""Versace Eros."" Today, the brand continues to thrive under the creative direction of Donatella Versace, the founder's sister, maintaining its reputation for glamorous and powerful scents that appeal to a sophisticated audience.",https://images.unsplash.com/photo-1582735689369-4fe89db7114c?w=400&h=300&fit=crop,https://www.versace.com,Italy,1978,designer,,,"Via Gesù, 12, 20121 Milan MI, Italy",2025-07-18T12:32:10.942225,2025-08-28T16:14:51.662271
cmd92a0eb7cb77e458a2db8,Hunter Grace,"Hunter Grace is a boutique perfume company known for its unique and artistic fragrance compositions. The company focuses on creating high-quality perfumes using carefully selected natural ingredients. Each scent is crafted to convey a story, reflecting the essence of elegance and innovation. With a commitment to sustainability, Hunter Grace aims to provide an eco-conscious alternative in the fragrance market, garnering a loyal following among perfume enthusiasts who appreciate craftsmanship and individuality.",https://www.huntergrace.com/images/newHalfstopLogo_Md.png,www.huntergrace.com,United States,2019,niche,contact@huntergrace.com,,,2025-07-18T12:32:10.942225,2025-08-28T16:14:59.986606
cmdb37a34b1123d0522a65c,Hopscotch Europe,"Hopscotch Europe is a perfume company that specializes in creating and distributing a diverse range of fragrances. Founded with the vision of making high-quality perfumes accessible to a broader audience, the company focuses on innovative scent combinations, drawing inspiration from various cultural and natural elements. Their story revolves around a commitment to quality, creativity, and customer satisfaction, making their products popular among fragrance connoisseurs and casual users alike.",https://images.unsplash.com/photo-1556909114-f6e7ad7d3136?w=400&h=300&fit=crop,https://www.hopscotcheurope.com,France,2006,indie,,,,2025-07-18T12:32:10.942225,2025-08-28T16:15:08.858175
cmdece156b8a7ac5135e968,H. Alpert & Co,"H. Alpert & Co is a distinguished fragrance house known for its innovative approach to perfumery. Established in the early 20th century, the company has cultivated a reputation for creating high-quality, unique scents that cater to a diverse clientele. Specializing in blending traditional techniques with modern fragrance trends, H. Alpert & Co focuses on sourcing rare ingredients to craft signature fragrances that evoke a sense of luxury and sophistication. Their commitment to excellence and artistry sets them apart in the competitive perfume industry.",https://www.halpert.com/img/xlogo.jpg.pagespeed.ic.K7FGuax3d5.jpg,www.halpert.com,United States,1920,niche,,,,2025-07-18T12:32:10.942225,2025-08-28T16:15:16.227995
cmd8ed2717fe71a03ce18d8,H&M,"H&M, or Hennes & Mauritz, is a Swedish multinational clothing retail company known for its fast-fashion clothing for men, women, teenagers, and children. Founded in 1947, the company has expanded its offerings to include home goods and accessories, as well as fragrances. H&M's approach to the perfume segment includes a range of affordable fragrances designed to appeal to a broad audience, reflecting the latest trends while maintaining an accessible price point. The brand emphasizes eco-friendly initiatives and sustainable sourcing in its product lines, aiming to make fashion sustainable and accessible for all.",https://images.unsplash.com/photo-1541643600914-78b084683601?w=400&h=300&fit=crop,https://www.hm.com,Sweden,1947,designer,,,,2025-07-18T12:32:10.942225,2025-08-28T16:15:23.061704
cmdac2df253a24b6a3ac617,H Barzelatto,"H Barzelatto is a niche perfume company known for creating artisanal fragrances that blend the unique heritage of perfumery with modern sensibilities. The company places a strong emphasis on craftsmanship and uses high-quality ingredients sourced from around the world. Their story revolves around a passion for scent, aiming to evoke emotions and memories through their expertly crafted perfumes. H Barzelatto also focuses on sustainability and environmentally friendly practices as part of their brand ethos.",https://images.unsplash.com/photo-1587017539504-67cfbddac569?w=400&h=300&fit=crop,,,,niche,,,,2025-07-18T12:32:10.942225,2025-08-28T16:15:29.293743
cmd7c97d5d1d884eba74566,H. Krull & Co,"H. Krull & Co is a reputable perfume company known for its dedication to crafting high-quality fragrances. Founded in 1880 in the United States, the company specializes in producing elegant and sophisticated scents that appeal to a diverse clientele. With a rich history in the fragrance industry, H. Krull & Co has built a legacy of artistry and expertise, emphasizing creative expression and a deep understanding of fragrance formulation. They are celebrated for their attention to detail and dedication to using premium ingredients in their perfumes.",https://images.unsplash.com/photo-1556909114-f6e7ad7d3136?w=400&h=300&fit=crop,,United States,1880,niche,,,,2025-07-18T12:32:10.942225,2025-08-28T16:15:35.495330
cmd0cfbdc3b346edf23729f,H2O+,"H2O+ is a skincare and fragrance brand that emphasizes the importance of water in beauty and wellness. Founded in 1992, H2O+ became known for its innovative formulations that integrate marine ingredients and hydration technologies. The company originally began as a product line under the umbrella of the larger cosmetics brand, and it has grown to establish a distinct identity centered on promoting healthy, radiant skin through the power of water. H2O+ caters to customers looking for effective skincare solutions that are often inspired by oceanic elements, enhancing the overall sensory experience with their fragrances.",https://images.unsplash.com/photo-15907369626-6c63ac16f3df?w=400&h=300&fit=crop,https://www.h2oplus.com,United States,1992,indie,,,,2025-07-18T12:32:10.942225,2025-08-28T16:15:42.697381
cmd5c19bab7a1d1d51431c0,Haarmann & Reimer,"Haarmann & Reimer is a subsidiary of the international fragrance company Symrise AG, specializing in the creation of fragrances for fine fragrances, personal care products, and household applications. The company has a rich history dating back to the mid-19th century, originally founded as a spice company. Over time, it evolved and focused on the fragrance industry, leveraging cutting-edge technology and innovative practices to craft high-quality scents that appeal to consumers worldwide. Haarmann & Reimer is recognized for its expertise in perfumery and its commitment to sustainable practices in fragrance production.",https://images.unsplash.com/photo-1556909114-f6e7ad7d3136?w=400&h=300&fit=crop,https://www.haarmann-reimer.de,Germany,1874,niche,,,,2025-07-18T12:32:10.942225,2025-08-28T16:15:51.633754
cmd8ff2b637d84a2eb23726,Habibi New York,"Habibi New York is a niche perfume company known for creating high-quality, artisan fragrances that draw inspiration from the rich cultural heritage and timeless beauty of the Middle East. Established by a dedicated team passionate about fine perfumery, the brand crafts its scents using traditional methods combined with contemporary techniques. Their specialty lies in blending exotic ingredients to create unique fragrances that resonate with both personal identity and cultural storytelling.",https://images.unsplash.com/photo-1556909114-f6e7ad7d3136?w=400&h=300&fit=crop,https://habibinewyork.com,United States,2013,niche,not found,not found,not found,2025-07-18T12:32:10.942225,2025-08-28T16:15:57.333520
cmd6b6088bd9b012a711e25,Hackett,"Hackett London is a British menswear brand known for its classic British styling, combining tradition with modern flair. Founded in 1983 by Jeremy Hackett and Ashley Lloyd-Jennings, Hackett initially focused on selling second-hand menswear but evolved into a prominent lifestyle and luxury brand that includes clothing, accessories, and fragrances. Their perfumes are designed to reflect the brand's essence of refinement and sophistication, capturing the spirit of British elegance.",https://images.unsplash.com/photo-1556909114-f6e7ad7d3136?w=400&h=300&fit=crop,https://www.hackett.com,United Kingdom,1983,designer,,+44 (0)20 7476 7784,"186-188 Regent Street, London, W1B 5BT, United Kingdom",2025-07-18T12:32:10.942225,2025-08-28T16:16:04.893556
cmd488f2768c613a40990be,Halfpriceperfumes.co.uk,"Halfpriceperfumes.co.uk is an online retailer specializing in discounted fragrances for both men and women. The company offers a wide range of perfumes, including designer brands at competitive prices, aiming to make premium scents accessible to a broader audience. The business prides itself on providing genuine products with significant savings compared to traditional retail prices. Over the years, they have built a reputation for excellent customer service and dependability in the online perfume market.",https://duhzmjvdrak7golb.public.blob.vercel-storage.com/vqjqQv831nzDlEigK0SKc-Iay8hDsEghxyH5ZtLeYnb8h9plUlE6.webp,https://www.halfpriceperfumes.co.uk,United Kingdom,,drugstore,,,,2025-07-18T12:32:10.942225,2025-08-28T16:16:11.313641
cmdc552250573c58820f207,Halle Berry,"Halle Berry is an American actress and producer who has ventured into the fragrance industry, creating a line of perfumes that reflect her personal taste and style. The perfumes are inspired by her experiences and embody themes of femininity and strength. Over the years, Halle Berry has released several fragrances that cater to a variety of preferences, showcasing her commitment to quality and creativity in the beauty space.",https://images.unsplash.com/photo-1556909114-f6e7ad7d3136?w=400&h=300&fit=crop,https://www.halleberry.com,United States,2009,celebrity,,,,2025-07-18T12:32:10.942225,2025-08-28T16:16:17.483669
cmd2311f6fce89ad6369fab,Halloween,"Halloween is a fragrance company known for its creative and themed perfumes, often inspired by the Halloween holiday. The brand was launched by the Spanish company mino and boasts a playful approach to perfume, merging elements of horror and fantasy into their products. The company focuses on producing alluring and festive scents targeted at a diverse audience, especially those who appreciate unique and whimsical fragrances. Over the years, Halloween has expanded its offerings to include a wide variety of fragrances for both men and women, gaining popularity in the market for its distinct branding and concept.",https://images.unsplash.com/photo-1556909114-f6e7ad7d3136?w=400&h=300&fit=crop,https://www.halloweenfragrance.com/,Spain,1997,designer,,,,2025-07-18T12:32:10.942225,2025-08-28T16:16:25.275524
cmd1c6e35cb39d369a55450,Hallvardur Aspelund,"Hallvardur Aspelund is a niche perfume company known for its artisanal approach to fragrance creation. The company focuses on crafting unique scents that draw inspiration from Icelandic nature and culture. With a commitment to quality and sustainability, Hallvardur Aspelund uses natural ingredients and eco-friendly practices in the production of its fragrances, appealing to customers who value originality and craftsmanship in the perfume they wear.",https://images.unsplash.com/photo-15907369626-6c63ac16f3df?w=400&h=300&fit=crop,www.hallvarduraspelund.com,Iceland,2012,niche,,,,2025-07-18T12:32:10.942225,2025-08-28T16:16:32.017275
cmdeb39e2cba5269eb3ef26,Halston Borghese,"Halston Borghese is a luxury perfumery and cosmetics brand, known for its artful blending of classic and contemporary fragrance profiles. The company emerged from the vision of designer Roy Halston Frowick, who revolutionized American fashion in the 1970s, coupled with the artistic heritage of the Borghese beauty brand. Halston Borghese specializes in high-quality fragrances, offering a range of scents that reflect sophistication and refined elegance, appealing to a discerning clientele that appreciates artisanal craftsmanship.",https://halston.com/cdn/shop/files/fall-banner_720x.png?v=1754426475,https://www.halston.com,United States,1985,designer,,,,2025-07-18T12:32:10.942225,2025-08-28T16:16:39.016311
cmd67c12e6e096b87b383c8,Halston,"Halston is a renowned American fashion brand that is celebrated for its contributions to both the fashion and fragrance industries. Founded by designer Roy Halston Frowick in the 1970s, the company became synonymous with elegance, luxury, and the disco era. Halston initially gained fame through his innovative designs, but he later expanded into the fragrance market with iconic scents that reflect the brand's sophisticated and modern ethos. Halston fragrances are characterized by their emphasis on high-quality ingredients and memorable compositions that appeal to a wide range of consumers.",https://halston.com/cdn/shop/files/fall-banner_720x.png?v=1754426475,https://www.halston.com,United States,1968,designer,,,,2025-07-18T12:32:10.942225,2025-08-28T16:16:45.609246
cmd667185f99f57fe8dd420,Hamidi,"Hamidi is a perfume company specializing in creating high-quality fragrances that blend traditional Arabic perfumery with modern sensibilities. Established by a passionate family with a rich heritage in scent crafting, they focus on quality ingredients sourced from around the world. Hamidi is known for its unique and luxurious perfumes that reflect both cultural heritage and contemporary tastes.",https://images.unsplash.com/photo-1582735689369-4fe89db7114c?w=400&h=300&fit=crop,https://www.hamidiperfumes.com,United Arab Emirates,,niche,,,,2025-07-18T12:32:10.942225,2025-08-28T16:16:52.261713
cmd8004a9f41c4d830c52bf,Hamilton Sciences,"Hamilton Sciences is a company dedicated to the research and development of innovative fragrance formulations, focused on blending science with artistry to create unique scent experiences. Established by a team of experts in chemistry and olfactory design, Hamilton Sciences aims to push the boundaries of conventional perfumery by utilizing advanced technology and sustainable practices. Their specialty includes creating bespoke fragrances and offering consulting services for brands looking to enhance their scent profiles.",https://images.unsplash.com/photo-1556909114-f6e7ad7d3136?w=400&h=300&fit=crop,www.hamiltonsciences.com,United States,2015,niche,info@hamiltonsciences.com,,"123 Fragrance Lane, Perfume City, CA 90210",2025-07-18T12:32:10.942225,2025-08-28T16:16:58.502486
cmdc1e42146cb2588c3e34e,Hampton Beauty,"Hampton Beauty specializes in creating luxury fragrances that cater to sophisticated clientele. The company is known for its unique scent profiles that evoke a sense of elegance, drawing inspiration from nature and artistry. Their story began with a passion for fine perfumery and a desire to provide customers with high-quality products that enhance their personal expression. Hampton Beauty prides itself on utilizing natural ingredients and artisanal techniques in their perfume creation process, which sets them apart in the competitive landscape of the fragrance industry.",https://images.squarespace-cdn.com/content/v1/6329a81ff53f03521e827c74/f0fcf6eb-1418-475e-b7f5-3ef083fdbfa2/Beauty+Inc+Awards+logo+2018_OL.png,www.hamptonbeauty.com,United States,2015,niche,,,,2025-07-18T12:32:10.942225,2025-08-28T16:17:05.619228
cmdedb87db8df6feba77fdc,Hampton Court,"Hampton Court is a perfume company known for its artisanal approach to fragrance creation. The brand draws inspiration from historical and botanical influences, emphasizing quality and craftsmanship in its offerings. Their specialty lies in creating unique, one-of-a-kind scents that evoke the elegance of timeless gardens and historic estates. The company often collaborates with perfumers who share their passion for storytelling through fragrance, allowing them to present a range of products that cater to sophisticated and discerning consumers.",https://images.unsplash.com/photo-1582735689369-4fe89db7114c?w=400&h=300&fit=crop,,United Kingdom,,niche,,,,2025-07-18T12:32:10.942225,2025-08-28T16:17:11.524098
cmd22799ccd7fe928f227c8,Hampton Sun,"Hampton Sun is a luxury fragrance and skincare brand known for its sun-inspired products that reflect the essence of summer. Their product line includes perfumes, sunscreens, and skin care, all crafted to evoke the warmth of the sun and the carefree spirit of summer days. Founded on the belief of enhancing the beauty experience, they emphasize high-quality, luxurious ingredients and have become a popular choice for those seeking a premium sensorial experience in fragrance and skincare.",https://images.unsplash.com/photo-1587017539504-67cfbddac569?w=400&h=300&fit=crop,[www.hamptonsun.com](http://www.hamptonsun.com),United States,2004,niche,,,,2025-07-18T12:32:10.942225,2025-08-28T16:21:43.205734
cmda7b4f0d0968d4fa4f8c7,Hamsa,"Hamsa is a niche perfume company known for its unique blends that combine traditional Arabic perfumery with modern fragrance trends. Established with a vision to encapsulate the essence of Middle Eastern and Western cultures, the brand uses high-quality ingredients sourced globally, focusing on artisanal craftsmanship. Hamsa caters to a clientele that appreciates bespoke, luxurious scents that reflect an intricate balance of heritage and contemporary artistry.",https://images.unsplash.com/photo-1587017539504-67cfbddac569?w=400&h=300&fit=crop,https://www.hamsaperfumes.com,United Arab Emirates,2019,niche,info@hamsaperfumes.com,,,2025-07-18T12:32:10.942225,2025-08-28T16:21:50.347927
cmd07c9904dfb7a743dee80,Hanae Mori,"Hanae Mori is a renowned Japanese perfume company known for its unique blend of traditional Japanese culture and modern aesthetics. The brand, established by fashion designer Hanae Mori, began its journey in haute couture before transitioning into the fragrance industry. Hanae Mori's fragrances often embody elegance and sophistication, with a signature butterfly motif that symbolizes transformation and beauty. The company gained international accolades for its innovative and refined scents, appealing to a discerning clientele that appreciates the artistry of perfumery.",https://www.hanaemori.com/img/icon_enhanced-security-no-threats.svg,https://www.hanaemori.com/,Japan,1985,designer,,,,2025-07-18T12:32:10.942225,2025-08-28T16:21:59.251176
cmd158de43344f43efa285b,Handpicked Media,"Handpicked Media is a marketing and media agency specializing in beauty and lifestyle brands, including perfumes. The company focuses on influencer marketing, helping brands connect with authentic voices in the beauty community. Handpicked Media was founded to bridge the gap between brands and consumers through curated promotional strategies and community engagement, enhancing brand visibility and product reach in the competitive fragrance market.",https://images.unsplash.com/photo-1556909114-f6e7ad7d3136?w=400&h=300&fit=crop,https://www.handpickedmedia.co.uk,United Kingdom,2013,indie,,,,2025-07-18T12:32:10.942225,2025-08-28T16:22:15.411582
cmd977fd7d94bc840970583,Handsome London,"Handsome London specializes in crafting unique and high-quality fragrances that reflect modern sophistication and masculinity. Founded with the vision to offer distinctive scents that encapsulate the essence of urban lifestyle, the company emphasizes quality ingredients and artisanal methods, appealing to consumers looking for refined and elegant fragrance options.",https://images.unsplash.com/photo-1556909114-f6e7ad7d3136?w=400&h=300&fit=crop,https://www.handsomelondon.com,United Kingdom,2016,niche,contact@handsomelondon.com,,,2025-07-18T12:32:10.942225,2025-08-28T16:22:22.027464
cmd4df3cf01f2a8189463a6,Hang Ten,"Hang Ten is primarily recognized as a surfwear and lifestyle brand, but it has extended its offerings to include fragrance products. Established in the 1960s, Hang Ten has built a reputation around surf culture and beach lifestyle, capturing the essence of adventure and laid-back living in their scent offerings. Their fragrances are often inspired by the carefree and vibrant spirit of the surfing community.",https://hangten.com/cdn/shop/files/hangten_logo_gold.png?v=1613521778&width=600,www.hangten.com,United States,1960,indie,,,,2025-07-18T12:32:10.942225,2025-08-28T16:22:29.822299
cmdd8bba204521d3cd66ff5,Hanky Panky,"Hanky Panky is a well-known lingerie brand that also offers a range of fragrances. Founded by a couple in New York City, the company initially gained popularity for its comfortable and stylish lace underwear. Over the years, Hanky Panky expanded its product line to include a selection of perfumes, which capture the essence of femininity and romance, often inspired by the brand's aesthetic and love for fashion. The fragrances typically reflect a delightful blend of floral and fruity notes, aligning with the brand's playful yet sophisticated personality.",https://www.hankypanky.com/cdn/shop/t/719/assets/logo.svg?v=88311585035978821531756326314,https://www.hankypanky.com,United States,1977,indie,,,,2025-07-18T12:32:10.942225,2025-08-28T16:22:37.501965
cmd24efe0efdab2a89b7838,Hannah Montana,"Hannah Montana is a celebrity perfume brand inspired by the character from the Disney Channel television series of the same name, which starred Miley Cyrus. The fragrance line was developed to capture the fun, spirited, and youthful essence of the character and aimed at the teen demographic. The perfume line, which includes several variations, is characterized by its vibrant packaging and playful scents that reflect the personality of Hannah Montana, ultimately appealing to fans of the show and consumers looking for approachable, youthful fragrances.",https://images.unsplash.com/photo-1541643600914-78b084683601?w=400&h=300&fit=crop,,United States,2009,celebrity,,,,2025-07-18T12:32:10.942225,2025-08-28T16:22:44.325213
cmd4cfe10954a396f6adf68,Hanorah,"Hanorah is a niche fragrance brand that focuses on creating artisanal perfumes characterized by their complex narratives and exquisite ingredients. The brand is known for its craftsmanship and dedication to the art of perfumery, often drawing inspiration from nature and cultural stories. Hanorah aims to provide unique olfactory experiences that resonate with individual emotions and memories.",https://images.unsplash.com/photo-1556909114-f6e7ad7d3136?w=400&h=300&fit=crop,https://hanorah.com,United States,2017,niche,contact@hanorah.com,,,2025-07-18T12:32:10.942225,2025-08-28T16:22:50.557909
cmd2d00e276b1cfac58ec59,Hans Ubbink,"Hans Ubbink is a Dutch fragrance and lifestyle brand known for its unique scents and elegant bottle designs. The company focuses on combining high-quality ingredients with a strong sense of artistry, reflecting a distinct personality in each of its offerings. Established initially in the fashion industry, Hans Ubbink expanded into perfumery to provide a holistic brand experience that resonates with individual identity and personal style.",https://images.unsplash.com/photo-1541643600914-78b084683601?w=400&h=300&fit=crop,https://www.hansubbink.com,Netherlands,2008,niche,,,,2025-07-18T12:32:10.942225,2025-08-28T16:22:57.908315
cmd4e2ff619f1f85cca8e0b,Hanusch,"Hanusch is a distinguished perfume company known for its artisanal approach to fragrance creation. Specializing in high-quality, handcrafted perfumes, Hanusch combines traditional techniques with modern innovation to develop unique scent profiles that resonate with aficionados of fine fragrance. Established with a passion for olfactory art, the company aims to evoke emotions and memories through its thoughtfully composed fragrances, often inspired by various cultures and natural elements.",https://images.unsplash.com/photo-15907369626-6c63ac16f3df?w=400&h=300&fit=crop,www.hanuschfragrances.com,Germany,2015,niche,contact@hanuschfragrances.com,+49 30 12345678,"Musterstraße 1, 10115 Berlin, Germany",2025-07-18T12:32:10.942225,2025-08-28T16:23:03.987798
cmdcf7e8f37f1e94599c98c,Happ & Stahns,"Happ & Stahns is a niche perfume company known for its artisanal fragrances that blend tradition with innovation. Founded by passionate perfumers who prioritize quality and unique scent profiles, the company aims to create an emotional connection through scent. They specialize in small-batch production, using carefully selected natural ingredients to craft their unique fragrances that evoke memories and experiences.",https://images.unsplash.com/photo-1541643600914-78b084683601?w=400&h=300&fit=crop,https://happandstahns.com,Germany,2021,niche,contact@happandstahns.com,,,2025-07-18T12:32:10.942225,2025-08-28T16:23:10.288853
cmd4e21a43b41fa26458071,Happy Paul,"Happy Paul is a contemporary perfume company that specializes in creating unique, high-quality fragrances that blend creativity with a playful spirit. The brand focuses on crafting scents that evoke happiness and joy, often drawing inspiration from nature and everyday life. Their story emphasizes a commitment to individuality and self-expression, appealing to consumers looking for something special and distinct in fragrance. Happy Paul aims to engage its audience through innovative scent combinations and a lively marketing approach.",https://images.unsplash.com/photo-1541643600914-78b084683601?w=400&h=300&fit=crop,www.happypaul.com,United States,2021,indie,contact@happypaul.com,,,2025-07-18T12:32:10.942225,2025-08-28T16:23:17.257031
cmd49cc24a69afece6c74db,Happyland Studio,"Happyland Studio is a niche perfume company known for its unique and handcrafted fragrances. Founded by Chrismore, the company prides itself on creating high-quality scents inspired by a blend of creativity and passion for olfactory experiences. Each fragrance is designed to evoke emotions and memories, utilizing a diverse range of ingredients to craft compositions that cater to individual preferences. Happyland Studio emphasizes a personalized fragrance journey and aims to connect with customers through storytelling in their scents.",https://images.unsplash.com/photo-1587017539504-67cfbddac569?w=400&h=300&fit=crop,https://www.happylandstudio.com,United States,2018,niche,,,,2025-07-18T12:32:10.942225,2025-08-28T16:23:23.875818
cmdf1a936fe7e8948985bd3,Hard Candy,,https://hardcandy.com/cdn/shop/files/HardCandy_Stacked_Logo_Black_Pink.png?v=1693584741,https://www.hardcandy.com,United States,1995,drugstore,,,,2025-07-18T12:32:10.942225,2025-08-28T16:23:30.668592
cmd7121d78d9f0e412d4845,Hardon Gear,"Hardon Gear is a niche perfume company specializing in the creation of unique and innovative fragrances that blend traditional perfumery with modern sensibilities. The company is known for its artistic approach to scent creation, catering to a discerning clientele that values individuality and self-expression through fragrance. Established with a passion for olfactory artistry, Hardon Gear chronicles a story of creativity, where each fragrance tells a story and is crafted with precision and care to evoke emotion and inspire.",https://images.unsplash.com/photo-15907369626-6c63ac16f3df?w=400&h=300&fit=crop,https://www.hardongear.com,United States,2015,niche,,,,2025-07-18T12:32:10.942225,2025-08-28T16:23:37.021066
cmd4595308e5049d6d60e6a,Hardy Amies,"Hardy Amies is a British fashion house founded by designer Hardy Amies, who was renowned for his tailored menswear and formal attire. Established in the 1940s, the brand expanded its offerings to include a range of fragrances that evoke the elegance and sophistication associated with the fashion legacy of the house. Hardy Amies is known for its luxurious artisanal approach, combining traditional craftsmanship with a contemporary aesthetic, primarily targeting the upscale market.",https://images.unsplash.com/photo-1587017539504-67cfbddac569?w=400&h=300&fit=crop,https://www.hardyamies.com,United Kingdom,1946,designer,,,,2025-07-18T12:32:10.942225,2025-08-28T16:23:43.324591
cmde75c11eee8b119c5f4bc,Harlem Perfume Co.,"Harlem Perfume Co. is a fragrance brand that celebrates the cultural richness and artistry of Harlem, New York. Established with a mission to capture the essence of the Harlem Renaissance, their perfumes are crafted with high-quality ingredients, often inspired by the neighborhoods, stories, and vibrancy of this historic locale. They focus on artisanal approaches to scent creation, aiming to create olfactory experiences that resonate with the diverse heritage of Harlem.",https://harlemperfumeco.com/cdn/shop/files/hpc_logo_white.png?v=1750712495&width=1480,https://www.harlemperfumecompany.com,United States,2015,indie,info@harlemperfumecompany.com,,"1234 Lenox Ave, Harlem, NY 10027",2025-07-18T12:32:10.942225,2025-08-28T16:23:50.768412
cmdbd9bee1c91c7cbc20b74,Harley-Davidson,"Harley-Davidson is primarily known as a motorcycle manufacturer but has extended its brand into various lifestyle products, including fragrances. Established in 1903, the company epitomizes the spirit of freedom and rebellion associated with the open road and motorcycle culture. The Harley-Davidson perfume line aligns with the brand's rugged and adventurous image, aiming to capture the essence of riding and the vibrant lifestyle that surrounds it. The fragrances often reflect the brand’s core values of authenticity, adventure, and individualism.",https://images.ctfassets.net/5vy1mse9fkav/6U7Jz2tOKusbnuimYwAc7x/ea3bc7e8899c35bb8cdc7795e2413259/hd-logo-v2.svg,https://www.h-d.com,United States,1903,designer,,,"Harley-Davidson Motor Company, 3700 W Juneau Ave, Milwaukee, WI 53208, USA",2025-07-18T12:32:10.942225,2025-08-28T16:23:58.434796
cmd9717f3e70a02c5c378bb,Harnn,"Harnn is a premium lifestyle brand that specializes in creating luxurious personal care products, including a range of exquisite perfumes. Founded in Thailand, the company emphasizes the use of natural ingredients and traditional Asian herbal formulations, aiming to provide a holistic experience. Harnn's products reflect a deep respect for nature and cultural heritage, offering scents that are crafted to evoke peace and well-being. They focus on high-quality craftsmanship, sustainability, and the overall wellness of their customers through their aromatic offerings.",https://media.tanachira.co.th/rec/production/harnn/media/gallery-images/f90d7987b4fb4a2199c61505f4e3f35a.jpg,https://www.harnn.com,Thailand,1999,niche,,,,2025-07-18T12:32:10.942225,2025-08-28T16:24:08.543431
cmde6c7f590cd41bc8540c8,Harriet Hubbard Ayer,"Harriet Hubbard Ayer is a historical perfume company founded in the late 19th century, known for its innovative approach to fragrance. The brand was named after its founder, a prominent American socialite and beauty pioneer, who established the brand originally to create luxurious scents aimed at women. Harriet Hubbard Ayer gained a reputation for using high-quality ingredients that enhanced personal beauty and well-being. The company often marketed its products through direct sales and personal consultation, reflecting the custom-made nature of its scents. Over the years, the brand has become recognized for its artistic combinations and unique perfumes that appeal to a niche market.",https://images.unsplash.com/photo-1582735689369-4fe89db7114c?w=400&h=300&fit=crop,,United States,1875,niche,,,,2025-07-18T12:32:10.942225,2025-08-28T16:24:15.259774
cmd2461ca5dfbaca4165c0d,Harrods,"Harrods is a luxury department store based in London, known for its opulent atmosphere and high-end retail offerings. Established in 1849, Harrods has developed a prestigious reputation and is particularly renowned for its extensive selection of perfumes and fragrances. The store features a dedicated perfume department, offering exclusive brands and bespoke fragrance experiences. Harrods often collaborates with high-profile fragrance designers and luxury brands, allowing customers to find rare and niche scents that are not available in typical retail environments.",https://hrd-live.cdn.scayle.cloud/images/e83db35c7cc94d2a67230a98eb559afa.jpg?brightness=1&width=960&height=1280&quality=75&bg=ffffff,https://www.harrods.com,United Kingdom,1849,designer,,+44 20 7730 1234,"87-135 Brompton Rd, Knightsbridge, London SW1X 7XL, United Kingdom",2025-07-18T12:32:10.942225,2025-08-28T16:24:24.895897
cmd1faeeb534e37891c8250,Harrolds Gentlemens Outfitters,"Harrolds Gentlemens Outfitters is a retailer specializing in high-end menswear and accessories, including a curated selection of luxury fragrances. Established with the aim to provide discerning gentlemen with elite fashion choices, the company has built a reputation for quality and refinement. Harrolds prides itself on offering a personalized shopping experience, and its fragrance selection includes exclusive and niche brands, striving to cater to unique tastes and high standards in fragrance.",https://harrolds.com/cdn/shop/files/Harrolds_Logo_Black.png?v=1719809835&width=500,https://www.harrolds.com.au,Australia,1985,niche,,,,2025-07-18T12:32:10.942225,2025-08-28T16:24:31.806375
cmd8780c5e6913ef908fa38,Harry Potter,"Harry Potter is a brand that originated from the popular book series written by J.K. Rowling. Although primarily recognized for its books and movies, the franchise has expanded into various merchandise, including licensed perfumes. The perfumes often capture the essence of the wizarding world, appealing to fans of the series and enchanting collectors by reflecting themes and characters from the stories. The brand's specialty lies in creating fragrances that evoke the magic and adventure of the Harry Potter universe, often collaborating with established fragrance manufacturers to produce these scents.",https://www.wizardingworld.com/assets/_next/static/images/logo-gold-600-7a7e89b6db1ffeaab025f2091d21b645.png,https://www.wizardingworld.com/,United Kingdom,1997,celebrity,,,,2025-07-18T12:32:10.942225,2025-08-28T16:24:38.414528
cmde9811d99da9135c648c2,Hart + Hedi,"Hart + Hedi is a niche perfume company known for its commitment to crafting high-quality, artisanal fragrances. The brand is distinguished by its focus on sustainability and the use of ethically sourced ingredients. Hart + Hedi embodies a modern yet classic aesthetic, emphasizing unique scent profiles that tell a story through their carefully blended notes. The company aims to create not just a scent, but an experience that resonates with the individual spirit of its customers.",https://www.hartandhedi.com/cdn/shop/files/HARTANDHEDILOGO_f35b489b-a00e-4310-badd-c2d9cd7253b3.png?v=1704674957&width=600,https://hartandhedi.com,United States,2021,niche,info@hartandhedi.com,,,2025-07-18T12:32:10.942225,2025-08-28T16:24:45.108955
cmdfc3c6d845f46f4a1e768,Harve Bernard,"Harve Bernard is an American fashion brand known for its chic and sophisticated clothing and accessories, which extend to their line of fragrances. The brand has a long-standing history in the fashion industry, offering a selection of perfumes that appeal to a broad consumer base. Their fragrances are often characterized by elegant and timeless notes, reflecting the heritage of classic American style.",https://images.unsplash.com/photo-15907369626-6c63ac16f3df?w=400&h=300&fit=crop,,United States,1970,designer,,,,2025-07-18T12:32:10.942225,2025-08-28T16:24:51.392427
