id,name,description,image,website,country,founded,type,email,phone,address,createdAt,updatedAt
cmdbd46038de100ab6a9e9a,By Moudz,"By Moudz is an innovative perfume company that specializes in crafting unique and luxurious fragrances. They focus on high-quality ingredients and artistry in perfumery, aiming to create distinctive scents that resonate with individual personalities. The brand has a commitment to sustainability and often highlights regional sourcing in its fragrance notes, appealing to eco-conscious consumers while also delivering sophisticated olfactory experiences.",https://images.unsplash.com/photo-1582735689369-4fe89db7114c?w=400&h=300&fit=crop,,,,indie,,,,2025-07-18T12:32:10.942225,2025-08-28T10:53:16.596132
cmdb5826f7754ffe99f0b01,Byblos,"Byblos is a luxury fashion and fragrance brand that originated in Italy. Established in the 1970s, Byblos became known for its bold designs and unique approach to fashion, which eventually extended into the fragrance market. The company's offerings reflect a blend of contemporary style with a Mediterranean influence, creating scents that cater to the modern individual. Byblos perfumes are recognized for their high-quality ingredients and distinctive bottles, often designed to reflect the artistic essence of the brand. The fragrance line focuses primarily on elegance and sophistication, making it a favored choice among fashion enthusiasts.",https://www.byblos.com/wp-content/uploads/floirat-signatures-logo.svg,https://www.byblos.com,Italy,1973,designer,,,,2025-07-18T12:32:10.942225,2025-08-28T10:53:24.261773
cmd31c80390f6e5a4744219,Byermia,"Byermia is a luxury perfume company that specializes in creating high-end fragrances inspired by the art of perfumery. Founded by a visionary perfumer eager to redefine scent experiences, Byermia focuses on blending rare ingredients with innovative techniques to craft unique olfactory journeys. The brand prides itself on artistic expression and sustainability, ensuring that each bottle encapsulates not only a scent but a story that resonates deeply with its consumers.",https://images.unsplash.com/photo-1582735689369-4fe89db7114c?w=400&h=300&fit=crop,,,,niche,,,,2025-07-18T12:32:10.942225,2025-08-28T10:53:29.875894
cmdc325d2432cf520270215,ByFar,"ByFar is a contemporary fashion and accessories brand primarily known for its footwear and leather goods. Founded by a trio of women - Valentina Gennaka, Denitsa Bumbarova, and Daria Shyshko - ByFar began its journey in 2016 with a mission to create modern, high-quality products that merge timeless styles and innovative designs. The brand often highlights a blend of vintage aesthetics and modern trends, resulting in a distinctive appeal that has garnered a loyal following among fashion enthusiasts. ByFar has expanded its product range to include perfumes, further solidifying its presence in the luxury lifestyle segment.",https://byfar.com/cdn/shop/files/bf_logo_black.webp?v=1738088853&width=400,https://www.byfar.com,Bulgaria,2016,indie,,,,2025-07-18T12:32:10.942225,2025-08-28T10:53:39.313354
cmddcb6089088c91e30abfc,Byredo,"Byredo is a Stockholm-based fragrance company founded in 2006 by Ben Gorham. The brand is known for its unique approach to scent, drawing inspiration from memories and experiences. Byredo specializes in creating high-quality, minimalist fragrances and has gained a reputation for both its innovative perfume line and its artistic packaging. The brand also offers products beyond perfumes, including candles, skincare, and body care items, all while maintaining a distinct aesthetic and storytelling perspective in their offerings.",https://images.eu.ctfassets.net/ud20h5tscuj7/1GgrBAQA6lPexH88igl6Fv/5688ebabd105b07c8621c868b3046177/Byredo-Alto-Astral-Campaign-ECOM-Img4_1920_x_1080.jpg?q=70&fm=webp&w=1920,https://www.byredo.com,Sweden,2006,niche,,,,2025-07-18T12:32:10.942225,2025-08-28T10:53:46.665037
cmd0f6d6d83116dd647398c,Byron Parfums,,https://images.unsplash.com/photo-15907369626-6c63ac16f3df?w=400&h=300&fit=crop,https://byronparfums.com,France,2012,niche,,,,2025-07-18T12:32:10.942225,2025-08-28T10:53:52.903378
cmd7d29c06a586e9b8caafb,BZ Parfums,"BZ Parfums is a perfumery house that specializes in creating high-quality, artisanal fragrances. Founded by a passionate perfumer with a vision of crafting unique scents, the company prides itself on utilizing natural ingredients and traditional methods to produce distinguished perfumes that evoke emotional connections. Their story is rooted in the artistry of fragrance creation, focusing on individuality and the personal journey each scent can represent. BZ Parfums has gained a reputation for its creativity and dedication to quality, appealing to discerning customers who seek distinct and meaningful scents.","https://static.wixstatic.com/media/fc8f02_9f5fa81171e848b98805fa1fd69fe53f~mv2_d_1227_1562_s_2.jpg/v1/crop/x_6,y_0,w_1221,h_1551/fill/w_137,h_176,al_c,q_80,usm_0.66_1.00_0.01,enc_avif,quality_auto/logo%20BZ%20new%20001_JPG.jpg",https://www.bzparfums.com,France,2020,niche,contact@bzparfums.com,,"45 Rue de l'Artisanat, Paris, France",2025-07-18T12:32:10.942225,2025-08-28T10:54:01.200747
cmd25be6004039bdb4fff77,Bob Marley,"Bob Marley Fragrances is a perfume company inspired by the legacy and spirit of reggae music icon Bob Marley. The company aims to encapsulate the essence of Marley's message of love, peace, and unity through its fragrance offerings. The brand not only celebrates the life and culture that Bob Marley represented but also seeks to promote a lifestyle that embraces positivity and natural beauty, reflecting Marley's philosophy and artistic vision. Their fragrance line typically includes elements that are representative of Jamaican flora and culture, aiming to connect consumers with Marley's heritage.",https://images.unsplash.com/photo-15907369626-6c63ac16f3df?w=400&h=300&fit=crop,https://www.bobmarleyfragrances.com,United States,2010,celebrity,,,,2025-07-18T12:32:10.942225,2025-08-28T10:54:08.064172
cmd553121c5ac7b2f1145ce,Balmain,"Balmain is a French luxury fashion house that was established in 1945 by designer Pierre Balmain. Originally known for its opulent, feminine designs, the brand has diversified into various luxury products, including a line of fragrances. Balmain's perfumes often reflect the brand's high-fashion identity, characterized by elegance and sophistication. The fragrance line aims to resonate with the modern, spirited consumer while enhancing the allure of the Balmain brand.",https://www.balmain.com/fonts/logo.svg,https://www.balmain.com,France,1945,designer,,,"44 Rue François 1er, 75008 Paris, France",2025-07-18T12:32:10.942225,2025-08-28T10:54:15.198246
cmd1fd70a6c8b4afcb85005,by Rosie Jane,"by Rosie Jane is a fragrance brand founded by Rosie Jane Johnston. The company focuses on creating high-quality, clean fragrances that are inspired by everyday life and experiences. Their products emphasize a minimalist approach to fragrance, often featuring natural and sustainable ingredients. Rosie Jane strives to provide a personal connection through scent, making each product a reflection of the founder’s lifestyle and values. The brand's ethos centers around simplicity, authenticity, and the celebration of individuality.",https://byrosiejane.com/cdn/shop/files/inStyle_1.png?v=1744710245,https://byrosiejane.com,United States,2017,indie,,,,2025-07-18T12:32:10.942225,2025-08-28T10:54:21.812944
cmddd01c570859a4471152e,By Terry,"By Terry is a Parisian brand founded by makeup artist Terry de Gunzburg. The company is known for its luxury beauty products, which seamlessly blend cosmetics and skincare. By Terry specializes in high-quality makeup and fragrances, with a focus on innovation and sophistication. The brand gained popularity for its unique formulations and luxurious scents that cater to discerning customers looking for a touch of glamour in their beauty routine.",https://www.byterry.com/cdn/shop/files/by-terry-logo.svg?v=1749732689&width=320,www.byterry.com,France,2004,niche,,,"24-26 Rue des Petits Champs, 75002 Paris, France",2025-07-18T12:32:10.942225,2025-08-28T10:54:29.290709
cmdf481643da47f89e216c7,Claire Goodwin Consultancy,"Claire Goodwin Consultancy is a specialized fragrance consultancy firm that provides a range of services within the perfume industry. The company focuses on helping brands develop unique fragrances by offering expertise in olfactory branding, product development, and market positioning. With a background in fragrance creation and an understanding of market trends, Claire Goodwin Consultancy aims to enhance the customer experience through scent, fostering the connection between olfactory experiences and brand identity.",https://images.unsplash.com/photo-1587017539504-67cfbddac569?w=400&h=300&fit=crop,[www.clairegoodwin.com](http://www.clairegoodwin.com),United Kingdom,2018,indie,,,,2025-07-18T12:32:10.942225,2025-08-28T10:54:35.388246
cmd427bd5f3d5c7839a4175,10 Corso Como,"10 Corso Como is a unique retail concept founded by Carla Sozzani in Milan, Italy, that combines shopping, art, fashion, and a café. The brand is renowned for its curated selection of high-end fashion, design products, books, and exclusive perfume collections. It serves as a cultural hub, showcasing contemporary art and design while offering customers a distinctive and immersive shopping experience. The signature fragrance line typically reflects the aesthetic of the brand, focusing on quality and artisanal craftsmanship.",https://10corsocomo.com/cdn/shop/files/prf-matiere-premiere-matiere-premiere-profumi-tizianafausti-tfd2023vp0125_0dd10c6f-1a40-4fab-bde5-15ccd3e071ea_458x.jpg?v=1749429389,https://www.10corsocomo.com,Italy,1990,niche,,,"10 Corso Como, 20154 Milan, Italy",2025-07-18T12:32:10.942225,2025-08-28T10:54:44.457409
cmd984da5eca0daf55932a1,21 Club,"21 Club is a luxury perfume brand known for its unique and captivating fragrances, often inspired by iconic moments and social settings. The company takes its name from the legendary 21 Club in New York, which has a rich history and has been a social hub for celebrities and socialites. The brand specializes in creating high-quality, artisanal perfumes that embody sophistication and elegance, drawing from classic and modern influences.",https://images.unsplash.com/photo-1556909114-f6e7ad7d3136?w=400&h=300&fit=crop,www.21clubfragrances.com,United States,2020,niche,,,,2025-07-18T12:32:10.942225,2025-08-28T10:54:51.605221
cmd6935293582a3f48714d9,50 Cent,"50 Cent is a celebrity fragrance brand established by the American rapper and entrepreneur Curtis Jackson, known professionally as 50 Cent. The brand focuses on creating a line of perfumes that resonate with his personal brand, lifestyle, and image. Since its inception, the perfumes have aimed to appeal to a wide audience and reflect a combination of luxury and accessibility, often embodying themes of confidence and success. The celebrity's personal story and connection to his music significantly influence the branding of the fragrances.",https://www.50cent.com/50centdotcom.svg,https://www.50cent.com,United States,2004,celebrity,,,,2025-07-18T12:32:10.942225,2025-08-28T10:54:58.411333
cmdb9ae4774af8b0cd8264d,C.O. Bigelow Apothecary,"C.O. Bigelow Apothecary is one of the oldest apothecaries in the United States, founded in 1838. It offers a unique blend of personal care products, including a variety of perfumes, skin care, and grooming products. The company is known for its commitment to crafting high-quality formulations using traditional techniques combined with modern innovations. Their specialty lies in providing products that embrace a heritage of wellness and quality, catering to both a nostalgic and contemporary audience.",https://images.unsplash.com/photo-1541643600914-78b084683601?w=400&h=300&fit=crop,https://www.apothecaries.com,United States,1838,indie,,,"4146 Hudson St, New York, NY 10001, United States",2025-07-18T12:32:10.942225,2025-08-28T10:55:05.772392
cmde9c4b1389546b07ffd92,C-THRU,"C-THRU is a fragrance brand that specializes in offering a range of affordable and vibrant perfumes aimed primarily at a younger audience. Known for its fun and colorful packaging, C-THRU has made a name for itself in the drugstore fragrance market by providing trendy scents that reflect contemporary lifestyles. The brand focuses on creating fragrances that are uplifting and suitable for daily wear, appealing to those seeking quality at an accessible price. C-THRU's products often draw inspiration from modern pop culture and are marketed as empowering and expressive.",https://images.unsplash.com/photo-1582735689369-4fe89db7114c?w=400&h=300&fit=crop,https://www.c-thru.fr,France,1991,drugstore,,,,2025-07-18T12:32:10.942225,2025-08-28T10:55:12.744908
cmdf7f2f7e587e441a6b269,Cacharel,"Cacharel is a French fashion brand founded in 1962 by designer Jean Bousquet. The brand is renowned for its chic and youthful designs, expanding into the fragrance market in the 1980s with the launch of its first perfume, Anaïs Anaïs, which quickly gained iconic status. Cacharel specializes in creating fragrances that embody romance and a contemporary spirit, appealing predominantly to a female audience, while also introducing successful perfumes for men over the years. Today, Cacharel is well-regarded for its fragrance lines that often include floral and fruity notes, reflecting its fashion heritage and appealing to a youthful demographic.",https://images.unsplash.com/photo-15907369626-6c63ac16f3df?w=400&h=300&fit=crop,https://www.cacharel.com,France,1962,designer,,,,2025-07-18T12:32:10.942225,2025-08-28T10:55:19.745275
cmdada6015db9ea7ff19988,Caché,"Caché is a fashion brand that initially gained popularity for its stylish apparel and accessories. Over the years, it has expanded its product offerings to include a range of fragrances. The brand focuses on creating scents that embody sophistication and elegance, catering primarily to a youthful, fashion-conscious demographic. Caché’s fragrances are often characterized by their vibrant, contemporary designs and compelling marketing strategies, appealing to individuals who seek to express their unique style through scent.",https://images.unsplash.com/photo-1582735689369-4fe89db7114c?w=400&h=300&fit=crop,,United States,,designer,,,,2025-07-18T12:32:10.942225,2025-08-28T10:55:25.459356
cmd70aec54161179a3a5302,Cadillac,"Cadillac, primarily known as an automobile manufacturer, has ventured into the fragrance industry to expand its brand presence and lifestyle offerings. The Cadillac perfume line reflects the opulence and sophistication associated with the Cadillac brand, offering scents that embody luxury, elegance, and the spirit of the open road. Although Cadillac does not have a long history in the fragrance sector, it aims to appeal to its consumer base by providing high-quality, distinctive fragrances indicative of its iconic status.",https://www.cadillac.com/content/dam/cadillac/na/us/english/ux/share-nav-assets/cadillac-logo.svg,https://www.cadillac.com,United States,,designer,,,,2025-07-18T12:32:10.942225,2025-08-28T10:55:32.487240
cmd101e4bec42b1ae0bb02f,Cadolle,"Cadolle is a French perfume company that specializes in creating high-quality, artisanal fragrances. Founded by the Cadolle family, who have a history in the fashion and luxury industry, the brand embodies elegance and sophistication in its fragrance offerings. Cadolle draws inspiration from the art of perfumery and seeks to create unique scent compositions that resonate with the individual preferences of their clients. The company is known for its use of fine ingredients and meticulous craftsmanship in fragrance production, emphasizing the artistic side of perfuming that blends tradition and modernity.",https://images.unsplash.com/photo-1556909114-f6e7ad7d3136?w=400&h=300&fit=crop,https://www.cadolle.com,France,2009,niche,,,,2025-07-18T12:32:10.942225,2025-08-28T10:55:41.789640
cmdc7e4830078d8245a6a52,Caesars World,"Caesars World is a luxury hospitality and entertainment company that operates various resorts and casinos, primarily known for its connection to the gaming, hotel, and entertainment industries. While not a dedicated perfume company, Caesars World has extended its brand into fragrance offerings that embody the luxurious experience associated with their resorts. Their perfumes often draw inspiration from the lavish environments and thrill of Las Vegas, aiming to capture the essence of glamour and excitement.",https://images.unsplash.com/photo-15907369626-6c63ac16f3df?w=400&h=300&fit=crop,https://www.caesars.com,United States,1966,designer,,,"3950 S Las Vegas Blvd, Las Vegas, NV 89109, United States",2025-07-18T12:32:10.942225,2025-08-28T10:55:48.781876
cmdcfad75767e73bdcaf663,Café de Parfum,"Café de Parfum is an innovative perfume company that specializes in creating unique, high-quality fragrances inspired by coffee and café culture. The brand encapsulates the essence of aromatic experiences, often blending traditional perfume-making techniques with modern artistry. With a commitment to using fine ingredients, Café de Parfum crafts scents that evoke feelings of warmth, nostalgia, and comfort, aiming to transport consumers to their favorite café moments.",https://images.unsplash.com/photo-1541643600914-78b084683601?w=400&h=300&fit=crop,www.cafedeparfum.com,United States,2018,niche,info@cafedeparfum.com,,,2025-07-18T12:32:10.942225,2025-08-28T10:55:55.144779
cmdc409f93dd6687f479c39,CaFleureBon,"CaFleureBon is a perfume blog and online community that focuses on niche and indie fragrances. Founded in 2010 by Michelyn Camen, the site aims to celebrate and promote lesser-known fragrance houses and artisan perfumers. It provides in-depth reviews, interviews, and articles that educate fragrance enthusiasts about the art of perfumery. The site has a reputation for fostering a community passionate about perfume, offering advice and resources to both consumers and industry insiders.",https://cafleurebon.com/images/cafleurebon_logo_reduced.jpg,https://www.cafleurebon.com,United States,2010,niche,,,,2025-07-18T12:32:10.942225,2025-08-28T10:56:03.815467
cmd4ecdbe7139ca6a7861a2,Caitlin O'Heaney,"Caitlin O'Heaney is a boutique perfume company that specializes in creating artisanal fragrances. The brand is known for its commitment to quality craftsmanship and unique scent compositions, often inspired by personal experiences and memories. Caitlin O'Heaney aims to evoke emotions and tell stories through its fragrances, making each scent a personal narrative. Their products are handmade in small batches, focusing on sustainability and ethical sourcing of ingredients.",https://images.unsplash.com/photo-1587017539504-67cfbddac569?w=400&h=300&fit=crop,https://www.caitlinoheaney.com,United States,,niche,,,,2025-07-18T12:32:10.942225,2025-08-28T10:56:11.091816
cmd25e9db299a890c7aa2b8,Calaj,"Calaj is an artisanal perfume house specializing in creating unique and high-quality fragrances that blend contemporary artistry with traditional perfumery techniques. Founded by a passionate perfumer, the brand focuses on using natural ingredients sourced from around the world to craft exclusive scent experiences. The storytelling aspect of each fragrance often reflects emotional connections and cultural inspirations, aiming to evoke memories and fantasies through scent.",https://images.unsplash.com/photo-1582735689369-4fe89db7114c?w=400&h=300&fit=crop,https://www.calajparfums.com,United States,2021,niche,contact@calajparfums.com,,"17776 Gillette Ave, Irvine, CA 92614, USA",2025-07-18T12:32:10.942225,2025-08-28T10:56:18.226088
cmda232e0729546bfc85b46,Caldey Abbey Perfumes,"Caldey Abbey Perfumes is a niche fragrance house that produces a range of artisanal perfumes inspired by the natural beauty and tranquility of Caldey Island in Wales. Established by Cistercian monks, the company draws on the abbey's rich heritage and its commitment to sustainable practices. The perfumes are handcrafted using high-quality ingredients, reflecting a dedication to purity and authenticity. Their unique blends often incorporate botanicals from the island and align with the abbey's ethos of simplicity and harmony.",https://images.unsplash.com/photo-1587017539504-67cfbddac569?w=400&h=300&fit=crop,https://www.caldeyabbey.com,United Kingdom,2009,niche,,,"Caldey Island, Pembrokeshire, Wales, SA70 7UL, United Kingdom",2025-07-18T12:32:10.942225,2025-08-28T10:56:25.409941
cmd7efc10649ef023f654e0,Caldrea,"Caldrea is a lifestyle brand renowned for its luxurious home fragrance products, including personal care and cleaning products, which are crafted to elevate everyday routines. Founded with a mission to enhance the environment inside homes, Caldrea combines high-quality ingredients with beautiful scents and unique packaging, aimed at creating an inviting atmosphere. The brand places a strong emphasis on sustainability and effectiveness while providing a sophisticated scent experience, making it a favorite among consumers who seek both functionality and aromatherapy benefits.",https://images.unsplash.com/photo-1587017539504-67cfbddac569?w=400&h=300&fit=crop,www.caldrea.com,United States,1999,indie,,,,2025-07-18T12:32:10.942225,2025-08-28T10:56:36.428626
cmdbac96a6cfd4a1c937e14,Calé,"Calé is a niche perfume company that specializes in creating high-quality, artisanal fragrances. Founded by a passionate perfumer, the brand emphasizes the use of natural ingredients and traditional methods of scent-making, drawing inspiration from diverse cultures and nature. Their story revolves around a commitment to authenticity and craftsmanship, resulting in unique and unforgettable scents that cater to a discerning clientele.",https://images.unsplash.com/photo-1541643600914-78b084683601?w=400&h=300&fit=crop,https://www.caleperfume.com,United States,2019,niche,info@caleperfume.com,,"1234 Artisan Way, San Francisco, CA 94103, USA",2025-07-18T12:32:10.942225,2025-08-28T10:56:43.962157
cmda200017b4a41e50732ae,Calgon,"Calgon is a brand that specializes in personal care products, particularly known for its range of bath and body products including fragrance mists, body washes, and lotions. Originally launched in the early 1950s, Calgon's marketing emphasizes relaxation and escapism. The brand became popular with its slogan, ""Calgon, take me away,"" promoting the idea of bathing as a soothing and stress-relieving experience. Over the years, Calgon has expanded its product line, often focusing on affordability while maintaining a strong connection to the notion of personal care and relaxation.",https://images.unsplash.com/photo-1587017539504-67cfbddac569?w=400&h=300&fit=crop,https://www.calgon.com,United States,1950,drugstore,,,,2025-07-18T12:32:10.942225,2025-08-28T10:56:51.585821
cmdbfc49322980325a31667,California Antilles Trading,"California Antilles Trading is a fragrance company that specializes in the creation and distribution of premium perfumes and scented products. The company is known for its unique blends of fragrances inspired by the sun-kissed landscapes of California and the lush tropical aspects of the Antilles islands. They emphasize quality ingredients and innovative scent compositions, catering to a discerning clientele looking for exclusive and memorable olfactory experiences.",https://images.unsplash.com/photo-1556909114-f6e7ad7d3136?w=400&h=300&fit=crop,,United States,,indie,,,,2025-07-18T12:32:10.942225,2025-08-28T10:56:57.675165
cmd4f02d05962fb8a8d31c9,California North,"California North is a fragrance company specializing in the creation of unique, high-quality perfumes that are inspired by the natural landscapes and climate of California. Established by a team of passionate perfumers and environmental enthusiasts, the brand aims to capture the essence of the Californian lifestyle through its carefully crafted scent compositions. California North emphasizes sustainability, using eco-friendly practices and ethically sourced ingredients to deliver an olfactory experience that is both luxurious and responsible.",https://images.unsplash.com/photo-15907369626-6c63ac16f3df?w=400&h=300&fit=crop,https://www.californianorth.com,United States,2018,indie,contact@californianorth.com,,,2025-07-18T12:32:10.942225,2025-08-28T10:57:04.453768
cmd81f229ee4fe5d8804a2d,California Perfume Company,"The California Perfume Company, originally founded in 1892, is now a subsidiary of Avon Products, Inc. It was established to create high-quality fragrances and beauty products accessible to the everyday consumer. The company specialized in formulating perfumes and personal care items using natural ingredients. Over the years, they transitioned into branding and marketing, allowing them to offer a diverse line of fragrances appealing to a broad audience, both in terms of scent profiles and pricing. California Perfume Company utilized the direct selling model pioneered by Avon, ensuring products reached consumers directly, thereby enhancing personal customer service and relationships.",https://images.unsplash.com/photo-1556909114-f6e7ad7d3136?w=400&h=300&fit=crop,,United States,1892,drugstore,,,,2025-07-18T12:32:10.942225,2025-08-28T10:57:11.501313
cmd60f98e0f38c88a53e7e9,Câline Parfums,"Câline Parfums is a niche perfume company that emphasizes the creation of high-quality, artisanal fragrances. Founded with a passion for olfactory artistry, the brand is known for its unique scent compositions that combine traditional techniques with modern influences. Câline Parfums aims to evoke emotions and memories through its carefully crafted perfumes, often inspired by nature and personal experiences. The company prides itself on sourcing the finest ingredients to ensure that every fragrance is a true work of art.",https://images.unsplash.com/photo-1582735689369-4fe89db7114c?w=400&h=300&fit=crop,www.calineparfums.com,France,2018,niche,contact@calineparfums.com,+33 1 23 45 67 89,"12 Rue de la Parfumerie, Paris, France",2025-07-18T12:32:10.942225,2025-08-28T10:57:19.160790
cmd0cd00b292d9e44e1f0d6,Calum Best,"Calum Best is a perfume brand associated with British television personality and model Calum Best. Known for its celebrity branding, the company specializes in creating fragrances that reflect Best's personal style and charisma. The brand aims to provide appealing scents for both men and women, tapping into Best's image and appeal within the lifestyle and beauty sectors.",https://images.unsplash.com/photo-1582735689369-4fe89db7114c?w=400&h=300&fit=crop,www.calumbest.com,United Kingdom,2007,celebrity,,,,2025-07-18T12:32:10.942225,2025-08-28T10:57:25.749335
cmd6c406d9abeb104230c83,Calvin Klein,"Calvin Klein is a renowned American fashion house founded by designer Calvin Klein in 1968. The brand is known for its minimalist aesthetic and has become synonymous with a modern, sophisticated look. Initially starting with clothing, Calvin Klein expanded into the fragrance industry in the 1980s, establishing a prominent position with iconic scents such as the groundbreaking CK One, which popularized the concept of unisex fragrances. The company specializes in producing high-quality perfumes that reflect the brand's ethos of modernity and simplicity, often characterized by fresh, clean notes. Over the years, Calvin Klein has launched numerous successful fragrances, cementing its status as a leading designer in the global perfume market.",https://images.unsplash.com/photo-1556909114-f6e7ad7d3136?w=400&h=300&fit=crop,[https://www.calvinklein.com](https://www.calvinklein.com),United States,1968,designer,,,,2025-07-18T12:32:10.942225,2025-08-28T10:57:34.472924
cmdcb81c868df7cef54e1f6,Calypso St Barth [Christiane Celle],"Calypso St Barth is a luxury lifestyle brand that originated in the Caribbean, focusing on high-end fashion and fragrance. Founded by Christiane Celle in the 1990s, the brand is known for its vibrant, island-inspired aesthetics that capture the essence of St. Barth's carefree, bohemian spirit. Their perfume line comprises a range of scents that embody the tropical and exotic elements associated with their heritage, using high-quality ingredients and craftsmanship.",https://images.unsplash.com/photo-1582735689369-4fe89db7114c?w=400&h=300&fit=crop,[https://www.calypsostbarth.com](https://www.calypsostbarth.com),United States,1992,niche,,,,2025-07-18T12:32:10.942225,2025-08-28T10:57:41.833868
cmd361290f5e2fba6da7c27,Calypso St. Barth,"Calypso St. Barth is a luxury lifestyle brand that specializes in creating fragrance, home and body care products inspired by the idyllic island lifestyle. Founded with a vision to encapsulate the essence of escape and relaxation, the company pays homage to the vibrant culture, picturesque landscapes, and artisanal craftsmanship of St. Barthélemy, a French Caribbean island. Their perfumes, which often feature tropical and exotic notes, are highly regarded for their quality and distinctive character, attracting a clientele that seeks a taste of paradise through their fragrance experiences.",https://calypsostbarth.com/cdn/shop/files/Shopify_hero_image_template_1_1920x.png?v=1756094011,https://www.calypsostbarth.com,United States,1992,niche,,,,2025-07-18T12:32:10.942225,2025-08-28T10:57:49.256671
cmd5d4158119ee160ecb328,Cambridge Chemists,"Cambridge Chemists is a specialized company in the perfume industry focusing on creating unique and high-quality fragrances. They combine traditional craftsmanship with modern techniques to produce scents that cater to a more discerning clientele. The company prides itself on its attention to detail and the use of rare and natural ingredients, reflecting their dedication to artisanal perfumery. Over the years, Cambridge Chemists has built a reputation for innovation in fragrance development, allowing them to stand out in a competitive market.",https://images.unsplash.com/photo-1587017539504-67cfbddac569?w=400&h=300&fit=crop,,,,indie,,,,2025-07-18T12:32:10.942225,2025-08-28T10:57:56.281130
cmd2531b719994a157f349b,Camille Leguay Parfums,"Camille Leguay Parfums is a niche perfume house known for its artisanal and high-quality fragrances. The company specializes in creating unique olfactory experiences that reflect both modern and classic perfumery techniques. Founded by Camille Leguay, the brand focuses on luxury and artisanal craftsmanship, often sourcing premium ingredients to formulate its fragrances. It stands out in the market for its dedication to individuality and personal expression through scent.",https://images.unsplash.com/photo-1587017539504-67cfbddac569?w=400&h=300&fit=crop,,,,niche,,,,2025-07-18T12:32:10.942225,2025-08-28T10:58:02.575362
cmde1b7de12bcbce3a5dc84,Camille Rochelle,"Camille Rochelle is a luxury perfume house known for its artisanal approach to fragrance creation. Founded by a passionate perfumer, the brand focuses on blending high-quality raw materials to create unique and sophisticated scents that evoke emotions and memories. The company prides itself on meticulous craftsmanship and often draws inspiration from art, nature, and personal experiences, aiming to provide customers with an olfactory journey that is both distinctive and memorable.",https://www.camillerochelle.com/assets/Images/new-updated-logo.png,https://www.camillerochelle.com,United States,2018,niche,contact@camillerochelle.com,,,2025-07-18T12:32:10.942225,2025-08-28T10:58:09.538512
cmdb374eacfb4404c63c85c,Camin,"Camin is a niche perfume company that specializes in creating artisanal fragrances inspired by nature and personal experiences. They focus on high-quality ingredients and unique scent compositions, aiming to evoke emotions and memories through their offerings. The brand advocates for sustainable practices and often collaborates with local artisans to enhance the storytelling aspect of their fragrances.",https://images.unsplash.com/photo-15907369626-6c63ac16f3df?w=400&h=300&fit=crop,https://www.caminparfum.com,France,2017,niche,contact@caminparfum.com,,,2025-07-18T12:32:10.942225,2025-08-28T10:58:15.322166
cmd35245868dc5d31c3785d,Camp Beverly Hills,"Camp Beverly Hills is a lifestyle brand known for its distinctive fragrance line that embodies the spirit of the Californian lifestyle. The brand emerged in the 1980s, leveraging the vibrant essence of the beach and a carefree attitude, appealing to consumers who cherish a relaxed yet stylish aesthetic. The fragrances often reflect the laid-back vibe associated with California culture, making them popular among a diverse clientele. Over the years, Camp Beverly Hills has developed a range of scents that capture the essence of adventure and leisure.",https://images.unsplash.com/photo-1582735689369-4fe89db7114c?w=400&h=300&fit=crop,[campbeverlyhills.com](http://www.campbeverlyhills.com),United States,1986,indie,,,,2025-07-18T12:32:10.942225,2025-08-28T10:58:22.826861
cmda9206c1e6b451c5b5049,Campbell & Thiselton,"Campbell & Thiselton is a niche perfume house known for crafting unique and artisanal fragrances that highlight individuality and evoke emotion. The company was founded with a passion for combining traditional perfumery techniques with modern artistry, resulting in perfumes that tell a story. They focus on using high-quality ingredients sourced from sustainable practices, and their blends often feature floral, citrus, and woody notes, appealing to a select clientele looking for distinctive scents that stand out in the market.",https://images.unsplash.com/photo-1582735689369-4fe89db7114c?w=400&h=300&fit=crop,https://campbellandthiselton.com,United Kingdom,2014,niche,info@campbellandthiselton.com,,,2025-07-18T12:32:10.942225,2025-08-28T10:58:29.030649
cmdaff16037ed4d04b016c7,Campos de Ibiza,"Campos de Ibiza is a Spanish fragrance and cosmetics brand that captures the essence of the Mediterranean island of Ibiza. Established in 2003, the brand draws inspiration from the island’s natural beauty and vibrant lifestyle, offering a range of high-quality perfumes, body care products, and home fragrances. Campos de Ibiza is known for its use of aromatic ingredients that reflect the island's flora and culture, making it a unique player in the perfume industry. The brand emphasizes natural and organic components, appealing to a clientele that values sustainability and artisanal craftsmanship.",https://images.unsplash.com/photo-1556909114-f6e7ad7d3136?w=400&h=300&fit=crop,https://www.camposdeibiza.com,Spain,2003,niche,,,,2025-07-18T12:32:10.942225,2025-08-28T10:58:36.823334
cmd499bdf3ef5db842b0f70,Cam'ron,"Cam'ron is a hip-hop artist and entrepreneur who launched a line of fragrances as part of his personal brand. Known for his vibrant personality and music career, he aims to infuse his unique style into the world of fragrance, offering scents that reflect his artistic identity. The perfumes embody the ethos of his music, designed to appeal to fans and consumers who appreciate urban culture and innovative branding.",https://images.unsplash.com/photo-15907369626-6c63ac16f3df?w=400&h=300&fit=crop,,United States,2018,celebrity,,,,2025-07-18T12:32:10.942225,2025-08-28T10:58:42.737270
cmdcb56f2a780df2a2b9e3a,Canali,"Canali is an Italian luxury menswear brand founded in 1934, renowned for its tailored suits and elegant clothing. The company has since expanded its offerings to include accessories, footwear, and fragrances. Canali’s perfume line reflects the brand’s commitment to quality and sophistication, embodying classic Italian craftsmanship and style. The fragrances are often designed to complement their clothing, targeting discerning customers who value elegance and timelessness in both fashion and scent.",https://canalius.vtexassets.com/assets/vtex.file-manager-graphql/images/8435aa58-3b0e-4581-a8df-9f56879db747___534c04d1dfa7a6fb2c5d198643ab1bc4.jpg,https://www.canali.com,Italy,1934,designer,,,,2025-07-18T12:32:10.942225,2025-08-28T10:58:49.535264
cmd7fe5490cbca7a693b752,Candie's,"Candie's is a lifestyle brand that began as a footwear company in the 1980s and expanded to include a range of apparel and accessories. It is particularly recognized for its youthful, fashionable aesthetic, appealing to teens and young adults. In the fragrance sector, Candie's produces a selection of perfumes that embody the brand's fun, playful image, often targeting a younger demographic and incorporating fresh and vibrant scents that align with their fashion offerings.",https://static.HugeDomains.com/images/hdv3-img/hd-header-logo-v3.svg,https://www.shopcandies.com,United States,1987,designer,,,,2025-07-18T12:32:10.942225,2025-08-28T10:58:56.441545
cmd4dffe736d35d418d2607,Candora,"Candora is a perfumery company specializing in unique and high-quality fragrances that blend traditional artisanal methods with modern design. Founded on the principle of creating scents that evoke emotions and memories, Candora has a commitment to sustainability and ethically sourced ingredients. They focus on small-batch productions to ensure exclusivity and quality in every bottle. Over the years, Candora has established a loyal customer base and gained recognition in the niche fragrance market for its innovative scent profiles.",https://images.unsplash.com/photo-1541643600914-78b084683601?w=400&h=300&fit=crop,www.candoraperfumes.com,United States,2015,niche,contact@candoraperfumes.com,,,2025-07-18T12:32:10.942225,2025-08-28T10:59:06.250300
cmdd7f23d41eafc8737019e,Candy Crush,"Candy Crush is a fragrance company that creates whimsical and bold scents inspired by the colorful and playful elements of the popular mobile game of the same name. The brand aims to capture the essence of fun and creativity, offering a variety of fruity and sweet perfumes designed to appeal to a younger audience. The story behind Candy Crush revolves around its connection to the gaming world, where fragrances evoke the vibrant and delightful experience of playing the game.",https://images.unsplash.com/photo-1587017539504-67cfbddac569?w=400&h=300&fit=crop,,,,indie,,,,2025-07-18T12:32:10.942225,2025-08-28T10:59:12.736537
cmd9ea6f8989bbb732cc2f4,Canoe,"Canoe is a fragrance brand that specializes in creating classic and timeless scents. Founded in the late 1970s, the brand has positioned itself as a staple in the perfume industry, providing signature fragrances that reflect a sense of adventure and freedom. Their products often feature a blend of herbal, floral, and aquatic notes, appealing to both men and women who appreciate a fresh and spirited fragrance. Canoe is especially known for its enduring popularity in the drugstore segment, where it offers quality fragrances at accessible prices.",https://dcs-static.gprod.postmedia.digital/19.4.3/websites/images/common/business-wire-logo.svg,https://www.canoe.com,United States,1978,drugstore,,,,2025-07-18T12:32:10.942225,2025-08-28T10:59:20.990537
cmd1fd406097a13d0e1e0be,Çanoma,"Çanoma is a boutique perfume company known for its unique and artisanal approach to fragrance creation. Established by a group of scent enthusiasts, the brand is dedicated to crafting high-quality, luxurious perfumes that draw on a rich heritage of traditional perfumery techniques. Çanoma specializes in creating niche fragrances that tell a story and convey emotions through carefully selected ingredients sourced from around the world. Their collections often reflect cultural inspirations and thematic concepts, allowing consumers to experience an olfactory journey that is both personal and evocative.",https://images.unsplash.com/photo-1541643600914-78b084683601?w=400&h=300&fit=crop,,,,niche,,,,2025-07-18T12:32:10.942225,2025-08-28T10:59:27.618152
cmd365d8975cadd61fbbce9,Canturi,"Canturi is an Australian luxury jewelry and perfume brand founded by the renowned designer Giovanna Canturi. The brand is known for its exquisite craftsmanship and unique designs that blend contemporary aesthetics with traditional techniques. Canturi expanded into the fragrance industry, creating elegant and sophisticated perfumes that reflect the brand's commitment to luxury and artistry. The fragrances often embody the same attention to detail and quality that Canturi is known for in its jewelry, appealing to a clientele that appreciates both fine jewelry and high-end scents.",https://www.canturi.com/cdn/shop/files/Canturi_logo.png?crop=center&height=48&v=1744162946&width=600,https://canturi.com,Australia,2000,niche,,,,2025-07-18T12:32:10.942225,2025-08-28T10:59:35.038967
cmd3ba9486cdb2b1488663c,Capace Exclusive,"Capace Exclusive is a niche perfume company known for its high-quality, handcrafted fragrances that focus on the art of perfumery. The company prides itself on using unique ingredients and traditional methods to create distinctive scents that appeal to a selective audience who appreciate luxury and exclusivity. Capace Exclusive aims to provide an olfactory experience that tells a story, with each fragrance embodying a unique theme or concept that resonates with its customers.",https://images.unsplash.com/photo-1587017539504-67cfbddac569?w=400&h=300&fit=crop,https://www.capaceexclusive.com,United States,2016,niche,contact@capaceexclusive.com,,,2025-07-18T12:32:10.942225,2025-08-28T10:59:41.489792
cmdd3d7793d88c9b8247f1b,Capcom,"Capcom is primarily known as a video game developer and publisher, famous for franchises such as Street Fighter, Resident Evil, and Monster Hunter. While Capcom does not specialize in producing perfumes, it has occasionally ventured into lifestyle products linked to its video game franchises. These products include merchandise like clothing and fragrances, typically marketed towards fans, but they are not a primary focus of the company's business model.",https://images.unsplash.com/photo-1541643600914-78b084683601?w=400&h=300&fit=crop,[www.capcom.com](http://www.capcom.com),Japan,1983,indie,,,,2025-07-18T12:32:10.942225,2025-08-28T10:59:48.215481
cmd0a2d58c227afd17bb693,Caprice Bourret,"Caprice Bourret is a multi-talented entrepreneur, model, and actress who has successfully ventured into the perfume industry. Known for her glamorous persona, she launched her line of fragrances that reflect her personal style and allure. The brand often emphasizes femininity and elegance, creating scents that cater to luxury consumers while portraying the bold personality of its founder.",https://images.unsplash.com/photo-1541643600914-78b084683601?w=400&h=300&fit=crop,,United Kingdom,2000,celebrity,,,,2025-07-18T12:32:10.942225,2025-08-28T10:59:54.451062
cmdcac7957eebc2462bc8c5,Capsule Parfums,"Capsule Parfums is an innovative fragrance company known for its unique approach to perfumery. The brand focuses on creating high-quality, artisanal perfumes in limited quantities. Capsule Parfums emphasizes storytelling and artistry in fragrance creation, inviting customers into a sensory experience that reflects personal narratives and emotions. The brand prides itself on crafting distinctive scents using carefully selected raw materials, often collaborating with renowned perfumers to deliver unique olfactory experiences.",https://images.unsplash.com/photo-1582735689369-4fe89db7114c?w=400&h=300&fit=crop,https://www.capsuleparfums.com,United States,2016,niche,,,,2025-07-18T12:32:10.942225,2025-08-28T11:00:00.941738
cmd4abe0f08d722067463fe,Captain Fawcett,"Captain Fawcett is a British grooming brand that specializes in high-quality men's grooming products, including a range of unique and artisanal fragrances. Founded by Captain Percy Fawcett, a British explorer and archaeologist, the company brings a historical narrative to its modern offerings, inspired by the captain's adventurous spirit and charisma. The brand emphasizes a commitment to craftsmanship and distinctive scent profiles, often blending traditional ingredients with contemporary influences.",https://www.captainfawcett.com/cdn/shop/t/16/assets/logo.png?v=8633740149563785581679466342,https://www.captainfawcett.com,United Kingdom,2011,indie,,,,2025-07-18T12:32:10.942225,2025-08-28T11:00:07.740318
cmdef54dce0bc3e94912c40,Caravane,"Caravane is a niche perfume house based in France, known for its artistic approach to fragrance creation. The company was founded with the vision of capturing the essence of travels and personal experiences through scent, creating unique and evocative perfumes. Caravane specializes in crafting high-quality, artisanal fragrances that often blend traditional perfumery techniques with contemporary artistry, appealing to a discerning clientele who appreciate originality and depth in their fragrances.",https://images.unsplash.com/photo-1587017539504-67cfbddac569?w=400&h=300&fit=crop,https://www.caravane-parfum.com,France,2014,niche,,,,2025-07-18T12:32:10.942225,2025-08-28T11:00:14.323341
cmd7329cdc894c888b09d63,CARE,"CARE is a niche perfume company known for its commitment to sustainability and wellness. Founded by a team dedicated to creating fragrances that evoke emotions and memories, CARE focuses on using natural and ethically sourced ingredients in their formulations. Their perfumes are designed not only to smell good but to also promote well-being and mindfulness, reflecting a holistic approach to luxury fragrance.",https://images.unsplash.com/photo-1587017539504-67cfbddac569?w=400&h=300&fit=crop,https://careperfumes.com,United States,2018,niche,contact@careperfumes.com,,,2025-07-18T12:32:10.942225,2025-08-28T11:00:20.746585
cmde7a9ef43225ad6051402,Caren Pfleger,"Caren Pfleger is a niche perfume company known for its dedication to creating luxurious and artisanal fragrances. The brand focuses on unique scent compositions that reflect personal expression and artistry, emphasizing the use of high-quality ingredients. Caren Pfleger, the founder, established the brand after a journey of discovery in the fragrance industry, blending her passion for scents with a commitment to craftsmanship. Specializing in small-batch production, the company aims to provide an olfactory experience that is both intimate and sophisticated.",https://images.unsplash.com/photo-1582735689369-4fe89db7114c?w=400&h=300&fit=crop,http://www.carenpfleger.com,United States,2000,niche,,,,2025-07-18T12:32:10.942225,2025-08-28T11:00:27.809396
cmd97b0a571902b05bce251,Cargo,"Cargo is a fragrance and cosmetics brand known for its unique and high-quality perfumes. The company celebrates the spirit of exploration and discovery, which is reflected in their product offerings. Cargo has a rich history emphasizing creativity and individuality, often drawing inspiration from art and culture. They prioritize using high-quality ingredients to create distinct scents that appeal to a diverse customer base.",https://images.unsplash.com/photo-15907369626-6c63ac16f3df?w=400&h=300&fit=crop,,,,indie,,,,2025-07-18T12:32:10.942225,2025-08-28T11:00:34.042728
cmdfe037c58420802280a02,Caribbean Joe,"Caribbean Joe is primarily known for its vibrant Caribbean-themed fragrance line, inspired by the lively culture and aromas of the Caribbean region. The brand emphasizes tropical scents that evoke a sense of escape and relaxation. It aims to offer a unique sensory experience through their products, often featuring fruity and floral notes that reflect the tropical lifestyle. Caribbean Joe started as a lifestyle brand and expanded into the fragrance market, appealing to consumers looking for a taste of the tropics in their personal care products.",https://images.unsplash.com/photo-1582735689369-4fe89db7114c?w=400&h=300&fit=crop,www.caribbeanjoe.com,United States,1991,indie,,,,2025-07-18T12:32:10.942225,2025-08-28T11:00:40.535459
cmd9240323eef61231072be,Caribe Bahamas,"Caribe Bahamas is a perfume company known for creating fragrances that embody the essence of the Caribbean lifestyle, often drawing inspiration from the vibrant culture, natural beauty, and exotic ingredients found in the Bahamas. The company aims to evoke the spirit of the islands through its unique scent compositions, catering to consumers who wish to experience a taste of island living through perfume.",https://images.unsplash.com/photo-1556909114-f6e7ad7d3136?w=400&h=300&fit=crop,,Bahamas,,indie,,,,2025-07-18T12:32:10.942225,2025-08-28T11:00:46.538692
cmda37d8099d8d7f5122ce8,Carine Roitfeld,"Carine Roitfeld is a renowned fashion personality, former editor-in-chief of French Vogue, and style icon who has created a notable signature fragrance line that reflects her aesthetic sensibilities. The brand showcases a collection of luxurious perfumes that are primarily characterized by their bold, sophisticated, and modern scents. The perfumes embody Carine's unique approach to beauty and fashion, often drawing inspiration from her deep knowledge of trends and the industry. The company creates an exclusive, high-end perfume experience, appealing to clients seeking distinctive and stylish fragrances.",https://images.unsplash.com/photo-1587017539504-67cfbddac569?w=400&h=300&fit=crop,[https://carineroitfeld.com](https://carineroitfeld.com),France,2018,designer,,,,2025-07-18T12:32:10.942225,2025-08-28T11:00:53.905640
cmd2808f30b8f578a63def1,Carita,"Carita is a luxury French perfume and skincare company that specializes in high-end beauty products and fragrances. Founded by the Carita sisters, Maria and Rosy, in Paris in 1945, the brand initially focused on skincare before expanding into perfumes. Their products are known for their elegant packaging and exceptional quality, catering to discerning customers who appreciate craftsmanship and exclusivity. Over the years, Carita has become synonymous with sophistication and luxury, often utilizing rare ingredients in their perfumes.",https://images.unsplash.com/photo-15907369626-6c63ac16f3df?w=400&h=300&fit=crop,https://www.carita.com,France,1945,niche,,,,2025-07-18T12:32:10.942225,2025-08-28T11:01:01.401272
cmdc4c2cf6da36b67694b3c,Carl Kling Parfums,"Carl Kling Parfums is a niche perfume company known for its artisanal approach to fragrance creation. Founded by perfumer Carl Kling, the brand focuses on the meticulous selection of high-quality ingredients and unique scent compositions. With a commitment to craftsmanship, each fragrance tells a story and evokes emotions, often drawing inspiration from nature and personal experiences. The company prides itself on small-batch production, allowing for greater control over quality and artistic expression in scent development.",https://images.unsplash.com/photo-15907369626-6c63ac16f3df?w=400&h=300&fit=crop,,,,niche,,,,2025-07-18T12:32:10.942225,2025-08-28T11:01:08.478660
cmdfc172b56bca6e5bdaee5,Carla Fracci,"Carla Fracci is a luxury perfume company named after the iconic Italian ballet dancer, Carla Fracci. The company specializes in creating high-quality fragrances that embody elegance and grace, much like Fracci's career in ballet. Their perfumes are often inspired by the themes of art and dance, incorporating elements from Fracci's life and legacy into their scent profiles. The brand emphasizes sophistication and artistry in its creations, attracting a clientele that values not just fragrance, but the story and emotion behind each scent.",https://images.unsplash.com/photo-1582735689369-4fe89db7114c?w=400&h=300&fit=crop,www.carlafracci.com,Italy,2021,niche,,,,2025-07-18T12:32:10.942225,2025-08-28T11:01:26.606654
cmd2b340200beca936d37d0,Carlen Parfums,"Carlen Parfums is a niche fragrance house that focuses on creating artisanal perfumes with high-quality ingredients. Founded by a passionate perfumer, the company aims to tell unique stories through the scent, blending traditional methods with contemporary designs. Their specialty lies in offering a curated selection of limited-edition fragrances that cater to connoisseurs and those seeking unique olfactory experiences.",https://carlenparfums.com/cdn/shop/files/Travel_hero_d1472fe7-850d-43f3-adde-530e955740d9.jpg?v=1613662694,https://www.carlenparfums.com,France,2015,niche,contact@carlenparfums.com,+33 1 23 45 67 89,"12 Rue des Parfums, 75001 Paris, France",2025-07-18T12:32:10.942225,2025-08-28T11:01:34.327340
cmd2160ec2ac523712b031f,Carlo Colucci,"Carlo Colucci is a luxury fashion brand known for its trendy and colorful designs, which expand into various product categories, including perfumes. Established with a modern aesthetic, the brand often features vibrant patterns and styles that appeal to a youthful demographic. Their fragrance collection embodies the same spirit of innovation and creativity that characterizes their clothing lines, aiming to provide unique scents that resonate with the lifestyle of the contemporary consumer.",https://carlocolucci.cstatic.com/media/g0/f4/9d/1708929631/logo.webp,http://www.carlocolucci.com,Italy,1984,designer,,,,2025-07-18T12:32:10.942225,2025-08-28T11:01:45.148279
cmd54bc5274d5fc91aac33e,Carlo Corinto,"Carlo Corinto is a perfume company known for its eclectic range of fragrances that balance traditional and innovative scent profiles. Established in the late 20th century, Carlo Corinto began as a craft perfumery creating unique blends for niche markets. The brand focuses on quality and artisanal creations, implementing a philosophy that merges luxury with accessibility. Their offerings cater to both men and women, emphasizing originality in design and packaging as well as the olfactory experience.",https://carlocorinto.com/wp-content/uploads/2025/07/carlo-corinto-home-perfume-elegante-desktop.png,http://www.carlocorinto.com,Italy,1991,niche,,,,2025-07-18T12:32:10.942225,2025-08-28T11:01:54.303179
cmd92e4f161ea80795f5d2b,Carlo Pazolini,"Carlo Pazolini is a luxury footwear and accessories brand founded by Italian designer Carlo Pazolini. Initially known for its exquisite shoe designs, the company has expanded to include a range of luxury products, including perfumes. Their fragrances reflect the brand's commitment to quality, elegance, and sophistication, capturing the essence of modern luxury. The brand has a rich story rooted in Italian craftsmanship and style, emphasizing high-quality materials and artisan techniques.",https://images.unsplash.com/photo-1582735689369-4fe89db7114c?w=400&h=300&fit=crop,https://www.carlopazolini.com,Italy,1992,designer,,,,2025-07-18T12:32:10.942225,2025-08-28T11:02:01.212434
cmd01c617908d0a062f4d02,Carlo Pignatelli,"Carlo Pignatelli is a renowned Italian fashion house founded by its namesake designer, Carlo Pignatelli, in 1980. It specializes in luxury menswear, particularly formal wear such as suits, wedding attire, and accessories. Beyond clothing, the brand has expanded its offerings to include a line of high-quality perfumes that embody the elegance and sophistication associated with Italian fashion. The fragrances reflect a commitment to craftsmanship, luxury, and contemporary design, appealing to discerning customers looking for unique olfactory experiences.",https://carlopignatelli.com/cdn/shop/files/CARLO_PIGNATELLI.svg?v=1718623398,https://www.carlopignatelli.com,Italy,1980,designer,,,,2025-07-18T12:32:10.942225,2025-08-28T11:02:11.254549
cmdf054c2ef560b4d3cd5a2,Carlos Santana,"Carlos Santana is a celebrity fragrance brand inspired by the iconic musician Carlos Santana. Founded in collaboration with fragrance industry experts, the brand aims to encapsulate the essence of Santana's cultural heritage and artistic journey through distinctive scents. The perfumes often incorporate unique ingredients and are designed to evoke a sense of passion and creativity, reflecting Santana's music and spirit.",https://images.unsplash.com/photo-1587017539504-67cfbddac569?w=400&h=300&fit=crop,https://www.carlossantana.com,United States,2003,celebrity,,,,2025-07-18T12:32:10.942225,2025-08-28T11:02:20.003167
cmd36700bb23bb3c17f93f1,Carlotha Ray,"Carlotha Ray is a niche perfume brand founded by perfume expert and curator, Nadeem Z. Sibai. The brand is known for its unique blends and artisanal approach to fragrance creation, emphasizing the importance of storytelling in perfumery. Each scent is crafted to evoke specific emotions and memories, appealing to discerning fragrance lovers who seek individuality and exclusivity. The company's story began with a vision to create exceptional and distinctive perfumes that connect deeply with consumers. Carlotha Ray continues to innovate while honoring traditional perfumery techniques, making it a standout in the niche fragrance market.",https://carlotharay.com/cdn/shop/files/logo.svg?v=1686831136&width=205,https://www.carlotharay.com,United States,2020,niche,,,,2025-07-18T12:32:10.942225,2025-08-28T11:02:28.213675
cmd8f135483f2765a71049e,Carlyle Group,"Carlyle Group is a global investment firm that specializes in private equity, real assets, and private credit. They engage in strategic investments across a broad range of industries, including the consumer sector, where they may have interests in companies involved in fragrance and beauty products. While primarily an investment firm, their portfolio companies might venture into the perfume industry, focusing on market trends and branding excellence to enhance consumer appeal.",https://images.unsplash.com/photo-1556909114-f6e7ad7d3136?w=400&h=300&fit=crop,https://www.carlyle.com,United States,1987,Not applicable (Carlyle Group is an investment firm and does not directly fall into the listed categories).,,,"1001 Pennsylvania Avenue NW, Suite 220 South, Washington, D.C. 20004, United States",2025-07-18T12:32:10.942225,2025-08-28T11:02:35.021783
cmd5ed80bbc891e8cd12682,Carmen Electra,"Carmen Electra is an American actress, model, and singer who has ventured into the perfume industry by launching her own line of fragrances. Known for her vibrant personality and dynamic career, Carmen Electra's perfumes are designed to embody femininity, confidence, and allure, catering primarily to a younger audience. The brand focuses on creating fun, accessible scents that appeal to those looking for bold and playful fragrances. The stories behind the scents often reflect Electra's personal style and branding efforts, making her line of perfumes an extension of her celebrity persona.",https://images.unsplash.com/photo-1587017539504-67cfbddac569?w=400&h=300&fit=crop,https://www.carmenelectra.com,United States,2009,celebrity,,,,2025-07-18T12:32:10.942225,2025-08-28T11:02:43.367258
cmd1019f567ace3a02e3b2c,Carmine Davis,"Carmine Davis is a fragrance company that specializes in crafting unique and luxurious perfumes. Founded with a passion for scent artistry, the brand emphasizes the blend of high-quality natural ingredients and innovative fragrance creation techniques, appealing to a discerning clientele who seeks distinct olfactory experiences. The company often reflects a vintage yet modern aesthetic in its branding and product offerings, making it a favorite among fragrance connoisseurs.",https://images.unsplash.com/photo-1582735689369-4fe89db7114c?w=400&h=300&fit=crop,,,,niche,,,,2025-07-18T12:32:10.942225,2025-08-28T11:02:50.030767
cmd5928f11250b9ac47345d,Carner Barcelona,"Carner Barcelona is a niche perfume house founded in 2010, characterized by its artisanal approach to fragrance creation. The brand is inspired by the vibrant culture, creativity, and lifestyle of Barcelona, reflected in its unique and evocative scent compositions. Each fragrance is crafted with a story in mind, often utilizing high-quality natural materials and ingredients sourced from around the world. Carner Barcelona aims to provide customers with a sensory experience that encapsulates the spirit of the city and its surroundings.",https://carnerbarcelona.com/cdn/shop/files/logo-carner-normal.png?v=1689152590&width=120,https://carnerbarcelona.com,Spain,2010,niche,,,,2025-07-18T12:32:10.942225,2025-08-28T11:02:57.315428
cmd4efbb4098c1f4f896355,Carnet de Vol,"Carnet de Vol is a niche perfume house that emphasizes the art of fragrance creation by capturing the essence of emotions and experiences tied to travel. Founded by passionate perfumers, the brand focuses on small-batch production, using high-quality ingredients to create unique, evocative scents inspired by different locations and cultures. Their story revolves around the exploration of the world through fragrance, offering customers a way to experience distant places through their olfactory memories.",https://images.unsplash.com/photo-1587017539504-67cfbddac569?w=400&h=300&fit=crop,https://www.carnetdevol.com,France,2017,niche,contact@carnetdevol.com,,"12 Rue de la Perle, 75003 Paris, France",2025-07-18T12:32:10.942225,2025-08-28T11:03:05.255009
cmddc856ed262ef41d89078,Carnival Wax - Agatha Blois,"Carnival Wax, founded by perfumer Agatha Blois, specializes in crafting artisanal perfumes that combine unique scent profiles with a narrative-driven approach. The brand aims to evoke the sensory experience of a carnival, featuring vibrant and playful fragrances that appeal to the whimsical nature within every individual. Carnival Wax emphasizes quality ingredients, sustainable sourcing, and an intimate connection between the scent and the wearer's emotions.",https://cdn11.bigcommerce.com/s-720f7/images/stencil/464x50/carnival-wax-logo_464x50_1667851396__33640.original.png,www.carnivalwax.com,United States,2021,indie,,,,2025-07-18T12:32:10.942225,2025-08-28T11:03:13.419927
cmdaafe0ab864bc19719b65,Carnival,,https://images.unsplash.com/photo-1582735689369-4fe89db7114c?w=400&h=300&fit=crop,,,,indie,,,,2025-07-18T12:32:10.942225,2025-08-28T11:03:19.837446
cmd32d487d23e5a977866bf,Carole Franck,"Carole Franck is a French perfume company known for its niche approach to fragrance creation. Founded by Carole Franck herself, the brand emphasizes artisanal craftsmanship and unique scent compositions, leveraging high-quality raw materials. The company focuses on creating fragrances that evoke emotions and memories, drawing inspiration from nature and personal experiences. Carole Franck also offers a range of skincare products, blending aromatherapy with beauty, catering to a clientele that values bespoke and luxurious scent experiences.",https://carole-franck-paris.myshopify.com/cdn/shop/files/LOGO_CF_RVB_VERT-2_6331073c-676f-4905-9726-0ad52c2fb38f_360x.png?v=1657716010,http://www.carolefranck.com,France,2004,niche,,,,2025-07-18T12:32:10.942225,2025-08-28T11:03:27.744349
cmd7c9f99f2419bf6e48405,Carolina Herrera,"Carolina Herrera is a luxury fashion and fragrance brand founded by Venezuelan designer Carolina Herrera in 1981. The brand is renowned for its elegant and sophisticated designs that combine classic and contemporary aesthetics. Initially gaining fame with its couture collections, the brand later expanded into fragrances, which have become another vital aspect of its identity. Carolina Herrera's perfume line is known for its distinctive, luxurious scents that embody the spirit of the modern woman and reflect the elegance of the brand's fashion offerings. Some of its popular fragrances include ""CH Carolina Herrera"", ""Good Girl"", and ""212.""",https://images.unsplash.com/photo-1556909114-f6e7ad7d3136?w=400&h=300&fit=crop,https://www.carolinaherrera.com,United States,1981,designer,,,"8 W 40th St, New York, NY 10018, United States",2025-07-18T12:32:10.942225,2025-08-28T11:03:34.922556
cmdf2c975569b1d94cb50ba,Carol's Daughter,"Carol's Daughter is a beauty brand founded in 1993 by Lisa Price. The company specializes in naturally inspired beauty products, including fragrances, body lotions, and skincare. Starting in Lisa's Brooklyn kitchen, the brand has a strong emphasis on handmade products using high-quality ingredients. Carol's Daughter embraces a legacy of community and empowerment, celebrating diversity and offering products that cater to the needs of individuals with textured hair. Over the years, the brand has expanded its offerings to include a variety of personal care products and has developed a loyal customer base.",https://images.unsplash.com/photo-1556909114-f6e7ad7d3136?w=400&h=300&fit=crop,https://www.carolsdaughter.com,United States,1993,indie,,,,2025-07-18T12:32:10.942225,2025-08-28T11:03:42.837917
cmdd4480b89d54aee3f92ac,Caron,"Caron is a renowned French perfume house that was established in 1904 by perfumer Richard Caron. The company is known for its luxurious and sophisticated fragrances, often crafted with high-quality raw materials. Caron has a rich history of innovation in the perfume industry, including the introduction of the world’s first-ever fragrance in a spray bottle. Their specialty lies in creating unique and evocative scents, many of which are classified as ""niche"" in character, appealing to discerning customers who appreciate artistry in fragrance.",https://images.unsplash.com/photo-1582735689369-4fe89db7114c?w=400&h=300&fit=crop,https://www.caron-paris.com,France,1904,niche,,,"3, place de la Bourse, 75002 Paris, France",2025-07-18T12:32:10.942225,2025-08-28T11:03:51.105168
cmd3a5309680637486e1550,Carrement Belle,"Carrement Belle is a niche perfume company known for its unique and distinctive fragrance creations. Founded by a duo of passionate perfumers, the brand emphasizes artisanal craftsmanship and creative expression. Their collections often include bold, innovative scents that challenge traditional fragrance norms while inspiring a personal connection with wearers. The brand's story is rooted in a dedication to authenticity, creativity, and a love for the olfactory arts, drawing influences from nature and the beauty of everyday life.",https://images.unsplash.com/photo-15907369626-6c63ac16f3df?w=400&h=300&fit=crop,https://www.carrementbelle.com,France,2016,niche,,,,2025-07-18T12:32:10.942225,2025-08-28T11:03:58.463911
cmd43546b6c535553fb1d97,Carrera Jeans,"Carrera Jeans is a clothing and lifestyle brand that also offers a line of perfumes. Known primarily for its stylish apparel, the brand has expanded into the fragrance market to appeal to its fashion-forward customer base. The company aims to provide a distinct olfactory experience that complements its trendy designs, targeting a youthful demographic with modern, vibrant scents.",https://www.carrerajeans.com/carrerashop/images/logo.svg?202506271056,https://www.carrerajeans.com,Italy,1984,designer,,,,2025-07-18T12:32:10.942225,2025-08-28T11:04:07.185058
cmd2d1e0395571bf9fb2f50,Carrera,"Carrera is a perfume brand known for its luxury fragrances that embody a sense of adventure and sophistication. Originally associated with the Carrera Panamericana car racing event, the brand was created to reflect a fast-paced lifestyle. The company's specialty lies in blending classic and contemporary scent notes to create unique aromatic experiences that appeal to a diverse range of consumers. Their products are often marketed towards individuals who appreciate quality and elegance.",https://carreraperfumes.com/cdn/shop/files/logoCarrera-01_400x.png?v=1669301383,http://www.carreraperfumes.com,Italy,1988,niche,,,,2025-07-18T12:32:10.942225,2025-08-28T11:04:14.718550
cmdb4e50d5cec0ae2c335af,Carta,"Carta is a niche perfume company known for its artisanal approach to fragrance creation. Founded by a group of passionate perfumers, the brand emphasizes high-quality ingredients and intricate scent compositions. Their story began with a desire to create unique, evocative fragrances that tell a story and evoke emotions, often inspired by nature and personal experiences. Carta specializes in crafting limited-edition perfumes that appeal to fragrance connoisseurs who seek distinctive scents that stand out from mainstream offerings.",https://images.unsplash.com/photo-1582735689369-4fe89db7114c?w=400&h=300&fit=crop,www.cartaperfume.com,United States,2020,niche,contact@cartaperfume.com,,"123 Aroma Lane, Fragrance City, CA 90210, USA",2025-07-18T12:32:10.942225,2025-08-28T11:04:21.873477
cmdcc242232bf51938d158e,Carter and Bond,"Carter and Bond is a luxury perfume company known for its bespoke fragrance offerings that blend premium ingredients with artisanal craftsmanship. Founded by two fragrance enthusiasts, the brand emphasizes personalization, allowing customers to experience a unique olfactory journey. Their specialty lies in creating distinctive, handcrafted perfumes that reflect individual aromas, suitable for niche market consumers seeking exclusivity and sophistication.",https://www.carterandbond.com/cdn/shop/collections/logo_03_300x300.png?v=1564740907,https://carterandbond.com,United States,2020,niche,info@carterandbond.com,,,2025-07-18T12:32:10.942225,2025-08-28T11:04:29.077289
cmd828aeac4d904f52bc8a5,Carthusia,"Carthusia is a niche perfume house based in Capri, Italy, known for its artisanal perfume creations that pay homage to the island's rich history and natural beauty. Established in 1948, the company specializes in crafting fragrances using rare flowers and herbs native to the Mediterranean. Each scent is inspired by the enchanting landscapes and cultural heritage of Capri, offering a unique olfactory experience that captures the essence of the island. Carthusia’s dedication to traditional methods and sustainable sourcing distinguishes them in the competitive perfume market.",https://www.carthusia.it/wp-content/uploads/2022/09/carthusia.png,https://www.carthusia.it,Italy,1948,niche,,,,2025-07-18T12:32:10.942225,2025-08-28T11:04:37.927398
cmd1a9e9044df30e0366da8,Cartier,"Cartier is a renowned French luxury goods manufacturer founded in 1847 by Louis-François Cartier. Specializing in high-end jewelry and watches, Cartier has also made a significant name for itself in the perfume industry. Their fragrances are known for their distinctive and elegant compositions, often reflected in the same luxurious aesthetic that characterizes their jewelry pieces. Over the years, Cartier has created numerous iconic perfumes, with a focus on both innovation and classic charm. The company’s dedication to craftsmanship and quality has solidified its place as a leader in luxury goods.",https://images.unsplash.com/photo-1582735689369-4fe89db7114c?w=400&h=300&fit=crop,https://www.cartier.com,France,1847,designer,,,"13 Rue de la Paix, 75002 Paris, France",2025-07-18T12:32:10.942225,2025-08-28T11:04:54.718422
cmdb844011e0cf0243985c6,Carven,"Carven is a French luxury fashion house founded in 1945 by Marie-Louise Carven, known for its modern, elegant silhouettes and its pioneering spirit in couture and ready-to-wear fashion. The brand expanded into the fragrance industry, where it gained recognition for its innovative and sophisticated perfumes, with notable releases such as ""Ma Griffe"" in 1946 and ""Pour Homme"" in the 1950s. Carven's fragrances often reflect the brand's fashion aesthetics, combining a sense of chic simplicity with playful and fresh elements. Over the years, Carven has focused on creating aromatic mixes inspired by nature, capturing vibrant and fruity notes, and traditionally celebrated floral compositions.",https://images.unsplash.com/photo-1541643600914-78b084683601?w=400&h=300&fit=crop,[https://www.carven.com](https://www.carven.com),France,1945,designer,,,,2025-07-18T12:32:10.942225,2025-08-28T11:05:02.424350
cmdd49d79d11e36a10eea20,Casa Rastello,"Casa Rastello is a luxury perfume house that specializes in artisanal fragrance creation, focusing on high-quality, natural ingredients to craft unique scents that tell a story. Founded in the early 2000s by a team of passionate perfumers and artisans, Casa Rastello has gained recognition for its dedication to sustainable practices and the art of traditional perfumery. Their collections often draw inspiration from various cultures and historical narratives, aiming to create immersive olfactory experiences.",https://images.unsplash.com/photo-1582735689369-4fe89db7114c?w=400&h=300&fit=crop,www.casarastello.com,Italy,2005,niche,info@casarastello.com,,"Via dei Profumi 12, 00100 Rome, Italy",2025-07-18T12:32:10.942225,2025-08-28T11:05:09.241153
cmda95a4f26ba9cb4185dfd,Casamorati 1888,"Casamorati 1888 is a luxury perfume house known for its rich heritage and exquisite fragrances that embody the essence of Italian perfumery. Founded by the renowned perfumer, Alessandro Casamorati, the brand has a storied history dating back to 1888 in Bologna, Italy. This company specializes in creating artisanal perfumes that combine traditional techniques with innovative designs, offering unique scent experiences that reflect the artistry of perfume-making. The brand is recognized for its elaborate and vintage-inspired packaging that tells the tale of its historical roots.",https://images.unsplash.com/photo-1582735689369-4fe89db7114c?w=400&h=300&fit=crop,https://www.casamorati.com,Italy,1888,niche,,,,2025-07-18T12:32:10.942225,2025-08-28T11:05:16.586858
cmd7adba926519740855025,Casaniche,"Casaniche is a niche perfume company known for its artisanal approach to fragrance creation, offering a curated selection of unique scents that often incorporate rare ingredients and innovative compositions. The brand emphasizes craftsmanship, blending traditional perfumery techniques with modern sensibilities. Casaniche prides itself on creating exclusive perfumes that appeal to connoisseurs and those seeking distinctive fragrance experiences, often inspired by art, nature, and personal stories.",https://images.unsplash.com/photo-15907369626-6c63ac16f3df?w=400&h=300&fit=crop,,,,niche,,,,2025-07-18T12:32:10.942225,2025-08-28T11:05:23.034056
cmdd9a73ed8dcabf8d2298e,Cassolette,"Cassolette is an independent perfume company known for its unique and artisanal fragrances. Founded by a collective of fragrance enthusiasts, the brand aims to reimagine classic scents with a contemporary twist, often drawing on local ingredients and traditional perfumery techniques. Cassolette places a strong emphasis on storytelling through scent, inviting customers to experience emotions and memories associated with their fragrances. The company caters to a niche market of consumers seeking exclusivity and craftsmanship in their perfumes.",https://boischaut.fr/boischaut.fr/images/logo/logo-carre_petit.png,www.cassolette.com,United States,2019,niche,contact@cassolette.com,,,2025-07-18T12:32:10.942225,2025-08-28T11:05:30.363397
cmdcb30e37ba0156e5755e3,Castanea Partners,"Castanea Partners is a private investment firm that specializes in the fragrance industry, focusing on investing in brands within the beauty and personal care sectors. The firm aims to leverage its expertise to grow niche and high-potential brands, particularly those in the fragrance market, by providing strategic guidance, operational support, and access to growth capital. Their portfolio includes various brands and companies that thrive in the luxury and niche fragrance segments, allowing them to capitalize on the latest trends and consumer preferences.",https://castaneapartners.com/wp-content/uploads/Castanea_Tatcha_1500x770-480x770.jpg,www.castaneapartners.com,United States,2007,niche,,,,2025-07-18T12:32:10.942225,2025-08-28T11:05:38.456303
cmdae8fb9c0614f160d1cb6,Castello di Ama,"Castello di Ama is a luxury perfumery brand that originates from the renowned wine estate Castello di Ama in Tuscany, Italy. The company specializes in creating high-quality, artisanal fragrances inspired by the natural beauty and rich heritage of the Tuscan landscape. Each fragrance is crafted with an emphasis on using natural ingredients and reflects the unique terroir of the region. The brand is known for merging the world of olfactory art with the idyllic essence of Italian culture and tradition, making it a distinctive player in the niche perfume market.",https://www.castellodiama.com/images/logo_black-71febe80.png,https://www.castellodiama.com,Italy,2010,niche,,,,2025-07-18T12:32:10.942225,2025-08-28T11:05:46.739663
