id,name,description,image,website,country,founded,type,email,phone,address,createdAt,updatedAt
cmd579d50ab3d353774bd8e,Nefertum Parfums,"Nefertum Parfums is a luxury perfume house inspired by the ancient Egyptian god of fragrance and healing, Nefertum. Founded by perfumer and artist Adélaïde de Vignon, the brand focuses on creating unique, high-quality fragrances that evoke the beauty and mystique of ancient Egypt. Each scent is designed to tell a story, drawing on traditional perfumery techniques combined with modern artistry. Nefertum Parfums emphasizes sustainability and natural ingredients, making their offerings appealing to environmentally conscious consumers.",https://nefertumparfums.com/wp-content/uploads/2023/01/logo.svg,https://nefertumparfums.com,United States,2020,niche,contact@nefertumparfums.com,,,2025-07-18T12:32:10.942225,2025-08-29T09:08:35.344777
cmd10b33bf14935316c2565,NEH,"NEH is a contemporary perfume company that specializes in creating niche and artisanal fragrances. Founded by a passionate fragrance enthusiast, NEH emphasizes individuality and self-expression through its unique scent profiles that resonate with a modern audience. The company is known for using high-quality, sustainable ingredients, and each fragrance is crafted to tell a story or evoke a specific emotion, making them appealing for those who appreciate the art of perfumery.",https://images.unsplash.com/photo-1582735689369-4fe89db7114c?w=400&h=300&fit=crop,www.nehfragrance.com,United States,2018,niche,contact@nehfragrance.com,,,2025-07-18T12:32:10.942225,2025-08-29T09:08:41.160379
cmd50b4d6cb90a69cf4081b,Neija,"Neija is a contemporary perfume brand that focuses on creating unique, high-quality fragrances inspired by nature and personal expression. The company prides itself on using artisanal methods combined with modern techniques to craft their scents. Neija aims to connect emotions with olfactory experiences, producing a range of perfumes that cater to individual tastes and preferences. The brand is dedicated to sustainability and ethical sourcing of ingredients, ensuring that their products are both luxurious and environmentally responsible.",https://images.unsplash.com/photo-1556909114-f6e7ad7d3136?w=400&h=300&fit=crop,www.neijaperfumes.com,United States,2019,niche,contact@neijaperfumes.com,,"123 Fragrance Lane, Los Angeles, CA 90001, USA",2025-07-18T12:32:10.942225,2025-08-29T09:08:47.272109
cmd8e07c7b266de9eea6f55,Neil Davis Design,"Neil Davis Design is a niche perfumery that specializes in creating artisanal fragrances. Founded by Neil Davis, the company emphasizes craftsmanship and unique scent profiles, often incorporating unusual ingredients and inspirations from nature. The brand is known for its minimalist and elegant packaging, reflecting its commitment to high-quality production and a distinctive olfactory experience.",https://images.unsplash.com/photo-1582735689369-4fe89db7114c?w=400&h=300&fit=crop,https://neildavisdesign.com,United States,2015,niche,contact@neildavisdesign.com,,,2025-07-18T12:32:10.942225,2025-08-29T09:08:52.467560
cmd2515aeb041ff902b9ec6,Neil Jacquet,"Neil Jacquet is a unique perfume company that specializes in creating artisanal fragrances inspired by nature and crafted using high-quality ingredients. The company focuses on the art of perfume making, drawing on traditional techniques while also embracing modern innovations. Established by Neil Jacquet, the brand aims to evoke emotions and memories through its scents, offering a distinctive olfactory experience for discerning customers.",https://images.unsplash.com/photo-15907369626-6c63ac16f3df?w=400&h=300&fit=crop,https://neiljacquet.com,France,2018,niche,contact@neiljacquet.com,+33 1 23 45 67 89,"12 Rue des Parfumeurs, Paris, 75001, France",2025-07-18T12:32:10.942225,2025-08-29T09:08:58.926546
cmd95d10174d5d942abc20d,Neil Morris Fragrances,"Neil Morris Fragrances specializes in artisanal fragrances crafted with a focus on individual expression and creativity. Founded by perfumer Neil Morris, the company is known for its custom fragrances and an array of unique scent creations. With an emphasis on high-quality ingredients and personal consultations, Neil Morris Fragrances aims to engage customers in the joy of discovering their signature scent. The company has built a reputation for its bespoke fragrance services, allowing clients to work directly with Neil to create personalized scents that reflect their identities and preferences.",https://images.unsplash.com/photo-15907369626-6c63ac16f3df?w=400&h=300&fit=crop,https://www.neilmorrisfragrance.com,United States,2007,niche,,,,2025-07-18T12:32:10.942225,2025-08-29T09:09:06.698855
cmdae7e0f91f99dffdaa890,Neiman Marcus,"Neiman Marcus is a luxury department store chain that specializes in high-end fashion and beauty products, including a curated selection of exclusive fragrances. Established in 1907, the company offers a range of designer and niche perfumes, along with other luxury goods such as clothing, accessories, and home products. Neiman Marcus is well-known for its personalized customer service and unique shopping experience, often collaborating with leading fragrance houses to provide exclusive scents that are not available elsewhere.",https://images.unsplash.com/photo-1541643600914-78b084683601?w=400&h=300&fit=crop,https://www.neimanmarcus.com,United States,1907,designer,,,"1618 Main St, Dallas, TX 75201, United States",2025-07-18T12:32:10.942225,2025-08-29T09:09:13.315713
cmda6009ba440e352178411,Nejma,"Nejma is a luxury perfume house that offers a unique blend of traditional and contemporary fragrance art. The brand was founded by two sisters who drew inspiration from their Moroccan heritage and the art of perfumery, aiming to create scents that tell stories. Nejma focuses on high-quality ingredients and craftsmanship, resulting in exclusive fragrances that evoke emotions and memories. Their specialty lies in creating artisanal perfumes that embody the elegance and mystique of their cultural roots.",https://nejma.fr/img/blue_header.png,https://nejma.fr,France,2015,niche,,,,2025-07-18T12:32:10.942225,2025-08-29T09:09:21.172005
cmd8f238baadc1c43fe45c3,Nelly Rodi,"Nelly Rodi is a French perfume company that specializes in creating and marketing fragrances. Established in 1983, the company not only develops perfumes but also offers trend forecasting and consulting services for the beauty, fashion, and luxury sectors. Known for its innovative approach, Nelly Rodi blends creativity with marketing expertise to cultivate unique olfactory experiences and valuable industry insights. The brand emphasizes a deep understanding of consumer behavior and preferences, positioning itself as a trendsetter in the fragrance industry.",https://images.unsplash.com/photo-1556909114-f6e7ad7d3136?w=400&h=300&fit=crop,[www.nellyrodi.com](http://www.nellyrodi.com),France,1983,niche,,,,2025-07-18T12:32:10.942225,2025-08-29T09:09:27.644231
cmd94b745e6bd9c052f19f9,Nelly,"Nelly is a Swedish retailer known for its diverse range of beauty products, including perfumes. Established in 2003, the company focuses on providing affordable fashion and beauty items for a young audience. Over the years, Nelly has built a reputation for catering to the contemporary style of Nordic consumers, offering both in-house branded fragrances and a selection of well-known perfume brands. Their specialty lies in creating accessible and trendy products that resonate with the preferences of young adults.",https://images.unsplash.com/photo-1541643600914-78b084683601?w=400&h=300&fit=crop,https://www.nelly.com,Sweden,2003,drugstore,,,,2025-07-18T12:32:10.942225,2025-08-29T09:09:34.251783
cmdc4bd0abf2b69cbeaac07,Nemat Perfumes,"Nemat Perfumes is a family-owned business that specializes in traditional Middle Eastern fragrances. Founded in 2002, the company is known for its high-quality, alcohol-free perfumes made from natural oils, presenting a unique blend of cultural heritage and modern perfumery. Nemat focuses on creating artisanal scents, offering a wide range of products including oils, incense, and body mists that resonate with the luxurious essence of ancient Arabian perfumery traditions.",https://nematperfumes.com/cdn/shop/files/Image004_280x@2x.png?v=1613506205,http://www.nematperfumes.com,United States,2002,niche,,,,2025-07-18T12:32:10.942225,2025-08-29T09:09:41.110855
cmdc5bda37c94ad304d1555,Nenuco,"Nenuco is a well-known brand specializing in children's fragrances and bath products. Established in Spain, Nenuco has become synonymous with baby care and fresh scents, often characterized by their light and refreshing qualities. The company's story began with a focus on providing gentle, high-quality products for infants, which has allowed Nenuco to build strong brand recognition and loyalty over the years. They are particularly noted for their cologne, which is popular with parents for its mildness and pleasant fragrance, making it an ideal choice for babies and toddlers.",https://images.unsplash.com/photo-1587017539504-67cfbddac569?w=400&h=300&fit=crop,https://www.nenuco.com/,Spain,1976,drugstore,,,,2025-07-18T12:32:10.942225,2025-08-29T09:09:48.231220
cmd39f38c72fdfb56d0c8a2,Neom Organics,"Neom Organics is a British brand that specializes in natural and organic wellness products, including a range of luxurious perfumes. Founded by Nicola Elliott in 2005, the company aims to promote well-being through aromatherapy and the use of sustainably sourced materials. Their products often feature blends of essential oils and are designed to enhance physical and emotional health. Neom's ethos is centered around the belief that a positive environment can lead to a happier life, and they champion the use of scent to create feelings of comfort and serenity.",https://neomwellbeing.com/cdn/shop/files/bcorp_logo_b65ee337-f1a2-45c8-ab10-c76026ddb5b2.png?crop=center&height=80&v=1714382328&width=80,https://www.neomorganics.com,United Kingdom,2005,indie,,,,2025-07-18T12:32:10.942225,2025-08-29T09:09:55.846064
cmdbdfe3edf5f7bfc585d6a,Neotantric Fragrances,"Neotantric Fragrances is a unique perfume company that specializes in creating high-quality fragrances inspired by the concept of tantra, which emphasizes the connection between the body, spirit, and mind. Founded by a group of passionate perfumers and holistic lifestyle advocates, the company aims to craft scents that not only smell good but also evoke emotional and spiritual experiences. They feature a diverse range of products, blending traditional perfume-making techniques with modern interpretations to create captivating fragrances that celebrate sensuality and personal expression.",https://images.unsplash.com/photo-1541643600914-78b084683601?w=400&h=300&fit=crop,http://neotantricfragrances.com,United States,2015,indie,info@neotantricfragrances.com,,,2025-07-18T12:32:10.942225,2025-08-29T09:10:02.056227
cmd95927482fcc4493f3891,Nerval,"Nerval is a luxury perfume brand known for its artisanal approach to fragrance creation. The company specializes in crafting unique, high-quality perfumes that emphasize both traditional techniques and innovative scent profiles. Founded by a group of fragrance enthusiasts, Nerval aims to capture the essence of nature and emotion in their scents, appealing to a discerning clientele that values craftsmanship and exclusivity. With a focus on sustainability, they source natural ingredients and promote environmentally-friendly practices in their production processes.",https://images.unsplash.com/photo-1587017539504-67cfbddac569?w=400&h=300&fit=crop,www.nervalparfums.com,France,2018,niche,contact@nervalparfums.com,,,2025-07-18T12:32:10.942225,2025-08-29T09:10:07.743929
cmd55fe1a9d4070b253d41a,Neshama Perfume,"Neshama Perfume is a luxury fragrance brand that focuses on creating exquisite and artisanal perfumes inspired by nature and cultural elements. The company prides itself on using high-quality, sustainable ingredients to craft unique scents that evoke emotions and memories. Neshama has gained recognition for its commitment to artistry in perfumery, offering a curated selection of fragrances that appeal to individuality and personal expression. The brand's story is rooted in the belief that perfume is not just a product, but a form of art that enhances one's identity and experiences.",https://neshamaperfume.com/cdn/shop/files/Group_2.png?v=1696238427&width=600,https://www.neshamaperfume.com,United States,2019,niche,,,,2025-07-18T12:32:10.942225,2025-08-29T09:10:18.824872
cmd47b4383a282287f620cc,Nest,"Nest Fragrances is a luxury fragrance company founded by Laura Slatkin in 2005. The company specializes in creating high-quality, exquisite scented candles and personal fragrances. Nest is known for its innovative compositions that blend tradition with a modern sensibility, offering customers a wide range of unique scents inspired by nature and the world around us. Their products are designed to enhance the ambiance of any space and elevate the personal experience of fragrance. Over the years, Nest has built a reputation for using premium ingredients and crafting distinctive fragrances that appeal to a sophisticated demographic.",https://images.unsplash.com/photo-1582735689369-4fe89db7114c?w=400&h=300&fit=crop,https://www.nestfragrances.com,United States,2005,niche,,,,2025-07-18T12:32:10.942225,2025-08-29T09:10:25.204699
cmd7f5ebf43994ad7a4735d,Nesti Dante,"Nesti Dante is an Italian company known for producing high-quality, artisanal soaps and home fragrances. Founded in Florence in 1947, the brand emphasizes the use of natural ingredients and traditional methods in its production process. Known for their exquisite scents and elegant packaging, their products reflect Italian craftsmanship and artistry, catering to both personal care and home ambiance. Throughout its history, Nesti Dante has focused on sustainability and environmental responsibility, earning recognition for their commitment to quality and eco-friendly practices.",https://www.nestidante.com/wp-content/uploads/2023/10/logo.png,https://www.nestidante.com,Italy,1947,indie,,,,2025-07-18T12:32:10.942225,2025-08-29T09:10:32.268257
cmdfdda5bb61b8a6d70305a,Nestle-LeMur,"Nestle-LeMur is a perfume company that specializes in high-quality, artisanal fragrances. The brand is known for its unique blends that combine traditional perfume-making techniques with modern sensibilities. Founded by a team of experienced perfumers, the company focuses on sustainable sourcing of ingredients and aims to bring luxurious scents to a broader audience. Their story is rooted in a passion for craftsmanship and a dedication to creating memorable olfactory experiences.",https://images.unsplash.com/photo-15907369626-6c63ac16f3df?w=400&h=300&fit=crop,www.nestlelemur.com,France,2018,niche,contact@nestlelemur.com,,,2025-07-18T12:32:10.942225,2025-08-29T09:10:38.698793
cmd6c4772648a364d9c4b26,Nestlé,"Nestlé is a multinational food and beverage company primarily known for its vast range of products including baby food, bottled water, cereal, coffee, tea, dairy products, and snacks. With regard to fragrances, Nestlé does not focus on the perfume industry directly; their offerings in this category primarily come from the blending of scents in food products, and they primarily utilize their expertise in flavor development rather than creating standalone perfume lines. The company was established in the 19th century and has since expanded its operations to become a leader in nutrition, health, and wellness products.",https://images.unsplash.com/photo-1556909114-f6e7ad7d3136?w=400&h=300&fit=crop,https://www.nestle.com,Switzerland,1866,Not applicable (focused on food and beverages rather than traditional perfume categories),,,"111 Avenue du Général-Guisan, 1800 Vevey, Switzerland",2025-07-18T12:32:10.942225,2025-08-29T09:10:46.029862
cmd8f1b557ae2f5f5bf60b9,Netflix,"Netflix is primarily known as a streaming service that provides a wide variety of award-winning TV shows, movies, anime, documentaries, and other entertainment content. Although Netflix does not produce perfumes, the brand has occasionally engaged in unique marketing campaigns that have included limited edition merchandise related to its shows. Their focus is on delivering high-quality entertainment, and they are not recognized as a player in the perfume industry.",https://images.unsplash.com/photo-1582735689369-4fe89db7114c?w=400&h=300&fit=crop,www.netflix.com,United States,1997,Not applicable (as Netflix is not involved in the perfume industry).,,,"100 Winchester Circle, Los Gatos, CA 95032, United States",2025-07-18T12:32:10.942225,2025-08-29T09:10:52.434114
cmd07e9a9085dbcd5682145,Nethum,"Nethum is a specialized perfume company that focuses on crafting unique and high-quality fragrances using rare and exotic ingredients. Established with a passion for olfactory art, Nethum aims to create memorable scents that evoke emotions and tell stories through their carefully curated compositions. The company emphasizes sustainability and ethical sourcing in its production processes, and it often collaborates with artists and designers to create limited-edition collections. Nethum has built a reputation for offering bespoke fragrance experiences, catering to a discerning clientele that appreciates the nuances of artisanal perfumes.",https://images.unsplash.com/photo-1541643600914-78b084683601?w=400&h=300&fit=crop,www.nethum.com,United States,2019,niche,contact@nethum.com,,,2025-07-18T12:32:10.942225,2025-08-29T09:11:00.285867
cmd07c6f936211c33ff294b,Nette,"Nette is a niche perfume company that focuses on creating high-quality, artisanal fragrances. Founded by a team of passionate perfumers, the brand emphasizes the use of sustainable and ethically sourced ingredients, providing unique scents that reflect individuality and personal expression. Nette is known for its sophisticated and avant-garde approach to fragrance design, catering to a market that values luxury and authenticity. The brand's story is rooted in a commitment to craftsmanship, creativity, and the art of scent-making.",https://images.unsplash.com/photo-15907369626-6c63ac16f3df?w=400&h=300&fit=crop,https://www.netteperfume.com,United States,2017,niche,,,,2025-07-18T12:32:10.942225,2025-08-29T09:11:06.503795
cmda298f4ca3e184b50829c,Nettie Rosenstein,"Nettie Rosenstein was a notable American fashion designer and the founder of a perfume line. Established in the mid-20th century, the company is recognized for its elegant fragrances that appealed to sophisticated women. Known for blending classic elements with contemporary trends, Nettie Rosenstein's perfumes carried the ethos of her fashion lines, focusing on elegance and style. She created a distinct identity in the fragrance market, producing scents that were both luxurious and accessible.",https://images.unsplash.com/photo-1582735689369-4fe89db7114c?w=400&h=300&fit=crop,,United States,1940,designer,,,,2025-07-18T12:32:10.942225,2025-08-29T09:11:12.501308
cmd19bc2cdc67c01c122b49,Network Health & Beauty,"Network Health & Beauty is a company that specializes in wellness and beauty products, including a range of fragrances. They are known for focusing on health-conscious formulations and sustainable sourcing. Their mission is to provide high-quality products that promote both beauty and well-being. The company emphasizes the importance of herbal and natural ingredients in all their offerings.",https://images.unsplash.com/photo-1541643600914-78b084683601?w=400&h=300&fit=crop,,,,Indie,,,,2025-07-18T12:32:10.942225,2025-08-29T09:11:18.071339
cmdbeb39d92682d9bbbafb9,Névis Ferier,"Névis Ferier is a niche perfume company that specializes in the creation of unique and artisanal fragrances inspired by nature and travels. Founded by a group of passionate scent artisans, the brand focuses on using high-quality, sustainably sourced ingredients to craft luxurious and evocative scents. Their offerings include personal fragrances and home fragrances that encapsulate diverse inspirations, catering to a clientele that values individuality and olfactory artistry.",https://images.unsplash.com/photo-15907369626-6c63ac16f3df?w=400&h=300&fit=crop,www.nevisferier.com,Switzerland,2018,niche,contact@nevisferier.com,,,2025-07-18T12:32:10.942225,2025-08-29T09:11:24.373024
cmd7f28a3219b39a69eef66,New Brand,"New Brand is a contemporary perfume company that focuses on creating unique and innovative fragrances designed to cater to a modern audience. Founded with a passion for scent, New Brand aims to blend traditional perfumery techniques with modern trends to produce captivating olfactory creations. The company emphasizes sustainability and ethical sourcing of ingredients, making them a preferred choice for eco-conscious consumers. Their story begins with a quest for authenticity in an industry often dominated by big names, and they specialize in small-batch production with a diverse range of scents that appeal to various preferences.",https://images.unsplash.com/photo-1556909114-f6e7ad7d3136?w=400&h=300&fit=crop,www.newbrandfragrance.com,United States,2015,indie,contact@newbrandfragrance.com,,,2025-07-18T12:32:10.942225,2025-08-29T09:11:30.852613
cmd405aceb30fb8f87dd1e7,New Dana Perfume,"New Dana Perfume is a fragrance company known for its diverse selection of perfumes that cater to various tastes and preferences. Originally part of the Dana brand, which has a rich history in the perfume industry dating back to the 1930s, New Dana Perfume specializes in creating affordable yet high-quality scents that appeal to a wide audience. The company is committed to blending traditional perfumery techniques with modern trends, ensuring that its products remain competitively relevant in the evolving fragrance market.",https://images.unsplash.com/photo-1582735689369-4fe89db7114c?w=400&h=300&fit=crop,http://www.newdanaperfume.com,United States,2001,designer,,,,2025-07-18T12:32:10.942225,2025-08-29T09:11:36.918254
cmdf8c6a18f42a67a284531,New Incubation Ventures,"New Incubation Ventures is a fragrance development company that focuses on creating unique and innovative scents. Established in the early 2000s, the company aims to nurture and launch new perfume brands by working closely with perfumers and entrepreneurs. They specialize in combining creativity with market insights to develop fragrances that resonate with consumers and fit into various market segments. New Incubation Ventures is known for its trend-driven approach and has contributed to the launch of several successful niche perfume lines.",https://images.unsplash.com/photo-1556909114-f6e7ad7d3136?w=400&h=300&fit=crop,http://www.newincubationventures.com,United States,2017,niche,,,,2025-07-18T12:32:10.942225,2025-08-29T09:11:47.412473
cmd72f8ab95f937e44c997e,New London Pharmacy,"New London Pharmacy is a unique retailer that specializes in bespoke and niche fragrances, offering a curated selection of both well-known and lesser-known perfume brands. Established with the aim of providing customers with a personalized shopping experience, New London Pharmacy prides itself on its knowledgeable staff who assist clients in discovering scents that perfectly match their preferences. The company also emphasizes natural and artisanal products, reflecting a trend towards cleaner and sustainable grooming options.",https://www.newlondonpharmacy.com/cdn/shop/files/NL_WEB22_BANNER_NLP_8b2098be-2abf-487d-ab83-86afe24ee96a.png?v=1668192477&width=600,https://newlondonpharmacy.com,United Kingdom,2009,niche,,,"18-20, 97-99 Ebury Street, Belgravia, London SW1W 9BH, United Kingdom",2025-07-18T12:32:10.942225,2025-08-29T09:11:55.211566
cmd42f909179cae1dd3a37c,New Look,"New Look is a fashion retailer based in the UK, primarily known for its stylish clothing and accessories, including a line of perfumes. Established in the 1960s, the company has evolved to offer a range of products that appeal to style-conscious consumers. They focus on affordable fashion and continually update their inventory to align with current trends, making their perfumes an extension of their brand ethos.",https://images.unsplash.com/photo-1556909114-f6e7ad7d3136?w=400&h=300&fit=crop,https://www.newlook.com,United Kingdom,1969,designer,,,,2025-07-18T12:32:10.942225,2025-08-29T09:12:01.321979
cmd031f3a3948e8543a32c9,New Notes,"New Notes is a contemporary perfume company specializing in creating unique and innovative fragrances aimed at a modern audience. Founded by a team of passionate perfumers and fragrance enthusiasts, the company celebrates creativity and individuality through its scent profiles. New Notes is committed to using high-quality ingredients and sustainable practices in the development of their perfumes, reflecting a modern approach to olfactory luxury. The brand aims to resonate with consumers looking for personal expression through fragrance.",https://newnotes.com/wp-content/uploads/2019/01/pexels-photo-164821.jpeg,https://www.newnotes.com,United States,2020,niche,contact@newnotes.com,(123) 456-7890,"456 Scent Blvd, Fragrance City, CA 90210, USA",2025-07-18T12:32:10.942225,2025-08-29T09:12:11.984686
cmdde9ba7e855d8efe0151d,New York & Company,"New York & Company is a leading women's fashion retailer that specializes in providing stylish apparel and accessories at attainable prices. Known for its chic and trendy designs, the company offers a wide range of products including clothing, footwear, and fragrances. New York & Company has built a reputation for empowering women through fashion since its inception, appealing to the modern woman with contemporary styles. The brand transitioned into the fragrance market to complement its apparel line, creating scents that resonate with their customer base.",https://images.unsplash.com/photo-1541643600914-78b084683601?w=400&h=300&fit=crop,https://www.nyandcompany.com,United States,1918,designer,,,,2025-07-18T12:32:10.942225,2025-08-29T09:12:22.476710
cmd732947b85397e435f475,New York Yankees,"The New York Yankees, famous as a Major League Baseball team, also ventured into the fragrance industry to create perfumes that embody the spirit and legacy of the team. Their perfume line often targets fans and aims to connect the essence of baseball and the Yankees brand with personal scent experiences, focusing on themes of passion, loyalty, and sports culture.",https://www.mlbstatic.com/team-logos/team-cap-on-dark/147.svg,https://www.yankees.com,United States,1901,celebrity,,,"1 East 161st Street, Bronx, NY 10451, USA",2025-07-18T12:32:10.942225,2025-08-29T09:12:29.133746
cmd33f9e959523d951ee282,Newell Brands,"Newell Brands is a consumer goods company that operates in several segments, including home and family, office products, and outdoor and recreation. Founded through the merger of Newell Rubbermaid and Jarden Corporation, it has a diverse portfolio that includes well-known brands in various industries, including fragrances. The company’s specialty lies in creating innovative products that enhance everyday life, with a focus on performance and quality. They leverage their brand portfolio to meet consumer needs and adapt to changing markets.",https://www.newellbrands.com/application/themes/newell-brands/img/logo-light.png,https://www.newellbrands.com,United States,1903,drugstore,,,"6655 Peachtree Dunwoody Road, Suite 300, Atlanta, GA 30328, USA",2025-07-18T12:32:10.942225,2025-08-29T09:12:40.074865
cmdd1c4a3f9c37611d55218,NewYorker,"NewYorker is a German fashion retail company that operates a chain of stores offering a wide range of affordable clothing, accessories, and fragrances targeted primarily at young consumers. Founded in 1971, NewYorker has grown to establish its presence in numerous countries, combining fashion with lifestyle products, including a selection of branded perfumes that resonate with the youth market. Their fragrances reflect contemporary trends and are often associated with the vibrant energy of urban life.",https://images.unsplash.com/photo-15907369626-6c63ac16f3df?w=400&h=300&fit=crop,https://www.newyorker.de,Germany,1971,drugstore,,,,2025-07-18T12:32:10.942225,2025-08-29T09:12:46.597133
cmd107f7935ce5d2a2ec4f3,Next Generation,"Next Generation is a forward-thinking perfume company that emphasizes innovation and sustainability in the fragrance industry. They focus on creating unique, high-quality scents that appeal to a modern audience. Their story began with a passion for combining traditional perfumery techniques with contemporary trends, allowing them to cater to a diverse clientele. They are known for their commitment to eco-friendly practices and use of natural ingredients.",https://images.unsplash.com/photo-1541643600914-78b084683601?w=400&h=300&fit=crop,www.nextgenerationfragrance.com,United States,2018,indie,contact@nextgenerationfragrance.com,,,2025-07-18T12:32:10.942225,2025-08-29T09:12:52.386993
cmd49eeee662bf4bf89df86,Next,"Next is a British retailer known primarily for its clothing and home goods, but it also has a significant presence in the fragrance market. Their perfume line offers a variety of scents for men, women, and children, catering to diverse consumer preferences. The company's approach is to provide high-quality products at affordable prices, making designer fragrance more accessible to the average consumer. Next’s fragrances are often inspired by the latest trends and developed in collaboration with expert perfumers.",https://www.next.co.uk/static-content/icons/header/next/v2/revision/new-next-black-logo.svg,https://www.next.co.uk,United Kingdom,1982,drugstore,,,"Next Plc, Unit 1, Next Distribution Centre, Desford Road, Enderby, Leicester LE19 4AT, United Kingdom",2025-07-18T12:32:10.942225,2025-08-29T09:13:00.204602
cmd744b485b28b48c37b905,Neydo,"Neydo is a niche perfume company known for its artisanal approach to fragrance creation. The brand emphasizes the use of high-quality, natural ingredients to produce unique and evocative scents that tell a story and evoke memories. Their ethos revolves around craftsmanship and sustainability, risking to stand out in the crowded perfume market with limited edition releases and a focus on the olfactory experience.",https://images.unsplash.com/photo-1587017539504-67cfbddac569?w=400&h=300&fit=crop,www.neydo.com,United States,2018,niche,contact@neydo.com,,,2025-07-18T12:32:10.942225,2025-08-29T09:13:06.626447
cmdb2419d8f1d418f92234f,Nez à Nez,"Nez à Nez is a niche perfume house founded in Paris that specializes in creating unique and artistic fragrances. The company is dedicated to the art of perfumery, offering a range of scents that tell compelling stories through their compositions. Founded by perfumer and creative director, it has established a reputation for its craft, focusing on high-quality ingredients and distinctive olfactory experiences. The name 'Nez à Nez' translates to 'Nose to Nose', reflecting their philosophy of creating personal connections through scent.",https://images.unsplash.com/photo-1587017539504-67cfbddac569?w=400&h=300&fit=crop,https://www.nezanez.com,France,2008,niche,,,,2025-07-18T12:32:10.942225,2025-08-29T09:13:13.140772
cmd65b065e7dd94566cfecb,Nez,"Nez is a boutique fragrance house dedicated to the art of perfumery. Founded by experts and enthusiasts, the company focuses on creating unique and exquisite scents that are crafted using high-quality ingredients. They emphasize the sensory experience of fragrance and often incorporate educational elements about scent-making and the history of fragrance into their business model. Nez has garnered attention for its artisanal approach, highlighting creativity and individuality over mass-market appeal.",https://images.unsplash.com/photo-1582735689369-4fe89db7114c?w=400&h=300&fit=crop,https://nez-parfum.com,France,2018,niche,contact@nez-parfum.com,,,2025-07-18T12:32:10.942225,2025-08-29T09:13:19.105387
cmd115bd2a6f5062328a27c,Niance,"Niance is a luxury perfume company that specializes in high-quality, handcrafted fragrances. The brand is well-known for its unique scents that combine traditional and modern perfumery techniques. Niance focuses on creating bespoke perfumes that cater to an exclusive clientele, emphasizing personal and distinctive olfactory experiences. Their story is rooted in a commitment to quality, with a strong emphasis on using the finest ingredients sourced from around the world. Niance aims to elevate the art of perfumery through innovative crafting methods and exquisite packaging, positioning itself as a leader in the niche market segment.",https://images.unsplash.com/photo-1541643600914-78b084683601?w=400&h=300&fit=crop,[https://www.niance.com](https://www.niance.com),Switzerland,2016,niche,,,,2025-07-18T12:32:10.942225,2025-08-29T09:13:27.121925
cmd5db3b0aacdbd65ddd344,Niche Emarati,"Niche Emarati is a luxury perfume company based in the United Arab Emirates, specializing in the creation of high-quality, artisanal fragrances that reflect the rich cultural heritage and traditions of the region. Established by a team of passionate perfumers, the company aims to capture the essence of Arabian scents, blending traditional ingredients with modern olfactory techniques. Niche Emarati prides itself on offering exclusive and unique perfume creations that appeal to discerning customers who value quality and originality in fragrance.",https://ramadan24.de/wp-content/uploads/2021/09/payment-logos.png.pagespeed.ce_.chI3xp-83-.png,www.nicheemarati.com,United Arab Emirates,2019,niche,info@nicheemarati.com,+971 55 123 4567,"Al Quoz, Dubai, United Arab Emirates",2025-07-18T12:32:10.942225,2025-08-29T09:13:36.606402
cmde33dad47b9b620fcfdbd,Nicheend,"Nicheend is an emerging fragrance company that specializes in creating unique, high-quality perfumes using exquisite ingredients sourced from around the world. Their focus is on crafting niche fragrances that cater to a discerning clientele looking for distinctive scents that stand out from mainstream offerings. Founded by a team of fragrance enthusiasts, Nicheend aims to provide an olfactory experience that is both luxurious and personalized. The company's story is rooted in a passion for artistry and innovation in perfumery, setting them apart in the competitive landscape of fragrance.",https://www.nicheend.com/wp-content/uploads/2023/01/nicheend-logo.png,www.nicheend.com,United States,2021,niche,contact@nicheend.com,,,2025-07-18T12:32:10.942225,2025-08-29T09:13:46.244778
cmdb9c58107514ae25e8592,Nick Ricardo Collection,"Nick Ricardo Collection is a niche perfume house known for its artisanal approach to fragrance creation. Focusing on high-quality, unique scents, the company crafts perfumes that blend traditional techniques with modern inspirations. Their story began with a passion for olfactory art, emphasizing creativity, diversity, and the personal expression of fragrance. Each scent is crafted to evoke emotions and memories, allowing wearers to connect deeply with their signature aromas.",https://www.nickricardocollection.com/wp-content/uploads/2022/11/1200x0.jpg,https://www.nickricardocollection.com,United States,2015,niche,contact@nickricardocollection.com,,,2025-07-18T12:32:10.942225,2025-08-29T09:13:56.312048
cmda95c0b73b673f9e99f74,Nicka K,"Nicka K is an American cosmetics company specializing in affordable beauty products, including fragrances, cosmetics, and skincare. Established with a mission to provide quality beauty solutions at accessible prices, Nicka K aims to cater to diverse customers through innovation and trend-conscious products. They began their journey in the 1980s with a vision to empower beauty enthusiasts. The brand is recognized for its wide range of fragrances that feature unique scent compositions and vibrant packaging.",https://images.unsplash.com/photo-1556909114-f6e7ad7d3136?w=400&h=300&fit=crop,[www.nickak.com](https://www.nickak.com),United States,1995,drugstore,,,,2025-07-18T12:32:10.942225,2025-08-29T09:14:03.356861
cmd74c9630eeaa947528ee8,Nickel,"Nickel is a French skincare and fragrance brand that specializes in creating products designed for men's grooming. Founded in the late 1990s, Nickel emphasizes the use of high-quality, natural ingredients and offers a range of perfumes, body washes, creams, and shaving products. Their approach is centered around practicality and efficacy, aimed at meeting the needs of modern men who can appreciate a sophisticated fragrance experience without needless complexity. The brand’s ethos revolves around enhancing the everyday routines of men with products that are both effective and pleasant to use.",https://images.unsplash.com/photo-1587017539504-67cfbddac569?w=400&h=300&fit=crop,https://www.nickel.fr,France,1996,indie,,,"15 rue de La Chapelle, 75018 Paris, France",2025-07-18T12:32:10.942225,2025-08-29T09:14:12.784070
cmd85fbbd27a228e0dd236c,Nickelodeon,"Nickelodeon is a well-known American multinational company specializing in entertainment for children, which encompasses animated and live-action television shows, movies, and merchandise. The company has expanded its brand into various product lines, including fragrances targeted primarily at younger audiences, capitalizing on its popular characters and shows. Nickelodeon's initiatives in the perfume industry aim to provide fun and playful scents that resonate with children and pre-teens, often inspired by its characters and franchises.",https://images.unsplash.com/photo-15907369626-6c63ac16f3df?w=400&h=300&fit=crop,https://www.nick.com,United States,1977,celebrity,,,"1515 Broadway, New York, NY 10036, United States",2025-07-18T12:32:10.942225,2025-08-29T09:14:19.944227
cmd7c23c28686c479aa365f,Niki Lauda,"Niki Lauda, the renowned Austrian Formula One driver, branched into the perfume industry to create a unique fragrance line that reflects his personality and legacy. The brand focuses on offering scents that embody speed, precision, and the spirit of racing, appealing to fans of motorsports and fragrance enthusiasts alike. The fragrance line incorporates high-quality ingredients that represent the essence of luxury and performance, making it a distinctive player in the market.",https://images.unsplash.com/photo-15907369626-6c63ac16f3df?w=400&h=300&fit=crop,http://www.nikilauda.com,Austria,2013,celebrity,,,,2025-07-18T12:32:10.942225,2025-08-29T09:14:26.806815
cmd97b54f7dbb8f7214d469,Nicki Minaj,"Nicki Minaj's perfume line is a collection of fragrances inspired by the artist's bold and vibrant personality, tailored for a diverse audience. Since its inception, the brand has aimed to capture the essence of empowerment and individuality, reflecting Minaj's artistry and her connection to her fans. The fragrances often feature eye-catching packaging, such as the signature bottle modeled after Minaj's own likeness, and have gained a reputation for their unique scents that embody confidence and glamour.",https://images.unsplash.com/photo-1582735689369-4fe89db7114c?w=400&h=300&fit=crop,https://www.nickiminaj.com,United States,2012,celebrity,,,,2025-07-18T12:32:10.942225,2025-08-29T09:14:33.401683
cmda7aaa35065452a9e238a,Nicky Verfaillie,"Nicky Verfaillie is a niche fragrance house known for creating unique and artisanal perfumes that are artfully crafted to evoke emotion and tell a story. Founded by perfumer Nicky Verfaillie, the company aims to blend rare ingredients with innovative design to produce high-quality perfumes that appeal to discerning consumers. The brand emphasizes individuality and the personal connection one can have with scents, often likening their fragrance creation process to that of an artist working on a canvas. Nicky Verfaillie has garnered attention for its artistic approach to scent formulation and a strong focus on quality over quantity.",https://images.unsplash.com/photo-1587017539504-67cfbddac569?w=400&h=300&fit=crop,www.nickyverfaillie.com,Belgium,2015,niche,,,,2025-07-18T12:32:10.942225,2025-08-29T09:14:39.797134
cmdff66a13ec427b3b944fb,Nico Uytterhaegen,"Nico Uytterhaegen is a niche perfume house founded by Belgian perfumer Nico Uytterhaegen. The brand focuses on crafting exclusive, artisanal fragrances that emphasize individuality and the art of perfumery. Nico Uytterhaegen’s creations often reflect a deep connection to nature and personal experiences, making each scent unique and evocative. His work is characterized by the use of high-quality ingredients and a dedication to the storytelling aspect of fragrance, appealing to connoisseurs and fragrance enthusiasts alike.",https://images.unsplash.com/photo-1582735689369-4fe89db7114c?w=400&h=300&fit=crop,https://www.nicouytterhaegen.com,Belgium,2018,niche,,,,2025-07-18T12:32:10.942225,2025-08-29T09:14:49.340205
cmd4d7d6847cbf42193ebde,Nicolas Danila,"Nicolas Danila is a luxury perfume house known for its artisanal approach to fragrance creation. The brand specializes in crafting unique, high-quality perfumes that often incorporate rare and exotic ingredients. With a focus on artistic expression, each fragrance is designed to evoke emotions and memories, making them more than just scents but experiences. The company's story is rooted in a dedication to the craftsmanship of perfume, with a philosophy that combines tradition with contemporary artistry. Their creations are appreciated for their individual character and complexity.",https://www.nicolasdanila.com/wp-content/uploads/2024/07/logond.jpg#102,https://www.nicolasdanila.com,France,2018,niche,,,,2025-07-18T12:32:10.942225,2025-08-29T09:14:56.298545
cmdd21d0a0167a2a4f8db71,Nicole Altair,,https://images.unsplash.com/photo-1556909114-f6e7ad7d3136?w=400&h=300&fit=crop,https://www.nicolealtair.com,United States,2020,niche,,,,2025-07-18T12:32:10.942225,2025-08-29T09:15:02.423162
cmd05b124eaa1bba2b3010e,Nicole Farhi,"Nicole Farhi is a British fashion brand founded by the designer Nicole Farhi, known for its sophisticated, modern, and often minimalist style. The brand encompasses womenswear, menswear, and homeware, and has also expanded into the realm of fragrance, offering perfumes that embody a blend of contemporary elegance and unique scent profiles. The perfume division reflects the brand's ethos of simplicity and luxury, appealing to a discerning clientele that values quality and craftsmanship.",https://www.nicolefarhi.com/cdn/shop/files/mega_menu_image1_aw19_KNITWEAR.jpg?v=1614321265,https://www.nicolefarhi.com,United Kingdom,1982,designer,,,,2025-07-18T12:32:10.942225,2025-08-29T09:15:09.474854
cmde477796a8abaa9577a35,Nicole Lenzen,"Nicole Lenzen is a perfume company known for its artisanal and high-quality fragrances. The brand focuses on creating unique scents that embody luxury and sophistication, appealing to a niche market that values craftsmanship and individuality in perfume. Founded by Nicole Lenzen, the company emphasizes sustainable sourced ingredients and combines traditional techniques with contemporary design. Their story is rooted in a passion for olfactory experiences, aiming to create fragrances that not only smell beautiful but also reflect the personality of the wearer.",https://images.unsplash.com/photo-1541643600914-78b084683601?w=400&h=300&fit=crop,www.nicolelenzen.com,Germany,2017,niche,,,,2025-07-18T12:32:10.942225,2025-08-29T09:15:15.793728
cmd17e8c53d0ce776d21e6f,Nicole Miller,"Nicole Miller is an American fashion designer known for her unique approach to style and vibrant designs. The brand initially gained prominence in the fashion industry for its ready-to-wear collections, and over time, it expanded into fragrances. Nicole Miller fragrances typically embody a blend of sophistication and playful spirit, offering a range of scents that reflect the creativity and boldness of the designer. The brand aims to capture the essence of modern elegance through its diverse fragrance offerings.",https://nicomiller.com/wp-content/uploads/2025/06/Nico-Miller-Logo-V3-White-scaled.png,https://www.nicomiller.com,United States,1982,designer,,,,2025-07-18T12:32:10.942225,2025-08-29T09:15:29.570161
cmd805717c0c03476ab279a,Nicole Polizzi,"Nicole Polizzi, widely recognized by her nickname Snooki, is a celebrity personality who launched a fragrance line that embodies her vibrant and bold persona. The brand reflects her journey from reality television fame to becoming a business entrepreneur. The perfumes often feature playful names and are designed to resonate with her fans and a younger audience. The specialty of her fragrances revolves around fun and energetic scents that appeal to her target market.",https://images.unsplash.com/photo-1541643600914-78b084683601?w=400&h=300&fit=crop,https://www.nicolepolizzi.com,United States,2011,celebrity,,,,2025-07-18T12:32:10.942225,2025-08-29T09:15:35.617418
cmd4ebcb059e2e52a55ada0,Nicole Richie,"Nicole Richie is a celebrity perfume brand founded by the American television personality, fashion designer, and author Nicole Richie. The brand focuses on creating signature fragrances that reflect Richie’s style and personality, emphasizing a blend of glamour and sophistication. Initially launched in 2008, the brand aims to capture the essence of luxury and femininity in each fragrance, catering to a market that seeks both elegance and individuality.",https://images.unsplash.com/photo-1556909114-f6e7ad7d3136?w=400&h=300&fit=crop,,United States,2008,celebrity,,,,2025-07-18T12:32:10.942225,2025-08-29T09:15:41.625039
cmdc944d91cf01344278d59,Nicole Scherzinger,"Nicole Scherzinger's perfume line is part of her broader brand as a singer, songwriter, actress, and television personality. The fragrances often reflect her glamorous lifestyle and artistic persona, appealing to fans and those who admire her work in the entertainment industry. The scents are designed to embody sophistication and allure, making them a notable addition to the celebrity perfume market.",https://images.unsplash.com/photo-1587017539504-67cfbddac569?w=400&h=300&fit=crop,https://www.nikki-scherzinger.com,United States,2010,celebrity,,,,2025-07-18T12:32:10.942225,2025-08-29T09:15:47.883445
cmdbf056e64510e13c85600,Nike,"Nike is primarily a sportswear and footwear company known for its athletic attire, shoes, and equipment. In addition to their core products, Nike has ventured into the fragrance market, offering a range of perfumes and colognes that align with their brand of active lifestyle and performance. The company emphasizes innovation, high-quality materials, and lifestyle branding, catering predominantly to athletes and fitness enthusiasts.","https://static.nike.com/a/images/w_960,c_limit/3732c58b-d0ad-4c3c-898c-c4b90193312b/image.png",https://www.nike.com,United States,1964,designer,,,"1 Bowerman Dr, Beaverton, OR 97005, United States",2025-07-18T12:32:10.942225,2025-08-29T09:15:56.099936
cmdbad607ae9ad052193c65,Niki de Saint Phalle,"Niki de Saint Phalle is a perfume company inspired by the works and life of the renowned French-American artist and sculptor, Niki de Saint Phalle. The company is known for its vibrant and artistic fragrances that reflect the playful and bold nature of the artist's creations. Founded by her heirs, the brand aims to capture the essence of her spirit through unique scent compositions, emphasizing creativity and individuality. Their perfumes often feature unconventional notes and are presented in strikingly artistic packaging, much like the artist's own work.",https://images.unsplash.com/photo-15907369626-6c63ac16f3df?w=400&h=300&fit=crop,https://nikidesaintphalle.com,France,2021,niche,,,,2025-07-18T12:32:10.942225,2025-08-29T09:16:02.484995
cmd2d48bc4d5df990dbf7f6,Niki Taylor,"Niki Taylor is a celebrity fragrance brand established by the American supermodel Niki Taylor. Known for her successful career in modeling since the early 1990s, Niki Taylor decided to venture into the fragrance industry, launching a signature scent that captures her personal style and appeal. The company specializes in creating memorable and elegant fragrances, designed to resonate with Taylor's fans and fragrance enthusiasts alike, blending her personal brand with quality product offerings.",https://images.unsplash.com/photo-1556909114-f6e7ad7d3136?w=400&h=300&fit=crop,,United States,2002,Celebrity,,,,2025-07-18T12:32:10.942225,2025-08-29T09:16:08.054720
cmdbc563a484e4046956c1f,Nikki Beach,"Nikki Beach is a global lifestyle brand known for its beach clubs, restaurants, and luxurious experiences. The company has ventured into the fragrance industry, creating signature scents that embody the spirit of summer and beach life. Their perfumes often reflect a blend of tropical notes and sophisticated undertones, aiming to capture the essence of the beach club atmosphere. Established in 1998, Nikki Beach has grown from a single location in St. Tropez to a successful international brand encompassing hospitality, events, and fashion alongside its fragrance line.",https://nikkibeach.com/uploads/2024/07/logo-group-horizontal.svg,https://www.nikkibeach.com,United States,1998,indie,,,,2025-07-18T12:32:10.942225,2025-08-29T09:16:16.201879
cmd716ea5fe50426b6b13be,Nikos,"Nikos is a perfume company that specializes in creating both men’s and women’s fragrances. The brand is known for its innovative and appealing scent compositions, often inspired by Mediterranean influences. Established by Greek designer Nikos Perakis in the early 1990s, the company focuses on combining traditional perfume-making techniques with modern trends. The fragrances are accessible yet maintain a sense of luxury, making them popular in the mass market.",https://images.unsplash.com/photo-1582735689369-4fe89db7114c?w=400&h=300&fit=crop,http://www.nikosperfumes.com,Greece,1995,designer,,,,2025-07-18T12:32:10.942225,2025-08-29T09:16:22.526291
cmd5e63127e1437daaa1c88,Nilafar du Nil,"Nilafar du Nil is a niche perfume company known for its luxurious fragrances inspired by the rich heritage of fragrance creation. They blend traditional olfactory art with modern aesthetics, creating unique scents that evoke emotions and memories. The company's story is rooted in a passion for nature and the art of perfumery, offering a collection that showcases craftsmanship and high-quality ingredients.",https://images.unsplash.com/photo-15907369626-6c63ac16f3df?w=400&h=300&fit=crop,https://nilafardunil.com,France,2018,niche,contact@nilafardunil.com,,,2025-07-18T12:32:10.942225,2025-08-29T09:16:29.279339
cmddf9c1f837027f675f524,Nina Lamaison,"Nina Lamaison is a niche perfume house known for its artisanal craftsmanship and unique fragrances that blend traditional and modern elements. Established with a vision of creating olfactory experiences that evoke emotions and memories, Nina Lamaison draws inspiration from art, nature, and cultural heritage. Their perfumes often feature eclectic and high-quality ingredients, appealing to those looking for distinct and sophisticated scents.",https://images.unsplash.com/photo-1587017539504-67cfbddac569?w=400&h=300&fit=crop,https://www.ninalamaison.com,France,2012,niche,,,"25 Rue du Faubourg Saint-Antoine, 75011 Paris, France",2025-07-18T12:32:10.942225,2025-08-29T09:16:35.492855
cmd998293f4dbd87b31d367,Nina Ricci,"Nina Ricci is a French perfume and fashion house founded by the designer Maria ""Nina"" Ricci in 1932. The brand is known for its elegant and feminine fragrances, which often draw inspiration from the art and culture of its time. Nina Ricci's perfumes are characterized by their delicate, floral compositions and luxurious branding. The company has released several iconic fragrances, such as ""L'Air du Temps"" which embodies the essence of love and freedom. Over the decades, Nina Ricci has established itself as a staple in the world of designer fragrances, appealing to a sophisticated clientele.",https://cdn.shopify.com/s/files/1/0604/7409/7823/files/25PMRO056ML0574U1335-01.jpg?width=1940,https://www.ninaricci.com,France,1932,designer,,,,2025-07-18T12:32:10.942225,2025-08-29T09:16:42.901960
cmd2c5dd28a353d89fe2285,Nine West,"Nine West is a well-known American fashion retailer and brand, primarily recognized for its stylish footwear, handbags, and accessories. Founded in 1978, Nine West evolved into a diverse lifestyle brand that includes a range of products including fragrances. The company specializes in appealing to a youthful and fashion-conscious demographic, emphasizing modern designs and contemporary styles that resonate with everyday consumers. Their perfumes often reflect the brand's trendy identity and are aimed at women seeking affordable luxury in their fragrance choices.",https://ninewest.com/cdn/shop/files/NineWest_Logo.jpg?v=1613697835,https://www.ninewest.com,United States,1978,designer,,,,2025-07-18T12:32:10.942225,2025-08-29T09:16:50.820712
cmde5db3643694e81d1b20e,Nino Amaddeo,"Nino Amaddeo is a luxurious perfume company known for its unique and artisanal approach to fragrance creation. Founded by Nino Amaddeo, the brand focuses on creating high-quality scents that evoke emotions and memories. The company emphasizes the use of rare and exquisite raw materials sourced from around the world, resulting in distinctive fragrances that cater to discerning customers. With a commitment to craftsmanship and innovation, Nino Amaddeo has carved out a niche in the fragrance market, appealing to individuals seeking personalized and exclusive perfumes.",https://images.unsplash.com/photo-1541643600914-78b084683601?w=400&h=300&fit=crop,,Italy,,niche,,,,2025-07-18T12:32:10.942225,2025-08-29T09:16:57.615118
cmd4ba7ffb6ff6f02a66066,Nino Touma,,https://static.HugeDomains.com/images/hdv3-img/hd-header-logo-v3.svg,https://www.ninotouma.com,Lebanon,2018,niche,info@ninotouma.com,,,2025-07-18T12:32:10.942225,2025-08-29T09:17:04.522683
cmdbae10c6cef6cb4bec281,Nintendo,"Nintendo is primarily known as a video game developer and publisher, famous for iconic franchises such as Mario, Zelda, and Pokémon. They are not traditionally recognized as a perfume company and have not released any fragrance lines.","https://assets.nintendo.com/image/upload/c_scale,w_24,q_auto/ncom/global/flags-change-region/FlagUsaIconRegionSelect.png",https://www.nintendo.com,Japan,1889,indie,,,"46-1, Nagata-cho 1-chome, Chiyoda-ku, Tokyo 100-8636, Japan",2025-07-18T12:32:10.942225,2025-08-29T09:17:11.597322
cmd2cb323c1cfd1179668f0,Niona,"Niona is a contemporary perfume company known for crafting unique and diverse scent profiles that appeal to a modern demographic. The brand prides itself on combining traditional perfumery techniques with innovative approaches, ensuring that each fragrance tells a story and evokes emotion. Established with a vision to redefine personal scent, Niona focuses on creating high-quality, accessible fragrances that resonate with individual identities and lifestyles. Their collections often emphasize natural ingredients and sustainability, appealing to environmentally conscious consumers.",https://images.unsplash.com/photo-1582735689369-4fe89db7114c?w=400&h=300&fit=crop,www.nionafrag.com,United States,2021,indie,contact@nionafrag.com,,,2025-07-18T12:32:10.942225,2025-08-29T09:17:18.065825
cmdb48afc9c8be4f4de3e30,Nishane,"Nishane is a niche fragrance house established in Istanbul, Turkey, that specializes in creating high-quality, artisanal perfumes. Founded by Mert Güzel and Murat Katran, Nishane aims to celebrate the rich culture and history of Turkey through its unique scent compositions. The brand is known for its bold, luxurious fragrances and meticulous craftsmanship, making it a favorite among fragrance enthusiasts. Each perfume is designed to evoke emotions and memories, often inspired by different themes, elements of nature, and art.",https://images.unsplash.com/photo-1556909114-f6e7ad7d3136?w=400&h=300&fit=crop,[www.nishane.com](http://www.nishane.com),Turkey,2012,niche,,,,2025-07-18T12:32:10.942225,2025-08-29T09:17:24.149601
cmdaa539c821ca5ffb49fe5,Nishman,,https://images.unsplash.com/photo-15907369626-6c63ac16f3df?w=400&h=300&fit=crop,https://www.nishman.com,Turkey,2015,niche,,,,2025-07-18T12:32:10.942225,2025-08-29T09:17:30.653182
cmdcacfc42dd98e6b6194be,Nissaba,"Nissaba is a contemporary perfume company that specializes in creating unique and sophisticated fragrances inspired by ancient history and mythology. The brand focuses on using high-quality ingredients to craft perfumes that tell stories and evoke emotions, drawing on cultural heritage as a source of inspiration for its collections. Nissaba aims to provide a sensory experience that goes beyond scent, engaging customers with the narratives behind each fragrance.",https://images.unsplash.com/photo-1587017539504-67cfbddac569?w=400&h=300&fit=crop,,,,indie,,,,2025-07-18T12:32:10.942225,2025-08-29T09:17:36.410407
cmd8732388fa58d62a698ca,Nissan,"Nissan is primarily an automotive company known for manufacturing vehicles, including cars and trucks. While they have explored various product lines including fragrances under collaborative projects, their main focus remains in the automotive industry. As of my last data update, there is no significant perfume line or brand directly associated with Nissan as a standalone fragrance company.",https://www.nissan-global.com/library/assets/img/hd_logo.svg,https://www.nissan-global.com/,Japan,1933,indie,,,,2025-07-18T12:32:10.942225,2025-08-29T09:17:44.910443
cmda5fe0bbc98fcff55d46b,Nissery,"Nissery is a contemporary perfume company that focuses on creating unique, high-quality fragrances inspired by diverse cultural and artistic influences. The brand was founded by a team of passionate perfumers dedicated to crafting scents that tell a story and evoke emotions. They emphasize sustainable sourcing and the use of natural ingredients, providing products that appeal to the discerning customer seeking originality and depth in their fragrance choices.",https://images.unsplash.com/photo-15907369626-6c63ac16f3df?w=400&h=300&fit=crop,www.nissery.com,United States,2021,niche,contact@nissery.com,,,2025-07-18T12:32:10.942225,2025-08-29T09:17:51.174297
cmdfb433a6550cd704c76a1,Nivea,,https://img.nivea.com/-/media/nivea/general/products/products/niv_19606_nivea_hammock_mery_shin_claire_pos.jpg?rx=0&ry=0&rw=8256&rh=3225&hash=6A9988926A961E95A1752F8C4D5CC384,https://www.nivea.com,Germany,1911,drugstore,,,,2025-07-18T12:32:10.942225,2025-08-29T09:17:58.783128
cmd7c5dd07f976b7220f90c,Niven Morgan,"Niven Morgan is a luxury fragrance company that specializes in creating high-quality, sophisticated perfumes inspired by the founder’s travels and experiences. The brand emphasizes artisanal craftsmanship and offers a range of products that includes personal fragrances, home fragrances, and scented body care items. Niven Morgan aims to deliver a unique olfactory experience through blending traditional techniques with contemporary aesthetics, providing customers with a lavish escape through scent.",https://www.nivenmorgan.com/cdn/shop/files/NM_Logo_5.png?height=50&v=1748822748,https://www.nivenmorgan.com,United States,2007,niche,,,,2025-07-18T12:32:10.942225,2025-08-29T09:18:05.474357
cmd9a77a5a59e0822922589,No Fear,"No Fear is a lifestyle brand that originally focused on extreme sports apparel. The transition into the fragrance sector has allowed No Fear to capture the essence of its adventurous spirit through unique scents that reflect their brand's ethos. The company caters primarily to a youthful audience, infusing each fragrance with a sense of energy and the thrill of the outdoors. Their specialties include fresh and invigorating scents that align with their extreme sports image.",https://images.unsplash.com/photo-1556909114-f6e7ad7d3136?w=400&h=300&fit=crop,https://www.nofear.com,United States,1989,designer,,,,2025-07-18T12:32:10.942225,2025-08-29T09:18:11.981307
cmd9e2e168980f0d9959a2c,No7 Beauty Company,"No7 Beauty Company, part of Walgreens Boots Alliance, is known for offering a wide range of skincare, makeup, and fragrance products. Launched in 1935 in the UK, it has established itself as a trusted brand, particularly famous for its innovative skincare solutions that combine research and clinical testing. No7 Beauty aims to provide quality beauty products that cater to a variety of skin types and concerns, emphasizing the importance of effective formulations and inclusivity in their product range.",https://images.unsplash.com/photo-1556909114-f6e7ad7d3136?w=400&h=300&fit=crop,[https://www.no7beauty.com](https://www.no7beauty.com),United Kingdom,1935,drugstore,,,,2025-07-18T12:32:10.942225,2025-08-29T09:18:19.153446
cmd415685d2d2aed43c4648,Nobel Industries,"Nobel Industries is a fragrance company that specializes in creating high-quality perfumes and colognes. Originating from a passion for unique scents, the company focuses on blending traditional perfumery with modern techniques. Their offerings include signature fragrances as well as limited edition releases, catering to a wide range of preferences. Over the years, Nobel Industries has built a reputation for its commitment to sustainable sourcing of raw materials and innovative fragrance compositions.",https://static.HugeDomains.com/images/hdv3-img/hd-header-logo-v3.svg,www.nobelindustries.com,United States,1995,niche,info@nobelindustries.com,+1 (800) 555-0199,"1234 Fragrance Lane, Suite 100, New York, NY 10001, USA",2025-07-18T12:32:10.942225,2025-08-29T09:18:26.376412
cmdb2e9adaaf7f21b7b63b4,Nobile 1942,"Nobile 1942 is an Italian niche perfume house that specializes in creating high-quality, artisanal fragrances. Founded by the Nobile family, the brand takes inspiration from Italy’s rich history, art, and culture, resulting in unique and sophisticated scents that evoke various emotions and memories. Their perfumes are characterized by their intricate composition, using rare and natural ingredients that reflect the essence of Italian heritage and craftsmanship.",https://labo-noir.com/wp-content/uploads/2023/06/LABO-NOIR_LOGO.svg,http://www.nobile1942.com,Italy,2005,niche,,,,2025-07-18T12:32:10.942225,2025-08-29T09:18:39.329952
cmd6c6d097a20eb097ff82a,Noble Royale,"Noble Royale is a luxury perfume company that specializes in crafting high-quality, artisanal fragrances. Their story began with a passion for blending unique scents that evoke emotions and memories, appealing to a sophisticated clientele. The brand is known for its commitment to using natural ingredients and traditional techniques, ensuring that each scent tells a story of elegance and grandeur. Noble Royale aims to redefine luxury in the perfume industry by providing distinctive, bespoke fragrances that resonate with individuality.",https://images.unsplash.com/photo-1541643600914-78b084683601?w=400&h=300&fit=crop,https://nobleroyale.com,United States,2020,niche,contact@nobleroyale.com,,,2025-07-18T12:32:10.942225,2025-08-29T09:18:46.747237
cmd48ac4c49d0c14230859b,Nobody’s Child,"Nobody’s Child is an innovative fragrance brand that focuses on creating sustainable, high-quality perfumes. Founded on the principles of eco-consciousness and ethical sourcing, the company aims to minimize its environmental impact while providing unique and appealing scents. Their story is rooted in a passion for fragrance and a commitment to responsible practices, and they specialize in offering a range of perfumes that are cruelty-free and made with carefully chosen ingredients.",https://www.nobodyschild.com/cdn/shop/files/20_off_SALE_-_DOUBLE-NAV_SPOT.jpg?v=1756220844,https://nobodyschild.com,United Kingdom,2021,indie,,,,2025-07-18T12:32:10.942225,2025-08-29T09:18:56.858614
cmd89da05dc4ee08cd5ced3,NoBs Alpha Male,"NoBs Alpha Male is a fragrance company that specializes in creating bold and masculine scents tailored for men. The brand positions itself as a provider of high-quality perfumes that emphasize strength and confidence. Their products are designed to cater to the modern man who values self-expression through fragrance. The company was established to challenge the mainstream fragrance market by offering more robust and unique scent profiles, thus resonating with men seeking something distinct and empowering.",https://images.unsplash.com/photo-1582735689369-4fe89db7114c?w=400&h=300&fit=crop,https://www.nobsalphamale.com,United States,2020,indie,,,,2025-07-18T12:32:10.942225,2025-08-29T09:19:04.295183
cmd8a240941a72a2dd9d615,Nocibé,"Nocibé is a French beauty retailer that specializes in cosmetics, skincare, and fragrances. Founded in 1984, the company has grown to become one of the leading beauty chains in France, providing a wide range of products from luxury brands to more affordable options. Nocibé is known for its commitment to customer service, offering personalized consultations and beauty advice to enhance the shopping experience. The company emphasizes the importance of beauty in everyday life and offers various exclusive brands and collaborations.",https://images.unsplash.com/photo-1541643600914-78b084683601?w=400&h=300&fit=crop,https://www.nocibe.fr,France,1984,drugstore,,,,2025-07-18T12:32:10.942225,2025-08-29T09:19:11.236422
cmdbe6bc2c13817cce064e7,Nocturne Alchemy,"Nocturne Alchemy is an independent perfume company specializing in artisanal fragrance creations. Founded by Alia B. in 2012, the brand focuses on intricate scent compositions that blend traditional perfume-making techniques with modern sensibilities. The company emphasizes the use of high-quality ingredients, offering a unique range of perfumes, oils, and body products inspired by nature, mythology, and the cosmos. Nocturne Alchemy is known for its creative and evocative scents, appealing to niche fragrance enthusiasts seeking something distinct and personal.",https://nocturnealchemy.com/cdn/shop/files/701_middle_size_for_NA_logo_particle_collide_no_background_305523e3-e60e-4787-a1cf-2a2cb5aad56e_280x@2x.png?v=1613509499,https://www.nocturnealchemy.com,United States,2012,indie,,,,2025-07-18T12:32:10.942225,2025-08-29T09:19:18.053167
cmde8984c2ea4c45cb07b79,Noeme,"Noeme is a luxury perfume company that specializes in creating niche fragrances inspired by the beauty of nature and emotions. Their products are known for their artistic approach to scent-making, focusing on high-quality ingredients and unique combinations that evoke memories and experiences. Founded by a team of fragrance enthusiasts, Noeme dedicates itself to blending tradition with innovation in the world of perfumery.",https://images.unsplash.com/photo-1541643600914-78b084683601?w=400&h=300&fit=crop,www.noeme-parfums.com,France,2020,niche,contact@noeme-parfums.com,,,2025-07-18T12:32:10.942225,2025-08-29T09:19:24.536505
cmd738b6c4bf3e2b0d9fa47,Noise,"Noise is an innovative perfume company that focuses on crafting unique and captivating fragrances inspired by sound and music. Established with a vision to connect scent with auditory experiences, Noise aims to create olfactory sensations that resonate with the mood and emotions of the wearer. The company's specialty lies in blending uncommon ingredients to formulate distinctive scents that stand out in the perfume market.",https://images.unsplash.com/photo-15907369626-6c63ac16f3df?w=400&h=300&fit=crop,https://www.noiseperfume.com,United States,2020,indie,contact@noiseperfume.com,,,2025-07-18T12:32:10.942225,2025-08-29T09:19:29.981483
cmd6cd1ddd9db07f02a0cec,Nomad Two Worlds Foundation,"Nomad Two Worlds Foundation is a social enterprise that combines art, culture, and sustainable practices to create unique fragrances while supporting Indigenous communities in Australia. The company was founded by Australian artist and entrepreneur Andrew J. Murdock, with the aim of promoting cultural understanding and creating meaningful economic opportunities for Indigenous artists through the sale of their products. Their specialty lies in crafting exquisite fragrances inspired by the Australian landscape and heritage, with a commitment to environmental sustainability and social responsibility.",https://images.unsplash.com/photo-1556909114-f6e7ad7d3136?w=400&h=300&fit=crop,https://nomadtwoworlds.com/,Australia,2014,indie,,,,2025-07-18T12:32:10.942225,2025-08-29T09:19:46.427150
cmd4a93f5c1eb82356d0a80,Nomaterra,"Nomaterra is a niche fragrance company that focuses on creating unique and artisanal perfumes inspired by different locations and experiences. Founded by a group of fragrance enthusiasts, the brand emphasizes storytelling through scent, with each fragrance representing a specific place or memory. Their specialty lies in the use of high-quality ingredients and a commitment to craftsmanship, resulting in distinctive fragrances that evoke a sense of place.",https://www.nomaterra.com/cdn/shop/t/1/assets/logo.png?v=120981867564864617761423180565,https://www.nomaterra.com,United States,2013,niche,,,,2025-07-18T12:32:10.942225,2025-08-29T09:19:52.645112
cmd3addcbb1498708a1433c,Nomenclature,"Nomenclature is a niche perfume company known for its unique approach to fragrance creation, emphasizing the art of storytelling through scent. Founded by industry veterans, the brand is focused on crafting fragrances that combine exquisite and rare ingredients with a conceptual narrative behind each scent. Their products often draw inspiration from historical geographical and cultural elements, making the fragrances not just olfactory experiences but storytelling pieces. The company positions itself within the niche market by catering to fragrance enthusiasts looking for something beyond mainstream offerings.",https://images.unsplash.com/photo-1541643600914-78b084683601?w=400&h=300&fit=crop,https://nomenclature.com,United States,2017,niche,,,,2025-07-18T12:32:10.942225,2025-08-29T09:19:59.792902
cmd90624651590ea6dd54d1,Noodé,"Noodé is a contemporary perfume company known for its innovative and artistic approach to fragrance creation. It aims to redefine the perfume experience through unique compositions that blend art with scent, creating each fragrance as a storytelling medium. The brand focuses on sustainability and quality, using carefully sourced ingredients to craft its products. Established with a vision to break away from traditional fragrance conventions, Noodé emphasizes individuality and self-expression through scent.",https://images.unsplash.com/photo-1587017539504-67cfbddac569?w=400&h=300&fit=crop,https://www.noodeparfum.com,United States,2020,indie,,,,2025-07-18T12:32:10.942225,2025-08-29T09:20:06.186805
cmd26dc6c5e3e083d664a86,Nooka,"Nooka is a lifestyle brand that integrates design philosophy and innovation into various product categories, including watches, accessories, and fragrances. Founded by Matt Waldman in 2002, Nooka aims to transcend traditional fashion restraints, bridging art and utility while promoting ideas of individuality and self-expression through its unique product offerings, including signature scents.",https://images.unsplash.com/photo-15907369626-6c63ac16f3df?w=400&h=300&fit=crop,https://www.nooka.com,United States,2002,indie,,,,2025-07-18T12:32:10.942225,2025-08-29T09:20:13.191910
cmdaaf72944f840bcb1b238,NordicFeel,"NordicFeel is a leading online retailer in the beauty and fragrance industry, specializing in a wide range of perfumes, skincare, and cosmetics from various brands. Established as a player in the Nordic region, the company has built a reputation for quality and diversity in beauty products, serving customers seeking premium and affordable options. NordicFeel aims to provide personalized shopping experiences and expert advice to guide consumers in their fragrance selections.",https://www.nordicfeel.se/storage/835309085C941EC37F0747AE567861BCE5857A041C24F744D95DEBEECA56EA5F/e0e5b853d66c40f8be21d3a511548663/jpg/media/e7861ef5bb1942d5b1ac67869ebc5b56/beauty-edit-block%20%284%29.jpg,https://www.nordicfeel.com,Sweden,2007,drugstore,,,,2025-07-18T12:32:10.942225,2025-08-29T09:20:19.953973
cmd753934033af982f9c6ff,Nordstrom,"Nordstrom is a leading American luxury department store chain that offers a wide range of products, including clothing, footwear, accessories, and beauty products, including perfumes. It was founded by John W. Nordstrom and Carl F. Wallin in 1901 as a shoe store in Seattle, Washington. Over the years, the company has transformed into a major retailer with a strong focus on customer service and exclusive brand offerings. Nordstrom is known for its upscale merchandise and has established strong partnerships with various perfume brands, providing a curated selection of fragrances to its customers.",https://images.unsplash.com/photo-1587017539504-67cfbddac569?w=400&h=300&fit=crop,https://www.nordstrom.com,United States,1901,designer,,1-888-282-6060,"1700 Seventh Ave, Seattle, WA 98101, USA",2025-07-18T12:32:10.942225,2025-08-29T09:20:30.912619
cmdfb36f8f186401ae41817,Norell,"Norell is an American perfume company known for its innovative fragrances and contributions to the world of scent since the mid-20th century. Founded by fashion designer Norman Norell, the brand gained recognition for its luxurious and sophisticated perfumes which reflect a blend of elegance and modernity. Norell’s perfumes, such as the iconic ""Norell"" launched in 1968, showcase the brand's specialty in creating chic and timeless fragrances rooted in the American fashion landscape. The company’s legacy continues to be influential in the perfume industry, with a focus on high-quality ingredients and craftsmanship.",https://images.unsplash.com/photo-1556909114-f6e7ad7d3136?w=400&h=300&fit=crop,[www.norellfragrance.com](http://www.norellfragrance.com),United States,1968,designer,,,,2025-07-18T12:32:10.942225,2025-08-29T09:20:37.961046
cmddcd29746a5917d6759af,Norfolk Lavender,"Norfolk Lavender is a family-run business that specializes in the cultivation and distillation of lavender. Established in Norfolk, England, they focus on producing high-quality lavender products, including essential oils, herbal products, fragrances, and other lavender-infused items. Their story began with a passion for growing lavender, and they have since transformed into a popular destination for lavender enthusiasts, offering visitors a glimpse into the lavender farming process, along with a shop that showcases their wide range of products.",https://images.unsplash.com/photo-15907369626-6c63ac16f3df?w=400&h=300&fit=crop,https://www.norfolklavender.com,United Kingdom,1992,indie,info@norfolklavender.com,,,2025-07-18T12:32:10.942225,2025-08-29T09:20:44.808060
