id,name,description,image,website,country,founded,type,email,phone,address,createdAt,updatedAt
cmdb1dee641874d702d9ae0,Lloyd & Co,"Lloyd & Co is an independent perfume house that specializes in crafting high-quality, artisanal fragrances. Founded by a team of passionate perfumers, the company emphasizes the use of natural ingredients and traditional perfume-making techniques. Their storytelling approach to fragrance design captures the essence of various inspirations, leading to unique scents that resonate with customers. The brand is committed to sustainability and ethical practices in sourcing materials.",https://images.squarespace-cdn.com/content/v1/5ecedf2f4b6d0c67af486518/1590766602824-RVLI4KAEC9H0SD0YK9SY/lloydandco_logo_black.png?format=1500w,http://www.lloydandco.com,United Kingdom,2010,indie,info@lloydandco.com,,,2025-07-18T12:32:10.942225,2025-08-29T07:39:17.706895
cmd6ae98219ba4286637bf2,LM Parfums,"LM Parfums is a French niche perfume house founded by the renowned perfumer Laurent Mazzone. The company focuses on creating high-quality, artisanal fragrances that embody luxury and sophistication. LM Parfums is celebrated for its unique compositions and attention to detail in both fragrance creation and packaging, offering a personalized olfactory experience that reflects art and emotion. The brand emphasizes individuality in fragrance selection and aims to cater to connoisseurs and enthusiasts alike through exclusive and limited-edition scents.",https://images.unsplash.com/photo-1541643600914-78b084683601?w=400&h=300&fit=crop,[https://www.lmparfums.com](https://www.lmparfums.com),France,2009,niche,,,,2025-07-18T12:32:10.942225,2025-08-29T07:39:24.364798
cmd4dbbb897b6b984d34f80,LM Y&R,,https://images.unsplash.com/photo-1541643600914-78b084683601?w=400&h=300&fit=crop,https://www.lmyrparfums.com,France,2017,niche,,,,2025-07-18T12:32:10.942225,2025-08-29T07:39:30.471909
cmd43cd336cfef24791a091,L’Objet,"L’Objet is a luxury home and lifestyle brand that specializes in fine fragrances, along with exquisite tableware and decorative objects. Founded by Elad Yifrach, the company emphasizes craftsmanship and the use of rare materials, blending modern design with traditional artisan techniques. L’Objet's fragrance collection includes scented candles and diffusers that draw inspiration from various cultures and art forms, making them unique additions to any home decor.",https://images.unsplash.com/photo-1556909114-f6e7ad7d3136?w=400&h=300&fit=crop,https://www.lobjet.com,United States,2004,niche,,,,2025-07-18T12:32:10.942225,2025-08-29T07:39:36.088928
cmdec397eac893d60ecc1c4,Lobogal,"Lobogal is a niche perfume company specializing in high-quality, artisanal fragrances. Founded by a team of passionate scent enthusiasts, the brand emphasizes unique and luxurious scent compositions, often inspired by diverse cultures and natural elements. Their story is rooted in the pursuit of individuality and personal expression through scent, and they continue to work with skilled perfumers to create distinctive olfactory experiences.",https://images.unsplash.com/photo-1587017539504-67cfbddac569?w=400&h=300&fit=crop,www.lobogal.com,Spain,2018,niche,contact@lobogal.com,,,2025-07-18T12:32:10.942225,2025-08-29T07:39:41.455292
cmdd32741ddc14d0cee341a,L'Occitane,"L'Occitane en Provence is a French cosmetics company founded in 1976 by Olivier Baussan. The company is known for its high-quality skincare, haircare, and fragrance products made from natural and organic ingredients sourced predominantly from the Provence region of France. L'Occitane aims to create products that embody the essence of Provence, reflecting its rich heritage and emphasizing the benefits of utilizing traditional artisan methods in their production processes. The brand's commitment to sustainability and social responsibility is also a significant aspect of its identity, with initiatives to support local communities and environmental conservation.",https://images.unsplash.com/photo-1541643600914-78b084683601?w=400&h=300&fit=crop,https://www.loccitane.com,France,1976,designer,,,"L'Occitane en Provence, 2450 Route de Manosque, 04100, Manosque, France",2025-07-18T12:32:10.942225,2025-08-29T07:39:48.409464
cmd23b75f76aaedd77856e5,Loewe,,https://www.loewe.com/dw/image/v2/BBPC_PRD/on/demandware.static/-/Library-Sites-LOW_SharedLibrary/default/dwe974da94/00000%20FW25%20RUNWAY%20COLLECTION/CAMPAIGN/LOEWE_FW25_MAIN_CAMPAIGN_RAFFEY_CASSIDY_CROPPED_2880x1620_3.jpg?sw=533&sfrm=jpg,https://www.loewe.com,Spain,1846,designer,,,,2025-07-18T12:32:10.942225,2025-08-29T07:39:55.404516
cmd32612fa8dc8a4b99a2bc,Loft Fashion and Beauty Diffusion,"Loft Fashion and Beauty Diffusion is a prominent player in the fragrance industry, specializing in the creation and distribution of high-quality perfumes and beauty products. The company is known for its innovative approach to scent design, combining artistry with the latest trends in fashion and consumer preferences. Founded with a passion for individuality and self-expression through fragrance, Loft Fashion and Beauty Diffusion aims to provide unique olfactory experiences that resonate with their diverse clientele, catering to various markets and demographics.",https://images.unsplash.com/photo-1541643600914-78b084683601?w=400&h=300&fit=crop,www.loftfashionandbeauty.com,France,2015,niche,contact@loftfashionandbeauty.com,+33 1 2345 6789,"12 Rue de la Parfumerie, 75001 Paris, France",2025-07-18T12:32:10.942225,2025-08-29T07:40:01.958428
cmd77b678afec201ae7f6dd,Lola Cosmetics,"Lola Cosmetics is a beauty and personal care brand that specializes in creating innovative products tailored for diverse hair and skin types. Established with a commitment to embracing personal beauty, the company emphasizes the importance of natural ingredients and sustainability in their formulations. With a focus on inclusivity, Lola Cosmetics caters to a wide audience, offering a range of products including perfumes that highlight the unique essence and individuality of each user.",https://lolacosmetics.admin.core.dcg.com.br/Custom/Content/Themes/Lola/Imagens/novo-logo-lola.png,https://www.lolacosmetics.com.br,Brazil,2015,indie,,,,2025-07-18T12:32:10.942225,2025-08-29T07:40:10.791206
cmd437858cd644c7ab3009f,Lola James Harper,"Lola James Harper is a niche perfume company founded in 2013 that specializes in creating evocative fragrances inspired by memories, experiences, and travels. The brand is recognized for its artisanal approach, focusing on craftsmanship and unique scent compositions that reflect various elements of culture and lifestyle. Each fragrance is designed to evoke a sense of place and emotion, creating a personal narrative for the wearer. Lola James Harper also emphasizes a connection to art and music, collaborating with various artists to enhance their brand imagery and experience.",https://www.lolajamesharper.com/cdn/shop/files/LOGO_LOLA_JAMES_HARPER_BLACK.png?v=1728998176&width=320,https://www.lolajamesharper.com,France,2013,niche,,,,2025-07-18T12:32:10.942225,2025-08-29T07:40:18.404818
cmd254b2d16407b13ee1ec6,Lola Mood,"Lola Mood is an innovative perfume company that specializes in creating unique and expressive fragrances designed to evoke emotions and moods. Founded with a vision to blend artistry and scent, their fragrances are crafted with high-quality ingredients, emphasizing personalization and self-expression in perfumery. The brand takes inspiration from various moods and experiences, aiming to provide a scent for every occasion and feeling.",https://images.unsplash.com/photo-1541643600914-78b084683601?w=400&h=300&fit=crop,www.lolamood.com,United States,2021,indie,contact@lolamood.com,,,2025-07-18T12:32:10.942225,2025-08-29T07:40:24.709395
cmde37aa68fb361b2a40b49,Lolita Lempicka,"Lolita Lempicka is a French perfume house known for its unique and whimsical fragrances, which often reflect the enchanting and romantic themes inspired by fairy tales. Founded in 1997 by fashion designer Lolita Lempicka, the company quickly gained a reputation for its distinctive bottles and original scent compositions. The brand combines elements of haute couture with a playful and feminine approach, appealing to those who appreciate artistry in fragrance. Their signature scents, such as ""Lolita Lempicka"" and ""L’Eau en Blanc,"" often feature notes of sweet florals, fruits, and gourmand elements, making them stand out in the crowded perfume market.",https://www.lolitalempicka.com/cdn/shop/files/Logo_x90.png?v=1613734107,https://www.lolitalempicka.com,France,1997,designer,,,,2025-07-18T12:32:10.942225,2025-08-29T07:40:31.899621
cmd99af74540f076f3a10fd,Lollia,"Lollia is a luxurious fragrance and body care brand that offers an array of beautifully crafted scents that are designed to evoke a sense of beauty and tranquility. Founded by Margot Elena, the brand emphasizes artistry, femininity, and a narrative behind each fragrance, crafting products that often include whimsical packaging and enchanting storytelling. Lollia is well-known for its botanical-inspired fragrances, high-quality ingredients, and thoughtful presentation, making it a beloved choice for those seeking a unique aromatic experience.",https://images.unsplash.com/photo-15907369626-6c63ac16f3df?w=400&h=300&fit=crop,https://www.lollia.com,United States,2004,indie,,,,2025-07-18T12:32:10.942225,2025-08-29T07:40:41.550300
cmd4fd8d802c38b6082202e,Lomani,"Lomani is a French perfume company known for creating a diverse range of fragrances that cater to various tastes and preferences. Founded in the 1980s, the company focuses on manufacturing and distributing both men's and women's perfumes. Lomani's portfolio includes classic and contemporary scents, marketed towards consumers looking for quality at accessible prices. The brand has gained a reputation for its attractive packaging and engaging marketing, appealing to a broad audience.",https://images.unsplash.com/photo-15907369626-6c63ac16f3df?w=400&h=300&fit=crop,http://www.lomani-parfum.com,France,1987,designer,,,,2025-07-18T12:32:10.942225,2025-08-29T07:40:47.617909
cmd866ceeb1f50b02409c1f,Long Hair Lovers,"Long Hair Lovers is a niche perfume company that specializes in creating fragrances designed to complement hair care products. Founded with a passion for hair and fragrance, the brand emphasizes the fusion of scent and hair wellness. Their unique approach to perfumery incorporates natural ingredients aimed at enhancing both the user's experience and the olfactory appeal of hair.",https://images.unsplash.com/photo-1587017539504-67cfbddac569?w=400&h=300&fit=crop,,,,niche,,,,2025-07-18T12:32:10.942225,2025-08-29T07:40:53.305807
cmdf415d03f9cc44dfe5a71,Long Lost Perfume,"Long Lost Perfume is an independent fragrance company that specializes in creating unique and nostalgic scents inspired by historical stories and personal memories. Their focus is on crafting high-quality, artisanal perfumes that evoke emotions and memories, encouraging wearers to connect with the past through scent. Founded by a team of fragrance enthusiasts, the company emphasizes sustainable sourcing and the artistry of perfumery, often highlighting local artisans and traditional methods in their production.",https://images.unsplash.com/photo-1587017539504-67cfbddac569?w=400&h=300&fit=crop,,United States,,indie,,,,2025-07-18T12:32:10.942225,2025-08-29T07:40:59.302037
cmdd052d4cf866518b319e2,Long Winter Soap Company,"Long Winter Soap Company specializes in handcrafting artisan soaps and home fragrance products, emphasizing natural ingredients and eco-friendly practices. The company was founded with a vision to create products that enhance everyday routines while being gentle on the skin and the environment. Their offerings range from handmade soap bars to luxurious candles, each developed with an artistic touch and a commitment to sustainability.",https://www.longwintersoap.com/cdn/shop/files/sitelogo_210x.png?v=1613156418,https://www.longwintersoap.com,United States,2012,indie,hello@longwintersoap.com,,,2025-07-18T12:32:10.942225,2025-08-29T07:41:06.083186
cmdb3200dfde9c5d5822054,Longwood Gardens,"Longwood Gardens is a botanical garden located in Kennett Square, Pennsylvania, known for its extensive collection of fragrant flowers and plants, as well as its commitment to horticultural education and preservation. Founded in 1906 by Pierre S. du Pont, it originally served as a conservatory and has grown into one of the premier gardens in the United States. Longwood Gardens emphasizes the importance of sustainability and conservation in the cultivation of aromatic plants, which are often used in the perfume industry. Their creative displays and events also explore scent and fragrance in relation to horticulture.",https://longwoodgardens.org/themes/custom/longwood/assets/dist/images/logo-lg-rosette.svg,https://longwoodgardens.org,United States,1906,niche,,+1 (610) 388-1000,"1001 Longwood Rd, Kennett Square, PA 19348, United States",2025-07-18T12:32:10.942225,2025-08-29T07:41:13.117131
cmd66743a2a4aede22f1c25,Look Fantastic,"Look Fantastic is an online beauty retailer that specializes in providing a wide range of beauty products, including perfumes, skincare, makeup, and hair care products. The company is known for offering luxury and premium beauty brands at competitive prices. Established in the UK, Look Fantastic serves customers globally and has built a reputation for quality and extensive product selection. They often feature exclusive deals and promotional offers, providing an exceptional shopping experience for beauty enthusiasts.",https://www.lookfantastic.com/images?url=https://static.thcdn.com/widgets/95-en/52/original-0818_1351007_LF_AH_August25_Payday_Trade_V4_05_1920_x_150-105052.jpg&format=webp&auto=avif&width=1920&fit=cover,https://www.lookfantastic.com,United Kingdom,1996,drugstore,,,,2025-07-18T12:32:10.942225,2025-08-29T07:41:22.357889
cmdb21fa26f14fe6bc62e1d,LOOK LABS,"LOOK LABS is a pioneering company in the fragrance industry that focuses on creating unique and innovative perfumes. They blend cutting-edge technology with artisanal craft to develop scents that cater to modern sensibilities. Their story is rooted in a passion for olfactory experiences, and they specialize in developing customizable fragrances that cater to individual tastes.",https://www.looklabs.com/_next/image?url=%2Ficons%2Fleaf-dollar-icon.png&w=64&q=75,https://www.looklabs.com,United States,2013,indie,,,,2025-07-18T12:32:10.942225,2025-08-29T07:41:28.182611
cmdd0a24e7c7a94c0fce9e7,Look Mantastic,"Look Mantastic is a modern perfume company that specializes in crafting high-quality, bespoke fragrances for individuals seeking unique scents. The brand prides itself on combining creativity and quality, focusing on customer preferences and personalized experiences. Their story began with a vision to disrupt the traditional fragrance market by introducing innovative scent profiles that resonate with a diverse clientele. They aim to cater to niche aromatic interests, ensuring each product reflects the essence of the wearer's individuality.",https://images.unsplash.com/photo-1582735689369-4fe89db7114c?w=400&h=300&fit=crop,www.lookmantastic.com,United Kingdom,2020,niche,,,,2025-07-18T12:32:10.942225,2025-08-29T07:41:34.414390
cmdf4d6364c0d159ee28890,Looks By Wolfgang Joop,"Looks By Wolfgang Joop is a fragrance line created by renowned German fashion designer Wolfgang Joop. The company specializes in producing high-quality perfumes that reflect Joop's unique aesthetic and artistic vision. Launched as an extension of his fashion brand, the fragrance line aims to capture the essence of elegance and sophistication, offering a range of scents that cater to diverse preferences and occasions. Joop's approach to fragrance is marked by creativity and innovation, often experimenting with unique scent combinations to create distinct olfactory experiences.",https://images.unsplash.com/photo-1582735689369-4fe89db7114c?w=400&h=300&fit=crop,https://www.wolfgangjoop.com/,Germany,1986,designer,,,,2025-07-18T12:32:10.942225,2025-08-29T07:41:40.992708
cmde85d5d5813c7a06fd0db,Lorac,"Lorac is a cosmetics brand that was founded by celebrity makeup artist Carol Shaw. The company is known for its high-quality makeup products, particularly for their foundations, eye shadows, and innovative formulas. Lorac also offers a selection of fragrances that align with its mission of enhancing beauty through high-performance cosmetics. The brand emphasizes cruelty-free formulation and often collaborates with celebrities to create exclusive product lines.",https://www.lorac.com/cdn/shop/files/cropped-loraclogo_500x.webp?v=1751898052,https://www.loraccosmetics.com,United States,1995,indie,,,,2025-07-18T12:32:10.942225,2025-08-29T07:41:47.889715
cmd0c554138c6d971691192,L'Orchestre Parfum,"L'Orchestre Parfum is a unique French perfume house that creatively intertwines the world of fragrance with music. Founded by the visionary artist and perfumer, the brand stands out by composing scents that are inspired by symphonic compositions, creating a harmonious blend of olfactory and auditory experiences. L'Orchestre Parfum aims to evoke emotions and memories through the fusion of scent and sound, offering a diverse range of high-quality fragrances crafted with a narrative approach, where each scent tells a story much like a musical score.",https://lorchestreparfum.com/themes/thrive-starter/assets/img/logo.svg,https://www.lorchestreparfum.com,France,2019,niche,contact@lorchestreparfum.com,,,2025-07-18T12:32:10.942225,2025-08-29T07:41:57.836772
cmd887dda5c0f9bdcca45fd,Lord & Taylor,"Lord & Taylor is a renowned American department store chain that primarily offers a selection of luxury goods, including cosmetics and perfumes. Founded in 1826, the company has a rich history and is known for its emphasis on high-quality products and customer service. Originally started as a dry goods store, it evolved into a leading retailer in the fashion and beauty sectors. Over the years, Lord & Taylor has become synonymous with designer and upscale brands, featuring a curated assortment of fragrances from popular and niche perfume houses. The brand prioritizes offering a distinctive shopping experience, appealing to luxury consumers and fashion enthusiasts.",https://lordandtaylor.com/cdn/shop/files/Logo.webp?v=1731437428&width=170,https://www.lordandtaylor.com,United States,1826,designer,,,"424 Fifth Avenue, New York, NY 10018, United States",2025-07-18T12:32:10.942225,2025-08-29T07:42:11.962688
cmd7a12954a025ebe4ce65d,Lord Milano,"Lord Milano is a luxury perfume house renowned for its exquisite craftsmanship and unique fragrance creations. The brand emphasizes the intricate relationship between art and perfumery, often drawing inspiration from history and culture. With a focus on high-quality ingredients and attention to detail, Lord Milano aims to create scents that evoke emotion and a sense of identity. The company has carved out a niche in the luxury fragrance market, appealing to connoisseurs and collectors alike.",https://lordmilano.com/cdn/shop/files/LORD_LOGO_GOLD_86e61a7b-6847-4f49-bc76-496916002296.png?v=1710435708&width=1934,https://www.lordmilano.com,Italy,2018,niche,,,,2025-07-18T12:32:10.942225,2025-08-29T07:42:18.638518
cmd4ffeb7524c68dc773929,Lord of Barbès,"Lord of Barbès is a niche perfume brand that specializes in creating unique, high-quality fragrances inspired by the richness of historical narratives and cultural tales. Founded by a passionate perfumer, the brand aims to offer exquisite scents that evoke emotions and memories, immersing wearers in a story with each spritz. Lord of Barbès focuses on sustainable sourcing of ingredients and artisanal craftsmanship, giving each fragrance a distinct character that distinguishes it within the competitive perfume market.",https://lordofbarbesgin.com/images/top.svg,https://www.lordofbarbes.com,France,2018,niche,contact@lordofbarbes.com,,,2025-07-18T12:32:10.942225,2025-08-29T07:42:27.297563
cmd84fbe118bcd6223b8ece,Lord's Jester,"Lord's Jester is an emerging perfume company known for its unique and artistic fragrance creations that blend traditional perfumery techniques with modern inspirations. The company focuses on storytelling through scents, capturing whimsical themes and fantasy elements in their product line. Founded by a collective of artists and fragrance enthusiasts, Lord's Jester seeks to challenge the conventional fragrance market by offering products that are both visually and olfactively distinctive. Their specialty lies in niche fragrances that provide a personalized experience for the consumer, emphasizing high-quality ingredients and artistic expression.",https://images.unsplash.com/photo-15907369626-6c63ac16f3df?w=400&h=300&fit=crop,https://www.lordsjester.com,United States,2018,niche,contact@lordsjester.com,,,2025-07-18T12:32:10.942225,2025-08-29T07:42:33.871029
cmdc090b119dad5ca747dda,L'Oréal Groupe,"L'Oréal Groupe is a global leader in the cosmetics and beauty industry, specializing in hair care, skincare, make-up, and fragrances. Founded in 1909 by Eugène Schueller, the company started with a focus on hair color and has evolved into an extensive portfolio of brands catering to diverse consumer needs. L'Oréal's fragrance division encompasses both high-end and mass-market offerings, collaborating with renowned perfumers to create iconic scents. The company emphasizes innovation, sustainability, and commitment to beauty for all, making it one of the foremost authorities in the beauty industry.",https://www.loreal.com/-/media/project/loreal/brand-sites/corp/master/lcorp/1-home/2025/fortune-500/kv/kv-fortune500-en-card.jpg?rev=661eb83b8b20400d93659d3ddf1c320f&cx=0.5&cy=0.5&cw=216&ch=400&blr=False&hash=DCC9A69FD475370D37C969D79665E7DD,https://www.loreal.com,France,1909,designer,,,"14 Rue Royale, 75008 Paris, France",2025-07-18T12:32:10.942225,2025-08-29T07:42:41.157940
cmda337722f67fa4c8c6e40,L'Oréal Paris,,https://www.lorealparis.com/frontend/static/images/beauty-genius-logo--dark.svg,https://www.lorealparis.com,France,1909,drugstore,,,,2025-07-18T12:32:10.942225,2025-08-29T07:42:48.924998
cmd7be55bad38434d32ac53,Loree Rodkin,,https://images.unsplash.com/photo-1556909114-f6e7ad7d3136?w=400&h=300&fit=crop,[https://www.lareerodkin.com](https://www.lareerodkin.com),United States,2008,niche,,,,2025-07-18T12:32:10.942225,2025-08-29T07:42:55.511100
cmd01bc2edc4c68cba203c7,Lorenzo Dante Ferro,"Lorenzo Dante Ferro is a niche perfume house known for its artisanal approach to fragrance creation. Founded by Lorenzo Ferro, the brand emphasizes the use of high-quality materials and unique crafting techniques. The company specializes in creating evocative scents that often draw inspiration from nature, art, and personal experiences, characterizing its offerings as genuine expressions of individual emotions and stories. They have a particular focus on blending traditional perfumery techniques with contemporary aesthetics, appealing to those who seek distinctive and luxurious fragrances.",https://www.lorenzodanteferro.it/wp-content/uploads/2019/02/LogoDoppialineaScritta2-1.png,http://www.lorenzodanteferro.com,Italy,2011,niche,,,,2025-07-18T12:32:10.942225,2025-08-29T07:43:05.643017
cmd509b8ab86d1635cb585c,Lorenzo Pazzaglia,"Lorenzo Pazzaglia is a niche perfume house known for its artisanal fragrances that blend traditional craftsmanship with innovative scent compositions. Founded by perfumer Lorenzo Pazzaglia, the company focuses on creating unique and emotional olfactory experiences, often inspired by nature and personal stories. Their collections often feature high-quality ingredients and are produced in limited quantities to maintain exclusivity and artistry.",https://images.unsplash.com/photo-1556909114-f6e7ad7d3136?w=400&h=300&fit=crop,https://lorenzopazzaglia.com,Italy,2013,niche,,,,2025-07-18T12:32:10.942225,2025-08-29T07:43:12.289746
cmddaf9e87d20522263318f,Lorenzo Siena,"Lorenzo Siena is an artisanal perfume house known for creating high-quality, unique fragrances that blend traditional craftsmanship with modern creativity. The company emphasizes the use of natural ingredients, often inspired by the vibrant Italian landscape and culture. Founded by Lorenzo Siena, the brand focuses on the art of perfumery, offering a range of products that cater to both personal and home fragrance markets, with a distinct signature style that appeals to connoisseurs of niche fragrances.",https://images.unsplash.com/photo-15907369626-6c63ac16f3df?w=400&h=300&fit=crop,http://www.lorenzosiena.com,Italy,2013,niche,info@lorenzosiena.com,,,2025-07-18T12:32:10.942225,2025-08-29T07:43:18.912556
cmd77f9c201a808598183d9,Lorenzo Villoresi,"Lorenzo Villoresi is an Italian perfume house founded by the perfumer Lorenzo Villoresi. The brand is known for its artisanal approach to fragrance creation, which incorporates high-quality natural ingredients and traditional craftsmanship. Established in the early 1990s, the brand draws inspiration from the rich heritage of Italian perfumery and the art of scent—creating unique and sophisticated perfumes that appeal to a clientele seeking distinctive fragrances. Lorenzo Villoresi's collections include a range of scents for both men and women, often characterized by their complexity and depth, as well as a selection of niche products such as candles and room fragrances. The brand emphasizes the importance of storytelling through scent, reflecting the culture and beauty of Italy.",https://images.unsplash.com/photo-1541643600914-78b084683601?w=400&h=300&fit=crop,https://www.lorenzovilloresi.com,Italy,1990,niche,,,,2025-07-18T12:32:10.942225,2025-08-29T07:43:27.238681
cmdb86856018bdb98454e2e,Loreste,"Loreste is a luxury perfume brand known for its artisanal approach to fragrance creation. Founded by perfumers who are passionate about olfactory arts, the company emphasizes high-quality ingredients sourced sustainably. Loreste specializes in creating unique, artisanal fragrances that tell a story and evoke emotions through carefully layered notes, blending traditional techniques with modern innovations. The brand’s dedication to craftsmanship and individual expression sets it apart in the competitive perfume industry.",https://images.unsplash.com/photo-1587017539504-67cfbddac569?w=400&h=300&fit=crop,,,,niche,,,,2025-07-18T12:32:10.942225,2025-08-29T07:43:33.459425
cmdf72b834e30ffb351a785,Lorga Parfums,"Lorga Parfums is an innovative fragrance house dedicated to creating unique and high-quality perfumes that evoke emotions and tell stories. Founded by a team of olfactory artists and fragrance enthusiasts, the company prides itself on using the finest ingredients and sustainable practices in its scent creation process. Lorga Parfums aims to blend artistry with perfume production, allowing individuals to express their identity through distinctive and luxurious fragrances.",https://lorgaparfums.com/img/logo-1652385663.jpg,www.lorgaparfums.com,France,2019,niche,contact@lorgaparfums.com,,,2025-07-18T12:32:10.942225,2025-08-29T07:43:42.297386
cmd9126a15c8fc9e939695d,Lorience,"Lorience is a perfume company known for its artisanal approach to fragrance creation, blending traditional craftsmanship with modern aesthetics. The brand specializes in creating unique, high-quality perfumes that cater to a niche market of fragrance enthusiasts. Established with a vision to evoke a sense of individuality through scent, Lorience often focuses on using rare and exquisite ingredients sourced from various parts of the world, making each fragrance a storytelling experience.",https://images.unsplash.com/photo-1582735689369-4fe89db7114c?w=400&h=300&fit=crop,,,,niche,,,,2025-07-18T12:32:10.942225,2025-08-29T07:43:47.994396
cmde2d004686d687af65b2e,L'Orientaliste,"L'Orientaliste is a niche perfume house that specializes in creating handcrafted fragrances inspired by the rich cultural heritage and aromatic traditions of the East. The company focuses on artisanal production methods, sourcing rare and high-quality ingredients to create unique scent compositions that reflect the beauty and complexity of Eastern perfumery. Their story begins with a passion for storytelling through scent, drawing from historical and artistic influences to develop a collection that resonates with enthusiasts of fine fragrances.",https://images.unsplash.com/photo-1556909114-f6e7ad7d3136?w=400&h=300&fit=crop,,,,niche,,,,2025-07-18T12:32:10.942225,2025-08-29T07:43:53.957725
cmd5b8e243eb4d15428bf91,Lorimar,"Lorimar is a perfume company that specializes in creating unique and high-quality fragrances. It was founded with the vision of blending art and science to craft perfumes that evoke emotions and capture memorable moments. The brand focuses on using premium ingredients and innovative formulations to provide a luxurious olfactory experience. They are known for both their classic and contemporary scent offerings, catering to diverse fragrance preferences.",https://images.unsplash.com/photo-1582735689369-4fe89db7114c?w=400&h=300&fit=crop,www.lorimarfragrances.com,United States,1992,niche,info@lorimarfragrances.com,,,2025-07-18T12:32:10.942225,2025-08-29T07:43:59.643797
cmd1f1f1c80f6413c3351a3,Lornamead,"Lornamead is a global consumer goods company that specializes in personal care, including fragrances. The company has a portfolio of iconic brands and is known for developing quality products that meet the diverse needs of consumers. Their story began in the UK, where they focused on introducing accessible and innovative personal care solutions. Lornamead has expanded its reach internationally and emphasizes a commitment to quality and consumer satisfaction.",http://www.lornamead.com/index_files/cropped-Lornamead-Banner_RV1.png,http://www.lornamead.com,United Kingdom,1986,drugstore,,,,2025-07-18T12:32:10.942225,2025-08-29T07:44:05.448608
cmdea01c2dcd3e072a26e4d,Los Angeles Dodgers,"The Los Angeles Dodgers are primarily known as a Major League Baseball team based in Los Angeles, California. While the team itself does not have a dedicated perfume line, they have engaged in various merchandising and branding ventures, including collaborations that may feature lifestyle products such as fragrances. Their legacy includes a rich history as one of the most storied franchises in baseball.",https://images.ctfassets.net/iiozhi00a8lc/t119_url_logododgers_url_svg/f4f58222ecd9e8c1fdcbe9a1188effb8/t119_url_logo.svg,https://www.dodgers.com,United States,1883,indie,,,"1000 Vin Scully Avenue, Los Angeles, CA 90012, USA",2025-07-18T12:32:10.942225,2025-08-29T07:44:11.666024
cmdc96e3bbab7b211e333b4,Los Feliz Botanicals,"Los Feliz Botanicals is a California-based perfume company that specializes in crafting artisanal, natural fragrances inspired by the unique botanicals of Los Angeles. The brand emphasizes sustainability and eco-friendliness, utilizing high-quality essential oils and natural ingredients sourced responsibly. Their story revolves around a passion for holistic well-being and a connection to nature, aiming to provide a sensory experience that invokes the essence of California's diverse landscape.",https://images.unsplash.com/photo-15907369626-6c63ac16f3df?w=400&h=300&fit=crop,https://www.losfelizbotanicals.com,United States,2016,indie,hello@losfelizbotanicals.com,,,2025-07-18T12:32:10.942225,2025-08-29T07:44:18.289546
cmde5650666b7b5776dc951,Lost Tribe,"Lost Tribe is an avant-garde perfume company that specializes in creating unique and expressive fragrances inspired by diverse cultures and narratives. Founded by a group of passionate artisans and fragrance enthusiasts, their collection draws on the rich tapestry of storytelling through scent, often integrating sustainable practices and rare ingredients to create olfactory experiences that connect users to a deeper sense of place and emotion.",https://images.unsplash.com/photo-15907369626-6c63ac16f3df?w=400&h=300&fit=crop,https://www.losttribe.com,United States,2018,niche,contact@losttribe.com,,,2025-07-18T12:32:10.942225,2025-08-29T07:44:24.655669
cmdf8469be79faec6e6b32c,Lostmarc'h,"Lostmarc'h is an independent fragrance house based in Brittany, France. Founded by a passionate duo, the company draws inspiration from the unique landscapes and scents of the Breton region. Their fragrances are characterized by the use of high-quality ingredients, crafted in the tradition of artisanal perfumery. Lostmarc'h aims to evoke emotions and memories through their scent compositions, focusing on the connection between nature and the olfactory experience.",https://static.HugeDomains.com/images/hdv3-img/hd-header-logo-v3.svg,https://www.lostmarch.com,France,2008,niche,,,,2025-07-18T12:32:10.942225,2025-08-29T07:44:31.665461
cmdde06904373a96a62985d,Lothantique,"Lothantique is a French fragrance and body care brand that specializes in the creation of traditional, high-quality products inspired by the Provençal lifestyle. Founded by the Couston family in 1999, the company is renowned for its artisanal approach to perfumery, focusing on natural ingredients and craftsmanship. Lothantique offers a wide range of scented products including soaps, perfumes, and home fragrances, reflecting the essence of the Mediterranean region and its flora. The brand emphasizes the importance of heritage and authenticity in its products.",https://images.unsplash.com/photo-1582735689369-4fe89db7114c?w=400&h=300&fit=crop,https://www.lothantique.fr,France,1999,indie,,,,2025-07-18T12:32:10.942225,2025-08-29T07:44:39.642020
cmd20ce0ebc7c7993eac162,Lottie London,"Lottie London is a vibrant and innovative cosmetics brand that caters primarily to a younger demographic. Known for its playful and trendy approach, Lottie London offers a variety of products, including fragrances, cosmetics, and beauty accessories. The brand emphasizes affordability and accessibility while maintaining a focus on quality and style. Their story began as a response to the demand for fun, youthful beauty products that resonate with the Gen Z audience, allowing them to express their individuality. The range of fragrances under the Lottie London label reflects this ethos, offering unique scents that are on-trend and appealing to their target consumer base.",https://images.unsplash.com/photo-1587017539504-67cfbddac569?w=400&h=300&fit=crop,https://lottielondon.com,United Kingdom,2017,indie,,,,2025-07-18T12:32:10.942225,2025-08-29T07:44:46.698909
cmd2f746a4911d204f37687,Lotto,"Lotto is an Italian brand known for its sportswear and athletic equipment, which has also extended its product line to include fragrances. Established with a focus on promoting an active lifestyle, Lotto fragrances reflect the brand's commitment to energy and dynamism, aiming to capture the essence of sports and movement in their scents. The fragrances often feature fresh, vibrant notes that appeal to a youthful audience and complement their sporting apparel.",https://images.unsplash.com/photo-1541643600914-78b084683601?w=400&h=300&fit=crop,https://www.lottoshop.com,Italy,1973,designer,,,,2025-07-18T12:32:10.942225,2025-08-29T07:44:53.486760
cmd09e6e9c305616a900613,Lotus,,https://images.unsplash.com/photo-1587017539504-67cfbddac569?w=400&h=300&fit=crop,,,,indie,,,,2025-07-18T12:32:10.942225,2025-08-29T07:44:59.554392
cmdaa47e9e0d3a3f8b16d7e,Lou Pre,,https://images.unsplash.com/photo-1582735689369-4fe89db7114c?w=400&h=300&fit=crop,www.louprefumes.com,France,2018,niche,,,,2025-07-18T12:32:10.942225,2025-08-29T07:45:05.146234
cmd8e5d3c7d4d4a0e3321f8,Louangel,"Louangel is a perfume company that specializes in creating high-quality, artisanal fragrances. The brand focuses on unique scent compositions that blend traditional perfumery techniques with modern aesthetics. Louangel aims to capture emotions and memories through their scents, offering a curated selection of perfumes that reflect personal stories and experiences. Founded by a group of passionate perfumers, Louangel has developed a reputation for its attention to detail and commitment to sourcing the finest ingredients.",https://images.unsplash.com/photo-1556909114-f6e7ad7d3136?w=400&h=300&fit=crop,,,,indie,,,,2025-07-18T12:32:10.942225,2025-08-29T07:45:10.920920
cmdd4be8a723ed541f90b63,Louis Breton,,https://images.unsplash.com/photo-1587017539504-67cfbddac569?w=400&h=300&fit=crop,,,,niche,,,,2025-07-18T12:32:10.942225,2025-08-29T07:45:17.804763
cmd436c3e8812275dc187ac,Louis Cardin,"Louis Cardin is a perfume company known for creating a wide range of fragrances for men and women. The brand emphasizes offering high-quality perfumes that combine unique scents with affordable prices. Established by the perfumer Louis Cardin, the brand has built a reputation for excellence in the competitive fragrance market, leveraging creativity and craftsmanship in its approach to scent formulation.",https://www.louiscardin.com/wp-content/uploads/2020/01/pen-banner-home-page.png,https://www.louiscardin.com,United Arab Emirates,1982,indie,,+971 4 338 7737,,2025-07-18T12:32:10.942225,2025-08-29T07:45:25.326240
cmdf581ae9b5022ed9a8508,Louis Féraud,"Louis Féraud is a French fashion designer renowned for his luxurious and elegant collections. Founded in the 1950s, the company initially made its mark in haute couture fashion. Over the years, Louis Féraud expanded its brand portfolio to include a range of fragrances, establishing a notable presence in the perfume industry. The brand is recognized for its sophisticated scents and has been associated with timeless elegance, appealing to a clientele that values refinement in both fashion and fragrance.",https://forsale.spaceship-cdn.com/static/version/0.20.4/assets/fonts/spaceship-logo.svg,https://www.louisferaud.com,France,1950,designer,,,,2025-07-18T12:32:10.942225,2025-08-29T07:45:32.305919
cmdabf70982633b9aa81a23,Louis Phillippe Monaco,"Louis Phillippe Monaco is a luxury perfume brand that offers a selection of premium fragrances inspired by the elegance and sophistication of the Mediterranean lifestyle. The brand focuses on high-quality ingredients and artisanal craftsmanship, creating unique scents that embody the essence of luxury. With a heritage tied to the glamorous French Riviera, the company aims to provide a sensory experience that captures the charm and allure of Monaco.",https://images.unsplash.com/photo-1541643600914-78b084683601?w=400&h=300&fit=crop,,,,designer,,,,2025-07-18T12:32:10.942225,2025-08-29T07:45:38.710573
cmdecd4273f374054cac498,Louis Varel,"Louis Varel is a perfume company known for producing a wide range of fragrances that are often affordable and accessible. The brand focuses on creating unique scents that appeal to both everyday consumers and fragrance enthusiasts. Their offerings include both women's and men's perfumes, often inspired by high-end fragrance concepts but presented at a more budget-friendly price point. The company emphasizes creativity and innovation in its scent formulations, allowing it to maintain a competitive edge in the market.",https://images.unsplash.com/photo-1582735689369-4fe89db7114c?w=400&h=300&fit=crop,,,,drugstore,,,,2025-07-18T12:32:10.942225,2025-08-29T07:45:45.386824
cmd0e83f869c479573f1bdc,Louis Vuitton,"Louis Vuitton is a prestigious luxury fashion house founded in 1854, known for its high-quality leather goods, accessories, and luxury perfumes. It began with a focus on custom-made trunks and has since evolved into a global brand synonymous with opulence and sophistication. The perfume division of Louis Vuitton was launched in 2016, emphasizing their deep connection to artistry and craftsmanship. They offer a range of unique fragrances, each designed to narrate a story, often using high-quality natural ingredients and inspired by different travels and experiences of the founder and brand heritage.",https://images.unsplash.com/photo-1556909114-f6e7ad7d3136?w=400&h=300&fit=crop,https://www.louisvuitton.com,France,1854,designer,,,"2 Rue duPont Neuf, 75001 Paris, France",2025-07-18T12:32:10.942225,2025-08-29T07:46:01.783435
cmd71e976d8b6288bf52307,Louise de Maurillac,"Louise de Maurillac is a perfume company known for its exquisite and thoughtfully crafted fragrances. Founded on the principles of elegance and sophistication, the brand focuses on artisanal perfume creation, often incorporating rare and high-quality ingredients. The company's story is rooted in a desire to create scents that evoke emotions and memories, connecting the wearer to their unique narrative. While the brand may not yet have widespread recognition, it has carved a niche in the perfume market by emphasizing craftsmanship and personal storytelling in its fragrances.",https://images.unsplash.com/photo-1541643600914-78b084683601?w=400&h=300&fit=crop,,,,indie,,,,2025-07-18T12:32:10.942225,2025-08-29T07:46:07.605241
cmd71080d3e4753f92f6e53,Louise-Philippe,"Louise-Philippe is a luxury perfume house known for its exquisite, handcrafted fragrances that draw inspiration from rich cultural heritage and history. Founded by a perfumer with a passion for storytelling through scent, the company focuses on using high-quality, natural ingredients sourced from renowned regions. Their unique blends aim to evoke emotions and memories, making each fragrance a personal statement. The brand emphasizes artistry and craftsmanship in both its scents and packaging, appealing to discerning customers who appreciate the finer things in life.",https://images.unsplash.com/photo-1587017539504-67cfbddac569?w=400&h=300&fit=crop,https://www.louisephilippe.com,France,2010,niche,contact@louisephilippe.com,,"15 Rue de la Paix, 75002 Paris, France",2025-07-18T12:32:10.942225,2025-08-29T07:46:13.887889
cmdf56cba7efe359102a654,Loumari,"Loumari is a perfume house that specializes in creating unique and artistic fragrances, drawing inspiration from various cultures and natural elements. The brand aims to evoke emotions and memories through scent, offering a range of perfumes that cater to both personal and artistic expression. Their story is rooted in a passion for olfactory experiences, combining traditional perfumery techniques with innovative ideas to craft distinctive scents.",https://images.unsplash.com/photo-1587017539504-67cfbddac569?w=400&h=300&fit=crop,www.loumari.com,France,2015,niche,contact@loumari.com,+33 1 23 45 67 89,"12 Rue des Fragrances, 75001 Paris, France",2025-07-18T12:32:10.942225,2025-08-29T07:46:20.257957
cmd9a29f36adca29f36d19d,Louvre Groupe,"Louvre Groupe is a fragrance development and brand management company that specializes in creating niche and luxury perfumes. Established by a team of industry veterans, the company has carved out a unique space in the market by focusing on quality and artisanal craftsmanship. Louvre Groupe collaborates with various olfactory artists to produce exclusive scent blends, often highlighting cultural stories or artisanal heritage. Their passion for innovation and attention to detail sets them apart within the competitive fragrance landscape.",https://images.unsplash.com/photo-15907369626-6c63ac16f3df?w=400&h=300&fit=crop,https://www.louvregroupe.com,France,2017,niche,,,,2025-07-18T12:32:10.942225,2025-08-29T07:46:26.761819
cmda80f58594a3e6ce5b4ba,Love & Peace,"Love & Peace is a fragrance company known for its unique and imaginative creations that encapsulate themes of love, positivity, and harmony. The company emphasizes the connection between scent and emotional well-being. Established by a group of perfumers passionate about creating uplifting and joyful fragrances, Love & Peace combines natural ingredients with modern scent technology to produce perfumes that appeal to a wide audience, promoting a sense of nostalgia and hope.",https://images.unsplash.com/photo-15907369626-6c63ac16f3df?w=400&h=300&fit=crop,www.loveandpeacefragrance.com,United States,2000,indie,,,,2025-07-18T12:32:10.942225,2025-08-29T07:46:32.667961
cmd4cc8b21725ac57df5bf6,Love&Toast,"Love&Toast is a fragrance and body care brand that was created with a passion for delivering high-quality, affordable, and aspirational products. Established with a focus on using natural ingredients and eco-friendly packaging, Love&Toast embodies a playful spirit and emphasizes the importance of self-care and personal expression. Their product line includes an array of perfumes, body lotions, and other beauty items, all designed to promote joy and positivity. The company is known for its whimsical branding and fun, unique scent combinations that appeal to a diverse customer base.",https://images.unsplash.com/photo-1587017539504-67cfbddac569?w=400&h=300&fit=crop,https://www.loveandtoast.com,United States,2004,indie,,,,2025-07-18T12:32:10.942225,2025-08-29T07:46:45.686828
cmd124f2581b3bfd9169af2,"Love, Chic Baby","Love, Chic Baby is a fragrance company that focuses on creating perfumes that embody youthful energy and vibrant femininity. Their story began with the vision to provide affordable yet high-quality scents, appealing to a younger demographic. They specialize in a range of fragrances that feature fruity, floral, and sweet notes, aiming to capture the essence of chic and playful femininity. Their branding reflects modern trends, and they often collaborate with influencers to ensure their products resonate with their target audience.",https://images.unsplash.com/photo-15907369626-6c63ac16f3df?w=400&h=300&fit=crop,www.lovechicbaby.com,United States,2015,indie,,,,2025-07-18T12:32:10.942225,2025-08-29T07:46:52.506587
cmd9c82658476ed11c6f682,Love Creates Death,"Love Creates Death is an indie perfume company known for its avant-garde and artistic approach to fragrance. Founded by conceptual artist and perfumer, the brand seeks to challenge conventional norms in the fragrance industry by integrating art and storytelling into their scents. Their unique blends often evoke deep emotional responses, creating an immersive experience for the wearer. The company focuses on small-batch production and high-quality, sustainable ingredients, appealing to niche audiences who appreciate artistry in perfumery.",https://images.unsplash.com/photo-1541643600914-78b084683601?w=400&h=300&fit=crop,,,,indie,,,,2025-07-18T12:32:10.942225,2025-08-29T07:46:58.280397
cmd46afd5456a74e116dae1,Love Hearts [Swizzels Matlow],"Love Hearts is a brand produced by Swizzels Matlow, a well-known British confectionery company recognized for its iconic sweets. Love Hearts are heart-shaped candies that feature romantic messages, and they are popular for gifting, especially on occasions such as Valentine's Day. The brand has expanded beyond candies to include various themed products, including fragrances that capture the essence of the sweet's beloved charm, catering to a playful and youthful audience.",https://swizzels.com/wp-content/themes/swizzels/images/logo.svg,https://www.swizzels.com,United Kingdom,1928,indie,,,,2025-07-18T12:32:10.942225,2025-08-29T07:47:08.584026
cmd3b7cc3306893609f3259,Love Honey,"Love Honey is a prominent brand primarily known for its wide range of sexual wellness products, including a selection of personal fragrances. The company aims to promote self-expression and confidence through unique scent offerings paired with a mission to encourage open conversations about adult products and sexuality. Established with an eye for inclusivity and a commitment to quality, Love Honey has expanded its product lines and actively engages with its customer base through various online platforms.",https://images.unsplash.com/photo-1541643600914-78b084683601?w=400&h=300&fit=crop,https://www.lovehoney.co.uk,United Kingdom,2002,indie,,,,2025-07-18T12:32:10.942225,2025-08-29T07:47:15.676588
cmd93e28d1a8083b5b32f50,Love Island,"Love Island is a fragrance brand inspired by the popular reality television series of the same name. The company focuses on creating fun and youthful fragrances that resonate with the themes of romance, excitement, and summer vibes, mirroring the experiences and dynamics showcased on the show. Their products are often marketed towards a younger audience and encapsulate playful and vibrant scents suitable for everyday wear.",https://images.unsplash.com/photo-1541643600914-78b084683601?w=400&h=300&fit=crop,https://www.loveislandperfume.com,United Kingdom,2019,celebrity,,,,2025-07-18T12:32:10.942225,2025-08-29T07:47:22.162545
cmda6564c49bdf6dddce2aa,Love Love,"Love Love is a perfume company known for its romantic and playful fragrances. Founded on the idea of celebrating love and passion through scent, the brand often incorporates vibrant and sensual elements in its products. Love Love quickly garnered attention for its unique marketing strategies and memorable bottle designs, appealing to a youthful and energetic demographic. Their specialties include creating signature scents that evoke emotions and memorable experiences, positioning themselves in the market as a choice for those who desire both style and substance in their fragrances.",https://images.unsplash.com/photo-1587017539504-67cfbddac569?w=400&h=300&fit=crop,,,,indie,,,,2025-07-18T12:32:10.942225,2025-08-29T07:47:28.410983
cmdf573f1bfb49f3be40538,Love Passport,"Love Passport is a niche perfume company that specializes in creating unique and evocative fragrances inspired by the emotions and experiences associated with travel. The company aims to capture the essence of different cultures and destinations through their scents, appealing to customers who seek an aromatic journey. Established with a passion for exploration and self-expression, Love Passport curates its collections to resonate with the adventurous spirit and provide a sensory experience that transports wearers to various global locales.",https://images.unsplash.com/photo-1587017539504-67cfbddac569?w=400&h=300&fit=crop,www.lovepassportfragrance.com,United States,2018,niche,contact@lovepassportfragrance.com,,,2025-07-18T12:32:10.942225,2025-08-29T07:47:35.059120
cmdaffffbac5e8e3def0d46,Love Potion Magickal Perfumerie,"Love Potion Magickal Perfumerie specializes in crafting handcrafted perfumes that promote feelings of love, attraction, and well-being. Founded by a passionate perfumer who combines traditional fragrance-making techniques with a metaphysical approach, the brand focuses on creating unique scents that align with various emotional and spiritual intentions. Their offerings include love potions, magickal oils, and a variety of other scented products that emphasize personal empowerment and connection.",https://lovepotionperfume.com/cdn/shop/files/logoLPMP2_450x.gif?v=1613682520,https://www.lovepotionperfume.com,United States,1995,indie,,,,2025-07-18T12:32:10.942225,2025-08-29T07:47:42.706273
cmd49221f80365f1ddc5ed4,Love Scent,"Love Scent is a niche fragrance company that specializes in offering a curated selection of unique and artisanal perfumes. Founded with the vision of providing consumers access to quality scents often overlooked by mainstream brands, Love Scent emphasizes creativity and personal expression in their fragrance offerings. The company prides itself on sourcing exclusive products from independent perfumers and focuses on creating an exceptional shopping experience for fragrance aficionados.",http://love-scent.com/static/version1725101778/frontend/Infortis/ultimo/en_US/images/logo.png,https://www.lovescent.com,United States,2004,niche,,,,2025-07-18T12:32:10.942225,2025-08-29T07:47:53.405276
cmdd82386548e309677b138,Love The Key to Life,"Love The Key to Life is a perfume company that focuses on creating fragrances that embody the essence of love and positivity. The brand emphasizes the therapeutic benefits of scent and aims to inspire and uplift through their unique perfume collections. Their specialty lies in blending high-quality ingredients to create luxurious yet relatable fragrances that resonate with a wide audience. The company champions self-love and mindfulness, often incorporating themes of well-being and emotional connection in their marketing.",https://images.unsplash.com/photo-15907369626-6c63ac16f3df?w=400&h=300&fit=crop,,,,indie,,,,2025-07-18T12:32:10.942225,2025-08-29T07:48:00.446441
cmd08e01d6f5ceef630fbdd,Love2Love,"Love2Love is a vibrant fragrance brand that caters to a youthful audience with a passion for individuality and self-expression. The brand emphasizes the concept of love and joy, aiming to create scents that resonate with personal experiences and emotions. Established with a mission to offer quality, affordable fragrances, Love2Love features a range of scents inspired by love, nature, and life’s joyful moments. Their products are often marketed through collaborations with popular retailers and geared towards consumers looking for playful and accessible fragrance options.",https://images.unsplash.com/photo-1556909114-f6e7ad7d3136?w=400&h=300&fit=crop,https://www.love2lovefragrance.com,United States,2016,drugstore,,,,2025-07-18T12:32:10.942225,2025-08-29T07:48:07.911931
cmd7025208b408e0ac99a35,Lovegang,"Lovegang is a contemporary perfume company known for its unique and artisanal fragrances that aim to capture the essence of individual self-expression. They focus on creating scents that tell a story and evoke emotions, appealing particularly to a younger audience seeking distinctive olfactory experiences. The company has carved a niche in the fragrance market with its limited edition releases and collaborations with artists, providing an intersection of art and scent.",https://images.unsplash.com/photo-1541643600914-78b084683601?w=400&h=300&fit=crop,https://www.lovegang.com,United States,2019,indie,contact@lovegang.com,,,2025-07-18T12:32:10.942225,2025-08-29T07:48:14.811991
cmd0bde64fffed29fab8119,Lovemore,"Lovemore is a perfume company that focuses on creating unique and luxurious fragrances aimed at enhancing personal expression and beauty. Founded by a team of fragrance enthusiasts, Lovemore prides itself on crafting scents that evoke emotion and connection, often using natural ingredients sourced from around the globe. Their story began with a vision to redefine the fragrance experience, offering both quality and artistry in each bottle. Specializing in artisanal and handcrafted fragrances, Lovemore emphasizes sustainability and ethical sourcing, making it a favorite among eco-conscious consumers.",https://images.unsplash.com/photo-1541643600914-78b084683601?w=400&h=300&fit=crop,,,,indie,,,,2025-07-18T12:32:10.942225,2025-08-29T07:48:21.648669
cmdfef1d8ec71e6960fe749,Lovery,"Lovery is a brand that specializes in creating scented perfumes and personal care products, emphasizing natural ingredients with an artisan touch. The company focuses on crafting unique fragrances that embody luxury and elegance, without being excessively ostentatious. Lovery aims to provide customers with high-quality perfumery that evokes a sense of well-being and indulgence. Their story began with a passion for scent exploration, leading to a diverse range of aromatic profiles that cater to various preferences.",https://lovery.com/cdn/shop/files/lovery-logo.svg?v=5169621975040396391,https://www.lovery.com,United States,2010,indie,support@lovery.com,,,2025-07-18T12:32:10.942225,2025-08-29T07:48:29.665915
cmd8b7a814e48e6678c7405,Love's,"Love's is a perfume company known for its creation of fragrant body sprays and perfumes that cater to a broad demographic. Founded on the idea of making quality fragrances accessible to everyone, Love's has built a reputation for its affordable yet delightful scent offerings. The company often leverages nostalgic branding and vibrant packaging to resonate with consumers, emphasizing a fun and carefree lifestyle. Over the years, their fragrances have maintained a loyal customer base by providing unique and inviting scent profiles, which often appeal to a younger audience.",https://edge.sitecorecloud.io/lovestravela9dd-loves2161-lovesprod042a-cf5a/media/Project/Loves/Default/logo_top-(2).png?h=50&iar=0&w=194,https://www.loves.com,United States,1990,drugstore,,,,2025-07-18T12:32:10.942225,2025-08-29T07:48:38.934168
cmd4a27d9ddb99e07fbfa0a,LoveShackFancy,"LoveShackFancy is a fashion and lifestyle brand that celebrates femininity and nostalgia through its designs. Founded by Rebecca Hessel Cohen in 2013, the company is known for its whimsical, vintage-inspired clothing, accessories, and fragrances that evoke a sense of romance and playfulness. The fragrance line complements its fashion offerings, featuring playful scents that resonate with the brand's aesthetic and ethos of love and carefree living.",https://www.loveshackfancy.com/cdn/shop/files/lsf-logo_460x_a8b20435-6c53-430c-affb-68815c981255_460x.svg?v=1689869982,https://www.loveshackfancy.com,United States,2013,indie,,,,2025-07-18T12:32:10.942225,2025-08-29T07:48:47.277453
cmd02cf4a5ba01a7ecb9375,Löwengrip Care & Color,,https://www.lowengrip.com/cdn/shop/t/77/assets/logo.svg?v=81418677230975260411745401581,https://lowengrip.com,Sweden,2016,indie,,,,2025-07-18T12:32:10.942225,2025-08-29T07:48:58.182151
cmd33fed334c2d9be9c2c38,LPDO,"LPDO (La Parfumerie d'Osman), established in 2014, is a niche perfume house that focuses on creating unique and artistic fragrances. The brand draws inspiration from various cultural influences, often merging traditional perfume-making techniques with modern aesthetics. LPDO emphasizes quality ingredients and artisanal craftsmanship, offering a curated line of scents that cater to discerning perfume aficionados. Their story highlights a commitment to storytelling through fragrance, where each scent encapsulates an experience or emotion, aiming to evoke personal memories and connections.",https://images.unsplash.com/photo-1556909114-f6e7ad7d3136?w=400&h=300&fit=crop,https://www.lpdo.com,France,2014,niche,,,,2025-07-18T12:32:10.942225,2025-08-29T07:49:05.261797
cmd4da8e27ece979e7deac3,LR Health & Beauty Systems,"LR Health & Beauty Systems is a German company that specializes in health and beauty products, including a range of perfumes for both men and women. Founded in 1985 by Heinz and Liane Gnoinski, the company initially focused on dietary supplements and later expanded to include skincare and fragrances. Their product offerings often emphasize natural ingredients and are marketed through a direct selling model, allowing representatives to sell the products directly to consumers. LR Health & Beauty has built a strong reputation in the direct selling industry, and their fragrances are designed to cater to various preferences and occasions.",https://www.lrworld.com/img/company-logo/default/black.svg,https://www.lrworld.com,Germany,1985,indie,,,,2025-07-18T12:32:10.942225,2025-08-29T07:49:21.923894
cmda6ae4f6166793dd57d53,LR,"LR Health & Beauty Systems, commonly referred to as LR, is a direct selling company that specializes in wellness products, cosmetics, and fragrances. Established in 1985 in Germany, LR has expanded globally, offering a diverse range of high-quality perfumes that cater to various customer preferences. The company focuses on innovative product development, utilizing partnerships with well-known perfumers and celebrities to create signature scents that resonate with a mass audience. LR has built a strong community of independent sales partners who promote its products, emphasizing a personal touch in the fragrance marketing experience.",https://www.lrworld.com/img/company-logo/default/black.svg,https://www.lrworld.com,Germany,1985,indie,,,,2025-07-18T12:32:10.942225,2025-08-29T07:49:37.597703
cmd04ff87bd455ef52d8062,LR Perfume,"LR Perfume is a niche fragrance company that specializes in creating high-quality, unique perfumes. Established in the early 2000s, the brand focuses on blending traditional methods with modern fragrances, offering a diverse collection that appeals to sophisticated tastes. They emphasize the use of carefully selected ingredients to ensure an exceptional olfactory experience. With a commitment to innovation in scent design, LR Perfume has garnered a loyal following among fragrance enthusiasts.",https://www.lrworld.com/img/company-logo/default/black.svg,https://www.lrworld.com,Germany,2008,niche,,,,2025-07-18T12:32:10.942225,2025-08-29T07:49:52.816864
cmde3d1cbefbf4eb270ae5b,LTL,"LTL, also known as LTL Perfumes, is a perfume company that specializes in creating unique and high-quality fragrance offerings. The company focuses on crafting captivating scents inspired by various themes and emotions. With an emphasis on creativity and craftsmanship, LTL has carved a niche in the perfume industry, appealing to fragrance enthusiasts and collectors looking for something distinct and artful.",https://images.unsplash.com/photo-1556909114-f6e7ad7d3136?w=400&h=300&fit=crop,,,,indie,,,,2025-07-18T12:32:10.942225,2025-08-29T07:49:58.258719
cmdd287406ff7fd7807c311,Lubin,"Lubin is a historic French perfume house founded in the 18th century, renowned for its luxurious and refined fragrances. The company has a rich heritage, originating in Paris and is known for creating both classic and innovative scents, including its famous ""Kouros"" and ""Fougere Royale."" Lubin emphasizes craftsmanship, utilizing high-quality ingredients and traditional techniques in the creation of their perfumes, which cater to a discerning clientele seeking uniqueness and sophistication.",https://images.unsplash.com/photo-1556909114-f6e7ad7d3136?w=400&h=300&fit=crop,https://www.lubin.fr,France,1798,niche,,,"62 Rue des Saints-Pères, 75007 Paris, France",2025-07-18T12:32:10.942225,2025-08-29T07:50:05.426887
cmd29e17156aa31c4eb0a6a,Lucianno,"Lucianno is an emerging fragrance company known for its unique and captivating scents that blend traditional perfumery techniques with modern inspirations. Founded by a group of passionate perfumers and fragrance enthusiasts, the company aims to create exquisite perfumes that evoke emotions and memories. Their specialty lies in crafting limited-edition fragrances that celebrate individuality and self-expression. Lucianno has garnered attention for its elegant packaging and storytelling approach, allowing consumers to connect with the essence of each scent.",https://images.unsplash.com/photo-1582735689369-4fe89db7114c?w=400&h=300&fit=crop,www.lucianno.com,United States,2018,indie,hello@lucianno.com,,,2025-07-18T12:32:10.942225,2025-08-29T07:50:12.672390
cmd858cd008b74245b78c3e,Luciano Pavarotti,"Luciano Pavarotti is a fragrance line inspired by the legendary Italian tenor, Luciano Pavarotti. The brand reflects the passion and charisma of its namesake, translating his art and legacy into scents that evoke emotion and nostalgia. The company specializes in offering perfumes that capture the essence of music and opera, designed for those who appreciate fine fragrances with a touch of artistic heritage.",https://images.unsplash.com/photo-1587017539504-67cfbddac569?w=400&h=300&fit=crop,,Italy,2004,celebrity,,,,2025-07-18T12:32:10.942225,2025-08-29T07:50:18.150971
cmd64f454311f067dc39d73,Luciano Soprani,"Luciano Soprani is an Italian perfume house that focuses on creating sophisticated and elegant fragrances. Established by fashion designer Luciano Soprani, the brand is known for its unique scents that reflect Italian style and luxury. The company’s product range includes both men’s and women’s fragrances, often highlighted by floral notes and rich compositions. Their approach merges fashion and fragrance, appealing to those who appreciate high-quality, artisanal scents.",https://static.HugeDomains.com/images/hdv3-img/hd-header-logo-v3.svg,www.lucianosoprani.com,Italy,1987,designer,,,,2025-07-18T12:32:10.942225,2025-08-29T07:50:25.475178
cmdb607274746020968826a,Lucien Ferrero Maître Parfumeur,"Lucien Ferrero Maître Parfumeur is a specialized fragrance house that focuses on the creation of unique and artisanal perfumes. Founded by Lucien Ferrero, a renowned perfumer with a deep passion for olfactory art, the company prides itself on using high-quality ingredients and traditional craftsmanship to create bespoke fragrances. Their offerings are characterized by a blend of classic and modern techniques, catering to discerning customers who appreciate originality and luxury in scent.",https://images.unsplash.com/photo-15907369626-6c63ac16f3df?w=400&h=300&fit=crop,https://www.lucienferrero.com,France,2000,niche,,,,2025-07-18T12:32:10.942225,2025-08-29T07:50:32.001805
cmd5f799d1a3571a86f6762,Lucien Lelong,"Lucien Lelong was a French fashion designer and perfumer known for his innovative and artistic approach to fragrance creation in the early 20th century. The company is recognized for its luxurious and unique scents that often reflected the elegance and sophistication of the Art Deco period. Lelong’s perfumes were meticulously crafted, focusing on high-quality ingredients and blending techniques, which positioned the brand within the niche market of artisanal and high-end fragrances. Their legacy continues to influence perfume making even today, although the brand’s perfumes are not widely produced as they were during their peak.",https://images.unsplash.com/photo-1587017539504-67cfbddac569?w=400&h=300&fit=crop,,France,1920,niche,,,,2025-07-18T12:32:10.942225,2025-08-29T07:50:37.881011
cmdfc554e22ba4272654f5e,Lucienne von Doz,"Lucienne von Doz is a luxury perfume brand known for its artisanal approach to fragrance creation. The company focuses on crafting unique scent profiles that blend traditional perfumery with innovative techniques. Established with the vision of offering high-quality, hand-crafted perfumes, Lucienne von Doz emphasizes the use of rare and ethically sourced ingredients, resulting in distinctive fragrances that cater to a niche market of fragrance enthusiasts. The brand has cultivated a reputation for elegance and sophistication, appealing to consumers seeking bespoke scent experiences.",https://images.unsplash.com/photo-1582735689369-4fe89db7114c?w=400&h=300&fit=crop,www.luciennevondoz.com,France,2015,niche,contact@luciennevondoz.com,,,2025-07-18T12:32:10.942225,2025-08-29T07:50:44.004759
cmd0767c1e6927d338198ac,Lucky Bastard,"Lucky Bastard is a niche fragrance company known for its unique and bold fragrances that aim to embody the spirit of adventure and individuality. Established with a mission to offer unconventional scents, the brand prides itself on using high-quality ingredients and encourages customers to express their personality through fragrance. The company often emphasizes storytelling through its scent profiles, appealing to those looking for something that stands out from mainstream perfumes.",https://images.unsplash.com/photo-1556909114-f6e7ad7d3136?w=400&h=300&fit=crop,https://luckybastard.com,United States,2018,niche,,,,2025-07-18T12:32:10.942225,2025-08-29T07:50:52.689114
cmd0b2bbd1499e72cc4ecde,Lucky Brand,"Lucky Brand is an American fashion brand known for its denim and casual wear, which also offers a selection of fragrances. Founded in 1990, the brand started as a denim label and later expanded its product offerings to include a range of apparel, accessories, and perfumes for both men and women. Their fragrances reflect the bohemian spirit of the brand, and they emphasize a laid-back, Californian lifestyle. The brand is recognized for its youthful, vibrant aesthetic and often draws inspiration from vintage elements.",https://images.unsplash.com/photo-1541643600914-78b084683601?w=400&h=300&fit=crop,https://www.luckybrand.com,United States,1990,designer,,,,2025-07-18T12:32:10.942225,2025-08-29T07:50:59.306910
cmdfb9efb0240fe3a700080,LuckyScent,"LuckyScent is a niche perfume retailer specializing in hard-to-find and exclusive fragrances from around the world. Founded in 2004, they focus on providing a curated selection of both established and emerging brands, often showcasing artisanal and indie fragrances that are not readily available at mainstream retailers. Their website offers extensive resources for fragrance enthusiasts, including detailed descriptions, customer reviews, and scent sample options to discover new scents.",https://images.unsplash.com/photo-1587017539504-67cfbddac569?w=400&h=300&fit=crop,"offers extensive resources for fragrance enthusiasts, including detailed descriptions, customer reviews, and scent sample options to discover new scents.",United States,2004,niche,,,,2025-07-18T12:32:10.942225,2025-08-29T07:51:09.169121
cmd86748e2985c3f8466700,Lucretia Allen,"Lucretia Allen is a niche perfume company that specializes in creating unique and artisanal fragrances. Founded by Lucretia Allen, the brand focuses on high-quality ingredients and sustainable practices. The story of Lucretia Allen begins with a passion for art and nature, which inspired the founder to blend both into luxurious perfumes. The company offers a curated collection that reflects the essence of individuality and self-expression, catering to discerning customers seeking exclusive scents.",https://images.unsplash.com/photo-1541643600914-78b084683601?w=400&h=300&fit=crop,www.lucretiaallen.com,United States,2020,niche,contact@lucretiaallen.com,,,2025-07-18T12:32:10.942225,2025-08-29T07:51:16.547385
cmd6a8f41db9f36e96aca5f,Lucy B's,"Lucy B's is a unique perfume company that specializes in creating naturally produced fragrances. They focus on using pure, high-quality ingredients, often inspired by the beauty of nature and the exotic locations that influence their formulations. The brand aims to provide customers with captivating and memorable scents that are not only appealing but also approachable in terms of the ingredients used. Their story reflects a commitment to sustainability and an appreciation for the artistry involved in perfumery.",https://images.unsplash.com/photo-15907369626-6c63ac16f3df?w=400&h=300&fit=crop,https://lucyb.com.au,Australia,2012,indie,,,,2025-07-18T12:32:10.942225,2025-08-29T07:51:23.224105
cmd18ceb6ae196395c9a415,Lucy Mecklenburgh,"Lucy Mecklenburgh is a British entrepreneur and reality television star who launched her own perfume line, capitalizing on her fame and personal brand. The fragrance line reflects her style and lifestyle, aiming to connect with fans and consumers who admire her persona. The company focuses on creating accessible and appealing fragrances that embody femininity and elegance, often drawing inspiration from Lucy's experiences and preferences.",https://images.unsplash.com/photo-1582735689369-4fe89db7114c?w=400&h=300&fit=crop,www.lucymecklenburgh.com,United Kingdom,2020,celebrity,,,,2025-07-18T12:32:10.942225,2025-08-29T07:51:38.895360
cmd041ba2acc93f2a998e30,Ludovica di Loreto,"Ludovica di Loreto is an Italian niche perfume house that specializes in creating unique and artisanal fragrances. The brand places a strong emphasis on high-quality ingredients and traditional craftsmanship. Founded by Ludovica di Loreto, the company draws inspiration from Italian heritage and nature, offering a curated collection of olfactory experiences that evoke emotions and cherished memories. The brand is known for its luxurious, distinctive scents that appeal to connoisseurs of fine fragrances.",https://images.unsplash.com/photo-1556909114-f6e7ad7d3136?w=400&h=300&fit=crop,https://www.ludovicadiloreto.com,Italy,2018,niche,,,,2025-07-18T12:32:10.942225,2025-08-29T07:51:45.524598
cmdeab9a5d12924767b5c4a,Luigi Borrelli,"Luigi Borrelli is a renowned Italian brand best known for its luxury menswear and craftsmanship. Established in Naples, the company initially focused on bespoke tailoring and sartorial excellence. As part of its expansion into the luxury lifestyle sector, Luigi Borrelli introduced a line of fragrances that embody the brand's dedication to quality and Italian elegance. Each fragrance is crafted to reflect the sophistication and tradition inherent to the company, appealing to discerning clientele seeking unique, high-quality scents.",https://s3.amazonaws.com/images.luigiborrelli.com/ec/LB_it.jpg,https://www.luigiborrelli.com,Italy,1924,niche,,,,2025-07-18T12:32:10.942225,2025-08-29T07:51:53.261549
