id,name,description,image,website,country,founded,type,email,phone,address,createdAt,updatedAt
cmdb8ce6e93e5a3f2906467,Beekman 1802,"Beekman 1802 is a lifestyle and personal care brand that specializes in crafting high-quality products using farm-fresh ingredients. Founded by Josh Kilmer-Purcell and Brent Ridge, the company draws inspiration from their life on a farm in upstate New York. They are known for their goat milk-based skincare and beauty products, as well as a range of fragrances, candles, and home goods, emphasizing sustainability and the benefits of natural ingredients. Beekman 1802 has a unique story that intertwines rural living with luxury, allowing them to create a deep connection with their customers through authentic and artisanal offerings.",https://beekman1802.com/cdn/shop/files/beekman-logo_d403c6f2-aec5-4b4e-bdba-4c21daf43566.svg?v=1753218417&width=189,https://www.beekman1802.com,United States,2008,indie,,,"8 Beekman Street, Sharon Springs, NY 13459, United States",2025-07-18T12:32:10.942225,2025-08-28T10:13:20.863555
cmde7b8e19985b60586e556,Beethoven,"Beethoven is a niche fragrance house known for creating high-quality, evocative perfumes inspired by the emotional depth and intricacies of classical music. Founded by a team of perfumers and musicians, the brand seeks to capture the essence of Beethoven's compositions in olfactory form, resulting in unique and artistic scents. Their specialty lies in blending traditional perfumery techniques with a modern aesthetic, appealing to fragrance enthusiasts who appreciate both art and scent.",https://images.unsplash.com/photo-1541643600914-78b084683601?w=400&h=300&fit=crop,www.beethovenfragrances.com,United States,2020,niche,contact@beethovenfragrances.com,,,2025-07-18T12:32:10.942225,2025-08-28T10:13:27.306817
cmd94cb99b76e0ebc043036,Begim,"Begim is a luxury perfume company known for its artisanal approach to fragrance creation, specializing in unique scents that blend traditional methods with contemporary artistic expression. Established by a passionate team of perfumers, the brand strives to elevate the experience of fragrance, creating sophisticated compositions that capture the essence of nature and human emotion. Their story began in the heart of a culturally rich region, where they drew inspiration from local traditions and landscapes, making each fragrance a narrative of its origin.",https://images.unsplash.com/photo-1582735689369-4fe89db7114c?w=400&h=300&fit=crop,www.begimperfume.com,Turkey,2018,niche,contact@begimperfume.com,+90 212 555 1234,"1234 Fragrance Street, Istanbul, Turkey",2025-07-18T12:32:10.942225,2025-08-28T10:13:34.090504
cmda61d72b4e1cd65de7c72,Beiersdorf,,https://images.unsplash.com/photo-1556909114-f6e7ad7d3136?w=400&h=300&fit=crop,https://www.beiersdorf.com,Germany,1882,drugstore,,+49 (0)40 4909 0,,2025-07-18T12:32:10.942225,2025-08-28T10:13:43.243086
cmd7eb6ca63708a1a27e134,Béjar,"Béjar is a niche perfume company known for its artisanal approach to fragrance creation, offering a range of distinctive perfumes that emphasize quality and craftsmanship. The company was founded by perfumer and artist, which reflects a deep passion for scent and artistic expression in perfumes. Their specialty lies in creating unique, evocative scents that tell stories and evoke memories, appealing to connoisseurs of fine fragrances.",https://images.unsplash.com/photo-1556909114-f6e7ad7d3136?w=400&h=300&fit=crop,https://www.bejarparfum.com,France,2015,niche,contact@bejarparfum.com,,,2025-07-18T12:32:10.942225,2025-08-28T10:13:49.428277
cmd4ae9d3ba2b0a108e5e74,Bel Air Beverly Hills,"Bel Air Beverly Hills is a luxury fragrance brand that embodies a lifestyle associated with Hollywood glamour and sophistication. The company is known for creating high-quality perfumes that evoke the essence of the glamorous Beverly Hills lifestyle. Their products are often crafted from premium ingredients and are marketed towards consumers looking for an exclusive olfactory experience. The brand's identity is tied closely to the vibrant culture of Beverly Hills, emphasizing luxury, style, and elegance in each of their scent offerings.",https://images.unsplash.com/photo-15907369626-6c63ac16f3df?w=400&h=300&fit=crop,https://www.belairbeverlyhills.com,United States,1989,designer,,,,2025-07-18T12:32:10.942225,2025-08-28T10:13:55.790041
cmdf3b50e628e985edb39bd,Bel Rebel,"Bel Rebel is a niche perfume company that specializes in creating unique and bold fragrance compositions. Founded by individuals passionate about self-expression and unconventional artistry, Bel Rebel aims to challenge traditional fragrance norms by offering scents that reflect individuality and a rebellious spirit. The company believes in the power of fragrance as a personal narrative and encourages consumers to embrace their distinct identities through scent.",https://www.belrebel.com/cdn/shop/files/logo-03.png?v=1732640300&width=600,www.belrebel.com,United States,2018,niche,contact@belrebel.com,,,2025-07-18T12:32:10.942225,2025-08-28T10:14:02.787859
cmd9e124590212bec0c4cdf,Belae,"Belae is a boutique perfume company that specializes in creating artisanal fragrances that emphasize unique natural ingredients and sustainability. Founded with the vision of blending traditional perfumery techniques with contemporary artistry, Belae aims to offer customers a sophisticated selection of scents that evoke emotions and experiences. Their commitment to eco-friendly practices and their dedication to small-batch production sets them apart in the niche fragrance market.",https://images.unsplash.com/photo-1587017539504-67cfbddac569?w=400&h=300&fit=crop,www.belaefragrances.com,United States,2021,niche,info@belaefragrances.com,,,2025-07-18T12:32:10.942225,2025-08-28T10:14:09.405499
cmdb8c40e15d22c271eb2d8,Belcorp,"Belcorp is a prominent beauty and personal care company that specializes in skin care, cosmetics, and fragrances. Established in Peru in 1979, Belcorp focuses on enhancing women's lives and empowering them through beauty products that cater to diverse needs and preferences. With several distinct brands including L'Bel, Élvive, and Cyzone, Belcorp has created a strong foothold in the Latin American market, emphasizing quality and innovation. The company champions a direct sales model, allowing beauty consultants to build personal relationships with customers.",https://www.belcorp.biz/assets/uploads/2020/08/logo_lbel_2020.svg,https://www.belcorp.biz,Peru,1979,indie,,,,2025-07-18T12:32:10.942225,2025-08-28T10:14:17.157635
cmdb7825324e2bea529987d,Belinda Brown,"Belinda Brown is a niche perfume company known for its artisanal approach to fragrance creation. Founded by Belinda Brown, the company emphasizes the use of high-quality, natural ingredients sourced from around the world. They focus on small-batch production, allowing for unique and personalized scents that often reflect the founder's travels and encounters. The brand is dedicated to sustainability and ethical practices, often collaborating with artisans to create limited edition collections.",https://images.unsplash.com/photo-1582735689369-4fe89db7114c?w=400&h=300&fit=crop,www.belindabrownfragrances.com,United States,2018,niche,contact@belindabrownfragrances.com,,,2025-07-18T12:32:10.942225,2025-08-28T10:14:23.640981
cmdc021b59babdd827df763,Bell Pharmacy,"Bell Pharmacy is primarily recognized as a retail pharmacy that also offers a selection of personal care products, including perfumes. Established to serve the local community's health and wellness needs, they focus on delivering quality service and a variety of products that cater to individual customer preferences. Their involvement in the fragrance market allows them to provide a curated selection of both popular and unique scents, emphasizing customer experience and satisfaction.",https://images.unsplash.com/photo-1587017539504-67cfbddac569?w=400&h=300&fit=crop,,United States,,drugstore,,,,2025-07-18T12:32:10.942225,2025-08-28T10:14:30.006614
cmdd679f420764b73d88ec9,Bella Aura,"Bella Aura is a niche perfume company known for its luxurious and high-quality fragrances inspired by natural elements. The brand emphasizes holistic beauty, combining the art of fragrance with skincare practices. Bella Aura emphasizes sustainability and natural ingredients in their product formulations, providing a unique experience that reflects the beauty of nature. Their story centers around the belief that fragrances can enhance one's emotional well-being, and the brand aims to create scents that resonate on a personal level.",https://bellaaura.com/cdn/shop/files/21_2b8e5c81-70bc-49a2-9d22-61f133ae7494.png?v=1754408616&width=2000,www.bellaaura.com,Canada,2018,niche,,,,2025-07-18T12:32:10.942225,2025-08-28T10:14:37.409633
cmd4a49423f266a2e48a6e7,Bella Bellissima,"Bella Bellissima is a niche perfume company known for crafting unique and high-quality fragrances that embody elegance and sophistication. The brand focuses on creating artisanal perfumes using the finest raw materials, often characterized by bold and distinctive scent profiles. Their story began with a passion for perfumery, aiming to provide luxury fragrances that evoke emotions and memories. Additionally, Bella Bellissima collaborates with skilled perfumers to ensure that each fragrance is a work of art that resonates with a select audience.",https://www.bellabellissima.com/cdn/shop/files/Bella_Bellissima_Logo_Vector_File_copy_PNG_9116e13d-f93b-4ca2-9657-ca2b0e147f8d_200x.png?v=1613706265,www.bellabellissima.com,United States,2016,niche,contact@bellabellissima.com,,,2025-07-18T12:32:10.942225,2025-08-28T10:14:44.398619
cmd11a967a6050baa681239,Bella Freud,"Bella Freud is a British fashion and fragrance brand known for its eclectic and artistic approach to design. Founded by designer Bella Freud, the company has carved a niche in the perfume market by offering unique and characterful scents that often reflect the artistic inspirations of Freud's family heritage. Their fragrances typically blend artistic creativity with an effortless elegance, appealing to those seeking distinctive perfumes that tell a story. The brand's ethos revolves around individualism and self-expression, allowing wearers to convey their personality through scent. Bella Freud has gained popularity not only for its signature fragrances but also for its innovative storytelling in product design and branding.",https://bellafreud.com/cdn/shop/files/category_pics_0004_9x6_-_SS25_DROP_2_-_DOG5.jpg?v=1742721345&width=100,https://www.bellafreud.com,United Kingdom,2012,niche,,,,2025-07-18T12:32:10.942225,2025-08-28T10:14:51.684411
cmda28c3c2e5916c66be9e3,Bella Perversa,"Bella Perversa is a niche perfume company that specializes in creating high-quality, bold fragrances inspired by art, literature, and the essence of human emotions. The company prides itself on its artistic approach to perfumery, often incorporating unusual ingredients and innovative blending techniques to create unique scent profiles. Founded by a group of passionate creatives, Bella Perversa aims to push the boundaries of traditional perfumery and offer scents that resonate on a deeper emotional level.",https://bellaperversa.com/cdn/shop/files/BPlogoblack.png?v=1740433715&width=600,www.bellaperversa.com,United States,2017,niche,contact@bellaperversa.com,,,2025-07-18T12:32:10.942225,2025-08-28T10:14:58.492944
cmd6ea24fe4dffd86cdc72f,Bellekin,"Bellekin is a contemporary perfume brand that focuses on creating unique and artisanal fragrances. Established with a vision to merge traditional perfumery with modern sensibilities, Bellekin emphasizes the use of high-quality natural ingredients and innovative scent compositions. The company prides itself on crafting perfumes that tell a story and evoke emotions, appealing to a niche market of fragrance enthusiasts.",https://bellekin.com/cdn/shop/files/q_logo.png?v=1697290035&width=300,www.bellekin.com,United States,2018,niche,contact@bellekin.com,,"123 Fragrance Avenue, Los Angeles, CA 90001",2025-07-18T12:32:10.942225,2025-08-28T10:15:06.425244
cmd628e72a89246e9e97516,Bellevue Parfums,"Bellevue Parfums is a niche perfume house known for its artisanal approach to fragrance creation. Founded by a group of passionate fragrance enthusiasts, the company focuses on crafting unique and sophisticated scents that capture the essence of elegance and style. Bellevue Parfums is committed to sustainable sourcing, using high-quality ingredients, and blending traditional perfumery techniques with modern inspirations. The brand aims to evoke emotions and memories through its meticulously designed fragrance collections.",https://bellevueparfums.com/wp-content/uploads/2022/04/Bellevue_black_logo-removebg-preview.png,https://www.bellevueparfums.com,France,2018,niche,contact@bellevueparfums.com,,,2025-07-18T12:32:10.942225,2025-08-28T10:15:14.570283
cmd3238e7842da6c9208772,Bellyflowers,"Bellyflowers is a niche perfume company that specializes in crafting unique and artisanal fragrances inspired by nature and floral elements. They pride themselves on using high-quality natural ingredients and sustainable practices in their production. The company has a passionate approach toward fragrance creation, aiming to evoke emotions and memories through their scents. Bellyflowers has established itself in the market as an innovative brand, appealing to customers who seek individuality and exclusivity in their perfume choices.",https://images.unsplash.com/photo-1556909114-f6e7ad7d3136?w=400&h=300&fit=crop,www.bellyflowers.com,United States,2015,niche,info@bellyflowers.com,,,2025-07-18T12:32:10.942225,2025-08-28T10:15:21.464295
cmd2aef3769dc593af12f20,Belmay,"Belmay is a fragrance company known for its innovative and diverse range of perfumes. The company has a reputation for creating high-quality scents that cater to a wide variety of preferences, blending both traditional and modern fragrance notes. Founded with a vision to offer unique olfactory experiences, Belmay has carved a niche in the industry by appealing to both everyday consumers and fragrance enthusiasts alike. Their specialties include bespoke fragrance solutions, collaborations with various brands, and a commitment to sustainable practices in fragrance creation.",https://images.unsplash.com/photo-1556909114-f6e7ad7d3136?w=400&h=300&fit=crop,www.belmay.com,United States,1986,indie,,,,2025-07-18T12:32:10.942225,2025-08-28T10:15:28.121235
cmd7a9ca8d3b78ca320c8f5,Belnu,,https://belnu.com/cdn/shop/t/39/assets/logo.svg?v=30138357474069398991744299471,www.belnu.com,United States,2021,niche,contact@belnu.com,,,2025-07-18T12:32:10.942225,2025-08-28T10:15:35.001401
cmdb0404961befd74affbd8,Belsans,"Belsans is a niche perfume company that specializes in luxurious and artisanal fragrances, offering a unique olfactory experience. Founded by perfumers with a passion for creating sophisticated scents, Belsans focuses on quality ingredients and craftsmanship, resulting in exclusive perfumes that cater to discerning customers. The brand's story is rooted in a commitment to individuality and the art of perfumery, making it stand out in the competitive fragrance market.",https://images.unsplash.com/photo-1582735689369-4fe89db7114c?w=400&h=300&fit=crop,,,,niche,,,,2025-07-18T12:32:10.942225,2025-08-28T10:15:41.874376
cmdae343c974f05b046af4d,Ben Rickert Benandre,"Ben Rickert Benandre is a niche perfume house known for its artisanal and handcrafted fragrances. The company was established with a focus on creating unique scents that tell stories and evoke emotions. Each fragrance is carefully crafted using high-quality ingredients sourced from around the world, often inspired by nature and personal experiences. The brand emphasizes individuality and creativity, appealing to discerning customers who appreciate exclusive and bespoke perfumes.",https://images.unsplash.com/photo-1582735689369-4fe89db7114c?w=400&h=300&fit=crop,,,,niche,,,,2025-07-18T12:32:10.942225,2025-08-28T10:15:48.828403
cmd43595014da56ca76e82c,Ben Sherman,"Ben Sherman is a British clothing and fragrance brand established in 1963, known for its classic and contemporary menswear, and has since expanded into lifestyle products, including a range of fragrances. The brand encapsulates a smart-casual style with influences from music and subcultures, prominently featuring elements of British heritage. Its perfumes are aimed at a modern and stylish audience, with a focus on quality ingredients and innovative scents that reflect the brand's overall identity.",https://cdn11.bigcommerce.com/s-x2zs6naily/content/img/logo-blue.svg,https://www.bensherman.com,United Kingdom,1963,designer,,,,2025-07-18T12:32:10.942225,2025-08-28T10:15:55.811315
cmd1fba7dbe433ee472e1cc,Benamôr,"Benamôr is a Portuguese perfume and cosmetics company that specializes in creating luxurious beauty products. Established in Lisbon in 1925, the company is known for its traditional craftsmanship and high-quality ingredients, often drawing inspiration from Portuguese culture and history. Their product range includes perfumes, creams, and other skincare items, with a focus on delivering artisanal and elegant formulations packaged in beautifully designed containers that reflect their heritage.",https://images.unsplash.com/photo-1541643600914-78b084683601?w=400&h=300&fit=crop,https://www.benamor.com,Portugal,1925,indie,,,,2025-07-18T12:32:10.942225,2025-08-28T10:16:02.745390
cmd828a3633be2ddbde6956,Bench.,"Bench is a UK-based clothing and lifestyle brand that also offers a range of fragrances. Established in the early 1990s, Bench has built a reputation for its urban streetwear styles and has expanded its product line to include perfumes that reflect the youthful and vibrant ethos of the brand. The fragrances are aimed at a young, dynamic audience, combining contemporary scents with playful and energetic marketing, making them an appealing choice for those seeking lifestyle products that fit their personal style.",https://bench.co.uk/cdn/shop/files/Bench_logo_ee3b5b63-bc9b-40f1-a9ac-cf85f326a2b8.png?v=1644315381&width=300,https://www.bench.co.uk,United Kingdom,1989,designer,,,,2025-07-18T12:32:10.942225,2025-08-28T10:16:11.173069
cmd15b275c53b756a9e07c6,Benckiser,"Benckiser, now part of Reckitt Benckiser Group Plc, has a strong history in the consumer goods market, particularly in hygiene, health, and home care products. The company originated from the merger of the Dutch company Reckitt & Colman and the German company Benckiser in 1999. Although primarily known for its household and personal care products, Benckiser also has a range of fragrances primarily under its brands in the broader market, making it an important player in perfumery with distinctive scent offerings.",https://www.reckitt.com/assets/wwbhjej5/headerlogo.svg,https://www.reckitt.com,United Kingdom,1823,drugstore,,,"103-105 Bath Road, Slough, Berkshire, SL1 3UH, United Kingdom",2025-07-18T12:32:10.942225,2025-08-28T10:16:18.547841
cmd0d0484e893c85b44647e,Benefit,"Benefit Cosmetics is a cosmetics brand that is well-known for its innovative products and fun packaging. Founded in 1976 by sisters Jean and Jane Ford, the company initially began as a small beauty boutique in San Francisco. Over the years, Benefit has built a reputation for its playful approach to beauty and its focus on creating products that enhance natural features rather than masking them. The brand specializes in a range of products including skincare, makeup, and fragrances, with a strong emphasis on cheek and brow cosmetics. They aim to provide customers with solutions to beauty dilemmas and promote a lighthearted attitude towards makeup.",https://images.unsplash.com/photo-1541643600914-78b084683601?w=400&h=300&fit=crop,https://www.benefitcosmetics.com,United States,1976,designer,,,,2025-07-18T12:32:10.942225,2025-08-28T10:16:25.841219
cmd9283f476a1239c414d06,Benetton,"Benetton is a global fashion brand known for its vibrant colors and controversial advertising campaigns. Founded in 1965 by the Benetton family, the company initially made its mark in the textile industry, and later expanded into fragrances, consistently focusing on themes of inclusivity, diversity, and social issues in its marketing. Benetton’s specialty lies in creating affordable yet stylish clothing alongside a range of fragrances that embody the brand's youthful and energetic spirit.",https://us.benetton.com/on/demandware.static/-/Library-Sites-BenettonSharedLibrary/default/dw27cfc076/01-REDESIGN/LANDING/SALESS25/SS2025-menu-card-EN-UPTO60.jpg,https://www.benetton.com,Italy,1965,designer,,,,2025-07-18T12:32:10.942225,2025-08-28T10:16:37.407208
cmdaf17e71bb59076326881,Benigna Parfums,"Benigna Parfums is a niche perfume company that focuses on creating artisanal fragrances inspired by nature and emotional experiences. Founded by a passionate perfumer, the brand emphasizes the use of high-quality ingredients and sustainable practices in its production process, aiming to craft unique scents that resonate with individuals on a personal level. The company prides itself on its ability to blend traditional methods with contemporary aesthetics, catering to a sophisticated clientele seeking personalized fragrance experiences.",https://images.unsplash.com/photo-1587017539504-67cfbddac569?w=400&h=300&fit=crop,,,,niche,,,,2025-07-18T12:32:10.942225,2025-08-28T10:16:46.412543
cmde15c633eccbc62a3ba76,Benjamin Ansehl,"Benjamin Ansehl is a niche perfume company known for its artisanal fragrances that emphasize personal expression and individuality. Founded by perfumer Benjamin Ansehl, the company focuses on crafting high-quality, unique scents that often draw inspiration from personal experiences and memories. The brand is dedicated to sustainable practices and utilizes carefully sourced ingredients, positioning itself within the luxury segment of the fragrance market.",https://images.unsplash.com/photo-1582735689369-4fe89db7114c?w=400&h=300&fit=crop,https://benjaminansehl.com,United States,2016,niche,contact@benjaminansehl.com,,,2025-07-18T12:32:10.942225,2025-08-28T10:16:52.544846
cmd69fab7c9fa376eef3aa3,Benoît,"Benoît is a luxury perfume house known for creating unique, handcrafted fragrances that focus on using high-quality raw materials. Founded by master perfumer Benoît, the company specializes in developing artisanal scents that embody sophistication and elegance. Each fragrance tells a story and reflects a particular mood or emotion, setting Benoît apart in the competitive perfume industry. The company emphasizes artisanal methods and has gained a loyal following for its limited-edition releases and bespoke perfume creations.",https://images.unsplash.com/photo-1587017539504-67cfbddac569?w=400&h=300&fit=crop,www.benoitparfums.com,France,2015,niche,contact@benoitparfums.com,,,2025-07-18T12:32:10.942225,2025-08-28T10:16:59.342356
cmd32f4668202a94dab3cee,Bensimon,"Bensimon is a French company primarily known for its contributions to fashion and lifestyle products, including a line of perfumes. Established in the early 1980s by the Bensimon brothers, the brand has carved a niche for itself with its unique blend of elegance and casual style. Bensimon offers a mix of ready-to-wear clothing, accessories, and fragrances, with a focus on artistic and original designs that celebrate a relaxed Parisian aesthetic. The perfumes reflect this philosophy, often designed to evoke memories and emotions through carefully crafted scent compositions.",https://www.bensimon.com/img/uploads/pushs/img_boutique/BENSIMON/1/visuel_boutique_12_1.1754410175.jpg,https://www.bensimon.com,France,1982,indie,,,,2025-07-18T12:32:10.942225,2025-08-28T10:17:06.884581
cmd9c0534938062ad871b72,Benson & Hedges,"Benson & Hedges is primarily known as a brand of cigarettes, but they have also ventured into the fragrance industry by offering a line of perfumes that embody the luxury lifestyle associated with the brand. Established as a British tobacco company in 1873, they initially focused on high-quality tobacco products but later expanded their offerings. The perfume line aims to capture the essence of sophistication and elegance, mirroring the brand’s heritage.",https://images.unsplash.com/photo-1541643600914-78b084683601?w=400&h=300&fit=crop,,United Kingdom,1873,drugstore,,,,2025-07-18T12:32:10.942225,2025-08-28T10:17:12.765651
cmd886fd245c71dd4a83be0,Benta Berry,"Benta Berry is a fragrance company that focuses on creating unique and luxurious scents, often inspired by culture, nature, and the diverse experiences of life. The brand is known for its commitment to quality and craftsmanship, combining traditional perfumery techniques with modern innovations to produce distinctive fragrances. Benta Berry aims to capture the essence of joy and celebration, making their scents suitable for both everyday wear and special occasions.",https://images.unsplash.com/photo-1587017539504-67cfbddac569?w=400&h=300&fit=crop,https://www.bentaberry.com,United States,2015,indie,,,,2025-07-18T12:32:10.942225,2025-08-28T10:17:18.944734
cmd2c7559d4d9943cef5c3c,Bentley,"Bentley is a luxury brand known primarily for its high-performance automobiles, but it has also made a significant mark in the fragrance industry. The Bentley fragrance line embodies the same principles of craftsmanship, luxury, and sophistication that are synonymous with the automobile brand. Their perfumes are designed with a unique blend of ingredients, often combining traditional and modern scents to appeal to discerning customers. Bentley fragrances aim to reflect a lifestyle of elegance, adventure, and opulence, often marketed towards automotive enthusiasts and luxury consumers.",https://images.unsplash.com/photo-15907369626-6c63ac16f3df?w=400&h=300&fit=crop,https://www.bentleymotors.com/en/world-of-bentley/bentley-fragrance.html,United Kingdom,2013,designer,,,,2025-07-18T12:32:10.942225,2025-08-28T10:17:27.945439
cmdcf04487d01b84fa6836e,Berani,"Berani is a niche perfume company that specializes in creating artisanal fragrances inspired by nature and cultural experiences. The brand is known for its commitment to quality ingredients and unique scent compositions, often drawing from diverse elements to encapsulate various emotions and stories. Berani aims to deliver an olfactory journey through its carefully crafted perfumes, appealing to individuals seeking distinctive, personally resonant fragrances. Their ethos centers around the belief that fragrance is a powerful form of self-expression.",https://images.unsplash.com/photo-1541643600914-78b084683601?w=400&h=300&fit=crop,www.beraniperfume.com,United States,2018,niche,info@beraniperfume.com,,"123 Aroma Street, Fragrance City, CA 90210, USA",2025-07-18T12:32:10.942225,2025-08-28T10:17:34.219227
cmdc6283210e78125433b8e,Berceuse Parfum,"Berceuse Parfum is a niche perfume company that specializes in creating high-quality, artisanal fragrances. The brand is known for its unique olfactory compositions that evoke emotions and memories, often drawing inspiration from various cultural elements and traditions. Founded by a perfumer with a deep passion for craftsmanship, Berceuse Parfum emphasizes natural ingredients and meticulous blending processes. The company aims to provide a personalized fragrance experience that resonates with individual needs and preferences.",https://images.unsplash.com/photo-1587017539504-67cfbddac569?w=400&h=300&fit=crop,www.berceuseparfum.com,France,2020,niche,contact@berceuseparfum.com,,,2025-07-18T12:32:10.942225,2025-08-28T10:17:40.616578
cmda297c8754e0a1933dbac,Berdoues,"Berdoues is a French perfume house that specializes in creating elegant and unique fragrances inspired by the art of perfumery. Established in 1902, the company has a rich history of craftsmanship and a commitment to quality, offering a range of fragrances that reflect the diversity of nature and culture. Berdoues is known for its freshness and use of high-quality natural ingredients, evoking the essence of destinations around the world. Their signature collections include both classic and contemporary perfumes, appealing to discerning customers who appreciate artisanal perfumery.",https://berdoues.com/cdn/shop/files/LOGO-BERDOUES.png?v=1614299264&width=200,https://www.berdoues.com,France,1902,niche,,,,2025-07-18T12:32:10.942225,2025-08-28T10:17:48.171560
cmdc425e9c34cc7a2422ef0,Bergdorf Goodman,"Bergdorf Goodman is a luxury department store located on Fifth Avenue in New York City, known for its upscale fashion offerings including a wide array of designer perfumes. With a rich history dating back to 1899, the store is a symbol of high-end retail, providing exclusive brands and niche fragrances that appeal to affluent consumers. As a destination for luxury shopping, Bergdorf Goodman specializes in curating unique and hard-to-find scents that often reflect the latest trends in the perfume industry.",https://images.unsplash.com/photo-1582735689369-4fe89db7114c?w=400&h=300&fit=crop,https://www.bergdorfgoodman.com,United States,1899,designer,,(212) 753-7300,"754 Fifth Avenue, New York, NY 10019, United States",2025-07-18T12:32:10.942225,2025-08-28T10:17:54.523300
cmda0463a006bf6a9def58f,Bergduft,"Bergduft is a niche perfume company that specializes in crafting unique, high-quality fragrances inspired by the beauty and diversity of the natural world. Established with a passion for olfactory art, Bergduft combines traditional perfumery techniques with modern sensibilities to create distinctive scent experiences. Their offerings often reflect personal stories and emotional connections to nature, designed to resonate with individuals who appreciate the subtleties and complexities of fine fragrances.",https://bergduft.com/wp-content/uploads/2021/06/logo_bergduft_mit_emblem-1.png?w=268,https://www.bergduft.com,Germany,,niche,,,,2025-07-18T12:32:10.942225,2025-08-28T10:18:01.060580
cmdef98259393e188cef6e6,Bergner Parfum,"Bergner Parfum is a perfume company known for creating a wide range of fragrances that cater to diverse tastes and preferences. The company specializes in producing high-quality scents that are both elegant and accessible, often focusing on unique blends that evoke different themes and moods. Bergner Parfum has established a reputation for its creative approach to fragrance development, often utilizing innovative ingredients and sustainable practices in their formulations. As a brand, they aim to capture the essence of modern life through their olfactory creations.",https://images.unsplash.com/photo-15907369626-6c63ac16f3df?w=400&h=300&fit=crop,https://www.bergnerparfum.com,Austria,1998,niche,,,,2025-07-18T12:32:10.942225,2025-08-28T10:18:07.931200
cmdb29c2bc42dc25ae406a8,Berkeley Square,"Berkeley Square is a niche perfume house founded in London. The company prides itself on its artisanal approach to fragrance, creating unique, high-quality perfumes that embody the spirit and history of its namesake square in Mayfair. The brand focuses on crafting exclusive scents using traditional techniques, often inspired by British heritage and culture. Berkeley Square aims to appeal to those seeking distinctive and luxurious fragrances that tell a story.",https://images.unsplash.com/photo-15907369626-6c63ac16f3df?w=400&h=300&fit=crop,https://berkeleysquareperfume.com,United Kingdom,2010,niche,,,,2025-07-18T12:32:10.942225,2025-08-28T10:18:14.421076
cmd7cc682b622aa730eda97,Berlin Cosmetics,"Berlin Cosmetics is a contemporary perfume company that specializes in creating innovative and eclectic fragrances inspired by the vibrant culture and lifestyle of Berlin. The company aims to capture unique olfactory experiences reflective of the city’s artistic scene and urban atmosphere. Established with a focus on high-quality ingredients and authenticity, Berlin Cosmetics offers a range of artisanal perfumes that appeal to both local and international markets.",https://images.unsplash.com/photo-1541643600914-78b084683601?w=400&h=300&fit=crop,http://www.berlincosmetics.com,Germany,2015,niche,contact@berlincosmetics.com,,,2025-07-18T12:32:10.942225,2025-08-28T10:18:21.916619
cmd22b8ba337ea36350c321,Bernard Loiseau,"Bernard Loiseau is a fragrance company that draws inspiration from the rich culinary heritage of its namesake, renowned French chef Bernard Loiseau. The brand focuses on creating high-quality, artisanal perfumes that reflect the essence of French elegance and precision. Their offerings often feature unique blends inspired by natural elements, cuisine, and the intricate balance of flavors and scents, embodying the artistry in both cooking and perfumery. The brand prides itself on meticulous craftsmanship and exclusivity, targeting a niche market of fragrance enthusiasts who appreciate sophistication and depth in scent composition.",https://images.unsplash.com/photo-15907369626-6c63ac16f3df?w=400&h=300&fit=crop,,France,,niche,,,,2025-07-18T12:32:10.942225,2025-08-28T10:18:28.355328
cmd76922a8be39b065908d5,Bernard Tapie,"Bernard Tapie is a French entrepreneur, businessman, and politician known primarily for his ventures in various industries including sports, media, and perfumes. He gained fame in the 1980s through his dynamic approach to business and was known for investing in and revitalizing struggling companies. The perfume line associated with Bernard Tapie reflects his charismatic personality and often features bold, unique fragrances aimed at capturing attention.",https://images.unsplash.com/photo-1587017539504-67cfbddac569?w=400&h=300&fit=crop,,France,,niche,,,,2025-07-18T12:32:10.942225,2025-08-28T10:18:34.650376
cmd33f0083d9ef0f1469bed,Bernini,"Bernini is a luxury perfume brand known for its exclusive and artisanal approach to fragrance creation. The company focuses on crafting high-quality, unique scents that blend traditional techniques with modern innovation. Bernini prides itself on sourcing premium raw materials from around the world, resulting in elegant and timeless perfumes. The brand creates an emotional connection through scent, drawing inspiration from art, culture, and nature, making them a unique player in the perfume industry.",https://www.bernini.com/cdn/shop/files/E3D1A960-015F-4491-9C12-AA96B1737428_210x.png?v=1750225137,www.bernini.com,Italy,2015,niche,,,,2025-07-18T12:32:10.942225,2025-08-28T10:18:41.558532
cmd3eb9f7182b9f591c8718,Bershka,"Bershka is a fashion retail company known for its trendy and affordable clothing, accessories, and fragrances targeted primarily at a young audience. Launched in 1998, the brand is part of the Spanish Inditex Group, which includes other well-known fashion retailers like Zara and Massimo Dutti. Bershka offers a wide range of products, including a dedicated line of personal care items and perfumes that align with contemporary fashion trends, promoting a youthful lifestyle.",https://images.unsplash.com/photo-1587017539504-67cfbddac569?w=400&h=300&fit=crop,https://www.bershka.com,Spain,1998,designer,,,,2025-07-18T12:32:10.942225,2025-08-28T10:18:49.044549
cmde09564e037de0d35c345,Bertelli & Co,"Bertelli & Co is a boutique perfume house known for crafting high-quality, artisanal fragrances that blend classic techniques with modern inspirations. Founded by a visionary perfumer with a passion for the art of scent creation, the company focuses on utilizing rare and exotic ingredients sourced from around the world. Their collections are characterized by unique and memorable compositions that tell stories through fragrance, appealing to connoisseurs and those seeking a distinct olfactory experience.",https://images.unsplash.com/photo-1587017539504-67cfbddac569?w=400&h=300&fit=crop,www.bertelliandco.com,Italy,2010,niche,info@bertelliandco.com,,"Via delle Scenti 123, Florence, Italy",2025-07-18T12:32:10.942225,2025-08-28T10:18:55.513626
cmd746864ba7129102f73d6,Bésame,"Bésame Cosmetics is a company that specializes in vintage-inspired beauty products, including perfumes. Founded by Gabriela Hernandez in 2004, the brand draws its inspiration from the glamour and elegance of the 1920s to 1960s, aiming to empower individuals through retro aesthetics. Bésame offers a range of high-quality fragrances, alongside makeup and beauty products that capture the essence of classic Hollywood. Their perfumes are crafted with a focus on artistry and nostalgia, providing consumers with unique scents that tell a story.",https://besamecosmetics.com/cdn/shop/files/besame_logo.png?v=1685714267&width=200,https://www.besamecosmetics.com,United States,2004,indie,,,,2025-07-18T12:32:10.942225,2025-08-28T10:19:03.185870
cmd39c2c3a0c8b4c9717762,Beso Beach,"Beso Beach is a perfumery that captures the essence of sun-soaked beaches and artisanal craftsmanship. The brand draws inspiration from the Mediterranean lifestyle, aiming to evoke feelings of warmth, relaxation, and enjoyment through their unique fragrances. Beso Beach prides itself on the use of high-quality ingredients, often reflecting a blend of natural and exotic elements to create memorable scents that transport consumers to their idyllic, beachside roots. The company is best known for its commitment to sustainability and eco-friendly practices, ensuring that their perfumes not only captivate the senses but also respect the environment.",https://images.unsplash.com/photo-1556909114-f6e7ad7d3136?w=400&h=300&fit=crop,https://www.besobeach.com,Spain,2015,niche,,,,2025-07-18T12:32:10.942225,2025-08-28T10:19:10.639069
cmd2f15c90e039c7c12f3d7,Bespoke London,"Bespoke London is a luxury perfume company specializing in creating unique, personalized fragrances for individuals. Founded by fragrance experts who believe that scent is an extension of personal identity, they focus on crafting bespoke perfumes tailored to the preferences and lifestyles of their clients. The company emphasizes artisanal methods and high-quality ingredients sourced from around the world, ensuring an exceptional sensory experience.",https://images.unsplash.com/photo-1556909114-f6e7ad7d3136?w=400&h=300&fit=crop,https://www.bespokelondon.com,United Kingdom,2018,niche,,,,2025-07-18T12:32:10.942225,2025-08-28T10:19:17.658112
cmda7c7159b53af85459cb5,Best Company,"Best Company is known for its innovative approach to perfumery, offering a diverse range of fragrances that cater to various preferences. Founded by a group of passionate fragrance enthusiasts, Best Company aims to create unique scent experiences that evoke emotions and memories. The company specializes in using high-quality ingredients derived from sustainable sources, focusing on both traditional and modern scent profiles. Their products are marketed primarily through both brick-and-mortar retail outlets and a robust online platform, appealing to consumers looking for exclusive and memorable fragrances.",https://images.unsplash.com/photo-15907369626-6c63ac16f3df?w=400&h=300&fit=crop,www.bestcompanyfragrance.com,United States,2010,niche,contact@bestcompanyfragrance.com,,"123 Scent Lane, Fragrance City, CA 90001",2025-07-18T12:32:10.942225,2025-08-28T10:19:24.767466
cmd355a8da8dec19a075085,Beth Terry Creative Universe,"Beth Terry Creative Universe is a creative fragrance branding and design studio that specializes in developing unique and personalized scent experiences for individuals and businesses. The company focuses on the artistry behind perfume creation, blending high-quality ingredients to craft signature fragrances that reflect the identity and vision of their clients. Their approach is deeply rooted in understanding the emotional and sensory connection that scents create, making them a favorite among niche brands looking for bespoke fragrance solutions.",https://images.unsplash.com/photo-15907369626-6c63ac16f3df?w=400&h=300&fit=crop,,United States,,indie,,,,2025-07-18T12:32:10.942225,2025-08-28T10:19:31.777405
cmd3bfff30ecf1c77e0cf54,Bethany Hamilton,"Bethany Hamilton is a well-known celebrity and professional surfer who has leveraged her fame to create a line of personal fragrance products. The brand embodies her adventurous and resilient spirit, focusing primarily on fragrances that resonate with her lifestyle and unique persona. The company emphasizes natural and uplifting scents, appealing to those who admire Hamilton's story of overcoming challenges.",https://www.bethanyhamilton.com/media/pages/home/731caaf264-1725943747/award-logo-1.png,www.bethanyhamilton.com,United States,2019,celebrity,,,,2025-07-18T12:32:10.942225,2025-08-28T10:19:39.989289
cmd926facafdf255c59392e,Bethany Mota,"Bethany Mota is a celebrity perfume brand that emerged from the popularity of social media influencer Bethany Mota, known for her lifestyle and beauty content. The brand focuses on capturing the essence of youthful vibrancy and modern femininity through its fragrance offerings. Mota created her perfume line to connect with her audience on a more personal level, blending her passion for beauty with her entrepreneurial spirit. The fragrances often feature whimsical and sweet notes, appealing to her fanbase and young consumers.",https://images.unsplash.com/photo-1556909114-f6e7ad7d3136?w=400&h=300&fit=crop,https://www.bethanymota.com,United States,2014,celebrity,,,,2025-07-18T12:32:10.942225,2025-08-28T10:19:46.101497
cmd9abccc39fd500117f5eb,Betrix,"Betrix is a perfume company known for its unique fragrance offerings that blend traditional and modern scent profiles. They focus on creating artisanal perfumes that highlight the artistry of perfumery. Established in the early 2000s, the brand quickly gained attention for its commitment to high-quality ingredients and meticulous craftsmanship, carving out a niche in the competitive fragrance market. Betrix specializes in creating limited-edition scents that capture specific themes or inspirations, appealing to fragrance collectors and enthusiasts alike.",https://images.unsplash.com/photo-15907369626-6c63ac16f3df?w=400&h=300&fit=crop,www.betrixperfumes.com,United States,2005,niche,contact@betrixperfumes.com,,"123 Fragrance Blvd, Suite 100, New York, NY 10001",2025-07-18T12:32:10.942225,2025-08-28T10:19:52.902259
cmd7625456e91dca0a27db1,Betsey Johnson,"Betsey Johnson is a renowned American fashion designer known for her quirky, vivacious style and bold use of colors. Established in 1969, the company has expanded its brand to include fragrances that reflect its playful and whimsical essence. Each perfume is designed to embody the spirit of self-expression and unique personality that Betsey Johnson champions in her fashion creations. The brand's products often feature fun, feminine packaging and are targeted toward a youthful, fashion-forward audience.",https://images.contentstack.io/v3/assets/blta2a058c4a854b514/blt856e26a7e5741a48/67c782cd87966ddebf996ea5/BJ_Logo_Horizontal_Black_01.png?quality=80&auto=webp&width=200,https://betseyjohnson.com,United States,1969,designer,,,,2025-07-18T12:32:10.942225,2025-08-28T10:20:01.436928
cmd2b163e0522fc10a95020,Better World Fragrance House,"Better World Fragrance House is a fragrance company specializing in creating high-quality, cruelty-free perfumes that cater to a broad audience. Founded by renowned influencer and entrepreneur Kendra Sunderland, the brand emphasizes sustainability and ethical practices in the production of its scents. Their fragrances are designed to evoke emotion and memories while being eco-conscious, targeting consumers who value both quality and a commitment to the planet.",https://images.unsplash.com/photo-1587017539504-67cfbddac569?w=400&h=300&fit=crop,https://betterworldfragrancehouse.com,United States,2020,indie,,,,2025-07-18T12:32:10.942225,2025-08-28T10:20:08.083646
cmdef92c38202a18b76d011,Bettina Barty,"Bettina Barty is a European fragrance brand known for its diverse range of perfumes, body care, and beauty products. The company emphasizes the creation of luxurious scents that are both sophisticated and accessible. It aims to cater to a wide audience by offering high-quality fragrances at competitive prices, making them widely available in drugstores and other retail outlets. Bettina Barty emphasizes a balance between quality ingredients and innovative marketing strategies to maintain a strong presence in the perfume industry.",https://bettina-barty.de/cdn/shop/files/Bettina-Barty_schwarz_3456165e-bdbc-47b0-ac01-b6cea4fb3937_200x.jpg?v=1725286249,https://www.bettinabarty.com,Germany,1984,drugstore,,,,2025-07-18T12:32:10.942225,2025-08-28T10:20:15.904666
cmd89bc1b7d544020f558e4,Betty Barclay,"Betty Barclay is a renowned fashion and lifestyle brand that specializes in women's apparel, accessories, and fragrances. The company was established in 1923 in Germany and has built a strong presence in the global market. Known for its sophisticated style and quality craftsmanship, Betty Barclay offers a range of products that reflect modern femininity. The fragrance line, launched in the 1980s, complements the brand's fashion offerings and is characterized by elegant and contemporary scents aimed at fashionable women.",https://assets.bettybarclay.com/media/image/e2/04/c0/flyout-bb02c.webp,https://www.bettybarclay.com,Germany,1923,designer,,,,2025-07-18T12:32:10.942225,2025-08-28T10:20:24.474825
cmdac30f35d4d6368787fa7,Betty Boop,"Betty Boop is a well-known character created by Max Fleischer in the 1930s, and she has since become a cultural icon. The company produces a variety of licensed products, including a line of celebrity perfumes that capture the playful and flirty essence of the character. The fragrances are often marketed towards younger audiences who appreciate pop culture memorabilia and nostalgia. Betty Boop perfumes often feature unique and whimsical packaging that reflects the character's charm and style.",https://www.bettyboop.com/uploads/1/7/4/1/17419695/published/logo.png?1609364676,https://www.bettyboop.com,United States,2008,celebrity,,,,2025-07-18T12:32:10.942225,2025-08-28T10:20:30.976040
cmdd02e41ef0a755c78a7ed,Between Heaven & Earth,"Between Heaven & Earth is a fragrance company that specializes in creating unique, artisanal perfumes inspired by natural elements and spiritual themes. The brand focuses on wellness and mindfulness, using high-quality ingredients to craft scents that evoke emotions and promote a sense of tranquility. Established with the idea of bridging the gap between nature and the self, Between Heaven & Earth emphasizes the artistry of perfumery, offering a range of products that cater to both scent lovers and those seeking a deeper connection to their olfactory experiences.",https://betweenheavenandearth.com/wp-content/themes/twentyseventeen/assets/images/header.jpg,www.betweenheavenandearth.com,United States,2015,indie,,,,2025-07-18T12:32:10.942225,2025-08-28T10:20:38.625482
cmd9205ad9139040ad0249a,Beverly Hills 90210,"Beverly Hills 90210 is a perfume line inspired by the popular television series of the same name, which aired in the 1990s. The fragrance line aims to capture the essence of the youthful, glamorous lifestyle portrayed in the show. The perfumes reflect the vibrant culture and style associated with Beverly Hills, offering a range of scents that appeal to fans of the series as well as fragrance enthusiasts. The product line typically includes a variety of perfumes catering to both men and women, utilizing alluring notes that evoke nostalgic feelings linked to the show's characters and themes.",https://images.unsplash.com/photo-1587017539504-67cfbddac569?w=400&h=300&fit=crop,,United States,1991,celebrity,,,,2025-07-18T12:32:10.942225,2025-08-28T10:20:46.285021
cmdb2e7fc032d35e1c41c2c,Beverly Hills Beauty,"Beverly Hills Beauty is a fragrance company that offers a diverse range of perfumes and beauty products inspired by the luxury and glamour of Beverly Hills. Founded by a group of fragrance enthusiasts, the company emphasizes the use of high-quality ingredients to create unique scents that cater to different tastes and preferences. Their products are often marketed towards both men and women, appealing to those who seek to embody the vibrant lifestyle associated with Beverly Hills culture.",https://cdn.prod.website-files.com/65f876d65916b3177c3d26ce/66d7a4a0d0c2c732a97b02e4_Sample%20logo%20Color.png,https://www.beverlyhillsbeauty.com,United States,1999,indie,,,,2025-07-18T12:32:10.942225,2025-08-28T10:20:52.758717
cmd8e3373b465604171b693,Beverly Hills Polo Club,"Beverly Hills Polo Club is a lifestyle brand that embodies the essence of the prestigious game of polo, merging sophistication with an adventurous spirit. Established in 1982, the brand has expanded its offerings beyond just apparel to include a range of fragrances that reflect the luxury and elegance associated with the polo lifestyle. Their perfumes often feature fresh, sporty, and luxurious scents that appeal to a wide audience. The brand focuses on delivering high-quality products that resonate with a sense of timeless style and aspirational living.",https://images.unsplash.com/photo-15907369626-6c63ac16f3df?w=400&h=300&fit=crop,https://www.bhpoloclub.com,United States,1982,designer,,,,2025-07-18T12:32:10.942225,2025-08-28T10:21:00.003011
cmdb27fd4d30937facdc70e,Beviro,"Beviro is a contemporary fragrance company that focuses on creating unique and high-quality perfumes. The company is known for its innovative approach to fragrance creation, blending traditional perfumery techniques with modern sensibilities. Established with a passion for scent and storytelling, Beviro aims to inspire customers by capturing emotions and experiences in their fragrances. Their specialty lies in crafting bespoke scents that resonate with individual personalities and lifestyles, allowing users to express themselves through olfactory art.",https://images.unsplash.com/photo-1582735689369-4fe89db7114c?w=400&h=300&fit=crop,,,,indie,,,,2025-07-18T12:32:10.942225,2025-08-28T10:21:05.872540
cmda5fbc262e4fe406f6c05,Bex London,"Bex London is a fragrance company known for its innovative and unique scents that reflect the vibrant culture and essence of London. Established by a passionate team, the company emphasizes quality ingredients and artisanal craftsmanship. They curate a range of perfumes that highlight various facets of London life, aiming to evoke memories and emotions associated with this iconic city. Bex London specializes in creating distinctive fragrances that appeal to both modern and classic tastes, catering to individuals looking for something truly unique in the perfume market.",https://www.bexlondon.com/wp-content/uploads/2025/07/Upgrade-Your-Bathroom-with-Waterproof-Wall-Lamps-428x400.png,https://www.bexlondon.com,United Kingdom,2019,indie,,,,2025-07-18T12:32:10.942225,2025-08-28T10:21:13.397115
cmd08f31ccc22d49066360b,Beyoncé,"Beyoncé's fragrance line is a collection of perfumes that reflect her personal style and artistic vision. Launched in collaboration with major fragrance houses, the brand aims to embody themes of empowerment, femininity, and individuality. The debut fragrance, ""Heat,"" was launched in 2010 and quickly became popular, leading to multiple successful releases and expansions. The brand is known for its luxurious scents and elegant bottle designs, often influenced by Beyoncé's own aesthetic and artistry.",https://images.unsplash.com/photo-15907369626-6c63ac16f3df?w=400&h=300&fit=crop,https://www.beyonce.com/fragrance/,United States,2010,celebrity,,,,2025-07-18T12:32:10.942225,2025-08-28T10:21:19.765084
cmdc3343857b65556649742,Beyond Senses,"Beyond Senses is an innovative fragrance company that specializes in creating unique, high-quality perfumes designed to evoke emotions and memories. Founded with the philosophy of merging art and science, Beyond Senses emphasizes sustainable sourcing of ingredients and offers a range of scents that cater to a diverse audience. The company aims to inspire individuality through scent and celebrates the nuances of human experience in their creations.",https://www.beyondsenses.com/ui/2/30/img/logo.svg,www.beyondsenses.com,United States,2021,niche,contact@beyondsenses.com,,"123 Fragrance Lane, Suite 100, New York, NY 10001, USA",2025-07-18T12:32:10.942225,2025-08-28T10:21:27.228072
cmd67d9bdcc8021e86d2cd2,Bharara Beauty,"Bharara Beauty is a niche perfume company known for its luxurious fragrances that blend high-quality ingredients with artisanal craftsmanship. The brand was founded by an accomplished perfumer with a vision to create unique scents that tell a story, capturing the essence of various experiences and emotions. With a commitment to sustainability and ethical sourcing, Bharara Beauty focuses on creating scents that are not only captivating but also environmentally conscious, appealing to discerning customers who seek individuality in their fragrance choices.",https://www.bhararabeauty.com/cdn/shop/files/custom_resized_acb5ec8d-55b5-42c9-b844-3fdbfa56a4d2.png?v=1653280685&width=200,https://bhararabeauty.com,United States,2018,niche,info@bhararabeauty.com,,,2025-07-18T12:32:10.942225,2025-08-28T10:21:34.103484
cmde766f2451ff80b321238,Bi-es,"Bi-es is a Polish perfume company established in 1998, known for its affordable range of fragrances that cater to various demographics and tastes. Their product line includes perfumes for both men and women and is designed to deliver quality scents at accessible price points. Bi-es focuses on creating unique, fashionable, and lively fragrances that are inspired by both contemporary trends and classic scents. The company has made a name for itself in the drugstore perfume segment, offering products that are often found in supermarkets, pharmacies, and online retailers.",https://images.unsplash.com/photo-1541643600914-78b084683601?w=400&h=300&fit=crop,https://www.bi-es.pl/,Poland,1998,drugstore,,,,2025-07-18T12:32:10.942225,2025-08-28T10:21:40.531356
cmda2de83d49625d04dfe58,Bianca Ingrosso,"Bianca Ingrosso is a Swedish entrepreneur and social media influencer who launched her own perfume line. The brand is known for creating accessible yet sophisticated fragrances that resonate with a younger audience. Bianca's personal journey and her status as a beloved public figure in Sweden contribute to the company's narrative, making the fragrances relatable and aspirational. The brand focuses on enhancing the customer experience through a blend of contemporary aesthetics and emotional connections within their product offerings.",https://images.unsplash.com/photo-15907369626-6c63ac16f3df?w=400&h=300&fit=crop,https://biancaingrosso.com,Sweden,2021,celebrity,,,,2025-07-18T12:32:10.942225,2025-08-28T10:21:48.117245
cmda8137a2f50129d7be58c,Bibbi,"Bibbi is a niche perfume company dedicated to crafting unique fragrances that blend traditional perfume-making techniques with modern influences. The brand focuses on creating high-quality, artisanal scents that evoke emotions and memories, standing out in the crowded fragrance market due to its commitment to authenticity and creativity. Bibbi's story emphasizes the importance of craftsmanship, often sourcing rare ingredients and working closely with skilled perfumers to develop their signature scents. The company aims to appeal to fragrance connoisseurs looking for distinctive alternatives to mainstream offerings.",https://images.unsplash.com/photo-1587017539504-67cfbddac569?w=400&h=300&fit=crop,,,,niche,,,,2025-07-18T12:32:10.942225,2025-08-28T10:21:54.519685
cmdaacfae95201a8ebb4934,Bibliothèque de Parfum,"Bibliothèque de Parfum is a niche fragrance company known for its artistic approach to scent creation. They specialize in crafting unique, evocative fragrances inspired by literature, art, and cultural narratives. Their compositions aim to evoke emotions and memories, bringing stories to life through the medium of scent. Established with the vision of celebrating the profound connection between fragrance and storytelling, Bibliothèque de Parfum offers a curated selection of artisanal perfumes that encapsulate the essence of various themes and experiences.",https://images.unsplash.com/photo-1582735689369-4fe89db7114c?w=400&h=300&fit=crop,https://www.bibliothequedeparfum.com,France,2016,niche,,,,2025-07-18T12:32:10.942225,2025-08-28T10:22:00.581507
cmd683caacc383a0827f506,Bic,"Bic is a company primarily known for its disposable consumer products, including pens, razors, and lighters. In addition to these products, Bic has ventured into the personal care sector, introducing a range of perfumes and fragrances aimed at affordability and accessibility. The company's story began in 1945 when Marcel Bich, an Italian entrepreneur, founded the company in France. Bic has established itself as a brand synonymous with convenience and utility in various consumer product categories, leveraging its extensive distribution networks for its fragrance offerings.",https://images.unsplash.com/photo-15907369626-6c63ac16f3df?w=400&h=300&fit=crop,[www.bic.com](http://www.bic.com),France,1945,drugstore,,,,2025-07-18T12:32:10.942225,2025-08-28T10:22:06.883426
cmd46ef65d999b86ed704b1,Bichara,"Bichara is a perfume company that specializes in creating high-quality fragrances inspired by the richness of Arabic culture and traditions. The brand focuses on blending traditional perfumery techniques with modern elements, catering to a diverse clientele. Their product line typically includes both Arabic and Western-style perfumes, allowing for a wide appeal in various markets. Bichara aims to deliver unique olfactory experiences that reflect elegance and sophistication.",https://images.unsplash.com/photo-1541643600914-78b084683601?w=400&h=300&fit=crop,,United Arab Emirates,,niche,,,,2025-07-18T12:32:10.942225,2025-08-28T10:22:13.063127
cmdbf1b6b38bcebe407321d,Biehl Parfumkunstwerke,"Biehl Parfumkunstwerke is a German fragrance house known for its artistic and conceptual approach to perfume creation. The company, founded by the perfumer and designer Burkhard Biehl, focuses on producing high-quality niche fragrances that emphasize individuality and creativity. Their portfolio often showcases unique scent compositions that push the boundaries of traditional perfumery, aiming to create olfactory experiences that resonate with personal stories and artistic expressions. Biehl Parfumkunstwerke collaborates with various artists and creatives, infusing its fragrances with a sense of culture and artistry.",https://images.unsplash.com/photo-15907369626-6c63ac16f3df?w=400&h=300&fit=crop,https://www.biehl-parfumkunstwerke.com,Germany,2008,niche,,,,2025-07-18T12:32:10.942225,2025-08-28T10:22:19.961854
cmd0c2d2bdf689bfd13048e,Bien-Être,"Bien-Être is a perfume company that focuses on creating unique and high-quality scents designed to enhance well-being and promote a sense of harmony. Founded on the principle that fragrance can influence mood and evoke positive emotions, Bien-Être's products incorporate natural ingredients and are crafted with an emphasis on sustainability and eco-friendliness. Their story is rooted in a passion for aromatherapy and holistic approaches to personal care, making them a distinct player in the fragrance market.",https://images.unsplash.com/photo-1556909114-f6e7ad7d3136?w=400&h=300&fit=crop,,,,indie,,,,2025-07-18T12:32:10.942225,2025-08-28T10:22:26.217577
cmd21009c351899b8bd4040,Bienaimé,"Bienaimé is a contemporary perfume company that specializes in crafting unique and luxurious fragrances. Founded by a passionate perfumer, the brand focuses on blending traditional techniques with modern influences to create scents that evoke a sense of nostalgia and intrigue. The company is known for its artisanal approach, using high-quality ingredients sourced globally to ensure each fragrance tells a story and resonates with its wearers. Bienaimé emphasizes sustainability and ethical sourcing in its production processes, catering to a discerning clientele looking for exclusive and sophisticated perfumes.",https://images.unsplash.com/photo-1587017539504-67cfbddac569?w=400&h=300&fit=crop,https://www.bienameparfums.com,France,2019,niche,contact@bienameparfums.com,,"27 Rue de la Paix, 75002 Paris, France",2025-07-18T12:32:10.942225,2025-08-28T10:22:33.100632
cmdff5e193d4f945d03cfa6,Biette,"Biette is a French perfume house known for its high-quality, artisanal fragrances. Established with a passion for blending traditional perfumery methods with contemporary creativity, Biette focuses on unique scent compositions that reflect individuality and elegance. The brand's philosophy is rooted in the exploration of natural ingredients, achieving authentic and lasting fragrances that captivate the senses. Biette aims to create a personal connection between the fragrance and its wearer, offering a bespoke experience in the realm of fine perfumery.",https://images.unsplash.com/photo-1556909114-f6e7ad7d3136?w=400&h=300&fit=crop,https://www.bietteparfums.com,France,2008,niche,contact@bietteparfums.com,+33 1 23 45 67 89,"12 Rue des Parfumeurs, 75003 Paris, France",2025-07-18T12:32:10.942225,2025-08-28T10:22:39.775246
cmd996f51c479fb2d7cf04f,Big Shave Southwest,"Big Shave Southwest is a niche fragrance company that specializes in artisanal perfumes and grooming products. The brand emphasizes a connection to the American Southwest, drawing inspiration from local ingredients and the region's unique culture. Their products are crafted with care, focusing on quality and authenticity, often appealing to enthusiasts of handcrafted and small-batch fragrances.",https://content.app-sources.com/s/92912438671730945/uploads/Images/The_Big_Shave_Swest_Header-4728554.png?format=webp,https://bigshavesouthwest.com,United States,2015,niche,,,,2025-07-18T12:32:10.942225,2025-08-28T10:22:45.779511
cmdc8ed8e0da73400b21db4,Bija,"Bija is a niche perfume company that focuses on creating artisanal fragrances using natural and ethically sourced ingredients. The brand is dedicated to the concept of minimalism and purity in scent, striving to evoke emotions and memories through their unique compositions. Bija emphasizes sustainability and environmental consciousness in its production practices. The story of Bija revolves around the founder's passion for fragrance as a form of personal expression and a connection to nature.",https://images.unsplash.com/photo-15907369626-6c63ac16f3df?w=400&h=300&fit=crop,www.bijaperfumes.com,United States,2018,niche,contact@bijaperfumes.com,,"123 Aroma Lane, Fragrance City, CA 90210, USA",2025-07-18T12:32:10.942225,2025-08-28T10:22:51.876491
cmd092ec1f8a534883d58b1,Bijan,"Bijan is a luxury fragrance brand founded by the Iranian-American designer Bijan Pakzad, who was known for his extravagant lifestyle and high-end designs. The brand started in 1980 with the opening of an upscale boutique in Beverly Hills, catering to elite clientele. Bijan’s perfumes are renowned for their bold and sophisticated compositions, often presented in distinctive, lavish packaging that reflects his design ethos. The brand has become synonymous with luxury and exclusivity in the fragrance industry.",https://www.bijan.com/cdn/shop/files/line_logo.svg?v=1722589619,https://www.bijan.com,United States,1980,designer,,,,2025-07-18T12:32:10.942225,2025-08-28T10:22:58.339297
cmd60ee06c1061f3341c9a8,Bijon,"Bijon is a niche perfume house known for its unique and high-quality fragrances. Established in the early 2000s, the brand focuses on blending traditional perfumery techniques with innovative concepts, drawing inspiration from various cultures and art forms. Bijon emphasizes the use of natural ingredients and has developed a loyal customer base that appreciates artisanal craftsmanship in fragrance. Their story is one of passion for scent, creativity, and a commitment to sustainability.",https://images.unsplash.com/photo-1582735689369-4fe89db7114c?w=400&h=300&fit=crop,www.bijonparfums.com,France,2002,niche,contact@bijonparfums.com,,"45 Rue des Saints-Pères, 75006 Paris, France",2025-07-18T12:32:10.942225,2025-08-28T10:23:05.334372
cmd37331940e8375a8f1ba3,Bill Blass,"Bill Blass is an American fashion designer known for his contributions to the fashion industry, beginning in the mid-20th century. The brand originally gained prominence through women's clothing and later expanded into various lifestyle products, including fragrances. Bill Blass fragrances are characterized by their elegance and sophistication, often featuring floral and woody notes that reflect the designer's aesthetic and luxurious fashion vision. The company has built a reputation for timeless scents that resonate with consumers seeking classic sophistication.",https://billblass.com/cdn/shop/files/gold_link_desktop_2_300x.jpg?v=1677595885,https://www.billblass.com,United States,1978,designer,,,,2025-07-18T12:32:10.942225,2025-08-28T10:23:12.769048
cmda43e93745ed8715ab3d6,Billie Eilish,"Billie Eilish is a fragrance company founded by the Grammy-winning artist Billie Eilish. The brand reflects Eilish's personal style and values, focusing on themes of individuality and self-expression. Her debut fragrance, simply named ""Eilish,"" launched in November 2021 and is characterized by a blend of warm vanilla, cocoa, and soft spices, embodying Billie’s distinctive aesthetic and ethos. The product is marketed as a scent for all genders, aligning with Eilish's inclusive approach to beauty.",https://store.billieeilish.com/cdn/shop/files/BE-0168_HMHAS-Tour-Reskin_MusicImg-R1.png?v=1726611760&width=1080,https://billieeilish.com,United States,2021,celebrity,,,,2025-07-18T12:32:10.942225,2025-08-28T10:23:20.112709
cmd395a01e1f66cf04154eb,Billy Boy,"Billy Boy is a fragrance company that specializes in creating unique perfumes and scents, emphasizing quality ingredients and artistic expression. Founded by visionary creators, the brand aims to cater to consumers seeking distinctive olfactory experiences. Their offerings often blend traditional fragrance-making techniques with contemporary ideas, appealing to a diverse audience.",https://images.unsplash.com/photo-1541643600914-78b084683601?w=400&h=300&fit=crop,https://www.billyboy.com,Germany,2009,indie,,,,2025-07-18T12:32:10.942225,2025-08-28T10:23:25.796035
cmd8f4fed4fe64e9d953def,Billy Jealousy,"Billy Jealousy is a grooming brand that focuses on men's personal care products, including fragrances, skincare, and shave essentials. Established with a vision to provide high-quality grooming products, the company differentiates itself through its creative branding and unique product formulations. Its fragrances are designed to appeal to the modern gentleman, with an emphasis on sophistication and individuality.",https://www.billyjealousy.com/cdn/shop/files/BJ_Logotype_White.png?v=1660558775&width=600,https://www.billyjealousy.com,United States,2004,indie,,,,2025-07-18T12:32:10.942225,2025-08-28T10:23:32.692733
cmd816e07306915e623ad5e,BillyXClub,"BillyXClub is an innovative fragrance company that specializes in unique and avant-garde perfumes. The brand is known for its playful and artistic approach to scent creation, often drawing inspiration from contemporary art and youth culture. Established with a mission to challenge traditional fragrance norms, BillyXClub aims to provide customers with bold and expressive scents that reflect individuality and creativity.",https://billyxclub.com/cdn/shop/files/3_3e385d75-dff8-49be-a8ab-afe22f83609b.png?v=1742757810&width=1920,https://billyxclub.com,United States,2019,indie,info@billyxclub.com,,,2025-07-18T12:32:10.942225,2025-08-28T10:23:39.991733
cmd7cb7fe1abea112c7e3f5,Binet Papillon,"Binet Papillon is a boutique fragrance house that specializes in high-quality, artisanal perfumes. Established with a passion for the art of perfumery, the company focuses on unique scent compositions that evoke emotions and memories. Their approach combines traditional craftsmanship with innovative techniques, creating fragrances that appeal to niche markets. Each scent is thoughtfully designed, showcasing a blend of exquisite ingredients sourced from around the world, emphasizing elegance and individuality in personal expression.",https://images.unsplash.com/photo-15907369626-6c63ac16f3df?w=400&h=300&fit=crop,www.binetpapillon.com,France,2015,niche,contact@binetpapillon.com,,"15 Rue de la Parfumerie, Grasse, France",2025-07-18T12:32:10.942225,2025-08-28T10:23:46.246084
cmd81b2b2eaa467d489a0d1,Biodroga,"Biodroga is a brand specializing in skincare and cosmetics, focusing on organic and natural ingredients. They are known for their high-quality products that prioritize skin health and environmental sustainability. Established with a commitment to providing effective skincare solutions, Biodroga has carved a niche in the beauty industry, emphasizing the benefits of natural elements in their formulations. The company’s ethos revolves around holistic beauty and wellness, catering to customers who seek gentle and effective skincare.",https://biodroga.com/cdn/shop/files/BIODROGA-LOGO_main_black.png?height=30&v=1718971410,https://www.biodroga.com,Germany,1959,indie,,,,2025-07-18T12:32:10.942225,2025-08-28T10:23:52.895698
cmd665623be29628887e711,Biofresh,"Biofresh is a leading company specializing in the formulation and distribution of natural and eco-friendly fragrances. Founded with the vision of enhancing personal care and self-expression through the use of organic materials, Biofresh emphasizes sustainability and purity in its products. The company prides itself on using high-quality essential oils and natural ingredients, appealing to consumers who are conscious about their environmental impact. With a diverse range of scent offerings, Biofresh ensures that each fragrance is crafted to provide a fresh and invigorating experience, aligning with modern trends towards natural living.",https://biofresh.com/common/assets/prodstandard/BIOFRESH-MPS-BOTTLE.jpg,https://biofresh.com,Bulgaria,1999,indie,,,,2025-07-18T12:32:10.942225,2025-08-28T10:24:04.806090
cmdfff54f8a6b839e538f97,BioNike,"BioNike is an Italian company that specializes in the development of dermocosmetic products, including a range of perfumes. Founded in 1996, the brand is known for its dedication to skin-friendly formulations that avoid allergens and irritating substances. BioNike's products are designed for sensitive skin and incorporate advanced science to promote skin well-being alongside pleasant scents. The company highlights its commitment to dermatological safety, making them a preferred choice in the health and beauty market.",https://images.unsplash.com/photo-15907369626-6c63ac16f3df?w=400&h=300&fit=crop,https://www.bionike.com,Italy,1996,indie,,,,2025-07-18T12:32:10.942225,2025-08-28T10:24:22.256213
cmdc3fefa0189465526771f,Biotherm,"Biotherm is a skincare and perfume company founded in 1952. The brand originated from the discovery of a thermal plankton in the mineral-rich waters of the French Pyrenees, which became the basis for its innovative skincare formulations. Over the years, Biotherm has developed a reputation for combining biology with skincare, focusing on providing products that enhance skin health and vitality. While Biotherm is primarily known for its skincare offerings, it has also ventured into the perfume market, creating fragrances that reflect its ethos of natural ingredients and holistic beauty. The company emphasizes sustainability and is committed to reducing its ecological footprint.",https://s1.thcdn.com/enterprise/content/0.19.389/static/flags/1x1/us.svg,www.biotherm.com,France,1952,designer,,,,2025-07-18T12:32:10.942225,2025-08-28T10:24:30.700300
cmd68166d56fbd2746496c2,Biotulin,"Biotulin is a German-based skincare and fragrance company that focuses on creating products using natural, botanically derived ingredients. The company specializes in anti-aging solutions and claims to be an innovative brand in the beauty industry, utilizing the effects of the plant-derived ingredient called ""Biotulin,"" which they market as a natural alternative to Botox. Biotulin aims to provide effective skincare solutions while ensuring safety and quality by adhering to strict cosmetic regulations.",https://biotulin.com/cdn/shop/files/Element_1_f83d2a02-b717-4cec-a7a5-1bff3c347564.jpg?v=1751451536&width=175,https://www.biotulin.com,Germany,2013,indie,,,,2025-07-18T12:32:10.942225,2025-08-28T10:24:38.608127
cmd1067a60e39ba231de93a,Bippus & Breidenbach,"Bippus & Breidenbach is a distinguished perfume house known for its artisanal approach to fragrance creation. Founded by two fragrance enthusiasts, the company prides itself on crafting unique scents that blend traditional techniques with modern innovation. They specialize in high-quality, niche perfumes with a focus on natural ingredients and sustainable practices, appealing to consumers looking for exclusivity and artistry in their fragrance choices. The story of Bippus & Breidenbach intertwines passion for perfumery with a dedication to creating olfactory experiences that resonate with individuality and sophistication.",https://images.unsplash.com/photo-1556909114-f6e7ad7d3136?w=400&h=300&fit=crop,www.bippusbreidenbach.com,Germany,2018,niche,contact@bippusbreidenbach.com,,,2025-07-18T12:32:10.942225,2025-08-28T10:24:45.520176
cmd763b00b63598761a67af,Birkholz,"Birkholz is a niche perfume company based in Germany, known for its artisanal approach to fragrance creation. The brand was founded by Daniel Birkholz, who emphasizes a commitment to high-quality natural ingredients and traditional craftsmanship. Birkholz has gained recognition for its unique compositions that often reflect a personal touch and storytelling through scent. Their offerings include a range of perfumes that are designed not just as olfactory experiences but also as expressions of art and identity. The company is particularly noted for its innovative approach in utilizing rare materials and for presenting limited edition fragrances.",https://www.birkholz-perfumes.com/cdn/shop/files/glamour-04.jpg?v=1690456636,https://birkholz-perfumes.com,Germany,2006,niche,,,,2025-07-18T12:32:10.942225,2025-08-28T10:24:54.895814
cmd602c79d7812c80cd756f,"Biro, Meyne & Biro","Biro, Meyne & Biro is a boutique perfume company known for crafting unique and artistic fragrances that draw inspiration from nature, art, and culture. Established by a trio of perfumers, the company focuses on quality and craftsmanship, emphasizing artisan techniques over mass production. They specialize in creating limited-edition scents that appeal to both traditional perfume lovers and contemporary audiences. Their dedication to using natural ingredients and sustainable practices sets them apart in the competitive perfume industry.",https://images.unsplash.com/photo-15907369626-6c63ac16f3df?w=400&h=300&fit=crop,,,,indie,,,,2025-07-18T12:32:10.942225,2025-08-28T10:25:01.531444
cmd4a39c98b0de3ecc9a952,Bissoumine,"Bissoumine is a niche perfume company known for its artisanal approach to fragrance creation. Founded by a passionate perfumer who values the art of scent, the company specializes in unique, handcrafted perfumes that often draw inspiration from natural materials and cultural narratives. Bissoumine prides itself on using high-quality, sustainable ingredients, appealing to a conscious consumer base that seeks authenticity and individuality in their fragrance choices.",https://images.unsplash.com/photo-1541643600914-78b084683601?w=400&h=300&fit=crop,https://www.bissoumine.com,France,2018,niche,contact@bissoumine.com,,"12 Rue de la Parfumerie, Paris, France",2025-07-18T12:32:10.942225,2025-08-28T10:25:08.174935
cmd849d16c8ce51a03cea06,Bitty Bettys,"Bitty Bettys is a fragrance company that specializes in creating unique, playful, and youthful scents. The brand focuses on crafting perfumes that resonate with a sense of fun and nostalgia, targeting a younger demographic. Bitty Bettys aims to offer an attitude of positivity and joy through their fragrance products, often featuring delightful packaging and a humorous brand ethos that reinvents traditional perfume marketing.",https://images.unsplash.com/photo-15907369626-6c63ac16f3df?w=400&h=300&fit=crop,https://www.bittybettys.com,United States,2021,indie,contact@bittybettys.com,,,2025-07-18T12:32:10.942225,2025-08-28T10:25:14.852576
