id,name,description,image,website,country,founded,type,email,phone,address,createdAt,updatedAt
cmdbf25a3b647315e179f8d,Pierre Laussey,"Pierre Laussey is a boutique perfume company known for its emphasis on creating artisanal fragrances that embody elegance and sophistication. With a focus on high-quality ingredients and innovative scent compositions, the brand appeals to consumers seeking unique olfactory experiences. Founded by the renowned perfumer Pierre Laussey, the company celebrates individuality and allows customers to find scents that truly resonate with their personal style. Their collections often reflect various themes and stories, providing an immersive journey through fragrance.",https://images.unsplash.com/photo-1556909114-f6e7ad7d3136?w=400&h=300&fit=crop,www.pierrelaussey.com,France,2015,niche,contact@pierrelaussey.com,+33 1 23 45 67 89,"45 Rue de la Fragrance, 75001 Paris, France",2025-07-18T12:32:10.942225,2025-08-29T10:23:44.667511
cmdb749a93ecd91fd90f0ab,Pierre Robert,"Pierre Robert is a niche perfume company that focuses on crafting high-quality, limited-edition fragrances. Founded by visionary perfumers, the brand aims to elevate the art of perfumery by blending traditional methods with innovative techniques. Their specialties lie in creating unique scent profiles that are deeply inspired by nature, art, and culture, appealing to connoisseurs of fine fragrances.",https://images.unsplash.com/photo-1582735689369-4fe89db7114c?w=400&h=300&fit=crop,https://www.pierre-robert.com,France,1996,niche,,,,2025-07-18T12:32:10.942225,2025-08-29T10:23:50.663736
cmd5181248622dd7bbdd1de,Pierre Sterlé,"Pierre Sterlé is a French perfume house that was established in the mid-20th century. The company is known for its high-quality fragrances that embody elegance and sophistication, often presenting a blend of classic and contemporary styles. Pierre Sterlé began as a specialist in the luxury perfume market, producing exclusive scents that appeal to a discerning clientele looking for unique olfactory experiences. The brand's story is intertwined with its reputation for exceptional craftsmanship and artistic flair in fragrance creation.",https://images.unsplash.com/photo-1582735689369-4fe89db7114c?w=400&h=300&fit=crop,,France,1954,niche,,,,2025-07-18T12:32:10.942225,2025-08-29T10:23:56.447227
cmd4126e7a2f76a9b79c4cc,Pierre Vivion,"Pierre Vivion is a prestigious perfume company known for its luxurious and sophisticated fragrances that blend traditional artisanal techniques with modern perfumery. The brand emphasizes quality ingredients and unique scent profiles, drawing inspiration from nature and art. Established with a vision to create olfactory masterpieces, Pierre Vivion caters to connoisseurs of fine perfume, offering exclusive products that embody elegance and refinement. Their commitment to craftsmanship and creativity has positioned them as a notable player in the niche perfume industry.",https://images.unsplash.com/photo-1541643600914-78b084683601?w=400&h=300&fit=crop,www.pierrevivion.com,France,2010,niche,contact@pierrevivion.com,+33 1 23 45 67 89,"12 Rue de la Parfumerie, Paris, 75002, France",2025-07-18T12:32:10.942225,2025-08-29T10:24:03.524665
cmd4a28c7db41512bbb57f8,Pierre Wulff,"Pierre Wulff is a reputed fragrance house renowned for its creative and artistic approach to perfumery. The company specializes in developing unique olfactory compositions that often blend traditional techniques with modern inspiration. Founded by Pierre Wulff, who has a deep passion for scent and artistry, the brand aims to offer exclusive and sophisticated fragrances that appeal to niche markets. Their signature style embodies a harmonious balance of nature and innovation, catering to connoisseurs of fine perfumes.",https://images.unsplash.com/photo-1556909114-f6e7ad7d3136?w=400&h=300&fit=crop,www.pierrewulff.com,France,2001,niche,,,,2025-07-18T12:32:10.942225,2025-08-29T10:24:10.319267
cmd04168fe9659d94eb3a20,Pigmentarium,"Pigmentarium is a niche perfume house known for its artisanal and handcrafted fragrances that blend unique ingredients with a story behind each creation. Established by a team of passionate perfumers, the brand focuses on olfactory artistry that emphasizes personal expression and individual storytelling. Pigmentarium's specialty lies in creating custom scents tailored to the preferences of their clients, fostering a deep connection between the fragrance and the wearer.",https://www.pigmentarium.com/cdn/shop/files/pigmentarium_logo_01_356c1f2c-d968-44e6-b799-71c7a981dadb.png?v=1705057605&width=200,https://www.pigmentarium.com,United States,2015,niche,contact@pigmentarium.com,,,2025-07-18T12:32:10.942225,2025-08-29T10:24:18.298145
cmdb9e419a451adebc47b81,Pikenz,"Pikenz is a niche perfume company that specializes in creating unique and artistic fragrances. They focus on blending high-quality ingredients with innovative compositions, resulting in signature scents that appeal to fragrance enthusiasts and collectors. Established with a passion for craftsmanship and artistry, Pikenz aims to capture emotions and memories through their olfactory offerings. The company is known for its distinctive packaging and limited edition releases, enhancing the exclusivity of its products.",https://images.unsplash.com/photo-15907369626-6c63ac16f3df?w=400&h=300&fit=crop,https://www.pikenz.com,France,2015,niche,contact@pikenz.com,,,2025-07-18T12:32:10.942225,2025-08-29T10:24:26.762568
cmd2f0284862f6981da8502,Pilar and Lucy,"Pilar and Lucy is a niche perfume company known for their artisanal approach to fragrance creation. Established by two sisters, Pilar and Lucy, the brand focuses on crafting unique, high-quality scents that reflect personal stories and emotions. They emphasize the use of natural and sustainable ingredients, creating perfumes that are both distinctive and environmentally conscious. The brand embraces a philosophy of authenticity and creativity, aiming to provide customers with an intimate olfactory experience that resonates deeply.",https://images.unsplash.com/photo-1556909114-f6e7ad7d3136?w=400&h=300&fit=crop,https://pilarandlucy.com,United States,2015,niche,hello@pilarandlucy.com,,,2025-07-18T12:32:10.942225,2025-08-29T10:24:34.029998
cmd15f84e6a7921446b4526,Pills,"Pills is a contemporary fragrance house that specializes in creating unique and innovative scents that explore the intersection of art and lifestyle. Founded by a group of creative individuals with a passion for olfactory experiences, Pills aims to provide customers with a sensorial journey through its carefully crafted fragrances. The brand places a strong emphasis on high-quality ingredients and artistic branding, making each fragrance not just a scent, but a statement.",https://www.pills.com/assets/logo-newreach.png,https://www.pills.com,United States,2020,indie,contact@pills.com,,,2025-07-18T12:32:10.942225,2025-08-29T10:24:40.968997
cmdb6c57b82a45b15f8e255,Pinaud,"Pinaud is a historic fragrance and personal care brand known for its classic and distinctive grooming products. Founded in 1810 by the French perfumer Edouard Pinaud in Paris, the brand originally focused on colognes and aftershaves, gradually expanding its line to include a variety of personal care items such as creams, shampoos, and styling products. It is particularly famous for its Lilac Vegetal aftershave, which has been a staple in men's grooming for generations. Pinaud products often blend traditional methods with distinctly aromatic formulas, appealing to those who appreciate classic fragrances.",https://images.unsplash.com/photo-15907369626-6c63ac16f3df?w=400&h=300&fit=crop,https://www.pinaud.com,United States,1810,drugstore,,,,2025-07-18T12:32:10.942225,2025-08-29T10:24:53.218898
cmdf55d10db0d179b2a7fb7,Pinault-Printemps-Redoute,"Pinault-Printemps-Redoute (PPR), now known as Kering, was established as a retail and luxury goods company. It has its roots in retail operations, specializing in high-end fashion and luxury brands, including fragrance lines. PPR has transformed over the years into a global leader in luxury, managing and promoting brands such as Gucci, Yves Saint Laurent, and Bottega Veneta, which often include their signature fragrances. The company's story highlights a focus on sustainability and cultural engagement, along with strong expansion in the luxury segment.",https://www.kering.com/_next/image/?url=https%3A%2F%2Fassets-keringcom.keringapps.com%2FMc_Queen_logo_pastille_blanc_8eb8a70911.png&w=256&q=75,https://www.kering.com,France,1963,designer,,,"40 Rue de Sèvres, 75007 Paris, France",2025-07-18T12:32:10.942225,2025-08-29T10:25:01.287609
cmd163650bf3fe8d5c7d598,Pineider,"Pineider is an Italian luxury brand known for its fine writing instruments, leather goods, and high-quality perfumes. Founded in Florence in 1774, Pineider has a rich heritage of craftsmanship and a commitment to quality and elegance. The company specializes in creating unique fragrances that reflect traditional Italian artistry combined with innovative perfumery techniques. The perfume line encapsulates the essence of Italian luxury, drawing inspiration from the vivid landscapes, culture, and history of Italy.",https://www.pineider.com/build/shop/images/pineider_logo.f1e3906a.svg,https://www.pineider.com,Italy,1774,niche,,,,2025-07-18T12:32:10.942225,2025-08-29T10:25:08.709713
cmdef8353aa4f1ff9387547,Pineward Perfumes,"Pineward Perfumes is a niche fragrance brand focused on creating artisanal perfumes that emphasize natural ingredients and craftsmanship. Established with a passion for unique olfactory experiences, the company sources high-quality raw materials and employs skilled artisans to handcraft each fragrance. Their story is rooted in a commitment to sustainability, creativity, and a deep appreciation for the art of perfumery, offering customers distinctive scents that tell a story and evoke emotion.",https://images.unsplash.com/photo-1587017539504-67cfbddac569?w=400&h=300&fit=crop,www.pinewardperfumes.com,United States,2015,niche,contact@pinewardperfumes.com,,,2025-07-18T12:32:10.942225,2025-08-29T10:25:15.413900
cmd88819b6b1fe357008b9a,Pininfarina,"Pininfarina is an Italian design firm renowned for its automotive design, but it has expanded its creative expertise into the perfume industry. Established in 1930, the company has a rich history of delivering luxury vehicles while also venturing into lifestyle products, including fragrances. Their perfume line embodies elegance, style, and innovation, much like their vehicles, appealing to a sophisticated clientele that appreciates fine design and craftsmanship in all aspects of life.",https://images.unsplash.com/photo-1541643600914-78b084683601?w=400&h=300&fit=crop,https://www.pininfarina.com,Italy,1930,designer,,,,2025-07-18T12:32:10.942225,2025-08-29T10:25:28.915240
cmd698091d9e993c7683440,Pink MahogHany,"Pink MahogHany is an independent fragrance brand renowned for its unique, artisanal approach to perfumery. Established with a vision to celebrate individuality and self-expression, the company draws inspiration from a blend of cultural influences and personal stories. Their focus lies on creating luxurious scents that evoke deep emotional responses, often utilizing high-quality and sustainable ingredients sourced globally. This allows them to cater to a niche market of fragrance enthusiasts looking for something unique and expressive.",https://images.unsplash.com/photo-1556909114-f6e7ad7d3136?w=400&h=300&fit=crop,https://pinkmahogany.com,United States,2015,indie,,,,2025-07-18T12:32:10.942225,2025-08-29T10:25:35.677991
cmdf10747129ec5606734e5,Pink Soda,"Pink Soda is a vibrant fragrance brand known for its youthful and playful scent offerings. The brand focuses on delivering trendy, energetic fragrances that resonate with a younger audience. With a strong emphasis on lifestyle and fashion, Pink Soda embodies a spirit of fun and individuality, appealing to those who seek to express themselves through scent. The company often collaborates with influencers and embraces social media to enhance its market presence and engagement with consumers.",https://images.unsplash.com/photo-1587017539504-67cfbddac569?w=400&h=300&fit=crop,https://www.pinksodaparfums.com,United Kingdom,2016,indie,,,,2025-07-18T12:32:10.942225,2025-08-29T10:25:42.294760
cmd485fba91046c94f506fd,Pinkie Swear,"Pinkie Swear is a niche perfume company celebrated for its unique and playful approach to fragrance. Established with a mission to create scents that evoke joyful memories and personal experiences, Pinkie Swear's products often feature whimsical packaging and character-driven branding. The company stands out in the market by offering high-quality, artisanal fragrances that cater to a younger demographic, emphasizing individuality and personal expression through scent.",https://images.unsplash.com/photo-1582735689369-4fe89db7114c?w=400&h=300&fit=crop,[www.pinkieswear.com](http://www.pinkieswear.com),United States,2018,indie,,,,2025-07-18T12:32:10.942225,2025-08-29T10:25:48.352359
cmdbb55295a1c60acce722f,Pinrose,"Pinrose is a niche perfume company that specializes in creating playful, innovative fragrances that aim to reflect individuality and personal expression. Founded in 2013, the brand focuses on delivering high-quality perfumes in a unique and accessible way, often featuring whimsical packaging and a strong emphasis on storytelling. Pinrose is known for its variety of scent options and its commitment to making fragrance approachable and fun, inviting customers to explore their personal scent preferences through various collections.",https://pinrose.com/cdn/shop/files/Logo_black.png?v=1614277552&width=440,https://www.pinrose.com,United States,2013,indie,,,,2025-07-18T12:32:10.942225,2025-08-29T10:25:55.702207
cmd1cddfbcb351e1a434330,Piotr Czarnecki,"Piotr Czarnecki is a niche perfume manufacturer known for its artisanal approach to fragrance creation. The company prides itself on crafting unique scents inspired by nature and personal experiences. Founded by Piotr Czarnecki, a seasoned perfumer with a passion for rare ingredients and traditional craftsmanship, the brand focuses on creating limited-edition perfumes that tell a story. The company emphasizes sustainability and organic materials, making every scent not just a product, but an experience that resonates with the consumers.",https://images.unsplash.com/photo-1556909114-f6e7ad7d3136?w=400&h=300&fit=crop,www.piotrczarnecki.com,Poland,2015,niche,contact@piotrczarnecki.com,,,2025-07-18T12:32:10.942225,2025-08-29T10:26:02.689047
cmdbf61608cd20e1720c130,Piper & Perro,"Piper & Perro is a niche perfume company dedicated to crafting high-quality, artisanal fragrances that evoke the beauty of nature and the elegance of personal expression. Founded by a team of passionate perfumers, the brand focuses on using sustainable ingredients and innovative scent combinations. Their offerings include a range of unisex perfumes that emphasize individuality and craftsmanship, with a deep commitment to ethical sourcing and environmental responsibility.",https://piperandperro.com/cdn/shop/files/PIPER_LOGO_WHITE_500x.png?v=1616865844,https://www.piperandperro.com,United States,2018,niche,contact@piperandperro.com,,,2025-07-18T12:32:10.942225,2025-08-29T10:26:09.525656
cmdaffdfa1e98e9cb088c40,Pique Perfumes,"Pique Perfumes is a niche fragrance company known for its artisanal approach to scent creation. The brand emphasizes sustainability and creativity, often collaborating with artists to develop unique fragrance profiles. Pique Perfumes focuses on natural and high-quality ingredients, aiming to evoke emotions and memories through their carefully crafted scents. Their story began with a passion for olfactory arts and a desire to bring a fresh perspective to the perfume industry.",https://images.unsplash.com/photo-1541643600914-78b084683601?w=400&h=300&fit=crop,https://www.piqueperfumes.com,United States,2018,niche,info@piqueperfumes.com,,,2025-07-18T12:32:10.942225,2025-08-29T10:26:16.122362
cmd4f64c7e70c838c1826a1,Pirette,"Pirette is a niche fragrance company that specializes in creating unique perfumes inspired by beach life and tropical surroundings. Founded by a passionate entrepreneur, the brand's story revolves around the desire to bottle the essence of vacations and summer memories through evocative scents. Pirette's specialty lies in formulating fragrances that capture the spirit of sandy beaches, ocean breezes, and laid-back island vibes. Each scent is crafted with high-quality ingredients and is aimed at evoking an emotional connection to blissful seaside experiences.",https://www.pirette.com/images/blank.gif?crc=4208392903,https://www.pirette.com,United States,2015,niche,,,,2025-07-18T12:32:10.942225,2025-08-29T10:26:23.378430
cmd2bb3cb2c8c2bced0938e,Pirouette,"Pirouette is a niche perfume house known for its unique and captivating fragrance creations. The brand specializes in crafting artisanal perfumes that evoke emotions and tell stories through scent. Founded by a passionate perfumer, the company's mission is to provide customers with high-quality, long-lasting fragrances that embody elegance and sophistication. Each fragrance is meticulously crafted using rare and exquisite ingredients, making Pirouette a distinguished name in the world of niche perfumery.",https://images.unsplash.com/photo-1587017539504-67cfbddac569?w=400&h=300&fit=crop,[https://www.pirouetteperfumes.com](https://www.pirouetteperfumes.com),United States,2016,niche,,,,2025-07-18T12:32:10.942225,2025-08-29T10:26:29.998089
cmd4008e378f363c6989b5e,Pitbull Premier Fragrances,"Pitbull Premier Fragrances is a fragrance line developed in collaboration with the famous rapper Pitbull. The brand was created to encapsulate the energy and personality associated with Pitbull's music and lifestyle. Specializing in vibrant, energetic scents, the company aims to appeal to a broad audience with accessible, modern fragrances that reflect confidence and individuality. The fragrances are designed to embody themes of optimism and global appeal, mirroring Pitbull’s aspirations and experiences.",https://images.unsplash.com/photo-1556909114-f6e7ad7d3136?w=400&h=300&fit=crop,https://www.pitbullfragrances.com,United States,2013,celebrity,,,,2025-07-18T12:32:10.942225,2025-08-29T10:26:36.532491
cmd9700fb279ba27ff86604,Pitti Immagine,"Pitti Immagine is a renowned Italian event management company specializing in the fashion and lifestyle sectors, particularly in organizing trade fairs and exhibitions that showcase luxury and niche brands. Founded in Florence in 1977, it has established itself as a significant player in the international fashion scene, focusing on promoting Italian craftsmanship and innovation. The company's events attract industry professionals, connecting designers, retailers, and influencers to elevate the visibility of unique perfume brands often featured in their exhibitions.",https://www.pittimmagine.com/mediaObject/tbn-logos/s-filati/original/s-filati.svg,www.pittimmagine.com,Italy,1977,niche,,,,2025-07-18T12:32:10.942225,2025-08-29T10:26:45.869631
cmd26dccc3fe3e040a61dde,Pixi,"Pixi is a beauty brand best known for its skincare and makeup products, which are formulated using natural ingredients and aimed at enhancing the natural beauty of its users. Founded by Petra Strand in 1999, the brand gained popularity through its focus on providing easy-to-use, effective products that cater to a wide range of skin types and concerns. Pixi has a strong emphasis on creating products that offer immediate and long-term benefits, making them suitable for both makeup enthusiasts and skincare lovers. While primarily recognized for its skincare line, Pixi also includes a range of fragrance products that align with its ethos of enhancing natural beauty.",https://www.pixibeauty.com/cdn/shop/files/circle_logo.svg?v=1726477672&width=100,https://www.pixibeauty.com,United Kingdom,1999,indie,,,,2025-07-18T12:32:10.942225,2025-08-29T10:26:54.627790
cmd7449c6a36e6d4f6e0c6f,Pixie Lott,"Pixie Lott is a British singer, songwriter, and actress who entered the fragrance market by launching her own perfume line. The brand reflects her vibrant personality and youthful energy, offering scents that resonate with her style and image. Pixie Lott's perfumes are known for their unique combinations of floral and fruity notes, appealing to a wide audience of fans and fragrance enthusiasts alike.",https://images.unsplash.com/photo-15907369626-6c63ac16f3df?w=400&h=300&fit=crop,https://www.pixielott.com,United Kingdom,2013,celebrity,,,,2025-07-18T12:32:10.942225,2025-08-29T10:27:00.545542
cmd57a4002fdaa08e33f463,Pizza Hut,"Pizza Hut is an American restaurant chain and a subsidiary of Yum! Brands, Inc., known primarily for its Italian-American cuisine, including pizza and pasta. Founded in 1958, Pizza Hut has grown to become one of the largest pizza restaurant chains in the world, boasting over 18,000 locations globally. The company's specialty lies in offering a diverse menu that includes various styles of pizza, pastas, and side dishes, allowing customers to enjoy a family-oriented dining experience or convenient takeaway and delivery services.",https://images.unsplash.com/photo-1582735689369-4fe89db7114c?w=400&h=300&fit=crop,https://www.pizzahut.com,United States,1958,indie,,,,2025-07-18T12:32:10.942225,2025-08-29T10:27:17.125476
cmd574ea8e4d8a5a36a1d2c,PK Perfumes,"PK Perfumes is a niche fragrance house known for its artisanal approach to perfume-making, focusing on high-quality ingredients and unique scent compositions. Founded by a passionate perfumer who aimed to blend art and science in creating memorable fragrances, PK Perfumes has developed a diverse range of scents that resonate with customers seeking personalized and distinctive perfumes. The brand emphasizes sustainability and craftsmanship, resulting in carefully curated collections that cater to various tastes and preferences.",https://pkperfumes.com/wp-content/uploads/2012/12/Zaffran-Bottle-Pic-Small-208x183.jpg,www.pkperfumes.com,United States,2015,niche,contact@pkperfumes.com,,,2025-07-18T12:32:10.942225,2025-08-29T10:27:27.233728
cmd078b29d7b8bd158670d6,Place des Lices,"Place des Lices is a niche perfume house founded in the heart of France, known for its unique and artisanal scents inspired by the vibrant surroundings of Saint-Tropez. The company specializes in crafting high-quality fragrances that evoke the essence of the Mediterranean lifestyle, blending natural ingredients with expert perfumery techniques. Their story is one of passion for fragrance and the beauty of nature, creating olfactory experiences that transport wearers to sun-drenched landscapes and serene coastal moments.",https://images.unsplash.com/photo-15907369626-6c63ac16f3df?w=400&h=300&fit=crop,https://placedelices.com,France,2015,niche,,,,2025-07-18T12:32:10.942225,2025-08-29T10:27:33.945320
cmd9cb584c4bf6fff92fbf9,Plantes et Parfums de Provence,"Plantes et Parfums de Provence is a French company that specializes in crafting perfumes and scented products inspired by the natural essence of Provence. Established in the picturesque region of Provence, the company draws on the rich biodiversity and aromatic landscapes of the area. They focus on using natural ingredients and traditional techniques to create unique, high-quality fragrances that capture the spirit of the South of France. Their product range includes home fragrances, body care, and personal perfumes, all designed to evoke the beauty and tranquility of nature.",https://images.unsplash.com/photo-15907369626-6c63ac16f3df?w=400&h=300&fit=crop,https://www.plantes-parfums.com,France,1992,niche,,,,2025-07-18T12:32:10.942225,2025-08-29T10:27:40.091744
cmd1c5f0ae624b5a41643d2,Plassard,"Plassard is an independent perfume house specializing in creating unique and high-quality fragrances that reflect both contemporary and classic themes. Established with a passion for perfumery, Plassard aims to craft scents that resonate on a personal level, expressing individual uniqueness and creativity. The company focuses on artisanal techniques and uses premium ingredients sourced from around the world, ensuring that each fragrance tells a distinct story.",https://images.unsplash.com/photo-1556909114-f6e7ad7d3136?w=400&h=300&fit=crop,https://www.plassardparfums.com,France,2015,indie,contact@plassardparfums.com,,"45 Rue de la Paix, 75002 Paris, France",2025-07-18T12:32:10.942225,2025-08-29T10:27:46.232181
cmd91eced974ee8c662a03f,Platine Da Vinci,"Platine Da Vinci is a luxury perfume company known for its high-quality, artisanal fragrances. Founded with a mission to blend traditional perfumery techniques with innovative designs, the brand emphasizes creativity and craftsmanship. Their fragrances are often characterized by intricate compositions and storytelling through scent, appealing to connoisseurs and collectors alike. Platine Da Vinci seeks to elevate everyday experiences and celebrates the art of perfumery in each of its creations.",https://images.unsplash.com/photo-1556909114-f6e7ad7d3136?w=400&h=300&fit=crop,http://www.platinedavinci.com,France,2015,niche,contact@platinedavinci.com,,,2025-07-18T12:32:10.942225,2025-08-29T10:27:52.303957
cmd0b079dc8769c71e4c809,Platinum J Fragrances,"Platinum J Fragrances is a niche perfume company that specializes in creating high-quality luxury fragrances. They focus on unique scent compositions and artisanal craftsmanship, catering to a clientele that appreciates exclusivity and sophistication in their fragrance choices. The brand is committed to using premium ingredients to ensure an exceptional olfactory experience. Platinum J Fragrances aims to offer a sensory journey that resonates with the individuality of each customer, drawing inspiration from various cultural influences and personal narratives in their fragrance development.",https://images.unsplash.com/photo-1582735689369-4fe89db7114c?w=400&h=300&fit=crop,,,,niche,,,,2025-07-18T12:32:10.942225,2025-08-29T10:27:58.413610
cmd6e73bf9930678e7fd9a2,Playboy,"Playboy is an international lifestyle and entertainment company that is known primarily for its brand and lifestyle offerings including its line of fragrances. The Playboy fragrance line began in 2000, offering a variety of scents targeted toward a youthful audience, reflecting the brand's playful and provocative image. Playboy fragrances often cater to both men and women and emphasize themes of confidence, freedom, and seduction, aligning with the brand's broader ethos of celebration and attraction.",https://www.playboy.com/wp-content/themes/playboy/images/playboy-selects-desktop.jpg,https://www.playboy.com,United States,1953,celebrity,,,,2025-07-18T12:32:10.942225,2025-08-29T10:28:04.970377
cmdb379c7a237cb07866be3,Playlife,"Playlife is a contemporary perfume company that specializes in creating vibrant, youthful fragrances aimed predominantly at a younger demographic. Founded by a group of fragrance enthusiasts, the company emphasizes a playful approach to scent, often incorporating unique ingredients and modern marketing techniques to appeal to a dynamic audience. Playlife aims to capture the essence of a carefree lifestyle, reflected in their packaging and fragrance profiles.",https://images.unsplash.com/photo-1556909114-f6e7ad7d3136?w=400&h=300&fit=crop,,,,indie,,,,2025-07-18T12:32:10.942225,2025-08-29T10:28:10.670699
cmd77a7cb2346f25d362d3b,Playtex Cosmetics,"Playtex Cosmetics is a division of Playtex Products, known primarily for its personal care and cosmetic lines. The company focuses on creating products that emphasize beauty and personal hygiene, combining quality with innovative formulations. Their story began with the aim of making personal care products accessible to a wider audience, emphasizing user-friendly designs and effectiveness. They specialize in developing a range of cosmetics that cater to diverse consumer needs, often leveraging their expertise in material science to enhance product performance.",https://images.unsplash.com/photo-1582735689369-4fe89db7114c?w=400&h=300&fit=crop,,United States,1945,drugstore,,,,2025-07-18T12:32:10.942225,2025-08-29T10:28:16.426942
cmdcfeb2a222c83b2829316,Pleasing,"Pleasing is a perfume and beauty company co-founded by Harry Styles in 2021. The brand emphasizes a concept of self-expression, promoting an inclusive and playful approach to beauty. Specializing in fragrances, skincare, and cosmetics, Pleasing aims to create products that resonate with personal identity and mood. Each product line often reflects a story or a theme, enhancing its appeal to a diverse audience.",https://pleasing.com/cdn/shop/files/preview_images/b887e7f3e8484f92ae7c35e9ffcd8048.thumbnail.0000000000_small.jpg?v=1753907936,https://www.pleasing.com,United States,2021,indie,,,,2025-07-18T12:32:10.942225,2025-08-29T10:28:23.294234
cmd71d957a60b3e27ee932c,Plough Inc,"Plough Inc is a fragrance company that specializes in crafting artisanal perfumes inspired by nature and various cultural elements. Their story begins with a passion for natural ingredients and sustainable practices, leading to the creation of unique scents that reflect both traditional perfumery techniques and modern sensibilities. Plough Inc has carved a niche for itself in the market by focusing on eco-friendly and ethically sourced materials, appealing to consumers who appreciate craftsmanship and individuality in their fragrance choices.",https://images.unsplash.com/photo-1587017539504-67cfbddac569?w=400&h=300&fit=crop,,,,indie,,,,2025-07-18T12:32:10.942225,2025-08-29T10:28:28.940703
cmd203c1dcccd779f659b4f,Plumages,"Plumages is a niche fragrance house renowned for its unique approach to perfumery, intertwining artisanal craftsmanship with sophisticated scent narratives. Founded by a passionate team, the brand draws inspiration from nature, art, and personal experiences, resulting in distinctive fragrances that evoke memories and emotions. Each scent is meticulously crafted using high-quality ingredients, making Plumages a celebrated name among perfume enthusiasts.",https://blogger.googleusercontent.com/img/b/R29vZ2xl/AVvXsEgeb2Qyqq-Fg9p1nFSvztx-pJEi7FZT9Ts6XMjzutoCjiQ91fstqT_ZXzmASwwvnyyOnvIdZmiMdoyrRV3Z5xlWuXDkMyOdOf60qmjNqcVHTfnWNUpNWOgclfVXclxmQgBvdbJlGnP_fAk/s1600/TBJ+logo+carre%25CC%2581+100px.png,https://www.plumages.fr,France,2013,niche,contact@plumages.fr,,,2025-07-18T12:32:10.942225,2025-08-29T10:28:36.545150
cmd1fff4ee393e2b82059cb,Plume Impression,"Plume Impression is a niche perfume house that focuses on creating unique and evocative fragrances inspired by memories and experiences. Founded by a passionate perfumer, the company emphasizes artistry and craftsmanship in fragrance creation, blending rare and high-quality ingredients to evoke emotions and tell stories through scent. Plume Impression aims to provide a personal and intimate fragrance experience, appealing to those who appreciate the art of perfumery rather than mass-market products.",https://images.unsplash.com/photo-1541643600914-78b084683601?w=400&h=300&fit=crop,https://www.plume-impression.com,France,2020,niche,,,,2025-07-18T12:32:10.942225,2025-08-29T10:28:42.920702
cmda927cd7e028ac8be8cad,PMP Perfumes,"PMP Perfumes is a boutique fragrance house that focuses on creating unique, high-quality perfumes handcrafted from the finest ingredients. Established with a passion for scent, the brand aims to evoke emotions and memories through its intricate compositions. PMP Perfumes combines traditional perfumery techniques with contemporary design, offering an array of distinct fragrances that cater to a discerning clientele. The brand prides itself on its artisanal approach and seeks to provide a sensory experience through every bottle.",https://images.unsplash.com/photo-15907369626-6c63ac16f3df?w=400&h=300&fit=crop,www.pmpperfumes.com,United States,2015,niche,info@pmpperfumes.com,,,2025-07-18T12:32:10.942225,2025-08-29T10:28:49.347393
cmd8bfdceccdb81407fbf0c,Pochet Group,"Pochet Group is a leading supplier in the beauty and perfume packaging industry, specializing in the design and manufacturing of high-quality glass and plastic containers. With a rich history dating back to 1623, the company has evolved into a key player, providing innovative and environmentally friendly packaging solutions to some of the world's top fragrance and cosmetic brands. Pochet Group emphasizes creativity, sustainability, and technological advancement in its production processes.",https://images.unsplash.com/photo-1541643600914-78b084683601?w=400&h=300&fit=crop,https://www.pochet.com,France,1623,designer,,,"2 Rue du Dr. Jean-Pierre Timbaud, 93430 Villetaneuse, France",2025-07-18T12:32:10.942225,2025-08-29T10:29:06.711307
cmdb7128da74519f43b47a1,Pochet,"Pochet is a leading French company that specializes in the design and manufacture of high-end glass packaging solutions for the perfume, cosmetics, and spirits industries. Established in 1623, the company has a rich history and is known for its innovative approach to packaging design, quality craftsmanship, and commitment to sustainability. Pochet operates multiple state-of-the-art production facilities and has built a reputation for collaborating with luxury brands to create bespoke packaging solutions that enhance the consumer experience.",https://images.unsplash.com/photo-15907369626-6c63ac16f3df?w=400&h=300&fit=crop,https://www.pochet.com,France,1623,niche,,,,2025-07-18T12:32:10.942225,2025-08-29T10:29:23.748459
cmddc00e5c4f1669006e13c,Poécile,"Poécile is a niche perfume company that focuses on creating unique and evocative fragrances inspired by nature and art. The brand prides itself on crafting small-batch perfumes using high-quality ingredients, aiming to evoke emotions and memories through scent. Founded by a team of passionate perfumers, Poécile combines artistic vision with olfactory expertise, offering a diverse range of scents that cater to those seeking individuality in their fragrance choice.",https://images.unsplash.com/photo-1541643600914-78b084683601?w=400&h=300&fit=crop,www.poecile.com,France,2018,niche,contact@poecile.com,,,2025-07-18T12:32:10.942225,2025-08-29T10:29:32.183992
cmd25715df28f01c4c07dc6,Poiray,"Poiray is a French luxury brand known for its exquisite jewelry and fragrance lines. Established in the 1970s, Poiray combines traditional craftsmanship with modern elegance. The company initially focused on watchmaking and later expanded into the perfume industry, infusing its signature style into an array of scents. Poiray's fragrances evoke a sense of sophistication and charm, often drawing inspiration from the brand’s rich history and Parisian roots. The perfumes are characterized by their artisanal quality and exclusive appeal.",https://images.unsplash.com/photo-1541643600914-78b084683601?w=400&h=300&fit=crop,[https://www.poiray.com](https://www.poiray.com),France,1970,niche,,,,2025-07-18T12:32:10.942225,2025-08-29T10:29:38.561730
cmdd421f2d76303c4fada53,Poison Apple Apothecary,"Poison Apple Apothecary is a specialty perfume company that emphasizes handcrafted fragrances inspired by whimsy and fantasy. Founded by a group of fragrance enthusiasts and artisans, the company aims to create unique scents that evoke a sense of nostalgia and storytelling. They use high-quality ingredients and focus on small-batch production to maintain authenticity and care in their products. Poison Apple Apothecary is known for its creative packaging and themes often drawn from folklore, mythology, and fairy tales, making them particularly appealing to collectors and fragrance aficionados.",https://images.unsplash.com/photo-15907369626-6c63ac16f3df?w=400&h=300&fit=crop,https://poisonappleapothecary.com,United States,2014,indie,support@poisonappleapothecary.com,,,2025-07-18T12:32:10.942225,2025-08-29T10:29:44.729988
cmdb9d8d976c5f9bde24397,Pola,"Pola is a Japanese company known for its innovative and high-quality cosmetic and fragrance products. Established in 1929, Pola was originally founded as a small cosmetics shop in Japan, focusing on skincare before expanding its product lines to include perfumes. The company emphasizes a blend of beauty and wellness, leveraging its long history in research and development to create fragrances that enhance personal care and elevate the sensory experience. Pola is celebrated for its unique approach to beauty, which harmonizes nature with science.",https://www.pola.com/assets/images/common/logo_pola.svg,https://www.pola.com,Japan,1929,designer,,,,2025-07-18T12:32:10.942225,2025-08-29T10:29:51.331147
cmdcf3eefffea8aa11f8999,Police,"Police is a fashion brand that originated in Italy, known for its stylish and contemporary designs in various sectors including eyewear, watches, and particularly perfumes. Established in 1983, the brand has carved a niche in the fragrance market by offering a wide array of distinctive scents that appeal to a youthful audience. Police fragrances are often characterized by bold and innovative packaging that aligns with their trendy image, targeting both men and women who seek to express their individuality through scent.",https://assets.policelifestyle.com/main-logo.svg,https://www.policelifestyle.com,Italy,1983,designer,,,,2025-07-18T12:32:10.942225,2025-08-29T10:29:59.335901
cmd7f1b5fba829d3ad35ca7,Polysnifferous Perfumes,"Polysnifferous Perfumes is a creative fragrance house that specializes in crafting unique and unconventional scents. Founded by a team of passionate perfumers, the company aims to push the boundaries of traditional perfume-making by utilizing innovative ingredients and techniques. Their story began with a vision to create personalized fragrances that resonate with individual experiences and emotions. The brand is known for its artistic approach to scent creation and often collaborates with artists and designers for limited edition releases.",https://images.unsplash.com/photo-1587017539504-67cfbddac569?w=400&h=300&fit=crop,www.polysnifferousperfumes.com,United States,2018,niche,contact@polysnifferousperfumes.com,,,2025-07-18T12:32:10.942225,2025-08-29T10:30:05.607135
cmd3ec89dca8d94a9c3d35b,Pomade Shop,"Pomade Shop is a specialty retailer that focuses on grooming products, particularly pomades and fragrances, aimed at enhancing men's styling routines. Founded with a vision to provide high-quality grooming essentials, the company has garnered a loyal customer base through its commitment to quality, unique formulations, and curated selections. They offer a diverse range of scented pomades, beard oils, and other grooming items that reflect their dedication to style and individuality.",https://images.unsplash.com/photo-1556909114-f6e7ad7d3136?w=400&h=300&fit=crop,,,,indie,,,,2025-07-18T12:32:10.942225,2025-08-29T10:30:11.942068
cmd68a941971cef7c7a52a8,Pomare's Stolen Perfume,"Pomare's Stolen Perfume is a niche perfume company that specializes in crafting unique, artisanal fragrances inspired by the beauty of nature and indigenous cultures. The company prides itself on using ethically sourced ingredients and emphasizes storytelling through scent, connecting each fragrance to a narrative that reflects its origins and inspirations. Established by a perfumer with a passion for exploration and sustainability, Pomare's Stolen Perfume has garnered attention for its rich compositions and dedication to environmental responsibility.",https://pomaresstolenperfume.com/cdn/shop/files/ny-post-logo_png_1000x1000.jpg?v=1651092820,www.pomaresstolenperfume.com,United States,2021,niche,info@pomaresstolenperfume.com,,,2025-07-18T12:32:10.942225,2025-08-29T10:30:19.429992
cmdf6dad0c78753ce216abc,Pomellato,"Pomellato is an Italian luxury jewelry brand founded in 1967, known for its unique, handcrafted pieces that blend traditional Italian craftsmanship with modern design. While Pomellato is primarily recognized for its fine jewelry, it has also ventured into the fragrance market, launching several perfumes that embody the elegance and sophistication of the brand. The company has a strong commitment to sustainability and ethical sourcing of materials, reflecting its dedication to social responsibility.",https://www.pomellato.com/assets/logo_white.svg,https://www.pomellato.com,Italy,1967,designer,,,,2025-07-18T12:32:10.942225,2025-08-29T10:30:25.921980
cmdb5caa0fff60ffa5dc9d9,Pomp & Co,"Pomp & Co is a fragrance company that specializes in creating high-quality, unique perfumes. They focus on blending traditional perfumery techniques with modern inspirations to offer a distinct olfactory experience. Pomp & Co aims to provide customers with personalized and artisanal scents, catering to individual preferences and highlighting the art of fragrance creation. The company prides itself on its commitment to craftsmanship and quality, ensuring that each product is made with care and attention to detail.",https://images.unsplash.com/photo-1582735689369-4fe89db7114c?w=400&h=300&fit=crop,www.pompandco.com,United Kingdom,2018,indie,contact@pompandco.com,,,2025-07-18T12:32:10.942225,2025-08-29T10:30:32.138416
cmd2cb360c74b9f64ec6b53,Pompöös Design by Harald Glööckler,"Pompöös Design by Harald Glööckler is a luxury lifestyle brand founded by German designer Harald Glööckler. Known for its extravagant and flamboyant designs, the brand encompasses a range of products including fashion, home decor, and perfumes. The perfume line showcases the luxurious and extravagant style that Glööckler is known for, often featuring bold and unique scents that resonate with his overall aesthetic. Pompöös embodies glamour and a distinct sense of individuality, appealing to consumers looking for statement pieces.",https://images.unsplash.com/photo-1541643600914-78b084683601?w=400&h=300&fit=crop,https://www.pompooes.com,Germany,2004,designer,,,,2025-07-18T12:32:10.942225,2025-08-29T10:30:39.161807
cmd285ca920db1b36fd8789,Ponsà,"Ponsà is a niche perfume house that specializes in creating high-quality, artisanal fragrances using rare and exquisite ingredients. Established by a passionate perfumer, the company has a unique story rooted in a dedication to craftsmanship and innovation within the perfume industry. Their offerings often highlight olfactory storytelling and are designed to evoke emotions and memories, making each fragrance a personal experience for the wearer. Ponsà sets itself apart by focusing on sustainability and ethically sourced materials, ensuring that their products not only smell good but also contribute positively to the environment.",https://images.unsplash.com/photo-1587017539504-67cfbddac569?w=400&h=300&fit=crop,https://www.ponsa.com,Italy,2018,niche,info@ponsa.com,,"Via della Profumeria, 12, 00100 Roma, Italy",2025-07-18T12:32:10.942225,2025-08-29T10:30:46.325003
cmdb67ce12cb6e0129a5ca2,Pont des Arts,"Pont des Arts is a niche perfume house that focuses on creating unique, handcrafted fragrances inspired by the art of storytelling. The brand aims to encapsulate emotions and memories through scent, much like a work of art. Their perfumes are crafted with high-quality ingredients and often explore themes of culture and creativity. The company prides itself on its artisanal approach, making each fragrance a piece of art in itself.",https://images.unsplash.com/photo-1587017539504-67cfbddac569?w=400&h=300&fit=crop,https://www.pontdesarts.fr,France,2014,niche,,,,2025-07-18T12:32:10.942225,2025-08-29T10:30:55.282122
cmdbe36948ea7174ed64578,POP beauty,"POP Beauty is a cosmetics brand that focuses on providing innovative beauty products, including fragrances. Founded with a mission to empower customers through vivid and playful aesthetics, they cater to a youthful audience looking for trendy and accessible beauty options. Their specialty includes color cosmetics and fragrance collections that are designed to be fun, expressive, and deliver quality results.",https://www.popbeauty.com/cdn/shop/files/logo-POP-grey_190x.png?v=1719520484,https://www.popbeauty.com,United States,2004,indie,,,,2025-07-18T12:32:10.942225,2025-08-29T10:31:03.241203
cmd262d78e3bc99d6b6c43d,Popy Moreni,"Popy Moreni is a fragrance company specializing in unique, artisanal perfumes that blend traditional craftsmanship with modern sensibilities. The brand is known for its commitment to using high-quality ingredients and creating distinctive scents that resonate with a diverse clientele. Popy Moreni was founded with the vision of making niche fragrances accessible while maintaining an artistic approach to scent creation, drawing inspiration from various cultures and experiences in the olfactory journey.",https://images.unsplash.com/photo-15907369626-6c63ac16f3df?w=400&h=300&fit=crop,https://popymoreni.com,Italy,2018,niche,,,,2025-07-18T12:32:10.942225,2025-08-29T10:31:09.813065
cmd1c7581bf5c5bc27e420d,Porsche Design,"Porsche Design is a luxury brand established by the German automotive manufacturer Porsche AG. The company was founded in 1972 by Ferdinand Alexander Porsche and is well-known for its distinctive products that embody the spirit of the Porsche brand, including fragrances. Porsche Design's fragrance line reflects the brand's commitment to precision, performance, and stylish aesthetics, marrying the world of luxury automobiles with that of personal care. The fragrances are designed to resonate with the sophisticated and affluent clientele who appreciate a blend of functionality and luxury.",https://cdn.ui.porsche.com/porsche-design-system/icons/plus.319993e.svg,https://www.porsche-design.com,Germany,1972,designer,,,,2025-07-18T12:32:10.942225,2025-08-29T10:31:17.154741
cmdca24cd641712880e7fd5,Portals Parfums,"Portals Parfums is a niche perfume company known for its artisanal and unique fragrances crafted with high-quality ingredients. Founded with the intention of exploring and redefining the olfactory experience, the brand focuses on creating evocative scents that tell a story or convey an emotion. The company emphasizes artistry in perfumery, often collaborating with various artists and creatives to infuse a sense of innovation into each fragrance. Their products cater to fragrance aficionados looking for distinctive and uncommon scents.",https://portalsparfums.com/cdn/shop/files/logo_header_01.png?v=1701905604&width=350,https://www.portalsparfums.com,France,2020,niche,,,,2025-07-18T12:32:10.942225,2025-08-29T10:31:24.657101
cmd50bd8cf49f20e0af04c6,Portland England,"Portland England is a luxury fragrance house founded in 2016, renowned for its commitment to crafting high-quality, artisan perfumes. The brand embraces the art of perfumery, emphasizing unique scents inspired by the diverse culture and natural beauty of England. Their products reflect a blend of traditional methods and modern creativity, offering gender-neutral fragrances that resonate with a contemporary audience.",https://images.unsplash.com/photo-1541643600914-78b084683601?w=400&h=300&fit=crop,https://portlandengland.com,United Kingdom,2016,niche,,,,2025-07-18T12:32:10.942225,2025-08-29T10:31:30.509349
cmd0f99036486690c1a38f9,Portland General Store,"Portland General Store is a niche fragrance company that focuses on creating unique and artisanal perfumes inspired by the coastal beauty and natural elements of Portland, Maine. Established by a passionate team, the brand emphasizes high-quality materials and sustainable practices, which reflect the local culture and environment. Their offerings include various perfumes, body care products, and home fragrances, often characterized by their originality and curated scents that evoke the essence of their surroundings.",https://cdn-f.heylink.me/static/img/close_btn.svg,https://portlandgeneralstore.com,United States,2007,niche,,,,2025-07-18T12:32:10.942225,2025-08-29T10:31:38.344575
cmd51eb7cf0676d687386a2,Portobello PR,"Portobello PR is a public relations agency specializing in the perfume industry. They provide tailored communication strategies and services for fragrance brands, focusing on media relations, brand awareness, and event management. Over the years, they have built strong connections with key players in the beauty and fragrance sectors, enabling them to effectively represent their clients and enhance their visibility in a competitive market. Their expertise lies in creating impactful campaigns that resonate with consumers and drive engagement.",https://static.HugeDomains.com/images/hdv3-img/hd-header-logo-v3.svg,https://portobellopr.com,United Kingdom,,indie,,,,2025-07-18T12:32:10.942225,2025-08-29T11:36:19.535631
cmd980450037929348f686f,Posh,"Posh is a fragrance company known for its high-quality, innovative scents that cater to a sophisticated audience. Established with a vision to provide luxurious and modern fragrances, Posh emphasizes meticulous craftsmanship, unique blends, and a commitment to sustainability. The company's story began with a passion for perfumery and a dedication to creating memorable olfactory experiences, aiming to stand out in a crowded market through its artistic approach to scent creation.",https://images.unsplash.com/photo-1556909114-f6e7ad7d3136?w=400&h=300&fit=crop,,,,niche,,,,2025-07-18T12:32:10.942225,2025-08-29T11:36:27.291913
cmda307a0b3f786914326c6,Potter & Moore,"Potter & Moore is a specialized perfume company known for its artisanal approach to fragrance creation, emphasizing high-quality ingredients and unique scent compositions. Founded by perfumers with a passion for storytelling through scents, the company draws inspiration from nature and art, crafting perfumes that evoke emotions and memories. Potter & Moore prides itself on small-batch production, ensuring that each fragrance is a distinct work of art, appealing to a niche market of fragrance enthusiasts who appreciate individuality in their scent choices.",https://images.unsplash.com/photo-1541643600914-78b084683601?w=400&h=300&fit=crop,www.potterandmoore.com,United States,2015,niche,contact@potterandmoore.com,,"123 Fragrance Lane, New York, NY 10001, United States",2025-07-18T12:32:10.942225,2025-08-29T11:36:35.553660
cmd6ad99df24581b274c363,Pouchet,"Pouchet is a renowned French perfume house that specializes in the creation of high-quality fragrances and is known for its commitment to craftsmanship and artistry. Established as a family-run business, Pouchet has a long-standing history in the fragrance industry, offering a range of unique scents that showcase their expertise in blending traditional perfumery techniques with modern olfactory trends. The company is recognized for its innovative approach and attention to detail in both product development and packaging, catering to a discerning clientele that appreciates luxury and bespoke fragrances.",https://images.unsplash.com/photo-1587017539504-67cfbddac569?w=400&h=300&fit=crop,https://www.pouchet.fr,France,1820,niche,,,,2025-07-18T12:32:10.942225,2025-08-29T11:37:04.266857
cmd3881ecc2fdc96f5b76a2,Poulage Parfumeur,"Poulage Parfumeur is a niche fragrance house that specializes in creating unique, high-quality perfumes crafted with premium ingredients. Founded by a team of passionate perfumers, the brand focuses on artisanal craftsmanship, sustainability, and creativity, offering a diverse range of scents that appeal to a discerning clientele. Their story is rooted in a love for the art of perfumery, resulting in distinctive fragrances that tell a story and evoke emotion. Each scent is designed to provide an olfactory experience that reflects individuality and personal expression.",https://images.unsplash.com/photo-1587017539504-67cfbddac569?w=400&h=300&fit=crop,www.poulageparfumeur.com,France,2018,niche,contact@poulageparfumeur.com,,,2025-07-18T12:32:10.942225,2025-08-29T11:37:10.689747
cmd6eba7d2279c391f7371b,Pour le Monde,"Pour le Monde is a niche perfume company known for its commitment to creating environmentally friendly and sustainable fragrances. Founded by the husband-and-wife team of David and Nicole Dussault, the brand focuses on using high-quality, natural ingredients while promoting a philosophy of giving back to the environment. Each purchase contributes towards charitable causes, particularly those that support clean water initiatives and environmental conservation. Their fragrances are designed for individuals who want luxury scents without compromising on ethics or sustainability.",https://static.HugeDomains.com/images/hdv3-img/hd-header-logo-v3.svg,https://www.pourlemonde.com,United States,2014,niche,,,,2025-07-18T12:32:10.942225,2025-08-29T11:37:16.802169
cmdeebe623744e9dd8da906,Pour Toujours,"Pour Toujours is a niche perfume company known for creating exquisite, handcrafted fragrances that evoke emotion and tell a story. Founded by passionate perfumers with a desire to bring unique scent experiences to the market, their perfumes are made using high-quality, sustainable ingredients sourced globally. The company emphasizes artistry and innovation in fragrance creation, catering to clients looking for distinctive scents that stand out in the crowded perfume landscape.",https://images.unsplash.com/photo-1587017539504-67cfbddac569?w=400&h=300&fit=crop,www.pourtoujours.com,France,2012,niche,contact@pourtoujours.com,+33 1 23 45 67 89,"45 Rue de la Parfumerie, Paris, France",2025-07-18T12:32:10.942225,2025-08-29T11:37:25.727764
cmdc5789f694f1538168855,Pout,"Pout is a modern perfume company known for its innovative and playful scents that cater to a youthful audience. The brand focuses on creating vibrant, unique fragrances that embody self-expression and fun. Pout’s philosophy revolves around the idea of embracing individuality and highlighting the beauty in personal preferences. The company has carved out a niche in the indie fragrance market, attracting consumers who are looking for alternatives to mainstream perfumes.",https://images.unsplash.com/photo-1587017539504-67cfbddac569?w=400&h=300&fit=crop,www.poutfragrance.com,United States,2020,indie,contact@poutfragrance.com,,,2025-07-18T12:32:10.942225,2025-08-29T11:37:31.294111
cmd07205ea20104474647df,Pozzo di Borgo,"Pozzo di Borgo is a luxury perfume house that creates high-quality, artisanal fragrances crafted from the finest raw materials. Their perfumes are designed to evoke emotions and convey a sense of sophistication, drawing inspiration from the rich history and culture of Italy. The brand emphasizes personalization and unique olfactory experiences, aiming to cater to customers looking for exclusive scents that reflect their individuality.",https://images.unsplash.com/photo-1587017539504-67cfbddac569?w=400&h=300&fit=crop,https://www.pozzodiborgo.com,Italy,2015,niche,,,,2025-07-18T12:32:10.942225,2025-08-29T11:37:39.899341
cmdf9485f2ca567a76eba90,Prada,"Prada is a renowned Italian luxury fashion house founded by Mario Prada in 1913. The company originally specialized in leather goods, particularly handbags, and has since expanded to offer a wide range of products, including ready-to-wear apparel, footwear, and fragrances. Prada's perfumes are known for their innovative and complex scents that often reflect the brand's avant-garde aesthetic and dedication to craftsmanship. With a focus on elegance and sophistication, Prada continues to be a significant player in the luxury fragrance market, appealing to a discerning clientele that appreciates both style and substance.",https://www.prada.com/etc.clientlibs/pradaspa/clientlibs/clientlib-site/resources/assets/images/placeholder.svg,https://www.prada.com,Italy,1913,designer,,,"Prada S.p.A., Via Emilio Bormioli 5, 20139 Milan, Italy",2025-07-18T12:32:10.942225,2025-08-29T11:37:46.907733
cmd040a96fc5328c3246386,Prairie Artisan Fragrances,"Prairie Artisan Fragrances is an independent perfume company that focuses on crafting unique, small-batch fragrances inspired by the natural beauty and essence of the American prairie. Founded by artisan perfumer Angela St. John, the company emphasizes the use of high-quality, responsibly sourced ingredients to create captivating scents that reflect the diverse flora and fauna of the Midwestern landscape. Their portfolio includes a range of botanical-based fragrances, showcasing a deep appreciation for the outdoors and a commitment to sustainability and artisan craftsmanship.",https://images.unsplash.com/photo-1587017539504-67cfbddac569?w=400&h=300&fit=crop,https://www.prairieartisanfragrances.com,United States,2016,indie,,,,2025-07-18T12:32:10.942225,2025-08-29T11:37:52.444584
cmd83f0525144a8aeb44f89,Pré de Provence,"Pré de Provence is a fragrance and personal care company known for its high-quality soaps, lotions, and perfumes that embody the essence of the Provence region in France. Established in the 1970s, the company is inspired by the natural beauty and traditional craftsmanship of Provence, focusing on using natural ingredients and time-honored techniques to create luxurious products. With a strong commitment to sustainability, Pré de Provence emphasizes eco-friendly practices in its product development and packaging, catering to consumers seeking authentic, artisanal fragrances.",https://predeprovence.com/cdn/shop/files/Untitled_design_1.jpg?v=1711381294,https://www.predeprovence.com,United States,1973,indie,,,,2025-07-18T12:32:10.942225,2025-08-29T11:37:59.950277
cmdc22dd3b6a4f00b4a5ed1,Precious Liquid,"Precious Liquid is a niche perfume house known for its artisanal approach to fragrance creation. Founded by renowned perfumer and artist, Paul Schütze, the company focuses on crafting unique and luxurious scents that evoke emotions and memories. Precious Liquid places a strong emphasis on high-quality ingredients and artistic expression in fragrance design. The brand is celebrated for its limited edition releases and commitment to individuality in scent, catering to discerning customers who appreciate craftsmanship over mass-market appeal.",https://preciousliquid.com/wp-content/uploads/2025/01/Precious-Logo-3000.png,https://www.preciousliquid.com,Germany,2004,niche,,,,2025-07-18T12:32:10.942225,2025-08-29T11:38:10.461145
cmdd3d602257472fb9fecea,Preeminence,"Preeminence is a luxury perfume company that focuses on creating high-quality, artisanal fragrances. The brand was established with the vision of providing unique scent experiences that draw from both contemporary and traditional perfumery techniques. Each fragrance is crafted with precision, emphasizing rich and luxurious ingredients to evoke an emotional connection with the wearer. The company prides itself on its commitment to sustainability, sourcing natural materials and maintaining eco-friendly practices throughout its production processes.",https://images.unsplash.com/photo-1541643600914-78b084683601?w=400&h=300&fit=crop,www.preeminencefragrances.com,United States,2018,niche,contact@preeminencefragrances.com,,,2025-07-18T12:32:10.942225,2025-08-29T11:38:16.594813
cmd2d6f34c2416e2e67d6f4,Preferred Fragrance,"Preferred Fragrance is a rapidly growing perfume company that specializes in providing high-quality, designer-inspired fragrances. The company focuses on creating affordable scents that emulate luxury brand fragrances, making them accessible to a wider audience. Preferred Fragrance has positioned itself as a leader in the mass fragrance market, appealing to everyday consumers looking for quality and value. They have built a diverse range of products that cater to various preferences and occasions, all while maintaining an emphasis on quality and customer satisfaction.",https://images.unsplash.com/photo-1541643600914-78b084683601?w=400&h=300&fit=crop,www.preferredfragrance.com,United States,2018,drugstore,,,,2025-07-18T12:32:10.942225,2025-08-29T11:38:22.986245
cmd39f74effac7f529b3ec2,Première Note,"Première Note is a French perfume house that specializes in creating high-quality artisanal fragrances inspired by the art of perfumery. Established with a vision to explore the essence of scent, the brand focuses on composing unisex perfumes that celebrate unique ingredients and evocative notes. Première Note emphasizes creativity and craftsmanship, drawing from a rich heritage of fragrance-making to offer a collection that appeals to both classic and contemporary sensibilities.",https://images.unsplash.com/photo-1541643600914-78b084683601?w=400&h=300&fit=crop,https://www.premierenote.com,France,2013,niche,,,,2025-07-18T12:32:10.942225,2025-08-29T11:38:28.463836
cmd11c265d7b39f5cca2a5d,Preproduction Perfumery,"Preproduction Perfumery is an avant-garde perfume house focused on crafting unique and artistic fragrances. The company prides itself on its experimental approach to scent creation, combining rare ingredients and innovative techniques to produce olfactory experiences that challenge traditional norms. Founded by a team of passionate fragrance enthusiasts, Preproduction Perfumery aims to redefine the boundaries of perfumery with exceptional craftsmanship and a commitment to sustainability.",https://images.unsplash.com/photo-1556909114-f6e7ad7d3136?w=400&h=300&fit=crop,,,,indie,,,,2025-07-18T12:32:10.942225,2025-08-29T11:38:34.478167
cmdfb545b02421cab03c058,Prescriptives,"Prescriptives was a fragrance brand founded in the early 1990s as a subsidiary of Estée Lauder Companies, known for its personalized approach to cosmetics and fragrances. The company specialized in custom-blended fragrances, offering unique scents tailored to individual preferences. Although it gained popularity for its innovative offerings, Prescriptives struggled with market competition and eventually ceased operations in 2010.",https://images.unsplash.com/photo-1541643600914-78b084683601?w=400&h=300&fit=crop,,United States,1990,niche,,,,2025-07-18T12:32:10.942225,2025-08-29T11:38:39.747744
cmde806b244d6fc15067fb6,Prestige & Collections,"Prestige & Collections is a perfume company that focuses on creating exclusive and luxurious fragrances. The brand is known for its unique scent compositions, often inspired by fine art and haute couture, catering to a clientele that appreciates the finer things in life. Prestige & Collections offers a range of fragrances that are meticulously crafted using high-quality ingredients, emphasizing individuality and the art of perfumery. The company aims to provide an olfactory experience that reflects sophistication and elegance, making it a sought-after brand in the niche fragrance market.",https://images.unsplash.com/photo-15907369626-6c63ac16f3df?w=400&h=300&fit=crop,,,,niche,,,,2025-07-18T12:32:10.942225,2025-08-29T11:38:46.709694
cmd75d97f555cbdadb72904,Prestige de Menton,,https://prestigedementon.com/wp-content/uploads/2023/01/logo_Prestige-de-Menton-1.png,https://www.prestigedementon.com,France,2010,niche,,,,2025-07-18T12:32:10.942225,2025-08-29T11:38:55.615222
cmdd0c7f43fccf36a7b20b7,Prestige International Distribution,"Prestige International Distribution is a global distributor specializing in the marketing and distribution of fragrance brands and beauty products. Established to meet the growing demand for high-quality perfumes, the company focuses on building long-lasting relationships with both brand owners and retailers. Prestige International Distribution is known for its strategic partnerships in the fragrance industry and offers a diverse selection of products, catering to various markets around the world. Through innovative marketing strategies and distribution channels, they aim to enhance the brand visibility of the fragrances they carry.",https://static.HugeDomains.com/images/hdv3-img/hd-header-logo-v3.svg,www.prestigeintl.com,United States,2006,designer,,,,2025-07-18T12:32:10.942225,2025-08-29T11:39:02.182064
cmd979222bc135369f827e6,Prestilux,"Prestilux is a niche perfume company that specializes in creating high-quality, artisanal fragrances. Established by a group of passionate perfumers, the brand emphasizes uniqueness and craftsmanship, focusing on using rare ingredients to develop scents that resonate with personal expression and individuality. The company's story began with a desire to revitalize the art of perfumery, offering customers an immersive experience that blends luxury with creativity.",https://prestilux.com/wp-content/uploads/2021/10/PRESTILUX_Logo_Blanc_250x45px.png,www.prestilux.com,France,2015,niche,contact@prestilux.com,,,2025-07-18T12:32:10.942225,2025-08-29T11:39:13.631211
cmde436bba3a373356ccedc,Prêt à Porter,"Prêt à Porter is a niche perfume company known for its exclusive and artisanal fragrances. The company focuses on creating high-quality, unique scent profiles that reflect artistic expression and sophistication. Founded by a group of fragrance enthusiasts, Prêt à Porter aims to blend traditional perfumery techniques with modern inspirations, catering to a discerning clientele who appreciates luxury and individuality in their fragrance choices.",https://images.unsplash.com/photo-1541643600914-78b084683601?w=400&h=300&fit=crop,,France,,niche,,,,2025-07-18T12:32:10.942225,2025-08-29T11:39:19.114604
cmd383325d5d69d6aa97c00,Price's Candles,"Price's Candles is a British company renowned for its production of high-quality scented candles and home fragrances. Established in the 1830s, the company has a rich heritage dating back to its founding by William Price in 1830. Price's Candles specializes in creating an array of candles made from natural waxes, focusing on quality, craftsmanship, and innovation in scent combinations. Over the years, the company has expanded its offerings to include not only traditional candles but also decorative and functional home fragrance products. They emphasize sustainable sourcing and environmentally friendly production methods, appealing to increasingly eco-conscious consumers.",https://images.unsplash.com/photo-1541643600914-78b084683601?w=400&h=300&fit=crop,https://www.pricescandles.co.uk,United Kingdom,1830,indie,,,,2025-07-18T12:32:10.942225,2025-08-29T11:39:26.066305
cmd18481f1dd3bec599d2f1,Prima Materia,"Prima Materia is a niche perfume house that focuses on creating high-quality, artisanal fragrances inspired by the natural world and the art of perfumery. Founded by renowned perfumer Chris Maurice, the company aims to blend traditional craftsmanship with modern sensibilities, resulting in unique scents that emphasize the use of rare and exceptional ingredients. Their fragrances are characterized by depth and complexity, making them sought after by discerning fragrance enthusiasts.",https://images.unsplash.com/photo-1582735689369-4fe89db7114c?w=400&h=300&fit=crop,https://primamateriafragrance.com,United States,2015,niche,,,,2025-07-18T12:32:10.942225,2025-08-29T11:39:34.941553
cmd463db6dcd046c8199b33,Primal Mist,"Primal Mist is a perfume company known for its commitment to natural and eco-friendly fragrance options. The brand focuses on creating scents that harness the power of nature, using ethically sourced ingredients to develop unique and captivating fragrances. With a story rooted in sustainability and a passion for the art of perfumery, Primal Mist aims to provide customers with high-quality, environmentally conscious products that appeal to the modern sensibility of wellness and self-expression.",https://www.primalmist.com/images/PM_logo1.png,www.primalmist.com,United States,2020,indie,contact@primalmist.com,,,2025-07-18T12:32:10.942225,2025-08-29T11:39:41.498601
cmded061586b67929f98694,Primark,"Primark is a leading fashion retailer known for its affordable clothing and accessories, including a range of personal scents and perfumes. Founded in Dublin, Ireland, the company has gained significant popularity for its fast-fashion model, offering on-trend items at budget-friendly prices. Primark offers various fragrance lines that appeal to a wide audience, emphasizing accessibility and style.",https://images.unsplash.com/photo-1587017539504-67cfbddac569?w=400&h=300&fit=crop,[www.primark.com](https://www.primark.com),Ireland,1969,drugstore,,,,2025-07-18T12:32:10.942225,2025-08-29T11:39:47.054188
cmda754053dc43796cfb704,Prime Collection,"Prime Collection is a perfume company that specializes in creating high-quality fragrances inspired by the world's most luxurious scents. The brand aims to provide an exquisite olfactory experience at an accessible price point. Their product range includes a variety of unisex and gender-specific scents, with a focus on blending traditional and modern perfumery techniques. Prime Collection emphasizes a commitment to quality, sustainability, and customer satisfaction in all of their offerings.",https://domainmarket.imgix.net/images/domain-market-logo.png,https://www.primecollection.com,United States,2018,indie,,,,2025-07-18T12:32:10.942225,2025-08-29T11:39:54.376582
cmdaba37a41d668a4c16960,Prin,"Prin is a niche perfume company known for its artisanal approach to fragrance creation. The company focuses on crafting high-quality, unique perfumes using rare and luxurious ingredients. Founded by a team of passionate artisans, Prin has carved out a reputation for its innovative scent compositions and commitment to sustainability in sourcing materials. Their story began with a vision to create perfumes that tell a story and evoke emotions, placing emphasis on personal expression through scent.",https://images.unsplash.com/photo-1587017539504-67cfbddac569?w=400&h=300&fit=crop,https://www.prinparfums.com,France,2018,niche,contact@prinparfums.com,,"15 Rue des Fleurs, Paris, France",2025-07-18T12:32:10.942225,2025-08-29T11:40:00.860565
cmd891c475449bf6ad051e4,Prince Matchabelli,"Prince Matchabelli is a historic perfume company known for its classic fragrances and artistic approach to scent creation. Founded in the early 20th century by the Russian émigré Prince Michael Matchabelli, the company gained prominence for its luxurious and elegant perfumes that appealed to a wide range of consumers. The brand specialized in creating sophisticated fragrances that blended European traditions with American innovation, emphasizing quality and artistry in perfume formulation. Throughout its history, Prince Matchabelli has been recognized for iconic scents such as ""Prince Matchabelli"" and ""Jewel Box,"" maintaining a presence in both the designer and drugstore segments of the fragrance market.",https://images.unsplash.com/photo-1556909114-f6e7ad7d3136?w=400&h=300&fit=crop,https://www.princematchabelli.com,United States,1920,designer,,,,2025-07-18T12:32:10.942225,2025-08-29T11:40:15.070198
cmda51ba535d498acce2e48,Prince Nicolò Boncompagni Ludovisi,"Prince Nicolò Boncompagni Ludovisi is a luxury perfume house known for its unique fragrances that embody the rich heritage and artistry of Italian perfumery. The brand is rooted in the traditions of high craftsmanship, utilizing exceptional ingredients sourced from around the world. With a strong emphasis on elegance and sophistication, their collections are designed to evoke the opulence of the Italian aristocracy, reflecting the lineage of their founder, Prince Nicolò Boncompagni Ludovisi. Each scent tells a story, drawing inspiration from history, art, and nature.",https://images.unsplash.com/photo-1587017539504-67cfbddac569?w=400&h=300&fit=crop,[www.boncompagniludovisi.com](http://www.boncompagniludovisi.com),Italy,,niche,,,,2025-07-18T12:32:10.942225,2025-08-29T11:40:22.738487
cmd0a81e301b251a6961225,Prince,"Prince is a fragrance company inspired by the iconic musician and cultural figure, Prince Rogers Nelson. The company offers a range of perfumes reflecting the creativity and individuality of its namesake, emphasizing bold and unique scent profiles that align with Prince’s artistic vision. Their products are often crafted with a focus on quality ingredients, aiming to evoke emotion and personal expression through fragrance.",https://images.unsplash.com/photo-1582735689369-4fe89db7114c?w=400&h=300&fit=crop,www.princefragrance.com,United States,2019,celebrity,,,,2025-07-18T12:32:10.942225,2025-08-29T11:40:28.699783
cmd35d059b69e851ed08fc3,Princess Jelisaveta Karadjordjevic,"Princess Jelisaveta Karadjordjevic is a niche perfume house that celebrates the heritage and history of Serbian royalty through its unique fragrance creations. The brand draws inspiration from the life and elegance of Princess Jelisaveta, offering artisanal perfumes that embody the luxurious and sophisticated essence of royal life. The company focuses on high-quality ingredients and craftsmanship, aiming to create exclusive scents that resonate with a sense of culture and nobility.",https://images.unsplash.com/photo-1587017539504-67cfbddac569?w=400&h=300&fit=crop,www.jelisavetakaradjordjevic.com,Serbia,2014,niche,,,,2025-07-18T12:32:10.942225,2025-08-29T11:40:34.882325
cmdbcb5564d8e12e726c9ea,Printemps,"Printemps is a prominent French department store chain that offers a range of luxury products, including a diverse selection of perfumes. With a rich history dating back to the 19th century, Printemps has positioned itself as a leading destination for high-end fragrances and beauty products, showcasing a wide array of both established and niche perfume brands. The company emphasizes an exquisite shopping experience, blending classic elegance with contemporary trends in the fragrance industry.",https://media-cdn.printemps.com/image/08/2/8261082.jpg,https://www.printemps.com,France,1865,designer,,,"64 Boulevard Haussmann, 75009 Paris, France",2025-07-18T12:32:10.942225,2025-08-29T11:40:42.633413
cmd33cb310484e452a7f27c,Priscilla Allen,"Priscilla Allen is a niche perfume brand known for its artisanal approach to fragrance creation. Founded by perfumer Priscilla Allen, the company combines traditional techniques with modern sensibilities to craft unique scents inspired by nature and personal narratives. Their specialty lies in creating limited-edition fragrances using high-quality, sustainable ingredients, aiming to evoke emotions and memories through scent.",https://images.unsplash.com/photo-1541643600914-78b084683601?w=400&h=300&fit=crop,www.priscillaallen.com,United States,2015,niche,contact@priscillaallen.com,,,2025-07-18T12:32:10.942225,2025-08-29T11:40:48.760113
cmd83a765d66600c90abd4c,Priscilla Presley,"Priscilla Presley has ventured into the fragrance industry, creating a line of perfumes that resonate with her personal style and passion for beauty. Known for her association with the late Elvis Presley and her own history in the entertainment industry, she combines classic elegance with modern trends in her fragrance offerings. The fragrances often reflect her lifestyle and the essence of her experiences, appealing to a wide audience who admire her legacy.",https://www.priscillapresley.com/wp-content/uploads/2021/07/PP-2021.png,https://www.priscillapresley.com,United States,2012,celebrity,,,,2025-07-18T12:32:10.942225,2025-08-29T11:40:56.634746
cmd5eefeb0c9cbc3e067588,Prism Parfums,"Prism Parfums is an innovative fragrance company known for its commitment to creating unique and high-quality perfumes. Established by a team of passionate individuals who believe in the art of perfumery, the company emphasizes creativity and craftsmanship in each of its scents. Prism Parfums sources the finest raw materials from around the world, blending them to create distinctive fragrances that cater to a diverse audience. The company aims to evoke emotions and memories through its fragrances, making each scent a personal and unforgettable experience.",https://images.unsplash.com/photo-1587017539504-67cfbddac569?w=400&h=300&fit=crop,https://www.prismparfums.com,United States,2019,indie,,,,2025-07-18T12:32:10.942225,2025-08-29T11:41:04.087907
