id,name,description,image,website,country,founded,type,email,phone,address,createdAt,updatedAt
cmd76cb37b88ac82346d18f,Wella,"Wella is primarily known for its hair care and hair color products; however, it also has a presence in the fragrance industry, producing perfumes that act as a signature scent complementing their beauty range. Founded in 1880, Wella started with the goal of meeting the needs of hairdressers and their clients by providing innovative and high-quality hair care solutions. The company has since evolved and become a well-recognized brand in the beauty industry, with a focus on creativity and supporting professional hairdressers. Wella's specialties include a combination of cutting-edge technology, premium quality, and an extensive product line tailored for both professionals and consumers.",https://images.unsplash.com/photo-1587017539504-67cfbddac569?w=400&h=300&fit=crop,https://www.wella.com,Germany,1880,designer,,,,2025-07-18T12:32:10.942225,2025-08-29T15:23:41.236676
cmd2c2b0a03e2a82d04e5ea,Welton,"Welton is a perfume company known for its artisanal fragrances and commitment to quality. Established in 2000, they specialize in creating luxurious, bespoke scents that cater to both individual preferences and high-end retailers. Their focus is on using natural ingredients to produce fragrances that are both distinctive and captivating, which has positioned them as a premium brand within the niche fragrance market. The company has a rich story rooted in a passion for fragrance and an appreciation for traditional perfumery techniques.",https://images.unsplash.com/photo-15907369626-6c63ac16f3df?w=400&h=300&fit=crop,http://www.welton.london,United Kingdom,2000,niche,,,,2025-07-18T12:32:10.942225,2025-08-29T15:23:47.191147
cmd090ed3aabf4e51ef4e86,Weruska & Joel,"Weruska & Joel is a luxury perfume house founded by fragrance designers and partners Matthew Weruska and Katerina Joel. The brand is known for creating artisanal and unique fragrances that embody a mix of nature's beauty and artistic inspiration. Their story revolves around a shared passion for scent and self-expression, emphasizing the craftsmanship involved in the creation of each perfume. The duo sources high-quality ingredients and collaborates with perfumers to develop distinct fragrances that evoke emotions and memories.",https://images.unsplash.com/photo-1556909114-f6e7ad7d3136?w=400&h=300&fit=crop,https://www.weruskaandjoel.com,United States,2017,niche,,,,2025-07-18T12:32:10.942225,2025-08-29T15:23:53.467863
cmd487008a505500bb4b522,Wesker,"Wesker is a contemporary perfume company known for its innovative and artistic fragrance creations that blend traditional perfumery techniques with modern aesthetics. The company emphasizes unique scent compositions that target niche markets, catering to both fragrance enthusiasts and casual consumers with a flair for the distinctive. Founded by a team of passionate perfumers and artists, Wesker draws inspiration from various cultures and historical contexts, offering a range of scents that reflect their commitment to craftsmanship and originality.",https://images.unsplash.com/photo-1541643600914-78b084683601?w=400&h=300&fit=crop,www.weskerfragrances.com,United States,2018,niche,contact@weskerfragrances.com,,"350 Bluxome St, San Francisco, CA 94107",2025-07-18T12:32:10.942225,2025-08-29T15:24:00.746387
cmd53c0641527b4c61987aa,West Coast Shaving,"West Coast Shaving is a specialty retailer that focuses on high-quality men’s grooming products, particularly wet shaving supplies. Founded by a wet shaver enthusiast, the company offers a curated selection of artisan shaving soaps, razors, aftershaves, and accessories. Their mission is to bring back the art of traditional wet shaving and provide customers with premium grooming products that enhance the shaving experience.",https://images.unsplash.com/photo-1556909114-f6e7ad7d3136?w=400&h=300&fit=crop,https://www.westcoastshaving.com,United States,2007,indie,,,,2025-07-18T12:32:10.942225,2025-08-29T15:24:07.090428
cmd5c59cbfdd4dbfed39892,West Indies Bay Company,"West Indies Bay Company is a niche fragrance house that specializes in crafting high-quality, tropical-inspired scents. The company was established with the vision of capturing the essence of the Caribbean through unique and evocative fragrances derived from natural ingredients. Their story is rooted in the enchanting beauty and rich culture of the islands, allowing them to offer a sensory experience that reflects the vibrant lifestyle of the West Indies. They prioritize sustainability and ethical sourcing of their ingredients, making them a distinctive player in the niche perfume market.",https://images.unsplash.com/photo-1582735689369-4fe89db7114c?w=400&h=300&fit=crop,www.westindiesbay.com,United States,2017,niche,info@westindiesbay.com,,,2025-07-18T12:32:10.942225,2025-08-29T15:24:13.254535
cmd6f82a4d4f95420a75dd3,West Third Brand,"West Third Brand is an American fragrance company that focuses on crafting unique, high-quality perfumes inspired by various places and experiences. The brand is known for its artisanal approach, blending natural ingredients and sustainably sourced elements to create distinctive scents. Their product line often reflects a sense of storytelling, bringing to life scents that evoke specific memories or moods tied to locations, hence its name which refers to a street in Los Angeles connected to creativity and inspiration.",https://www.westthirdbrand.com/cdn/shop/files/logo_410x.jpg?v=1722352080,https://westthirdbrand.com,United States,2013,indie,,,,2025-07-18T12:32:10.942225,2025-08-29T15:24:23.384102
cmdcac7edb82206b2448b0c,Western Design,"Western Design is a niche perfume company that specializes in creating unique, artisanal fragrances inspired by the natural beauty and heritage of the American West. Founded by a team of scent enthusiasts and artisans, the company aims to encapsulate the spirit of the West through carefully selected ingredients and meticulous craftsmanship. With a focus on sustainability and authenticity, Western Design offers a range of handcrafted perfumes that evoke the landscapes and cultures of the western United States.",https://images.unsplash.com/photo-1556909114-f6e7ad7d3136?w=400&h=300&fit=crop,www.westerndesignfragrances.com,United States,2015,niche,info@westerndesignfragrances.com,,,2025-07-18T12:32:10.942225,2025-08-29T15:24:29.803120
cmdb1bdffb53db82b68e546,Western Valley Avenue London,"Western Valley Avenue London is a perfume company known for creating unique, high-quality fragrances that embody luxury and sophistication. With a focus on artisanal craftsmanship and premium ingredients, the company aims to provide an olfactory experience that resonates with individuality and personal expression. The brand draws inspiration from the cultural richness of London, blending tradition with modernity in its scent compositions.",https://images.unsplash.com/photo-15907369626-6c63ac16f3df?w=400&h=300&fit=crop,,United Kingdom,,indie,,,,2025-07-18T12:32:10.942225,2025-08-29T15:24:35.297651
cmd3e658cf386e89789a743,Westlife,"Westlife is a British-Irish boy band that gained prominence in the late 1990s and early 2000s. Although primarily known for their music, they have ventured into various merchandising avenues, including perfumes. Their debut fragrance line, which reflects the band's musical style and appeal, aims to engage their fan base through signature scents that resonate with their image and identity.",https://images.unsplash.com/photo-1556909114-f6e7ad7d3136?w=400&h=300&fit=crop,,United Kingdom,1998,celebrity,,,,2025-07-18T12:32:10.942225,2025-08-29T15:24:41.231724
cmdb3628ccf1e7d1d54ea2a,WeWoreWhat,"WeWoreWhat is a contemporary lifestyle brand founded by Danielle Peazer that merges fashion with beauty products, including a line of signature fragrances. The brand focuses on modern, urban aesthetics inspired by social media culture and aims at engaging millennial and Gen Z audiences. WeWoreWhat began as a fashion blog, evolving into a wider range of retail offerings, including fragrances that capture the essence of vibrant urban life.",https://weworewhat.com/cdn/shop/files/wwwlogo-FINAL_500x_a5dba0e1-b133-49a9-a553-d7ca782cce6e_360x.png?v=1667835143,https://www.weworewhat.com,United States,2012,indie,,,,2025-07-18T12:32:10.942225,2025-08-29T15:24:49.627887
cmd22649ac9a1adb28114c3,What we do is Secret,"What We Do Is Secret is a niche perfume company known for its unique and artistic fragrances that often draw inspiration from art, culture, and literature. Established by a small group of passionate perfumers and artists, the brand focuses on creating limited-edition scents in collaboration with various artists, making each fragrance a work of art. The company prides itself on using high-quality, sustainable ingredients, and aims to provide an olfactory experience that is both personal and transformative.",https://static.HugeDomains.com/images/hdv3-img/hd-header-logo-v3.svg,https://www.whatwedoissecret.com,United States,2010,niche,,,,2025-07-18T12:32:10.942225,2025-08-29T15:24:56.894481
cmd30f0b3c0df7363ceb4b4,Whatever it Takes,"Whatever it Takes is an innovative perfume company focused on creating unique scents that embody resilience and determination. Founded on the principle of pushing boundaries, the brand offers a variety of fragrances inspired by the journey of overcoming challenges. Their specialties include artisanal blending of high-quality ingredients, sustainable sourcing, and an emphasis on storytelling through scent.",https://images.unsplash.com/photo-1556909114-f6e7ad7d3136?w=400&h=300&fit=crop,www.whateverittakesperfume.com,United States,2022,indie,contact@whateverittakesperfume.com,,"123 Scent Lane, Fragrance City, CA 90210, United States",2025-07-18T12:32:10.942225,2025-08-29T15:25:02.515177
cmdf7518ac361b36ba51a4b,Whïnd,"Whïnd is an innovative fragrance company that focuses on creating high-quality perfumes using unique ingredients and sustainable practices. The brand emphasizes artistry and storytelling in its fragrances, appealing to a discerning clientele looking for personal and distinctive scents. Whïnd aims to inspire self-expression through fragrance and often collaborates with artists and creators to craft limited edition scents.",https://images.unsplash.com/photo-1556909114-f6e7ad7d3136?w=400&h=300&fit=crop,https://www.whind.co.uk,United Kingdom,2019,indie,contact@whind.co.uk,,,2025-07-18T12:32:10.942225,2025-08-29T15:25:07.971890
cmdb9deb6dd23e564d61e25,White Barn Candle Co,"White Barn Candle Co is a brand known for its premium scented candles and home fragrance products. Originally established as a standalone store, it focuses on creating a wide range of home fragrances designed to enhance the ambiance of living spaces. Their products often feature unique scent combinations and are marketed primarily through Bath & Body Works, a sister brand under L Brands. White Barn Candle Co aims to capture the essence of various seasonal and holiday-themed fragrances, appealing to consumers who value a cozy and inviting home atmosphere.",https://images.unsplash.com/photo-1556909114-f6e7ad7d3136?w=400&h=300&fit=crop,https://www.bathandbodyworks.com/c/white-barn,United States,1990,indie,,,,2025-07-18T12:32:10.942225,2025-08-29T15:25:14.153899
cmd2d599f617c692f3528d2,White Witch,"White Witch is an indie perfume company known for crafting unique, artisanal fragrances that draw inspiration from nature, mythology, and the esoteric. Their story began with a passion for creating scents that evoke emotions and memories, often incorporating rare ingredients and sustainable practices. White Witch specializes in small-batch production, ensuring each fragrance is distinct and reflective of the founders' creative artistry and commitment to quality.",https://images.unsplash.com/photo-1556909114-f6e7ad7d3136?w=400&h=300&fit=crop,https://whitewitchfragrance.com,United States,2016,indie,,,,2025-07-18T12:32:10.942225,2025-08-29T15:25:20.119152
cmd89440996e374dd9076f6,Whitney Houston,"Whitney Houston, an iconic American singer and actress, leveraged her fame to create a line of fragrances that reflect her artistry and personal style. The brand captures the essence of Houston’s legacy, offering scents that resonate with her passion for music and love for life. The fragrances cater to both her fans and fragrance enthusiasts, combining elements of sophistication and glamour.",https://images.unsplash.com/photo-15907369626-6c63ac16f3df?w=400&h=300&fit=crop,,United States,2010,celebrity,,,,2025-07-18T12:32:10.942225,2025-08-29T15:25:25.223237
cmd5f22b17a979214a7cc05,Who Is Elijah,"Who Is Elijah is a niche perfume brand that focuses on creating unique and high-quality fragrances inspired by artistic concepts and personal experiences. The company aims to evoke emotions and stories through their olfactory creations, merging fine artistry with perfumery. The brand emphasizes individuality and customization in scent, exploring the intricate relationship between mindset and fragrance.",https://whoiselijah.com/cdn/shop/files/2500px-GQ_logo_400x150_large_c6853e18-db72-4890-9654-1f88e0b86c08_large.png?v=1648144975,https://whoiselijah.com,United States,2021,niche,info@whoiselijah.com,,,2025-07-18T12:32:10.942225,2025-08-29T15:25:31.812167
cmd0afee5877b2594cd0418,Wicked,"Wicked is a niche perfume brand known for its unique and provocative fragrances that aim to evoke emotions and challenge conventional notions of beauty. The company focuses on crafting scents that represent individuality and self-expression. The story of Wicked begins with a desire to create bold, enchanting perfumes that encapsulate the darker, more sensual sides of fragrance artistry. Each scent is designed to tell a story, drawing inspiration from various cultural and mythical elements. Wicked distinguishes itself in the market by carefully selecting high-quality ingredients and employing artisanal techniques in production, ensuring a distinct olfactory experience.",https://images.unsplash.com/photo-1541643600914-78b084683601?w=400&h=300&fit=crop,https://wickedperfume.com,United States,2018,niche,contact@wickedperfume.com,,"123 Wicked Way, Los Angeles, CA 90017, USA",2025-07-18T12:32:10.942225,2025-08-29T15:25:39.082306
cmd0aaa6886fbed46ac0490,Wickle,"Wickle is a niche perfume company that specializes in creating unique, hand-crafted fragrances that reflect personal expression and artistry. The company emphasizes the use of high-quality, ethically sourced ingredients, and their perfumes are designed to evoke emotions and memories. Wickle began with a passion for scent-making and has grown to cater to individuals looking for distinctive olfactory experiences.",https://images.unsplash.com/photo-1556909114-f6e7ad7d3136?w=400&h=300&fit=crop,www.wicklefragrances.com,United States,2018,niche,contact@wicklefragrances.com,,,2025-07-18T12:32:10.942225,2025-08-29T15:25:44.193975
cmd755b01221821e3208aa5,Wide Society,"Wide Society is an innovative fragrance company that specializes in creating unique and unconventional scents. They focus on artisanal perfumery, often drawing inspiration from diverse cultures and experiences. The company aims to push the boundaries of traditional fragrance by offering a wide array of options that cater to a sophisticated audience seeking individuality in their scent choices. Their story is rooted in a desire to redefine personal fragrance and promote self-expression through olfactory art.",https://images.unsplash.com/photo-1582735689369-4fe89db7114c?w=400&h=300&fit=crop,https://www.widesociety.com,United States,2019,indie,info@widesociety.com,,,2025-07-18T12:32:10.942225,2025-08-29T15:25:50.071881
cmd8afa09d56a1fdd26170f,Widian,"Widian is a luxury perfume brand known for its high-quality and niche fragrances that often incorporate traditional Arabian perfumery with modern olfactory creativity. Founded in the UAE, Widian draws inspiration from the rich culture and heritage of the Middle East, using premium ingredients to create exclusive scents. Their collection includes a variety of fragrances designed for both men and women, reflecting an elegant and sophisticated aesthetic. Widian aims to elevate the perfume experience by blending artistic craftsmanship with luxury perfume-making techniques.",https://www.widian.com/wp-content/uploads/2023/04/widian-logo.svg,https://www.widian.com,United Arab Emirates,2014,niche,,,,2025-07-18T12:32:10.942225,2025-08-29T15:25:56.714888
cmddb02dda86a4c47318288,WienerBlut,"WienerBlut is an Austrian perfume house known for its unique and artisanal fragrances. Established in 2012, the company focuses on creating high-quality niche perfumes inspired by the rich cultural and historical heritage of Vienna. Their collections embody a blend of art and craftsmanship, offering scents that are both innovative and evocative. WienerBlut distinguishes itself through its use of natural ingredients and meticulous attention to detail, appealing to connoisseurs and fragrance enthusiasts alike.",https://images.unsplash.com/photo-1582735689369-4fe89db7114c?w=400&h=300&fit=crop,https://www.wienerblut.com,Austria,2012,niche,,,,2025-07-18T12:32:10.942225,2025-08-29T15:26:03.216932
cmd856ab7f852300f66560a,Wijck,"Wijck is a niche perfume company that specializes in creating unique and captivating fragrances with a focus on craftsmanship and artistic expression. Based in the Netherlands, Wijck has garnered attention for its innovative scent compositions and the ability to evoke emotions through their olfactory creations. The brand emphasizes sustainability and the use of high-quality ingredients, often sourcing materials locally to create a deep connection with their surroundings and history.",https://images.unsplash.com/photo-1556909114-f6e7ad7d3136?w=400&h=300&fit=crop,https://wijckfragrances.com,Netherlands,2013,niche,,,,2025-07-18T12:32:10.942225,2025-08-29T15:26:09.550179
cmdc302c9b2e9ea7217848a,Wik & Co,"Wik & Co is a unique fragrance company that specializes in crafting artisanal perfumes. Established with a passion for modern olfactory experiences, the company aims to blend traditional techniques with contemporary creativity. They focus on sustainable sourcing of ingredients and promote individuality through customizable scent options, allowing customers to create their own signature fragrances. The story of Wik & Co began with a vision to redefine personal fragrance, making high-quality scents accessible to a broader audience while emphasizing storytelling through scent.",https://wikandco.com/cdn/shop/files/Wik_Co-Logo-White_410x.png?v=1614342828,https://www.wikandco.com,United States,2017,indie,,,,2025-07-18T12:32:10.942225,2025-08-29T15:26:16.427876
cmdf45d65408ac60ad08053,WikiParfum,"WikiParfum is an extensive online database and community platform dedicated to perfumes, fragrances, and personal care products. It serves as a resource for users to explore different fragrance notes, reviews, and ratings, as well as providing detailed information about perfume houses and their offerings. The site enables perfume enthusiasts to share their insights, helping others make informed choices when it comes to purchasing fragrances. Their specialty lies in curating a comprehensive collection of fragrance information and fostering community engagement among perfume lovers.",https://images.unsplash.com/photo-15907369626-6c63ac16f3df?w=400&h=300&fit=crop,https://www.wikiparfum.com,,,indie,,,,2025-07-18T12:32:10.942225,2025-08-29T15:26:22.337345
cmd8e65250e05f9e56f2aa6,Wild Eden,"Wild Eden is an indie perfume company that focuses on creating high-quality, handcrafted fragrances inspired by nature. Established with a commitment to sustainability and ethical sourcing, Wild Eden combines innovative fragrance design with a deep appreciation for the environment. The company prides itself on using natural ingredients that are responsibly sourced and avoiding harmful chemicals, catering to consumers who seek eco-conscious luxury in their perfume choices. Their story is rooted in the belief that fragrances can evoke strong emotional connections and provide a sensory experience that celebrates the beauty of the natural world.",https://images.unsplash.com/photo-15907369626-6c63ac16f3df?w=400&h=300&fit=crop,https://wildeden.co.uk,United Kingdom,2018,indie,hello@wildeden.co.uk,,,2025-07-18T12:32:10.942225,2025-08-29T15:26:29.086241
cmd7cb0f6cd33cc83671933,Wild Flowers,"Wild Flowers is a distinct perfume company known for its unique, nature-inspired fragrances. The brand emphasizes artisanal craftsmanship and sustainability, sourcing ingredients from sustainable farms and focusing on eco-friendly packaging. Their story began with a passion for the fragrant allure of flowers and botanicals, intertwined with a commitment to environmental conservation. Wild Flowers specializes in creating bespoke perfumes that capture the essence of different floral landscapes, appealing to eco-conscious consumers seeking artisanal quality.",https://images.unsplash.com/photo-1541643600914-78b084683601?w=400&h=300&fit=crop,,,,indie,,,,2025-07-18T12:32:10.942225,2025-08-29T15:26:36.979626
cmd1197fd5bd699de7e078a,Wild Iris,"Wild Iris is a niche perfume company that specializes in creating unique, artisanal fragrances inspired by nature and the beauty of wildflowers. Founded with the philosophy of using high-quality, ethically sourced ingredients, Wild Iris aims to offer customers a connection to the natural world through scent. Their story began with a desire to capture the essence of wild iris flowers and other botanicals, resulting in a collection of fragrances that are distinct, evocative, and environmentally conscious.",https://www.wildiris.com/Content/images/logo.png,www.wildiris.com,United States,2016,niche,,,,2025-07-18T12:32:10.942225,2025-08-29T15:26:43.321981
cmd6e72c44cf50b70f9af72,Wild Precious Life,"Wild Precious Life is a perfume company dedicated to creating artisanal fragrances that celebrate the beauty and complexity of life. Founded by a passionate perfume enthusiast, the company aims to capture moments and memories through scent, offering a range of unique, handcrafted fragrances. Their specialty lies in blending natural ingredients and sustainable practices to produce high-quality perfumes that resonate with the spirit of adventure and self-discovery.",https://images.squarespace-cdn.com/content/v1/5e85151a507443062d096887/1585780102026-MRQHE8IQ1CWMAT9R3BYX/180730_Firestone-Sisters_Logo_Revision_FINAL-2x.png,https://wildpreciouslife.com,United States,2019,indie,contact@wildpreciouslife.com,,,2025-07-18T12:32:10.942225,2025-08-29T15:26:49.193027
cmd2da04807dc702ee50560,Wild Terrains,"Wild Terrains is a niche perfume company that focuses on creating unique and sustainable fragrances inspired by nature and diverse terrains around the world. Established with a mission to connect people with the essence of nature, the brand emphasizes eco-conscious practices, sourcing natural ingredients, and developing scents that evoke specific landscapes and environments. Their collection features a range of perfumes that tell stories of various geographical locations, resonating with customers who appreciate artistry, originality, and environmental sustainability in fragrance.",https://images.squarespace-cdn.com/content/v1/565a8d96e4b0c6e18e470429/1634676332666-1L25Q5CX4VINFCW36158/today-show-logo-white.png,www.wildterrains.com,United States,2018,niche,info@wildterrains.com,,,2025-07-18T12:32:10.942225,2025-08-29T15:26:56.001065
cmdd7379d6e3aa7b4e1c224,Wild Veil Perfume,,https://wildveilperfume.com/cdn/shop/products/2020-09-02-092856268_59c6ff30-3f0f-4fc2-b77f-7e5ea1f05805_345x345@2x.jpg?v=1599144627,www.wildveilperfume.com,United States,2017,niche,contact@wildveilperfume.com,,,2025-07-18T12:32:10.942225,2025-08-29T15:27:03.079752
cmdf4aa2cf58dfbcc9f02b7,Wildfox,"Wildfox is a fashion brand that initially gained fame through its casual and playful clothing line, often inspired by the California lifestyle. The company later expanded its product offerings to include fragrances that embody the same carefree, bohemian spirit. Wildfox's perfumes reflect their ethos of fun and femininity, showcasing scents that are vibrant and appealing to a youthful demographic. The brand emphasizes a lifestyle over a mere product offering, creating fragrances that resonate with its adventurous and confident customers.",https://www.wildfox.com/cdn/shop/files/wf_log_black_mobile.png?height=30&v=1677269746,https://www.wildfox.com,United States,2007,indie,,,,2025-07-18T12:32:10.942225,2025-08-29T15:27:09.669696
cmdd471328f8e09145e0a77,Wildsmith,"Wildsmith is a prominent fragrance company known for creating high-quality, sustainable perfumes. Founded by the renowned British skincare expert, Wildsmith specializes in natural ingredients sourced from the earth to craft distinctly captivating scents. The company is rooted in a philosophy of well-being and seeks to enhance the sensory experience through thoughtfully composed fragrances that evoke emotional connections to nature. Wildsmith emphasizes craftsmanship and artistry in their product offerings, making them a notable player in the niche fragrance market.",https://wildsmithskin.com/cdn/shop/t/67/assets/logo.svg?v=52566355960593317701746034396,https://wildsmithskin.com,United Kingdom,2018,niche,,,,2025-07-18T12:32:10.942225,2025-08-29T15:27:16.336782
cmd10de709dd15570bc2f02,Wilgermain,"Wilgermain is a niche perfume company specializing in artisanal fragrances that capture the essence of nature and craftsmanship. Founded by passionate perfumers, the brand focuses on using high-quality, sustainable ingredients to create unique scent profiles that evoke emotions and memories. Their story is rooted in a commitment to creativity and authenticity, offering a range of limited-edition perfumes that resonate with a discerning audience.",https://images.unsplash.com/photo-15907369626-6c63ac16f3df?w=400&h=300&fit=crop,https://www.wilgermain.com,France,2019,niche,contact@wilgermain.com,,"45 Avenue des Champs-Élysées, 75008 Paris, France",2025-07-18T12:32:10.942225,2025-08-29T15:27:22.272046
cmdab5ebfce2d80480aed38,Wilkes Bashford,"Wilkes Bashford is a luxury retail company recognized for its upscale clothing, accessories, and fragrances. Established in San Francisco in 1966, it has been a haven for fashion enthusiasts seeking high-end products and curated selections from both established and emerging designers. The company is known for offering a tailored shopping experience, emphasizing quality and customer service, which extends to their fragrance offerings that complement their high-fashion ethos.",https://images.unsplash.com/photo-1582735689369-4fe89db7114c?w=400&h=300&fit=crop,,United States,1966,designer,,,,2025-07-18T12:32:10.942225,2025-08-29T15:27:27.914946
cmd6b97e01c998fd39b8f87,Wilkinson Sword / Schick,"Wilkinson Sword, recognized in some regions as Schick, is primarily known for personal grooming products such as razors and shaving supplies. However, they ventured into the fragrance market as part of their branding strategy, leveraging their reputation for quality and innovation in personal care. Founded in the late 18th century, the company has a rich history and expertise in producing cutting-edge grooming technology. Their perfumes are often marketed under the Schick brand, aligning with their image of sophistication and precision in care products.",https://www.wilkinsonsword.com/cdn/shop/files/Wilkinson_Sword_Logo_White_Negative_Digital_small.svg?v=1702294106,https://www.wilkinsonsword.com/,United Kingdom (headquartered),1772,drugstore,,,,2025-07-18T12:32:10.942225,2025-08-29T15:27:35.480910
cmd1d185977df0f89f17ea8,Will Levis,"Will Levis is a fragrance company known for its unique and bold scents. The brand emphasizes quality and craftsmanship in creating fragrances that resonate with individual expression. Established in the context of a growing interest in personal fragrances, Will Levis combines modern olfactory techniques with traditional perfume-making methods to offer an eclectic range of perfumes that cater to diverse preferences. Over the years, they have built a reputation for innovative scent compositions and artistic collaborations, targeting consumers who appreciate both uniqueness and quality in their perfume choices.",https://images.unsplash.com/photo-1582735689369-4fe89db7114c?w=400&h=300&fit=crop,,,,niche,,,,2025-07-18T12:32:10.942225,2025-08-29T15:27:41.235591
cmd34feb3226766d11a93e1,William Eadon,"William Eadon is a niche perfume company known for its artisanal approach to fragrance creation, focusing on quality ingredients and unique scent compositions. The company emphasizes storytelling through perfume, often drawing inspiration from nature and personal experiences. Founded by a passionate perfumer, William Eadon aims to provide an intimate and luxurious olfactory experience that resonates with individual identity and emotion.",https://images.unsplash.com/photo-15907369626-6c63ac16f3df?w=400&h=300&fit=crop,https://www.williameadon.com,United Kingdom,2015,niche,contact@williameadon.com,,,2025-07-18T12:32:10.942225,2025-08-29T15:27:50.113079
cmdb48e95530adba078e855,William Neely,"William Neely is an artisanal perfume company that specializes in crafting unique, high-quality fragrances using rare ingredients. The brand is known for its commitment to sustainability and ethical sourcing practices, emphasizing a strong connection to nature. Established with a passion for perfumery, William Neely aims to create scents that tell a story and evoke emotions. The company's philosophy revolves around the notion that fragrance is an art form, intertwined with personal expression.",https://images.squarespace-cdn.com/content/v1/57bb9a9c440243fdcf7d4bd4/bdbc4a4f-0361-4042-88f9-237595338af5/class+enrollment_rating.jpg,https://www.williamneely.com,United States,2011,niche,,,,2025-07-18T12:32:10.942225,2025-08-29T15:27:57.331860
cmd84f8de7f2d8021132006,William R. Warner Company,"The William R. Warner Company specializes in creating and manufacturing high-quality fragrances and cosmetic products. Founded in the late 19th century, the company has built a legacy around innovation in scent development, often focusing on natural ingredients and sustainable practices. They serve a variety of markets, including both consumer and commercial sectors, and have established themselves as a noteworthy player in the fragrance industry, known for their dedication to craftsmanship and quality.",https://images.unsplash.com/photo-1541643600914-78b084683601?w=400&h=300&fit=crop,,United States,1875,niche,,,,2025-07-18T12:32:10.942225,2025-08-29T15:28:03.204072
cmd8cc9ec657f78ef25011a,William Rast,"William Rast is an American lifestyle brand co-founded by musician Justin Timberlake and Trace Ayala in 2005. Initially launched as a premium denim line, the brand has expanded to include fragrance collections that embody a modern, youthful spirit. The scents reflect the edgy and authentic style associated with the brand, often inspired by music and cultural themes. William Rast emphasizes quality and craftsmanship, aiming to resonate with a fashion-conscious audience.",https://images.squarespace-cdn.com/content/v1/5981e425a5790a8582c5f552/1552487881815-YPWZ86ED7JMMDMZQP3FO/WR_logo_w_icon_.jpg,https://www.williamrast.com,United States,2005,celebrity,,,,2025-07-18T12:32:10.942225,2025-08-29T15:28:09.599673
cmd0937e70056f024fa4ca1,Williams,"Williams is a niche perfume company that specializes in crafting unique, high-quality fragrances inspired by nature and the art of perfumery. Founded by a team of fragrance enthusiasts and professionals, Williams prides itself on using natural ingredients and traditional methods to create sophisticated scent profiles. The company has gained a devoted following for its distinctively crafted perfumes, focusing on artistry and individualism in fragrance creation.",https://images.unsplash.com/photo-15907369626-6c63ac16f3df?w=400&h=300&fit=crop,,,,niche,,,,2025-07-18T12:32:10.942225,2025-08-29T15:28:15.164574
cmd5f409ebbde44fdd4c5dc,Wings,"Wings is a perfume manufacturer known for its diverse range of fragrances that cater to various demographics. The company specializes in creating signature scents that evoke emotions and memories. Established in the early 1990s, Wings has built a reputation for offering quality products at affordable prices, making perfumes accessible to a broader audience. The company's ethos is centered around innovation and creativity in the fragrance industry, often combining traditional techniques with modern approaches to scent development.",https://images.unsplash.com/photo-1541643600914-78b084683601?w=400&h=300&fit=crop,https://www.wingsgroup.in,India,1992,drugstore,,,,2025-07-18T12:32:10.942225,2025-08-29T15:28:21.124262
cmdd878545882c2d3605290,Winx Club,"Winx Club is an Italian animated series created by Iginio Straffi in 2004 that follows a group of young fairies as they navigate various adventures and challenges. Although primarily known for its television series and merchandise, the Winx Club franchise has expanded to include a range of beauty products, including perfumes. The perfumes inspired by the series are often marketed towards young audiences, leveraging the strong brand identity of the characters and themes. The company specializes in creating fun, whimsical fragrances that resonate with the show's themes of friendship and adventure.",https://www.winxclub.com/sites/default/themes/winx2016/img/img_marchio.png,www.winxclub.com,Italy,2004,celebrity,,,,2025-07-18T12:32:10.942225,2025-08-29T15:28:28.377648
cmd9b5f8add55228fc87a25,Wiseguys Cologne,"Wiseguys Cologne is an American perfume company known for its unique and bold fragrance offerings, designed to appeal to the confident and sophisticated man. The company focuses on creating scents that encapsulate the essence of masculinity, drawing inspiration from a variety of classic and contemporary themes. Founded by a group of perfume enthusiasts, Wiseguys aims to provide high-quality, affordable colognes that stand out in a crowded market, with a particular emphasis on storytelling through scent.",https://images.unsplash.com/photo-15907369626-6c63ac16f3df?w=400&h=300&fit=crop,https://www.wiseguyscologne.com,United States,2015,indie,contact@wiseguyscologne.com,,,2025-07-18T12:32:10.942225,2025-08-29T15:28:34.522384
cmd1348930fa4b10fec36b8,Wit & West,"Wit & West is an artisanal fragrance company that focuses on creating unique, high-quality perfumes inspired by the natural environment and the spirit of adventure. Founded by a team of passionate scent creators, the brand emphasizes the use of sustainable ingredients and environmentally friendly practices in their production. Wit & West offers a curated selection of fragrances that encapsulate the essence of exploration and the wanderlust lifestyle, targeting consumers who appreciate authenticity and craftsmanship.",https://witandwest.com/cdn/shop/files/Homepage_Desktop_Jasmine_Bae_Saranae_Standard.jpg?v=1622826139&width=3000,www.witandwest.com,United States,2018,indie,hello@witandwest.com,,,2025-07-18T12:32:10.942225,2025-08-29T15:28:41.827844
cmdba6c4e61059792ff24fc,Wolf Brothers,"Wolf Brothers is a niche perfume company that specializes in creating handcrafted fragrances inspired by the natural world. Founded by two brothers with a passion for olfactory art and a commitment to sustainability, the company focuses on using high-quality, ethically sourced ingredients to craft unique scents. Their story emphasizes the bond of brotherhood and craftsmanship, resulting in a curated selection of perfumes that highlight individuality and simplicity.",https://images.unsplash.com/photo-15907369626-6c63ac16f3df?w=400&h=300&fit=crop,https://www.wolfbrothers.com,United States,2020,niche,contact@wolfbrothers.com,,,2025-07-18T12:32:10.942225,2025-08-29T15:28:47.904917
cmd60bcf30bd0487ee79a62,Wolff & Sohn,"Wolff & Sohn is a distinguished perfume company that specializes in crafting high-quality fragrances. With a rich heritage in the perfume industry, the company is known for its commitment to using premium ingredients and maintaining traditional methods of fragrance creation. Their portfolio includes a range of unique scents that appeal to a discerning clientele, blending classic techniques with contemporary design and innovation.",https://images.unsplash.com/photo-15907369626-6c63ac16f3df?w=400&h=300&fit=crop,http://www.wolffundsohn.com,Germany,1820,niche,,,,2025-07-18T12:32:10.942225,2025-08-29T15:28:53.286717
cmdf8286b215080af42d2ad,Women'Secret,"Women'secret is a Spanish lingerie and loungewear brand founded in 1993. The company specializes in women's intimate apparel and has expanded its product line to include perfumes, home wear, and swimwear. Women'secret aims to provide stylish and affordable products that empower women and celebrate femininity. The brand has consistently focused on innovation, quality, and customer satisfaction, which has helped it become a well-known name in the fashion and fragrance industry.",https://www.womensecret.com/on/demandware.static/-/Sites/default/dwf74d472f/ws_logo-fijo.svg,https://www.womensecret.com,Spain,1993,designer,,,,2025-07-18T12:32:10.942225,2025-08-29T15:29:00.773269
cmd8c4fc04c3e175c208820,Womo,"Womo is a fragrance company that focuses on creating unique and high-quality perfumes, primarily targeting a modern and avant-garde audience. The brand aims to encapsulate the essence of individuality and self-expression through its distinct scent offerings. Established with a passion for perfumery, Womo offers a range of scents that reflect various facets of contemporary life, providing customers with olfactory experiences that are both memorable and elegant.",https://images.unsplash.com/photo-1541643600914-78b084683601?w=400&h=300&fit=crop,www.womo.fragrance,Italy,2018,indie,,,,2025-07-18T12:32:10.942225,2025-08-29T15:29:06.836295
cmdfbe322633cf418970318,Woods of Windsor,"Woods of Windsor is a renowned British perfume and personal care brand that blossomed from a rich heritage steeped in the scents and botanical beauty of Windsor. Established in the mid-20th century, the brand focuses on producing luxurious fragrance products inspired by nature, historical gardens, and traditional English perfumery techniques. They offer a range of products including perfumes, bath and body care, all crafted with the finest ingredients to embody elegance and nostalgia. The company is particularly known for scents like ""English Rose,"" and its dedication to celebrating classic aromas ensures a unique, aromatic experience that resonates with its consumers.",https://images.unsplash.com/photo-1556909114-f6e7ad7d3136?w=400&h=300&fit=crop,https://www.woodsofwindsor.co.uk,United Kingdom,1978,indie,,,,2025-07-18T12:32:10.942225,2025-08-29T15:29:13.458606
cmd7c9638557ed37be1cbd7,Woodwick,"Woodwick is a brand known for its unique candles and home fragrances that feature a wooden wick designed to create a crackling sound when burned, reminiscent of a fireplace. Founded in 1990, the company has carved out a niche in the home fragrance market with its commitment to high-quality materials and innovative fragrances. Their products are often crafted from natural materials, featuring a variety of fragrances inspired by nature, which creates an immersive sensory experience. Over the years, Woodwick has garnered a loyal customer base due to its distinct offerings and aesthetic appeal.",https://images.unsplash.com/photo-1582735689369-4fe89db7114c?w=400&h=300&fit=crop,https://www.woodwick.com,United States,1990,indie,,,,2025-07-18T12:32:10.942225,2025-08-29T15:29:22.211073
cmd61447f5a84e6496890c1,Words,"Words is a unique perfume company that emphasizes storytelling through scent. Each fragrance is designed to evoke specific memories or emotions, allowing users to experience a narrative journey with each application. Founded on a passion for artistry and self-expression, Words aims to create scents that resonate deeply with individuals, enhancing their connection to their personal stories. The company specializes in bespoke fragrances, offering a range of customizable options for consumers seeking a personalized scent experience.",https://images.unsplash.com/photo-1556909114-f6e7ad7d3136?w=400&h=300&fit=crop,www.wordsfragrance.com,United States,2019,indie,contact@wordsfragrance.com,,,2025-07-18T12:32:10.942225,2025-08-29T15:29:28.456831
cmd8d1c5b74d40c3dc5d3d9,Worth,"Worth, a historic perfume brand founded by Charles Frederick Worth in the mid-19th century, is known for its luxurious fragrances that embody elegance and sophistication. The brand is often regarded as one of the first fashion houses and merged the worlds of haute couture and perfumery. Worth specializes in high-quality perfumes that reflect its rich heritage in fashion and fragrance, captivating customers with its classic and contemporary offerings.",https://images.unsplash.com/photo-1587017539504-67cfbddac569?w=400&h=300&fit=crop,https://www.worthparfums.com,France,1906,designer,,,,2025-07-18T12:32:10.942225,2025-08-29T15:29:34.102720
cmd6fc1e9fb43eabf515875,Woudacieux Haute Parfumerie,"Woudacieux Haute Parfumerie is a niche perfume house known for its artisanal approach to fragrance creation. Founded by a group of passionate perfumers, the company emphasizes quality over quantity, utilizing rare and sustainable ingredients sourced globally. Their products are characterized by unique compositions that tell a story, aiming to evoke emotions and memories through scent. Woudacieux operates with a commitment to craftsmanship and exclusivity, positioning itself within the luxury segment of the fragrance market.",https://images.unsplash.com/photo-1582735689369-4fe89db7114c?w=400&h=300&fit=crop,www.woudacieux.com,France,2018,niche,contact@woudacieux.com,,"27 Rue de la Parfumerie, Paris, 75008, France",2025-07-18T12:32:10.942225,2025-08-29T15:29:41.580775
cmdade1ab8db26e71030b71,Wrangler,"Wrangler is primarily known as an American clothing brand specializing in denim and workwear, particularly jeans. While not predominantly a perfume company, they have extended their brand into the fragrance market by creating scent lines that reflect the rugged and adventurous spirit associated with their clothing. They aim to appeal to consumers seeking a lifestyle brand that embodies outdoor ruggedness and authenticity through their products.",https://images.unsplash.com/photo-15907369626-6c63ac16f3df?w=400&h=300&fit=crop,https://www.wrangler.com,United States,1947,indie,,,,2025-07-18T12:32:10.942225,2025-08-29T15:29:47.234325
cmd09fbedd17f26d44967a3,Wren Atelier,"Wren Atelier is a niche perfume company known for its commitment to crafting unique and high-quality fragrances using thoughtful ingredient sourcing and artistry. Founded on the principles of sustainability and individuality, Wren Atelier focuses on creating scents that resonate personally with their wearers. The brand emphasizes transparency and creativity in its offerings, appealing to discerning customers looking for signature fragrances that embody both sophistication and a sense of identity.",https://images.squarespace-cdn.com/content/v1/6191872d4376110b750097a1/1a8ff45c-1dd9-474a-b0b3-41a4d133b10b/WA.png?format=1500w,https://wrenatelier.com,United States,2020,niche,,,,2025-07-18T12:32:10.942225,2025-08-29T15:29:54.534244
cmd567c71c40774827ea478,WU,"WU is a niche perfume company known for its unique and artisanal fragrances that blend traditional and modern scent profiles. The company focuses on high-quality ingredients and sustainable practices, appealing to consumers who seek individuality and exclusivity in their fragrance choices. WU aims to create emotional connections through scent, often collaborating with artists and creatives to develop limited-edition collections.",https://images.unsplash.com/photo-1541643600914-78b084683601?w=400&h=300&fit=crop,www.wuperfumes.com,United States,2018,niche,contact@wuperfumes.com,,,2025-07-18T12:32:10.942225,2025-08-29T15:30:00.755704
cmd671e910b8c1199f4352f,Wycon,,https://assets.wyconcosmetics.com/extensions/wycon/images/logo-header.png,https://www.wyconcosmetics.com,Italy,2014,indie,,,,2025-07-18T12:32:10.942225,2025-08-29T15:30:09.223378
cmdacb8afba08fea582d316,Wylde Ivy,"Wylde Ivy is a niche perfume company specializing in handcrafted fragrances that highlight botanical and artisanal elements. Founded with a passion for nature and sustainability, Wylde Ivy aims to create unique scents that captivate the senses while remaining environmentally conscious. The brand is known for its commitment to using high-quality, ethically sourced ingredients, and each fragrance is designed to evoke a specific mood or experience, reflecting the founder’s personal journey and love for nature.",https://images.unsplash.com/photo-1587017539504-67cfbddac569?w=400&h=300&fit=crop,https://wyldeivy.com,United States,2012,niche,,,,2025-07-18T12:32:10.942225,2025-08-29T15:30:22.089970
cmd7b3256b51d8c83ef71f4,Wylde Moon,"Wylde Moon is a fragrance company founded by actress and entrepreneur Sarah Jessica Parker. The brand focuses on creating unique and evocative scents that draw inspiration from nature and the experiences of everyday life. Wylde Moon aims to encapsulate feelings, memories, and the spirit of adventure within their perfumes, creating a personal and intimate connection with each fragrance. The company emphasizes sustainability and the use of ethically sourced ingredients, appealing to consumers who value both quality and environmental responsibility.",https://images.unsplash.com/photo-15907369626-6c63ac16f3df?w=400&h=300&fit=crop,https://www.wyldemoon.com,United States,2021,indie,,,,2025-07-18T12:32:10.942225,2025-08-29T15:30:28.294705
cmd3e3ef25b6aa7d4a472a9,X-Ray,"X-Ray is a niche perfume company that focuses on creating unique and artistic fragrances. Established by a collective of fragrance enthusiasts and artists, X-Ray distinguishes itself by blending traditional perfumery with contemporary artistic expressions. Their scents often convey deep emotions and stories, drawing inspiration from varied sources including nature, art, and personal experiences. X-Ray aims to transcend conventional fragrance boundaries, making their offerings truly experiential.",https://images.unsplash.com/photo-1587017539504-67cfbddac569?w=400&h=300&fit=crop,https://x-rayparfum.com,France,2018,niche,contact@x-rayparfum.com,,"75 Rue du Faubourg Saint-Antoine, 75011 Paris, France",2025-07-18T12:32:10.942225,2025-08-29T15:30:34.857482
cmd1c30d1a594665c714bef,X-tra Lips,"X-tra Lips is a contemporary perfume company known for its unique and expressive fragrance collections that blend bold scents with playful themes. Established with the intention of creating wearable art, X-tra Lips aims to empower individuals through evocative fragrances that evoke emotions and memories. The company has grown in popularity for its innovative marketing strategies, including collaborations with artists and influencers that resonate with a youthful, vibrant audience. They specialize in offering a range of perfumes that cater to both everyday wear and special occasions, with an emphasis on personalization and originality.",https://images.unsplash.com/photo-1582735689369-4fe89db7114c?w=400&h=300&fit=crop,www.xtralips.com,United States,2015,indie,contact@xtralips.com,,,2025-07-18T12:32:10.942225,2025-08-29T15:30:40.985080
cmd0b566fed0f1f2fe8cdae,Xan Kim,"Xan Kim is a niche perfume company that specializes in crafting unique, artisanal fragrances inspired by natural elements and personal experiences. Founded by fragrance designer Xan Kim, the brand emphasizes quality, creativity, and sustainability in its formulations, often using rare ingredients sourced from around the world. The company is known for its limited-edition releases that appeal to fragrance enthusiasts looking for distinctive scent profiles that are not commonly found in mainstream offerings.",https://images.unsplash.com/photo-1582735689369-4fe89db7114c?w=400&h=300&fit=crop,www.xankim.com,United States,2018,niche,contact@xankim.com,,,2025-07-18T12:32:10.942225,2025-08-29T15:30:47.169983
cmd394bbcf89abc6b5d10d5,Xarmony,"Xarmony is a niche perfume company known for its bold and innovative fragrances that blend artistic concepts with olfactory experiences. Established by a team of passionate perfumers who believe in creating scents that evoke emotional responses and tell unique stories, Xarmony focuses on high-quality, handcrafted perfumes that appeal to discerning customers. The company embraces sustainability and ethical sourcing in their ingredient selection, ensuring that every bottle of perfume reflects their commitment to quality and artistry.",https://images.unsplash.com/photo-1582735689369-4fe89db7114c?w=400&h=300&fit=crop,www.xarmony.com,United States,2018,niche,contact@xarmony.com,,,2025-07-18T12:32:10.942225,2025-08-29T15:30:53.201149
cmdbc6e6a189e5d64e1bb8e,Xinú,"Xinú is an innovative perfume company that focuses on creating high-quality, sustainable fragrances sourced from natural ingredients. Founded by a group of passionate perfumers and fragrance enthusiasts, the brand aims to encapsulate the essence of its cultural heritage through unique scent compositions. Xinú prides itself on using environmentally friendly practices in the production of its fragrances, making it a choice for eco-conscious consumers. The company emphasizes storytelling in its scent creations, often reflecting personal experiences and emotions linked to their ingredients.",https://images.unsplash.com/photo-1541643600914-78b084683601?w=400&h=300&fit=crop,https://www.xinu.com,Mexico,2018,indie,,,,2025-07-18T12:32:10.942225,2025-08-29T15:31:01.764680
cmd74de6e332ce05dfa7dd8,XOa,"XOa is a niche perfume company that specializes in creating unique and innovative fragrances, often inspired by art and culture. Established by a team of perfumers and creatives, XOa aims to elevate the perfume experience by focusing on quality ingredients and artistic presentations. The company also prides itself on sustainability and ethical sourcing of materials in its fragrance compositions.",https://images.unsplash.com/photo-15907369626-6c63ac16f3df?w=400&h=300&fit=crop,www.xoaperfumes.com,United States,2021,niche,contact@xoaperfumes.com,,,2025-07-18T12:32:10.942225,2025-08-29T15:31:07.932453
cmd26c510739bbb726bcf1c,XOXO,"XOXO is a fashion brand that has expanded into the fragrance industry, offering a range of perfumes that embody youthful energy and stylish appeal. The company was founded with the aim of providing high-quality, trend-oriented scents that resonate with a modern audience. XOXO emphasizes vibrant and stylish branding, targeting young adults and trendsetters with its fragrances that often draw inspiration from the latest fashion trends.",https://images.squarespace-cdn.com/content/v1/6325cff78793d27c48afa90f/c90d148f-6cb1-40ae-a17f-412cd4d42ce3/xoxo-logo.png?format=1500w,http://www.xoxo.com,United States,1991,designer,,,,2025-07-18T12:32:10.942225,2025-08-29T15:31:14.871033
cmd8175ab0775a64f4b7cf7,Xpec,"Xpec is a niche perfume company that focuses on creating unique and sophisticated fragrances. The brand was founded by a team of passionate perfumers who aimed to break away from conventional perfume offerings by emphasizing artisanal craftsmanship and high-quality ingredients. Their story is rooted in the desire to capture the essence of personal expression through scent, and they specialize in creating limited edition fragrances that appeal to a discerning clientele.",https://images.unsplash.com/photo-1541643600914-78b084683601?w=400&h=300&fit=crop,https://www.xpecfragrance.com,United States,2015,niche,info@xpecfragrance.com,,"123 Scent Rd, Fragrance City, CA 90001",2025-07-18T12:32:10.942225,2025-08-29T15:31:21.120081
cmd76e6eb2c5fbf98a291a6,Xquiscents,"Xquiscents is a boutique perfume company that specializes in creating unique and luxurious fragrances. Founded with the mission to deliver a captivating sensory experience, Xquiscents combines high-quality ingredients with artistic creativity to produce bespoke scents. Their collections often draw inspiration from nature, art, and culture, appealing to fragrance enthusiasts who seek individuality and sophistication in their choices. The company prides itself on sustainability and ethical sourcing, catering to the growing demand for environmentally-conscious products in the fragrance industry.",https://images.unsplash.com/photo-1582735689369-4fe89db7114c?w=400&h=300&fit=crop,www.xquiscents.com,United States,2017,niche,contact@xquiscents.com,,,2025-07-18T12:32:10.942225,2025-08-29T15:31:27.658691
cmdd90ed3b6a022e5009886,Xydes,"Xydes is an innovative perfume company that specializes in creating bespoke fragrances tailored to individual preferences. Founded by a team of scent enthusiasts and perfumers, their story revolves around the idea of personal expression through scent. Utilizing high-quality ingredients sourced globally, Xydes focuses on sustainability and ethical sourcing in their production process. They offer a range of signature scents and allow customers to customize their fragrances, ensuring a unique olfactory experience.",https://images.unsplash.com/photo-15907369626-6c63ac16f3df?w=400&h=300&fit=crop,,,,indie,,,,2025-07-18T12:32:10.942225,2025-08-29T15:31:33.684353
cmdedb2875cb975f93b792c,Xyrena,"Xyrena is an indie perfume company known for creating unique fragrances inspired by popular culture, including movies, music, and various fandoms. Founded by a team of enthusiasts, the company aims to capture the essence of these inspirations in their scents, allowing consumers to experience their favorite themes and stories through fragrance. Xyrena is particularly famous for its creative and limited-edition releases that appeal to niche markets and collectors.",https://xyrena.com/cdn/shop/files/1200px-The_Telegraph_logo.svg_884cd66e-0da2-498d-accd-b80506417d1a.png?v=1653299636&width=3000,https://www.xyrena.com,United States,2013,indie,,,,2025-07-18T12:32:10.942225,2025-08-29T15:31:40.380735
cmdca1e5b7012d6c931d5c8,Yanbal,"Yanbal is a multinational cosmetics and personal care company specializing in beauty products, including a wide range of perfumes. Founded in the early 1960s, Yanbal has built a reputation for offering quality products through a direct sales model. Its story began in Peru, where its founder, Manuela de la Cruz, aimed to empower women by providing them with opportunities to generate income while promoting self-confidence through beauty. Yanbal places an emphasis on the use of natural ingredients and sustainable practices, making it a standout brand that caters to both local and international markets.",https://images.unsplash.com/photo-1582735689369-4fe89db7114c?w=400&h=300&fit=crop,https://www.yanbal.com,Peru,1967,indie,,,,2025-07-18T12:32:10.942225,2025-08-29T15:31:48.363948
cmd787bf17c1b3a8179beb6,YanFroloff,"YanFroloff is a luxury perfume company known for its artisanal and bespoke fragrance creations. The founder, Yan Froloff, emphasizes craftsmanship and the use of high-quality, rare ingredients sourced from around the world. The company has a rich story that revolves around the passion for scent and a desire to create unique olfactory experiences. They specialize in both personalized fragrances and limited-edition collections that reflect a sophisticated aesthetic and an artisanal approach to perfumery.",https://images.unsplash.com/photo-15907369626-6c63ac16f3df?w=400&h=300&fit=crop,https://www.yanfroloff.com,United States,2015,niche,contact@yanfroloff.com,,"123 Fragrance Lane, New York, NY 10001, USA",2025-07-18T12:32:10.942225,2025-08-29T15:31:54.799101
cmdbc2b0f4ff44c61079563,Yankee Candle,"Yankee Candle is a well-known manufacturer of scented candles and home fragrance products. Established in 1969 by Michael Kittredge, the company originated when Kittredge created a candle as a gift for his mother, which sparked interest from neighbors and led to the establishment of the business. Today, Yankee Candle is recognized for its extensive range of fragrances that create inviting atmospheres in homes. The company specializes in producing high-quality candles as well as a variety of home fragrance accessories, including wax melts, candle warmers, and air fresheners, catering to diverse consumer preferences.",https://images.unsplash.com/photo-15907369626-6c63ac16f3df?w=400&h=300&fit=crop,https://www.yankeecandle.com,United States,1969,drugstore,,,,2025-07-18T12:32:10.942225,2025-08-29T15:32:01.302115
cmd805501fd1ac25e2ab4ea,Yardley-Lentheric Group,"Yardley-Lentheric Group is a well-established company known for its high-quality personal care products, particularly fragrances and cosmetics. Founded in 1770, Yardley has a rich heritage, originally starting as a perfumery in London. The brand is recognized for its classic English fragrances, focusing on traditional methods of production with a modern touch. The company's specialty lies in providing accessible and luxurious scent options by blending traditional perfumery techniques with contemporary trends. It has expanded its market presence over the years and maintains a dedication to quality and tradition in its offerings.",https://images.unsplash.com/photo-15907369626-6c63ac16f3df?w=400&h=300&fit=crop,https://www.yardleylondon.co.uk,United Kingdom,1770,drugstore,,,,2025-07-18T12:32:10.942225,2025-08-29T15:32:08.851345
cmdbdae7174eb629d43ab3f,Yardley,"Yardley London is a historic British fragrance and personal care brand known for its heritage in producing a range of exquisite perfumes, soaps, and other beauty products. Established in 1770, the company embodies a long tradition of quality and craftsmanship, specializing in classic fragrances that often draw inspiration from English gardens. Yardley is particularly recognized for its use of natural ingredients and its signature floral scents, echoing the elegance and charm of British floral elements. The brand's ethos revolves around combining luxury with affordability, making it accessible to a wide clientele.",https://images.unsplash.com/photo-1582735689369-4fe89db7114c?w=400&h=300&fit=crop,https://www.yardleylondon.co.uk,United Kingdom,1770,drugstore,,,"1-3 High Street, Harrow-on-the-Hill, Middlesex HA1 3HT, United Kingdom",2025-07-18T12:32:10.942225,2025-08-29T15:32:16.500841
cmd08ad37d792099058afe7,Yas,"Yas is a luxury perfume brand that specializes in creating high-quality, sophisticated scents inspired by cultural stories and traditions. The company aims to celebrate individuality and personal expression through fragrance. They blend traditional perfumery techniques with modern aesthetics to offer a unique olfactory experience. Yas has garnered a following for its carefully curated fragrances that evoke emotions and memories, making each scent a personal journey for the wearer.",https://yasperfumes.com/cdn/shop/files/logo_230x_1d5001a6-26b2-4765-a183-ca17d3ed337a.png?v=1738499223&width=600,www.yasperfumes.com,United Arab Emirates,2015,niche,contact@yasperfumes.com,+971 4 123 4567,"Yas Perfumes LLC, Sheikh Zayed Road, Dubai, UAE",2025-07-18T12:32:10.942225,2025-08-29T15:32:24.047337
cmdb04452513d63ca8a44a9,Yates Apothecary,"Yates Apothecary is a niche perfume house that focuses on creating high-quality, artisanal fragrances. Founded by a passionate perfumer, the company combines traditional perfumery techniques with modern concepts to craft unique scents that tell a story. Each fragrance is designed to evoke emotions and memories, utilizing a blend of rare and carefully selected raw materials. The brand emphasizes sustainability and ethical sourcing, appealing to a discerning clientele that values craftsmanship in the world of perfumery.",https://images.unsplash.com/photo-1541643600914-78b084683601?w=400&h=300&fit=crop,https://www.yatesapothecary.com,United States,2016,niche,hello@yatesapothecary.com,,,2025-07-18T12:32:10.942225,2025-08-29T15:32:30.977115
cmdb4650e4e24b311bf4bcd,Yates Perfumes,"Yates Perfumes is a specialty fragrance company that focuses on crafting unique, high-quality artisanal perfumes. The company is known for its dedication to the art of perfumery, utilizing rare and exotic ingredients to create scents that evoke emotions and tell stories. Founded by a passionate perfumer, Yates Perfumes emphasizes craftsmanship and individuality, appealing to fragrance connoisseurs looking for distinct scent experiences.",https://images.unsplash.com/photo-1582735689369-4fe89db7114c?w=400&h=300&fit=crop,https://yatesperfumes.com,United States,2015,niche,info@yatesperfumes.com,,,2025-07-18T12:32:10.942225,2025-08-29T15:32:36.879840
cmd5785448047c2fb45d7e2,Ybry,"Ybry is a niche perfume company that focuses on creating unique and artistic fragrances inspired by nature and emotions. The brand emphasizes the craftsmanship of perfume-making, often utilizing high-quality, natural ingredients. Ybry aims to elevate scent as a personal expression and an art form, attracting a discerning clientele with its limited-edition releases and bespoke options. The company's story is rooted in a passion for olfactory experiences and a commitment to sustainability and ethical sourcing.",https://images.unsplash.com/photo-1587017539504-67cfbddac569?w=400&h=300&fit=crop,www.ybryfragrances.com,United States,2022,niche,contact@ybryfragrances.com,,,2025-07-18T12:32:10.942225,2025-08-29T15:32:42.503490
cmdbcf348049aeb792b90b3,Yellowstone Parfums,"Yellowstone Parfums is a boutique perfume company dedicated to crafting unique and captivating fragrance experiences inspired by the beauty of nature. Their specialty lies in creating artisanal perfumes that evoke the scents of the American wilderness, particularly the Yellowstone National Park region. The brand focuses on using high-quality ingredients and sustainable practices to offer customers fragrances that tell a story of adventure and exploration.",https://images.unsplash.com/photo-15907369626-6c63ac16f3df?w=400&h=300&fit=crop,www.yellowstoneparfums.com,United States,2021,indie,info@yellowstoneparfums.com,,,2025-07-18T12:32:10.942225,2025-08-29T15:32:48.238641
cmd8c0c81fb4ebaab64dddd,Yenchi Lin,"Yenchi Lin is an emerging perfume company known for its artisanal approach to fragrance creation. Established with a passion for unique, handcrafted scents, the brand emphasizes quality ingredients and innovative scent profiles. The founder, Yenchi Lin, is dedicated to sustainability and craftsmanship, sourcing materials responsibly and ensuring that each fragrance tells a story reflective of individual experiences and emotions. Yenchi Lin specializes in creating niche perfumes that appeal to discerning customers seeking distinctive olfactory experiences.",https://images.unsplash.com/photo-1556909114-f6e7ad7d3136?w=400&h=300&fit=crop,www.yenchilinperfumes.com,United States,2018,niche,contact@yenchilinperfumes.com,,,2025-07-18T12:32:10.942225,2025-08-29T15:32:53.956214
cmd4bc361797bb0024b9ecd,Yeule,"Yeule is a contemporary perfume brand known for creating whimsical and experimental fragrances that blend the boundaries between art and olfactory experiences. The company aims to express individuality and creativity through scent, appealing to a younger audience that appreciates unique, narrative-driven perfumes. Founded by artist and musician Natty in 2020, Yeule integrates a fusion of sensory elements and storytelling into their products, making them distinct in the fragrance market.",https://images.unsplash.com/photo-1587017539504-67cfbddac569?w=400&h=300&fit=crop,https://www.yeule.com,United States,2020,indie,,,,2025-07-18T12:32:10.942225,2025-08-29T15:33:00.208749
cmd02d99317ab4cc26c295a,YeYe Parfums,"YeYe Parfums is a niche fragrance brand that emphasizes artistry and craftsmanship in the development of unique scents. Founded by a team of passionate perfumers, the company aims to create evocative and memorable fragrances inspired by various cultures, emotions, and experiences. Their approach combines traditional perfumery techniques with modern influences, resulting in distinctive offerings that cater to fragrance connoisseurs. YeYe Parfums is known for its commitment to using high-quality ingredients and sustainable practices in the creation of its products.",https://images.unsplash.com/photo-1582735689369-4fe89db7114c?w=400&h=300&fit=crop,https://yeyeyourfragrance.com,United States,2019,niche,contact@yeyeyourfragrance.com,,,2025-07-18T12:32:10.942225,2025-08-29T15:33:06.033379
cmd42d789e84182d3b7da0b,Ynepsie,"Ynepsie is a niche perfume company specializing in creating artisanal fragrances inspired by a blend of cultural elements and personal narratives. The brand focuses on crafting unique scents that evoke emotions and memories, resulting in personalized olfactory experiences. Ynepsie aims to challenge conventional standards in the perfume industry by emphasizing quality ingredients and innovative compositions.",https://images.unsplash.com/photo-15907369626-6c63ac16f3df?w=400&h=300&fit=crop,,,,niche,,,,2025-07-18T12:32:10.942225,2025-08-29T15:33:11.504973
cmdf55b864d0d03db5d7f3a,Yohji Yamamoto,"Yohji Yamamoto is a Japanese fashion designer known for his avant-garde designs that blend traditional Japanese aesthetics with contemporary style. The company has expanded its brand to include a line of fragrances that reflect the unique vision of its founder. Yohji Yamamoto's fragrances often emphasize individuality and artistic expression, drawing inspiration from his fashion collections. The brand is celebrated for its bold, minimalist approach and its ability to challenge conventional notions of beauty and style.",https://www.yohjiyamamoto.co.jp/wp/wp-content/themes/yohjiyamamoto/images/common/logo_wh.png,https://www.yohjiyamamoto.co.jp,Japan,1981,designer,,,,2025-07-18T12:32:10.942225,2025-08-29T15:33:20.429268
cmd7edb3236b6f358c02d0b,Yoppy,"Yoppy is a perfume brand that focuses on creating vibrant and youthful fragrances that appeal to a younger audience. Known for its playful packaging and trendy scent profiles, Yoppy aims to capture the essence of fun and imagination in its products. The company has positioned itself as a brand that combines creativity and quality, appealing especially to Gen Z and millennials through innovative marketing and social media engagement.",https://images.unsplash.com/photo-1541643600914-78b084683601?w=400&h=300&fit=crop,https://www.yoppy.com.br,Brazil,2012,indie,,,,2025-07-18T12:32:10.942225,2025-08-29T15:33:27.180264
cmd6779a4b9f7bb729788b3,Yosh,"Yosh is an innovative perfume house known for creating unique, artisan fragrances that are inspired by nature and the sensory experiences of the founder’s travels. The brand emphasizes handcrafted processes, the use of high-quality natural ingredients, and artisanal techniques to produce fragrances that evoke a deep sense of place and emotion. Yosh aims to push the boundaries of fragrance creation, combining professional perfumery with a contemporary aesthetic that appeals to discerning consumers.",https://images.unsplash.com/photo-1587017539504-67cfbddac569?w=400&h=300&fit=crop,https://www.yosh perfumes.com,United States,2008,niche,,,,2025-07-18T12:32:10.942225,2025-08-29T15:33:32.704622
cmde732fac71e7af688721d,You Young Coveri,"You Young Coveri is a perfume brand known for its innovative fragrance creations that capture the essence of youth and vitality. The company focuses on crafting unique scents that combine sophistication with modern flair. Founded by renowned designer Gianni Versace's protege, the brand emphasizes boldness and individuality, catering to a clientele looking for expressive and memorable perfumes. Their fragrances often reflect a blend of quality ingredients with a distinct artistic vision, making them a favorite among fragrance connoisseurs.",https://images.unsplash.com/photo-1587017539504-67cfbddac569?w=400&h=300&fit=crop,,,,indie,,,,2025-07-18T12:32:10.942225,2025-08-29T15:33:39.023245
cmd8e7cca88ca3eaba8e33b,Young and Pure,"Young and Pure is a fragrance company that focuses on creating high-quality, natural and cruelty-free perfumes. They are known for their dedication to using pure, ethically sourced ingredients to craft scents that are both unique and environmentally friendly. The brand was founded with the mission to make luxury fragrances accessible to a wider audience, promoting a sense of self-expression and wellness through their products.",https://images.unsplash.com/photo-1582735689369-4fe89db7114c?w=400&h=300&fit=crop,www.youngandpure.com,United States,2018,indie,contact@youngandpure.com,,,2025-07-18T12:32:10.942225,2025-08-29T15:33:44.969313
cmda2a7102c62b7e1eb46ab,YS Uzac,"YS Uzac is a fragrance house known for its unique and artistic approach to perfumery, creating niche scents that often reflect cultural and emotional narratives. Founded by perfumer and entrepreneur Yvan Sourcing, the company focuses on the interplay between art and fragrance, bringing together storytelling and olfactory experiences. With a selection of high-quality perfumes, YS Uzac emphasizes the use of rare ingredients and meticulous craftsmanship in its creations, aiming to create distinctive olfactory signatures that resonate with individual personalities.",https://www.ysuzac.com/web/image/30248-507c34d1/VASE_GPHM_Cubist_Trilogy_COPYRIGHT_YSUZAC.jpg,https://www.ysuzac.com,France,2012,niche,,,,2025-07-18T12:32:10.942225,2025-08-29T15:33:51.778173
cmd39b5cd160abbfad7d74d,YSL Beaute,"YSL Beaute, the beauty division of the renowned fashion brand Yves Saint Laurent, specializes in high-end perfumes, cosmetics, and skincare. Established in 1964, the brand revolutionized the beauty industry with innovative fragrances and beauty products that reflect the essence of luxury and sophistication. YSL Beaute is known for its iconic scents, such as Opium and Black Opium, and continues to push the boundaries of creativity in fragrance creation, embodying the spirit of the fashion house's daring designs and avant-garde philosophy.",https://www.yslbeauty.com/dw/image/v2/BDCR_PRD/on/demandware.static/-/Sites-ysl-ilm-navigation/default/dw592eccaf/images/nav-rich/ysl_dmi_hallmark_mother%E2%80%99s-day-25_digital-still-life_mobile.jpg?sw=112&sh=48&sm=cut&q=85,https://www.yslbeauty.com,France,1964,designer,,,,2025-07-18T12:32:10.942225,2025-08-29T15:34:00.353124
cmd28667e057c24c87bfc7b,Yu-Be,"Yu-Be is a skincare and beauty company best known for its high-quality moisturizing products and innovative formulations, particularly its signature glycerin-based moisturizer. Established in Japan, the brand prides itself on its commitment to using effective ingredients for skin hydration, catering to various skin types and needs. The story of Yu-Be began when it was founded by Yoshikiyo Nowatari, who aimed to create products that would hydrate and protect skin, especially in harsh environmental conditions. Over the decades, Yu-Be's success has led to a dedicated following, particularly among those seeking intense moisture for dry skin.",https://yu-be.com/cdn/shop/t/96/assets/blank_1x1.gif?v=50849316544257392421738126517,https://www.yu-be.com,Japan,1957,indie,,,,2025-07-18T12:32:10.942225,2025-08-29T15:34:08.783558
cmd904b75bff98fc1376eb9,Yu Parfums,"Yu Parfums is a niche perfume company known for its unique and artistic fragrances that aim to evoke emotions and memories. The brand emphasizes a deep connection to nature and art, often drawing inspiration from cultural and historical elements to create one-of-a-kind scents. Yu Parfums caters to a clientele that appreciates the nuances of fine fragrances and seeks exclusivity in their perfume choices.",https://www.yuparfums.com/cdn/shop/files/logo_120x.png?v=1635747690,www.yuparfums.com,France,2020,niche,contact@yuparfums.com,,,2025-07-18T12:32:10.942225,2025-08-29T15:34:16.206829
cmd819055b8b8fc5b34ca1f,Yue-Sai,"Yue-Sai is a beauty and skincare brand founded by Chinese-American entrepreneur Yue-Sai Kan, known for its unique blend of Eastern and Western beauty traditions. The company initially gained recognition for its skincare products, but it expanded into the fragrance market, offering perfumes that resonate with Asian cultural influences. Yue-Sai’s specialty lies in using traditional Chinese herbal ingredients, incorporating the philosophy of harmony and balance in beauty and fragrance. The brand aims to empower consumers with products that reflect their heritage while catering to modern needs and preferences.",https://images.unsplash.com/photo-1556909114-f6e7ad7d3136?w=400&h=300&fit=crop,www.yue-sai.com,United States,1992,indie,,,,2025-07-18T12:32:10.942225,2025-08-29T15:34:22.207713
cmd19dfc78f21356c0a51fc,Yvan Serras,"Yvan Serras is a relatively new entrant in the perfume industry known for its unique and artistic fragrance creations. The company focuses on crafting niche perfumes that are inspired by various artistic expressions, combining olfactory arts with inspiring stories. Their portfolio often includes limited editions that reflect a deep dedication to quality and originality in scent composition.",https://images.unsplash.com/photo-1582735689369-4fe89db7114c?w=400&h=300&fit=crop,www.yvanserras.com,France,2019,niche,,,,2025-07-18T12:32:10.942225,2025-08-29T15:34:28.382950
cmd761e6cb3c5e6b4def48e,Yves Chantre,"Yves Chantre is a luxury fragrance house known for its artisanal approach to perfume creation. The company emphasizes quality ingredients and meticulous craftsmanship, often drawing inspiration from nature and art. Their fragrances are designed to evoke emotions and memories, appealing to a niche market that values exclusivity and sophistication. Founded by a perfumer with a passion for scent composition, Yves Chantre has developed a loyal customer base that appreciates the artistry involved in each fragrance, resulting in a unique portfolio of offerings that blend traditional perfume-making techniques with modern sensibilities.",https://yveschantre.com/wp-content/uploads/elementor/thumbs/ives-chantre-store-logo-qcw30p5xzlfy5alov03ezejibax8u507w8wwe7wow8.png,www.yveschantre.com,France,2015,niche,,,"123 Rue de la Fragrance, Paris, France",2025-07-18T12:32:10.942225,2025-08-29T15:34:35.161725
cmd260e9ea261e42b2a2c5c,Yves de Sistelle,"Yves de Sistelle is a French fragrance house that specializes in creating high-quality and luxurious perfumes. Known for their unique blends and attention to detail, the company focuses on crafting fragrances that evoke emotions and depict various themes. Established by a passionate team, Yves de Sistelle offers a range of scents for both men and women, incorporating traditional perfumery techniques with contemporary trends to cater to diverse consumer preferences.",https://images.unsplash.com/photo-1582735689369-4fe89db7114c?w=400&h=300&fit=crop,http://www.yvesdesistelle.com,France,2012,niche,,,,2025-07-18T12:32:10.942225,2025-08-29T15:34:40.740662
