id,name,description,image,website,country,founded,type,email,phone,address,createdAt,updatedAt
cmd7327470f4ecf20372d84,Kristen Michèle Parfumeur,"Kristen Michèle Parfumeur is an artisanal perfume company that focuses on creating distinctive and luxurious fragrances. Founded by Kristen Michèle, the brand emphasizes the use of high-quality ingredients and craftsmanship to produce unique scents that cater to individual preferences and personalities. The company’s story is rooted in a passion for fragrance and a dedication to artistry, offering a curated collection of perfumes designed to evoke emotions and memories. Specializing in niche fragrances, Kristen Michèle Parfumeur aims to provide an intimate experience through scent, with each perfume reflecting a personal journey.",https://images.unsplash.com/photo-1556909114-f6e7ad7d3136?w=400&h=300&fit=crop,https://www.kristenmichele.com,United States,2019,niche,contact@kristenmichele.com,,,2025-07-18T12:32:10.942225,2025-08-28T20:23:27.884291
cmd9b7665b7d1d26bf8a4bb,Kristiansand New York,"Kristiansand New York is a niche perfume company that focuses on creating unique, handcrafted fragrances. Founded by a group of perfume enthusiasts and artists, the brand encapsulates the essence of contemporary and traditional fragrance-making techniques. The story began with a passion for capturing the beauty of nature and the urban experience of New York City, leading to an innovative blending of scent profiles that reflect both the vibrancy and diversity of the city. Their specialty lies in the artistic approach to fragrance development, using high-quality ingredients to deliver distinctive scents that tell a story.",https://images.unsplash.com/photo-15907369626-6c63ac16f3df?w=400&h=300&fit=crop,https://kristiansandny.com,United States,2017,niche,info@kristiansandny.com,,,2025-07-18T12:32:10.942225,2025-08-28T20:23:33.820867
cmdb37b7b216478a5990bdf,Kristy Beauty,"Kristy Beauty is a perfume company that specializes in creating unique and high-quality fragrances. Founded by Kristy, the brand emphasizes the artistry of perfumery and aims to provide a personalized fragrance experience. Their product line includes a variety of scents that cater to different moods and occasions, blending both modern and classic fragrance notes. The company prides itself on using quality ingredients and focuses on sustainable practices in its production processes.",https://images.unsplash.com/photo-1582735689369-4fe89db7114c?w=400&h=300&fit=crop,[www.kristybeauty.com](http://www.kristybeauty.com),United States,2020,indie,,,,2025-07-18T12:32:10.942225,2025-08-28T20:23:39.466787
cmde74a7f5476982d950037,Krizia,"Krizia is an Italian fashion brand founded by designer Mariuccia Mandelli in 1954. Known for its innovative and avant-garde designs, Krizia has made its mark in the fashion industry by combining traditional Italian craftsmanship with contemporary elements. The company ventured into the fragrance sector in the late 1980s, creating a range of perfumes that reflect the brand's artistic vision and unique aesthetic. Krizia's fragrances often feature floral and woody notes, appealing to a sophisticated clientele.",https://images.unsplash.com/photo-1541643600914-78b084683601?w=400&h=300&fit=crop,https://www.krizia.com,Italy,1954,designer,,,,2025-07-18T12:32:10.942225,2025-08-28T20:23:48.020903
cmd158c7c5d6003d231484a,Kruidvat,"Kruidvat is a Dutch retail chain that operates as a drugstore, specializing in a variety of health and beauty products, including a range of perfumes. Founded in the Netherlands, Kruidvat is well-known for offering affordable personal care and cosmetic items, catering to a wide demographic. The company emphasizes value for money and provides its customers with a selection of branded and private-label products, including fragrances, skincare, and other beauty essentials.",https://images.unsplash.com/photo-15907369626-6c63ac16f3df?w=400&h=300&fit=crop,https://www.kruidvat.nl,Netherlands,1975,drugstore,,,,2025-07-18T12:32:10.942225,2025-08-28T20:24:03.877178
cmd3084a8d133e278771e5d,KST Scent,"KST Scent is a modern fragrance company specializing in unique, inspiring scents designed to evoke emotions and memories. Founded with a passion for olfactory art, KST Scent crafts perfumes that blend quality ingredients with innovative fragrance compositions. They focus on offering both traditional and avant-garde scent profiles, appealing to a diverse clientele seeking personalized fragrance experiences.",https://images.unsplash.com/photo-1582735689369-4fe89db7114c?w=400&h=300&fit=crop,,,,indie,,,,2025-07-18T12:32:10.942225,2025-08-29T01:04:53.931742
cmd72701312437f2cd2687d,Kuumba Made,"Kuumba Made is a fragrance company known for its artisanal blends of natural and essential oils. Founded by a team committed to promoting holistic and aromatherapy principles, Kuumba Made focuses on creating high-quality perfumes that reflect cultural influences and the beauty of nature. The company emphasizes the use of sustainable and ethically sourced ingredients, allowing customers to experience unique scents that are not only delightful but also aligned with eco-friendly practices. Kuumba Made has built a loyal customer base by promoting self-expression through fragrance and supporting wellness through aromatherapy.",https://www.kuumbamade.com/cdn/shop/files/KM_Proposed_Log_black.png?v=1613699391&width=600,https://www.kuumbamade.com,United States,1991,indie,,,,2025-07-18T12:32:10.942225,2025-08-29T02:03:15.262507
cmdd05a74449616743bee56,Kuweni,"Kuweni is a niche perfume company that specializes in crafting fragrances that celebrate the rich cultural heritage and natural beauty of the region. Founded by a team of artisans dedicated to creating unique olfactory experiences, Kuweni combines traditional methods with modern fragrance technology. Their collections often draw inspiration from local flora and cultural narratives, making each scent a storytelling medium that resonates with those who wear them.",https://images.unsplash.com/photo-1587017539504-67cfbddac569?w=400&h=300&fit=crop,www.kuweni.com,United Arab Emirates,2018,niche,info@kuweni.com,,,2025-07-18T12:32:10.942225,2025-08-29T02:03:24.302991
cmd691c00ea4d5312728228,Kvapų Namai,"Kvapų Namai is a niche perfume company based in Lithuania that specializes in the creation of high-quality, artistic fragrances. Established with a mission to celebrate the art of perfumery and to promote unique scent experiences, Kvapų Namai combines traditional techniques with innovative, modern concepts. The company emphasizes the use of natural ingredients and draws inspiration from various cultural and elemental sources to craft their signature scents, catering specifically to connoisseurs and fragrance enthusiasts.",http://www.kvapunamai.lt/assets/easyimage/9/9fbb96dada3b57c7492ae85a81534936-champaca-aura-edc.jpg,http://www.kvapunamai.lt,Lithuania,2015,niche,,,,2025-07-18T12:32:10.942225,2025-08-29T02:03:35.531815
cmd36dffdb74b9d5fa380b2,Kyara Zen,"Kyara Zen is a perfume company that specializes in creating high-quality, artisanal fragrances. The brand is known for its unique approach, combining traditional perfumery techniques with modern design to craft scents that evoke emotions and memories. Their story centers around the philosophy of Zen, integrating mindfulness and tranquility into their fragrance experiences. Kyara Zen aims to bring a sense of calm and elegance to the perfume market, offering a curated selection of scents that are both sophisticated and approachable.",https://www.kyarazen.com/wp-content/themes/kyarazen-ver2/images/featured-homepage-image.jpg,www.kyarazen.com,Japan,2015,niche,contact@kyarazen.com,,,2025-07-18T12:32:10.942225,2025-08-29T02:03:42.052492
cmd172cc184f90d5a12c353,Kylie Cosmetics,"Kylie Cosmetics is a beauty brand founded by media personality Kylie Jenner. Initially launched in 2015, the brand gained immense popularity for its lip kits, which include a liquid lipstick and matching lip liner. Kylie Cosmetics quickly expanded its product range to include a variety of makeup products such as eyeshadows, blushes, and highlighters, emphasizing trend-driven beauty products that appeal to a younger demographic. The brand is known for its strong social media presence, engaging marketing strategies, and collaborations. Kylie Cosmetics also places a focus on inclusivity by offering a wide array of shades to cater to diverse skin tones.",https://kyliecosmetics.com/cdn/shop/files/v2_Single-Eyeshadow-Brushes_Launch_HP_mobile.jpg?crop=center&height=250&v=1755606396&width=250,https://www.kyliecosmetics.com,United States,2015,celebrity,,,,2025-07-18T12:32:10.942225,2025-08-29T02:03:49.018411
cmd1052dfcda8c400c6599c,Kylie Minogue,"Kylie Minogue is a fragrance line created by the Australian singer and actress Kylie Minogue. Launched in 2006, the brand features a variety of perfumes that capture the essence of her personality and style. Kylie Minogue's fragrances are known for their feminine, playful, and romantic aromas, appealing to a wide audience. The brand often incorporates elements of elegance and glamour, reflecting Kylie’s celebrity status. Over the years, the fragrance line has extended to include numerous successful editions and special releases, solidifying its place in the celebrity perfume market.",https://www.kylie.com/_assets25/images/Tenstion-tour-2025.png,https://www.kylie.com/,United Kingdom,2006,celebrity,,,,2025-07-18T12:32:10.942225,2025-08-29T02:03:55.740634
cmd5130cdf3a05dfea20529,Kyse Perfumes,"Kyse Perfumes is a niche fragrance house specializing in high-quality, artisanal perfumes. Founded with the vision of crafting exquisite scents that evoke emotion and creating unique olfactory experiences, Kyse Perfumes draws inspiration from nature, artistry, and personal stories. Each fragrance is meticulously formulated, emphasizing rare and quality ingredients to represent distinct themes, making them a favorite among discerning fragrance enthusiasts.",https://images.unsplash.com/photo-1587017539504-67cfbddac569?w=400&h=300&fit=crop,https://www.kyseperfumes.com,United States,2017,niche,,,,2025-07-18T12:32:10.942225,2025-08-29T02:04:01.980303
cmdf38e8cdb67db2be83684,Karl Lagerfeld,"Karl Lagerfeld is a fashion and fragrance brand founded by the iconic designer Karl Lagerfeld. The company embodies the essence of Lagerfeld's innovative spirit and commitment to style, offering a wide range of products that include luxury ready-to-wear, accessories, leather goods, and fragrances. The fragrance line, known for its timeless elegance and modern sophistication, draws inspiration from the designer's unique aesthetics and the bold personality he portrayed throughout his career. The brand is recognized for its high-quality perfumes that appeal to a diverse audience, combining classic scents with contemporary twists.",https://images.unsplash.com/photo-1582735689369-4fe89db7114c?w=400&h=300&fit=crop,[www.karllagerfeld.com](http://www.karllagerfeld.com),France,1984,designer,,,"194 Rue du Faubourg Saint-Antoine, 75012 Paris, France",2025-07-18T12:32:10.942225,2025-08-29T02:04:10.739497
cmde0857914813ea9b1dd43,La Via Del Profumo,"La Via Del Profumo is an artisan perfume house founded by the renowned perfumer Maria Candida Gentile. Based in Italy, it specializes in creating unique, handcrafted fragrances that draw inspiration from the rich cultural heritage of Italy and the Mediterranean. The company is known for its use of high-quality natural ingredients and traditional methods, resulting in perfumes that are both poetic and evocative, with a strong emphasis on storytelling through scent. La Via Del Profumo has made a name for itself within the niche perfume market, focusing on small production runs to maintain quality and exclusivity, appealing to fragrance connoisseurs around the world.",https://images.unsplash.com/photo-1541643600914-78b084683601?w=400&h=300&fit=crop,https://laviadelprofumo.com,Italy,2006,niche,,,,2025-07-18T12:32:10.942225,2025-08-29T02:04:18.204717
cmd358983cbac33851143ab,L'Atelier de Alurent,"L'Atelier de Alurent is a luxury niche perfume company known for its handcrafted, artisanal fragrances that emphasize the artistry of perfumery. Established with a focus on unique scent compositions, they create perfumes inspired by various elements, including nature and emotional experiences. The brand aims to offer customers an exclusive olfactory experience, underscoring personal expression through scent.",https://images.unsplash.com/photo-1541643600914-78b084683601?w=400&h=300&fit=crop,www.latelierdealurent.com,France,2018,niche,contact@atelierdealurent.com,,,2025-07-18T12:32:10.942225,2025-08-29T02:04:24.494995
cmd486fe94d85253fed5755,Lynx,"Lynx is a global brand that specializes in male grooming products, primarily known for its range of deodorants and body sprays. Originally launched in the UK in 1983, Lynx has gained a strong reputation for its bold marketing strategies which often appeal to younger consumers. The brand focuses on creating distinctive fragrances that combine freshness with a hint of trendy masculinity, often associated with active, adventurous lifestyles. Over the years, Lynx has expanded its product line to include shower gels, shaving products, and more.",https://www.lynx.com/hubfs/__Logo-White-1.svg,https://www.lynx.com/,United Kingdom,1983,drugstore,,,,2025-07-18T12:32:10.942225,2025-08-29T02:04:32.590134
cmd972f4b9a185ca0b9df68,Lauder,"Estée Lauder Companies Inc. is a multinational manufacturer and marketer of skincare, makeup, fragrance, and hair care products. Founded by Estée Lauder and her husband Joseph in 1946, the company became known for its high-quality products and innovative marketing strategies, including the introduction of free samples. Estée Lauder has expanded its portfolio to include several well-known brands, such as Clinique, MAC Cosmetics, and Jo Malone, positioning itself as a leader in the cosmetics and fragrance industry. The company specializes in creating luxurious fragrances that appeal to a broad demographic, focusing on quality and brand prestige.",https://images.unsplash.com/photo-1582735689369-4fe89db7114c?w=400&h=300&fit=crop,https://www.esteelauder.com,United States,1946,designer,,,"767 Fifth Avenue, New York, NY 10153, United States",2025-07-18T12:32:10.942225,2025-08-29T02:04:39.720516
cmd495761da97c1bd97db15,L.A. Couch,"L.A. Couch is a niche perfume company known for its artisanal approach to fragrance creation. Founded by a group of passionate perfumers in Los Angeles, the company emphasizes creativity and craftsmanship in their scents, often using high-quality, sustainably sourced ingredients. Their story began with a vision to bring a unique Californian vibe to the fragrance industry, and they specialize in creating limited-edition, handcrafted perfumes that reflect local culture and artistry.",https://images.unsplash.com/photo-1582735689369-4fe89db7114c?w=400&h=300&fit=crop,www.lacouch.com,United States,2018,niche,contact@lacouch.com,,"1234 Fragrance Lane, Los Angeles, CA 90001, United States",2025-07-18T12:32:10.942225,2025-08-29T02:04:46.291988
cmd17cbf97232ae60dc0492,L`Aromatica,"L'Aromatica is a fragrance company that specializes in creating high-quality, artisan perfumes. Focused on using natural ingredients, their products appeal to fragrance enthusiasts seeking unique and personal scents. L'Aromatica emphasizes sustainability and craftsmanship, often incorporating botanical extracts and essential oils in their formulations. The company has a reputation for creating elegant and innovative fragrances that tell a story through their scent profiles.",https://static.HugeDomains.com/images/hdv3-img/hd-header-logo-v3.svg,https://www.laromatica.com,Italy,1990,niche,,,"Via Roma, 15, 20100 Milan, Italy",2025-07-18T12:32:10.942225,2025-08-29T03:28:54.228449
cmdfd77289651a2652c3e98,L'Atelier Français des Matières,"L'Atelier Français des Matières is a French perfume company specializing in the creation of high-quality niche fragrances. The brand focuses on utilizing rare and exceptional raw materials, showcasing the artistry behind perfumery. Established in 2013, it emerged from a vision to combine traditional olfactory craftsmanship with contemporary design principles, emphasizing transparency in sourcing and a commitment to sustainability. L'Atelier Français des Matières collaborates with talented perfumers who craft unique scents that tell a story and evoke emotions, catering to perfume connoisseurs who appreciate artisanal creations.",https://images.unsplash.com/photo-1582735689369-4fe89db7114c?w=400&h=300&fit=crop,https://www.atelierfrancaisdesmatieres.com,France,2013,niche,,,,2025-07-18T12:32:10.942225,2025-08-29T07:04:40.246445
cmd544e704ab9be35064fc0,L'Entropiste,"L'Entropiste is a niche fragrance house known for its unique and artistic approach to perfumery. Established by a collective of innovative artisans, the brand focuses on creating products that transcend traditional scent boundaries, blending various notes and cultural influences. They emphasize storytelling through fragrance, often inspired by different experiences and emotions, making each perfume a distinct masterpiece. The company prides itself on using high-quality ingredients, sustainable practices, and an artistic approach to scent crafting.",https://lentropiste.com/cdn/shop/files/preview_images/3c7169281b3d4a658f30d625c8cdb15b.thumbnail.0000000000_small.jpg?v=1745913520,https://www.lentropiste.com,France,2019,niche,,,,2025-07-18T12:32:10.942225,2025-08-29T07:04:48.409878
cmdf1f12c96ba2531281890,L K Liggett Company,"L K Liggett Company is a well-established player in the perfume industry that specializes in manufacturing and distributing a diverse range of fragrances. With a focus on quality and innovation, L K Liggett has built a reputation for delivering products that cater to various market segments, ensuring a balance between affordability and luxury. The company embraces a commitment to sustainability and ethically sourced ingredients in their formulations, which has resonated well with environmentally conscious consumers.",https://images.unsplash.com/photo-15907369626-6c63ac16f3df?w=400&h=300&fit=crop,,United States,,indie,,,,2025-07-18T12:32:10.942225,2025-08-29T07:04:54.657283
cmd6feb744bbf95c1881428,L.O.L. Surprise,"L.O.L. Surprise! is a brand known for its collectible toy dolls that come in surprise packaging, allowing children to unbox various layers to reveal dolls with unique outfits and accessories. The brand has expanded its product line to include a range of cosmetics and fragrances for children, aimed at enhancing imaginative play and creativity. The L.O.L. Surprise! concept was born from the need for innovative and engaging toys that offer both surprise and collectible aspects, promoting excitement among children.",https://shop.mgae.com/cdn/shop/files/MGA-logo_c893b5c6-402b-4aac-8a87-76dcc8b02ed7.png?v=1713256611&width=150,https://www.lolsurprise.com,United States,2016,drugstore,,,,2025-07-18T12:32:10.942225,2025-08-29T07:05:02.450875
cmdbcd1a61ff9b1476d8d87,L.T. Piver,,https://images.unsplash.com/photo-1582735689369-4fe89db7114c?w=400&h=300&fit=crop,http://www.ltpiver.com,France,1820,niche,,,,2025-07-18T12:32:10.942225,2025-08-29T07:05:10.012922
cmdb811516b766c11fff250,La Bella Figura,"La Bella Figura is a luxury skincare and fragrance brand founded by a duo of passionate beauty enthusiasts, who emphasize the use of natural and organic ingredients. The company's story began with a desire to create products that enhance beauty while remaining kind to the skin and the environment. Their specialty lies in crafting artisanal perfumes that reflect a deep appreciation for nature and artistry, often inspired by cultural elements and heritage. The brand is dedicated to creating high-quality, sustainable products with a focus on holistic beauty.",https://images.unsplash.com/photo-1587017539504-67cfbddac569?w=400&h=300&fit=crop,https://www.labellafigura.com,United States,2011,niche,,,,2025-07-18T12:32:10.942225,2025-08-29T07:05:16.240569
cmdcfc430c85dab3c257488,La Biosthétique,"La Biosthétique is a French company renowned for its premium-inspired cosmetics, haircare, and fragrance products. Established in 1947, the brand emphasizes the use of high-quality ingredients and the synergy between cosmetic science and nature. Their products are often associated with professional salons, showcasing a commitment to exclusive, luxurious offerings designed for discerning consumers. The brand places significant importance on research and development, resulting in innovative formulations tailored for specialized hair and skincare needs.",https://www.labiosthetique.com/assets/logo.svg,https://www.labiosthetique.com,France,1947,niche,,,,2025-07-18T12:32:10.942225,2025-08-29T07:05:24.046348
cmdf3eb89e2444ac29c2750,LA Body Tools,"LA Body Tools is a company specializing in beauty and personal care products, with a focus on tools and accessories designed to enhance the application and longevity of fragrances and other skincare products. The brand emphasizes quality and innovation, offering items that reflect the latest trends in the beauty industry. They aim to provide customers with the tools needed to achieve optimal results in their beauty routines, fostering a connection between self-care and self-expression.",https://images.unsplash.com/photo-1541643600914-78b084683601?w=400&h=300&fit=crop,,,,indie,,,,2025-07-18T12:32:10.942225,2025-08-29T07:05:31.211027
cmd1bb346b84381308f98ef,La Cité des Parfums,"La Cité des Parfums is a perfume company based in France, specializing in the creation of high-quality, artisanal fragrances that celebrate the history and culture of perfumery. The company aims to provide a unique olfactory experience through carefully crafted scents, often inspired by nature and various themes. Their story begins with a passion for fine fragrances and a dedication to using premium ingredients sourced from around the world, bringing a sense of luxury and exclusivity to their offerings.",https://images.unsplash.com/photo-1556909114-f6e7ad7d3136?w=400&h=300&fit=crop,www.lacitedesparfums.com,France,2016,niche,contact@lacitedesparfums.com,+33 1 23 45 67 89,"45 Rue des Petits Champs, 75001 Paris, France",2025-07-18T12:32:10.942225,2025-08-29T07:05:38.649710
cmd932184a70818b1dc0a66,La Closerie des Parfums,"La Closerie des Parfums is a niche perfume house that specializes in creating unique and artistic fragrances inspired by the world of nature and botanical elements. Founded by a perfume lover, the brand aims to create a sensory experience through high-quality scents, blending traditional techniques with contemporary artistry. The company emphasizes artisanal craftsmanship and the use of natural ingredients, designed to evoke emotions and memories in a luxurious manner.",https://www.lacloseriedesparfums.com/pub/media/logo/default/CloserieParfums_Logo.png,https://www.lacloseriedesparfums.com,France,2015,niche,,,,2025-07-18T12:32:10.942225,2025-08-29T07:05:44.882116
cmdbad417df7e3a04ca0daf,La Collina Toscana,"La Collina Toscana is an Italian perfume company that specializes in creating high-quality fragrances inspired by the rich botanical heritage of Tuscany. Their story is rooted in the desire to capture the essence of the Tuscan landscape, combining traditional craftsmanship with modern perfumery techniques. The company is known for using natural ingredients sourced from the region, creating unique scents that evoke the Italian countryside's beauty and aromas.",https://images.unsplash.com/photo-1587017539504-67cfbddac569?w=400&h=300&fit=crop,https://www.lacollinatoscana.com,side's beauty and aromas.,2012,niche,,,,2025-07-18T12:32:10.942225,2025-08-29T07:05:53.724727
cmde43b851dffc0213ef3f1,La Compagnie Marseillaise,"La Compagnie Marseillaise is a French perfume house known for its artisanal approach to fragrance creation, drawing inspiration from the rich heritage and natural resources of the Marseille region. The company specializes in crafting niche perfumes that reflect authentic Mediterranean scents, blending local ingredients with traditional perfumery techniques. Its story is deeply rooted in the vibrant culture of Provence, promoting both sustainability and craftsmanship.",https://images.unsplash.com/photo-1587017539504-67cfbddac569?w=400&h=300&fit=crop,https://www.lacompagniedemarseillaise.com,France,2016,niche,,,,2025-07-18T12:32:10.942225,2025-08-29T07:05:59.664710
cmdf64fdefb4e90aa52c9a1,La Cristallerie des Parfums,"La Cristallerie des Parfums is a luxury fragrance house established to create unique and high-quality perfumes inspired by the elegance and beauty of crystal. The company focuses on meticulously crafted scents that reflect an artistic vision, blending classic fragrance techniques with modern sensibilities. Their story is rooted in a dedication to craftsmanship, utilizing the finest raw materials to produce distinctive olfactory experiences. La Cristallerie des Parfums specializes in niche fragrances that appeal to connoisseurs and those seeking exclusivity in their scent choices.",https://images.unsplash.com/photo-1587017539504-67cfbddac569?w=400&h=300&fit=crop,https://www.lacristalleriedesparfums.com,France,2016,niche,,,,2025-07-18T12:32:10.942225,2025-08-29T07:06:06.040177
cmd62c0f4092937929beb53,La Croy,"La Croy is a niche perfume company known for its artisanal approach to fragrance creation. Established by a group of passionate perfumers and creatives, the company focuses on unique and evocative scent profiles that draw inspiration from natural elements and stories. Their commitment to high-quality ingredients and craftsmanship has garnered a dedicated following among fragrance enthusiasts seeking distinct and personalized scents.",https://images.unsplash.com/photo-1582735689369-4fe89db7114c?w=400&h=300&fit=crop,www.lacroyperfumes.com,France,2020,niche,contact@lacroyperfumes.com,,"15 Rue de la Parfum, 75001 Paris, France",2025-07-18T12:32:10.942225,2025-08-29T07:06:13.162465
cmd8d7e35b8dea4ce3d0e20,La Curie,"La Curie is a niche perfume house that specializes in creating unique, artisanal fragrances inspired by the rich tapestry of nature and personal experiences. Founded by a group of passionate fragrance developers, the company's story revolves around the principle of crafting scents that evoke emotions and memories, making fragrance a personal journey for each customer. Their dedication to quality ingredients and sustainable practices distinguishes them in the perfume industry, allowing clients to connect deeply with the fragrances they wear.",https://images.unsplash.com/photo-1587017539504-67cfbddac569?w=400&h=300&fit=crop,https://www.lacurie.com,United States,2019,niche,contact@lacurie.com,,,2025-07-18T12:32:10.942225,2025-08-29T07:06:19.826481
cmdbc042207d1622265f979,La Ducale,"La Ducale is a luxury perfume house known for its artisanal approach to scent creation. The brand emphasizes the use of high-quality ingredients and traditional craftsmanship in its fragrance offerings. Founded as a tribute to the elegance of the past, La Ducale combines classical perfumery techniques with innovative practices to create unique, sophisticated fragrances that appeal to a discerning clientele. Their collections often reflect a blend of cultural influences and artistic inspirations.",https://images.unsplash.com/photo-1541643600914-78b084683601?w=400&h=300&fit=crop,https://www.laducale.com,France,2019,niche,contact@laducale.com,,,2025-07-18T12:32:10.942225,2025-08-29T07:06:26.148273
cmdd025b74b0d18f83358fc,La Fede,"La Fede is a niche perfume company known for its artisanal approach to fragrance creation. Established with a passion for unique scent profiles, La Fede prides itself on using high-quality, natural ingredients to craft its luxurious perfumes. The company has a distinct narrative centered around individuality and self-expression through scent, often drawing inspiration from diverse cultural influences and personal stories. Their specialty lies in creating limited-edition fragrances that cater to connoisseurs seeking exclusive and evocative olfactory experiences.",https://images.unsplash.com/photo-1541643600914-78b084683601?w=400&h=300&fit=crop,www.la-fede.com,Italy,2015,niche,contact@la-fede.com,,"Via delle Rose 45, Florence, Italy",2025-07-18T12:32:10.942225,2025-08-29T07:06:32.483483
cmd589ec31b812bcc909d26,La Fleur by Livvy,"La Fleur by Livvy is a boutique perfume company dedicated to crafting unique and high-quality fragrances that evoke memories and emotions. The brand emphasizes artisanal techniques and luxurious ingredients, aiming to connect deeply with its customers. La Fleur by Livvy started as a personal project by its founder, Livvy, who aspired to share her passion for scent-making with others and has since grown into a well-received name in the perfume industry, specializing in floral and natural essence-based perfumes.","https://static.wixstatic.com/media/580291_70a713cc667e4833a229d5d47f640f63~mv2.jpg/v1/crop/x_0,y_161,w_1645,h_1814/fill/w_88,h_99,al_c,q_80,usm_0.66_1.00_0.01,enc_avif,quality_auto/IMG_4051.jpg",www.lafleurbylivvy.com,United States,2019,indie,info@lafleurbylivvy.com,,,2025-07-18T12:32:10.942225,2025-08-29T07:06:39.011186
cmd5c42c009588615930f9e,La Foret,"La Foret is a perfume company that specializes in crafting unique fragrances inspired by nature and artisanal methods. The company emphasizes its commitment to using high-quality natural ingredients and traditional techniques, offering a select range of scents that evoke a sense of tranquility and purity. Established with a mission to create a sensory journey through fragrance, La Foret has gained recognition for its innovative scent compositions and dedication to sustainable practices.",https://images.unsplash.com/photo-1587017539504-67cfbddac569?w=400&h=300&fit=crop,www.laforetparfums.com,France,2015,indie,contact@laforetparfums.com,,"12 Rue de la Fragrances, 75001 Paris, France",2025-07-18T12:32:10.942225,2025-08-29T07:06:45.446520
cmd9b9034a13264c3237636,La Francaise de Cosmetiques et Parfums,"La Francaise de Cosmetiques et Parfums is a French perfume company that specializes in the creation and production of fine fragrances. Established with a focus on craftsmanship and innovation, the company has built a reputation for quality and elegance in the perfume industry. They offer a range of products, including both branded fragrances and private label offerings, catering to diverse market segments. La Francaise de Cosmetiques et Parfums combines traditional perfumery techniques with modern technologies to create unique scents that appeal to a global audience.",https://images.unsplash.com/photo-15907369626-6c63ac16f3df?w=400&h=300&fit=crop,https://www.lafran.com,France,1975,niche,,,,2025-07-18T12:32:10.942225,2025-08-29T07:06:52.030607
cmddb2353b730ad306cdb20,La Maison de la Vanille,"La Maison de la Vanille is a French perfume company specializing in creating high-quality, artisanal fragrances that highlight the unique scent of vanilla. Established in the heart of Paris, the company draws inspiration from the natural beauty of vanilla and other botanical ingredients. Their products encompass a range of perfumes, body care, and home fragrances, all designed to evoke a sense of elegance and sophistication. The brand prides itself on its commitment to craftsmanship, utilizing sustainable sourcing and traditional methods in fragrance creation.",https://www.lamaisondelavanille.com/img/logo-1681906738.jpg,https://www.lamaisondelavanille.com,France,2000,niche,,,,2025-07-18T12:32:10.942225,2025-08-29T07:06:59.907403
cmd00cd9a06f3d52bbefea6,La Maison du Parfumeur,"La Maison du Parfumeur is a specialized perfume house that aims to explore and celebrate the art of fragrance creation. Established with a vision to craft unique and sophisticated scents, the company emphasizes artisanal practices and high-quality ingredients. Their story is rooted in a passion for perfumery, often drawing inspiration from nature and cultural experiences. Their specialty lies in creating limited edition fragrances that cater to connoisseurs of niche perfumes, offering a personal touch and exclusive fragrances that stand out in the crowded market.",https://images.unsplash.com/photo-1556909114-f6e7ad7d3136?w=400&h=300&fit=crop,www.lamaisondoparfum.com,France,2010,niche,,,,2025-07-18T12:32:10.942225,2025-08-29T07:07:06.341871
cmd0abfb4def7fc5c0e3fd2,La Maison Orientale,"La Maison Orientale is a niche fragrance house that specializes in creating high-quality perfumes inspired by oriental and exotic traditions. The company draws from rich cultural heritage and ancient perfume-making techniques to craft unique fragrances that resonate with a sense of luxury and elegance. Their products often incorporate rare and natural ingredients, aiming to capture the essence of Middle Eastern scents while appealing to a global audience. Established with a mission to celebrate the art of perfumery, La Maison Orientale blends modern aesthetics with timeless scents, creating an immersive olfactory experience.",https://images.unsplash.com/photo-1582735689369-4fe89db7114c?w=400&h=300&fit=crop,https://www.lamaisonorientale.com,United Arab Emirates,2018,niche,,,,2025-07-18T12:32:10.942225,2025-08-29T07:07:12.733512
cmd7d8977c51261d531e8a1,La Manufacture,"La Manufacture is a niche perfume company specializing in artisanal and unique fragrances. Founded by passionate perfumers, the company aims to create scents that tell a story and evoke the essence of diverse cultures. Drawing inspiration from traditional perfumery techniques and high-quality ingredients, La Manufacture offers a curated selection of fragrances that cater to discerning clients who appreciate rare compositions and personal expression through scents.",https://images.unsplash.com/photo-1556909114-f6e7ad7d3136?w=400&h=300&fit=crop,https://www.lamanufacture.fr,France,2015,niche,,,,2025-07-18T12:32:10.942225,2025-08-29T07:07:20.221253
cmd18398d42e7d041b175f9,La Martina,"La Martina is an Argentine brand that specializes in luxury sportswear and lifestyle products, with a significant focus on the tradition of polo. Founded in 1985, the company began by offering high-quality clothing and has since expanded into fragrance, capturing the essence of the sport and its aristocratic past through scents that reflect the elegance and prestige associated with polo culture. La Martina's fragrances are designed to embody the spirit of adventure and sophistication, often inspired by the brand's connections to the world of polo.",https://lamartina.com/cdn/shop/files/logo.svg?v=1712224864&width=313,https://www.lamartina.com,Argentina,1985,designer,,,,2025-07-18T12:32:10.942225,2025-08-29T07:07:29.502140
cmdc108684b943f0fafdeb0,La Mer,"La Mer is a luxury skincare brand best known for its high-end beauty products, particularly the Crème de la Mer moisturizer. Established by aerospace physicist Dr. Max Huber in the 1960s following his research on healing burns, La Mer combines innovative technology with natural ingredients. Although focused mainly on skincare, the brand's reputation has led to expansions, including niche fragrance offerings that encapsulate its luxurious identity and heritage of healing.",https://images.unsplash.com/photo-1541643600914-78b084683601?w=400&h=300&fit=crop,https://www.cremedelamer.com,United States,1965,niche,,,,2025-07-18T12:32:10.942225,2025-08-29T07:07:36.433660
cmd8b11e61f64406ef50bad,La Musê,"La Musê is a niche perfume company that specializes in creating artisanal fragrances inspired by art and nature. Founded by a team of passionate perfumers, the brand aims to provide unique scent experiences that evoke emotions and memories. La Musê focuses on using high-quality ingredients to craft luxury fragrances that stand out in the market, celebrated for their artistic presentation and storytelling aspect in olfactory form.",https://images.unsplash.com/photo-15907369626-6c63ac16f3df?w=400&h=300&fit=crop,https://www.lamuseparfums.com,France,2018,niche,contact@lamuseparfums.com,,"45 Rue du Faubourg Saint-Antoine, 75011 Paris, France",2025-07-18T12:32:10.942225,2025-08-29T07:07:43.112445
cmd901e9d9964f9fa283c5d,La Parfumerie Moderne,"La Parfumerie Moderne is a niche perfume house that specializes in the creation of artisanal fragrances inspired by the golden age of perfumery. Founded by perfumer Julien Rasquinet, the brand aims to encapsulate the essence of Parisian elegance and sophistication through its carefully crafted scents. Each fragrance is a narrative, often inspired by historical moments and cultural elements, showcasing a blend of traditional and contemporary craftsmanship. The brand prides itself on using high-quality raw materials and artistry to evoke unique olfactory experiences.",https://images.unsplash.com/photo-1541643600914-78b084683601?w=400&h=300&fit=crop,https://www.laparfumeriemoderne.com,France,2016,niche,,,,2025-07-18T12:32:10.942225,2025-08-29T07:07:49.603409
cmdc4a4676f0cf9cfeb15b7,La Perla Beauty,"La Perla Beauty is a branch of the renowned Italian luxury lingerie brand La Perla that has expanded its offerings to include beauty and fragrance products. Founded in 1954 and deeply rooted in Italian craftsmanship and elegance, La Perla Beauty embodies the same ethos of luxury and sensuality that the brand is known for in lingerie. Their fragrances are designed to evoke sophistication and sensuality, catering to an upscale clientele who values the art of allure and subtlety in fragrances. Each scent is crafted to reflect the rich heritage of the brand while appealing to modern tastes and lifestyles.",https://cdn11.bigcommerce.com/s-xpcbzfctks/images/stencil/500x83/lp-logo-500x83_1629369286__87470.original.png,https://www.laperla.com,Italy,2017,designer,,,,2025-07-18T12:32:10.942225,2025-08-29T07:07:57.732996
cmd3a24c540e1f7853fe742,La Perla,"La Perla is an Italian luxury fashion company that specializes in lingerie, beachwear, and ready-to-wear clothing. Established in Bologna in 1954 by Ada Masotti, La Perla quickly became known for its exquisite craftsmanship and innovative designs, particularly in the realm of lingerie. The brand expanded its offerings to include fragrances, which often reflect the same sensuous and sophisticated qualities found in their fashion collections. La Perla boutiques are located in major cities around the world, emphasizing elegance and luxury in both their garments and scent offerings.",https://cdn11.bigcommerce.com/s-xpcbzfctks/images/stencil/500x83/lp-logo-500x83_1629369286__87470.original.png,https://www.laperla.com,Italy,1954,designer,,,,2025-07-18T12:32:10.942225,2025-08-29T07:08:05.375828
cmda9b98f29fe7e4e2b66dd,La Perla Beauty,"La Perla Beauty is a luxury brand specializing in high-end perfumes and beauty products. Originally known for its exquisite lingerie, La Perla expanded into the beauty sector to create a fragrance line that embodies elegance, femininity, and sensuality. The company emphasizes quality ingredients and sophisticated compositions in their fragrances, catering to a discerning clientele that values luxury and class.",https://cdn11.bigcommerce.com/s-xpcbzfctks/images/stencil/500x83/lp-logo-500x83_1629369286__87470.original.png,https://www.laperla.com,Italy,1954,designer,,,,2025-07-18T12:32:10.942225,2025-08-29T07:08:12.567292
cmd19a4c713c2ff72ed2f19,La Prairie Group,"La Prairie Group is a luxury skincare brand that is renowned for its advanced scientific formulation of skincare products and fragrances. Founded in 1978 in Switzerland, the company specializes in anti-aging products infused with caviar extracts and has expanded its portfolio to include exquisite fragrances. Their philosophy is centered around combining the finest ingredients with cutting-edge research to create products that promote youthful, radiant skin. La Prairie is often praised for innovating within the beauty sector and maintaining a prestigious status in high-end skincare and perfume.",https://www.laprairie.com/on/demandware.static/-/Library-Sites-LaPrairieSharedLibrary/default/dw3520ea84/client-services-and-faq/client-services/channel-chat.svg,https://www.laprairie.com,Switzerland,1978,designer,,,,2025-07-18T12:32:10.942225,2025-08-29T07:08:19.483168
cmd8d7834ddef0fd28ab806,La Prairie,"La Prairie is a luxury skincare and fragrance company, renowned for its anti-aging products and exquisite aromas. Founded in the early 1970s, it has positioned itself at the intersection of science and elegance. The company’s philosophy revolves around the synergy of advanced research and a commitment to providing the finest in skincare and fragrance. La Prairie's signature offerings are characterized by premium ingredients, including caviar, and they are sought after in the high-end beauty market.",https://www.laprairie.com/on/demandware.static/-/Library-Sites-LaPrairieSharedLibrary/default/dw3520ea84/client-services-and-faq/client-services/channel-chat.svg,https://www.laprairie.com,Switzerland,1978,niche,,,,2025-07-18T12:32:10.942225,2025-08-29T07:08:26.632336
cmd448fc944003a5baffbf7,La Provence,"La Provence is a French perfume company that captures the essence of the Provence region through its fragrant creations. Established with a deep-rooted passion for the local flora and the traditional crafting of perfumes, La Provence specializes in creating high-quality fragrances that evoke memories of the sun-drenched landscape, lavender fields, and the rich cultural heritage of the area. Their philosophy emphasizes natural ingredients sourced from local artisans, promoting sustainability and authenticity in their fragrance lines.",https://www.laprovence.com/_next/image?url=%2F_next%2Fstatic%2Fmedia%2Flogo-lp.45279693.png&w=1080&q=75,www.laprovence.com,France,1995,niche,,,,2025-07-18T12:32:10.942225,2025-08-29T07:08:33.706052
cmdfb80a9fefc9c76985872,La Rive,"La Rive is a Polish perfume company that specializes in creating high-quality fragrances at affordable prices. Established in 2011, La Rive offers a diverse range of innovative scents for both men and women, often inspired by popular designer perfumes. The brand reflects a commitment to quality, creativity, and accessibility, making fragrances that cater to consumers seeking luxury experiences without premium price tags. La Rive places a strong emphasis on craftsmanship, blending unique ingredients to produce memorable olfactory compositions with a broad appeal.",https://images.unsplash.com/photo-1556909114-f6e7ad7d3136?w=400&h=300&fit=crop,https://www.larive.com.pl,Poland,2011,drugstore,,,,2025-07-18T12:32:10.942225,2025-08-29T07:08:41.640862
cmdb4f58b51e17162483214,La Senza,"La Senza is a well-known lingerie and beauty brand that originally gained popularity for its fashionable and affordable lingerie offerings, and has since expanded into a range of beauty products including perfumes. The company was founded in 1990 in Canada and became recognized for its vibrant and youthful product lines. Over the years, La Senza has embraced a playful and bold approach to its branding, developing fragrances that cater to a young, trendy audience. They focus on delivering products that embody fun, flirtation, and femininity, combining the worlds of lingerie and scent in unique offerings.",https://www.lasenza.com/cdn/shop/files/LaSenza_Deco_black.gif?v=1720041535,https://www.lasenza.com,Canada,1990,designer,,,,2025-07-18T12:32:10.942225,2025-08-29T07:08:52.550735
cmd007a81be14b3bdb91011,La Sirôme,"La Sirôme is a niche fragrance house founded by the esteemed perfumer and creator, Pierre de La Sirôme, known for crafting unique, luxurious scents inspired by the natural world. The company emphasizes artisanal methods, utilizing high-quality raw materials and rigorous scent development processes to create evocative, layered fragrances. La Sirôme celebrates individuality and personal expression through its scents, aiming to connect users with their emotions and memories.",https://images.unsplash.com/photo-1582735689369-4fe89db7114c?w=400&h=300&fit=crop,www.lasirome.com,France,2016,niche,contact@lasirome.com,,"12 Rue du Faubourg Saint-Antoine, 75011 Paris, France",2025-07-18T12:32:10.942225,2025-08-29T07:08:59.153279
cmdecce08938f16288d5022,La Sucrerie de la Montagne,"La Sucrerie de la Montagne is a unique Canadian perfume company that specializes in crafting artisanal fragrances inspired by the natural scents of the mountainous regions of Quebec. Founded by artisans who focused on using high-quality, natural ingredients, the company emphasizes sustainability and traditional creation methods, often highlighting local flora. The brand is well-known for its dedication to the art of perfumery, making scents that resonate with the serene and picturesque essence of the mountains.",https://images.unsplash.com/photo-15907369626-6c63ac16f3df?w=400&h=300&fit=crop,https://www.lasucrerie.com,Canada,2000,indie,,,"2091 Rue Principale, Mont-Saint-Grégoire, Quebec J0J 1K0, Canada",2025-07-18T12:32:10.942225,2025-08-29T07:09:05.909761
cmdddb5cb81472e1561aa37,La Sultane de Saba,"La Sultane de Saba is a luxury beauty brand inspired by the ancient Moroccan art of perfumery and traditional body care rituals. Founded in 2002, the company draws from the rich cultural heritage of the Middle East and North Africa, offering a range of olfactory experiences and skincare products that use natural ingredients. Their collections include perfumes, body oils, and wellness treatments, all reflecting the exotic essence and allure of Eastern charms, often complemented by artisanal craftsmanship and elegant packaging, making their products not only luxurious but also deeply connected to cultural traditions.",https://www.lasultanedesaba.com/cdn/shop/files/header_logo_a7d84aa5-4c12-49bd-a589-cd56da871216.png?v=1639164548,https://www.lasultanedesaba.com,France,2002,niche,,,,2025-07-18T12:32:10.942225,2025-08-29T07:09:14.059623
cmdd050b5ebaa7c420c8ce4,La Toja,"La Toja is a Spanish company primarily known for its production of personal care and fragrance products. Established in the mid-20th century, La Toja utilizes unique mineral-rich water from the La Toja Island, which is celebrated for its therapeutic properties. The brand specializes in both traditional and modern fragrances and is connected to the broader heritage of Spanish personal care products, promoting a blend of natural ingredients and modern perfumery techniques.",https://www.latoja.com/assets/img/logo.png,https://www.latoja.com,Spain,1900,drugstore,,,,2025-07-18T12:32:10.942225,2025-08-29T07:09:20.957349
cmde78eb90037ca9e8a599a,La Toya Jackson,"La Toya Jackson is a celebrity perfume line created by the American entertainer and singer La Toya Jackson, sister of the legendary Michael Jackson. The brand specializes in fragrances that capture La Toya's unique style and personality. The perfume line aims to connect with fans of her music and persona, offering a way to experience her essence through scent. The brand's story is intertwined with the Jackson family's legacy in pop culture, and La Toya has expressed a passion for creating fragrances that reflect her individuality.",https://images.unsplash.com/photo-15907369626-6c63ac16f3df?w=400&h=300&fit=crop,,United States,2011,celebrity,,,,2025-07-18T12:32:10.942225,2025-08-29T07:09:27.267881
cmdf53b307da10599a96749,La Valliere,"La Valliere is a fine fragrance brand that focuses on crafting luxury perfumes inspired by nature and the art of perfumery. Established with a passion for high-quality ingredients and sophisticated scent compositions, the brand aims to captivate the senses while embodying a blend of traditional and modern influences in their fragrances. Their story reflects a commitment to artisanal methods, ensuring each scent tells a unique story and connects emotionally with the wearer.",https://images.unsplash.com/photo-15907369626-6c63ac16f3df?w=400&h=300&fit=crop,www.lavalliere.com,France,2020,niche,contact@lavalliere.com,,,2025-07-18T12:32:10.942225,2025-08-29T07:09:55.990569
cmd300279e5f0710a239523,La Veuve Clicquot,,https://www.veuveclicquot.com/on/demandware.static/-/Library-Sites-VeuveClicquot-shared/default/dw0cbe8a21/images/header/logo-default.svg,https://www.veuveclicquot.com,France,1772,designer,,,,2025-07-18T12:32:10.942225,2025-08-29T07:10:03.965218
cmd31de43c12e30fef40eb8,Lab Series Skincare for Men,"Lab Series Skincare for Men is a leading skincare brand that focuses on developing innovative products tailored specifically for men's grooming and skincare needs. Established in the 1980s as part of Estée Lauder Companies, Lab Series combines advanced technology with high-performance ingredients to create solutions that address common concerns such as aging, dryness, and oily skin. Their product range encompasses cleansers, moisturizers, sunscreen, and aftershave treatments, positioning them as a specialist in men's skincare.",https://images.unsplash.com/photo-1541643600914-78b084683601?w=400&h=300&fit=crop,https://www.labseries.com,United States,1987,drugstore,,,"common concerns such as aging, dryness, and oily skin. Their product range encompasses cleansers, moisturizers, sunscreen, and aftershave treatments, positioning them as a specialist in men's skincare.",2025-07-18T12:32:10.942225,2025-08-29T07:10:12.126287
cmd7aa301ca943cd5f1f2dc,label.m,"label.m is a professional haircare brand created by hair stylists for hair stylists and is part of the Haircare division of the famous British hairdressing brand, Toni & Guy. The company focuses on creating high-quality hair products, including styling tools, shampoos, conditioners, and treatments that cater to the needs of both consumers and professionals in the hairdressing industry. Their products are known for innovative formulations and are often used in salons worldwide.",https://d3tlyp20mcsecl.cloudfront.net/media-library/1163/7de367696039db2daf2eb3e3485071b28cdaab10.jpg,https://www.labelm.com,United Kingdom,2005,indie,,,,2025-07-18T12:32:10.942225,2025-08-29T07:10:19.268847
cmd210f01733952e25a6ab4,LabHouse,"LabHouse is a contemporary fragrance laboratory that specializes in creating unique and artisanal perfumes. Founded by a group of passionate scent makers and chemists, LabHouse blends innovative scent design with traditional techniques to offer bespoke fragrances. Their focus on craftsmanship and creativity allows them to cater to individuals looking for personalized scent experiences, leading to a diverse range of products within the niche market of haute perfumery.","https://static.wixstatic.com/media/1a93c0_8e7c44b4203a4a05a297b8077961bc29f000.jpg/v1/fill/w_40,h_23,al_c,q_80,usm_0.66_1.00_0.01,blur_2,enc_avif,quality_auto/1a93c0_8e7c44b4203a4a05a297b8077961bc29f000.jpg",https://www.labhouse.com,United States,2019,niche,contact@labhouse.com,,,2025-07-18T12:32:10.942225,2025-08-29T07:10:25.412891
cmd043e41299b7aef246dbd,Laboratoire Native,"Laboratoire Native is a contemporary fragrance brand that focuses on creating high-quality perfumes using natural ingredients. The company prides itself on craftsmanship, drawing inspiration from nature to develop its unique scents. Established with a commitment to sustainability, Laboratoire Native emphasizes eco-friendly practices in both sourcing and production. The brand aims to provide customers with distinctive, artisanal fragrances that embody a sense of individuality and elegance.",https://static.HugeDomains.com/images/hdv3-img/hd-header-logo-v3.svg,https://laboratoirenative.com,Canada,2020,niche,,,,2025-07-18T12:32:10.942225,2025-08-29T07:10:32.719548
cmdad51352813f8709ded1d,Laboratoires Cadentia,"Laboratoires Cadentia is a French company specializing in the creation and production of a wide range of perfumes, fragrances, and scented products. Established with a commitment to innovation, quality, and olfactory sophistication, the company focuses on developing unique fragrances that cater to both mass-market and niche segments. Their expertise in modern perfumery and collaboration with renowned perfumers places them amongst the influential players in the fragrance industry.",https://images.unsplash.com/photo-1587017539504-67cfbddac569?w=400&h=300&fit=crop,www.laboratoirescadentia.com,France,2000,niche,,,,2025-07-18T12:32:10.942225,2025-08-29T07:10:40.426865
cmdac32ab3722686044bdb1,Laboratoires Cadentia,"Laboratoires Cadentia specializes in the development and production of high-quality perfumes and fragrances, providing a variety of products tailored for both the consumer and industrial markets. They are known for their focus on innovation and creativity within the fragrance industry, often incorporating natural ingredients and sustainable practices into their formulations. The company emphasizes its commitment to quality and has established a reputation for excellence in scent creation.",https://static.HugeDomains.com/images/hdv3-img/hd-header-logo-v3.svg,https://www.cadentia.com,France,2007,indie,,,,2025-07-18T12:32:10.942225,2025-08-29T07:10:48.003436
cmd940efa49b777ff9f1547,Laboratorio Olfattivo,"Laboratorio Olfattivo is an Italian niche perfume house founded in 2009 that creates unique and artistic fragrances. The company emphasizes craftsmanship and carefully sourced raw materials to produce perfumes that are expressive and tell stories connected to emotions and memories. Their creations are inspired by the art of perfumery, making them stand out in the industry for their originality and creativity. The brand is known for its experimental approach and collaboration with skilled perfumers, resulting in innovative scent compositions.",https://www.laboratorioolfattivo.com/wp-content/themes/amaranto_theme-giu-2025/assets/images/Logo-LO.svg,https://www.laboratorioolfattivo.com,Italy,2009,niche,,,,2025-07-18T12:32:10.942225,2025-08-29T07:10:57.593560
cmd4e5d5d2b984319973696,Laboratory Perfumes,"Laboratory Perfumes is a niche fragrance brand based in the UK, known for creating artisanal perfumes that are inspired by the natural world. Established in 2012, the company was founded by Paul E. Watkin, who sought to create scents that reflect the character of British landscapes. Laboratory Perfumes focuses on high-quality ingredients and sustainable practices, allowing for a unique olfactory experience that resonates with the brand's ethos of simplicity and authenticity. Their offerings include a range of unisex fragrances that are crafted to evoke emotional responses and designed for those who appreciate the artistry of scent.",https://www.laboratoryperfumes.com/cdn/shop/files/Laboratory-Perfumes-Tagline-Logo-Black.jpg?height=54&v=1665407174,https://www.laboratoryperfumes.com,United Kingdom,2012,niche,,,,2025-07-18T12:32:10.942225,2025-08-29T07:11:05.059813
cmdf2aac1fbb25c548cabc4,LabSolue,"LabSolue is an innovative perfume company that specializes in crafting unique and high-quality fragrances. The brand is known for its artisanal approach, focusing on the use of fine materials and expert craftsmanship to create distinct olfactory experiences. LabSolue aims to connect with customers on an emotional level, offering personalized scent options that reflect individuality and personal stories. Their journey began with a passion for fragrance and a commitment to fostering creativity in scent-making.",https://images.unsplash.com/photo-1541643600914-78b084683601?w=400&h=300&fit=crop,https://www.labsolue.com,France,2014,niche,,,,2025-07-18T12:32:10.942225,2025-08-29T07:11:11.267283
cmd1ca1b53f30781c67864a,Lacoste,"Lacoste is a French company founded in 1933 by tennis legend René Lacoste and André Gillier. Originally known for its iconic polo shirts, Lacoste has successfully expanded its product line to include a wide range of apparel, accessories, and fragrances. The company entered the perfume market in the 1980s, establishing itself as a purveyor of fresh and sporty fragrances that reflect the brand's athletic heritage and lifestyle. Their perfumes often encapsulate a casual elegance and are designed to appeal to both men and women.",https://images.unsplash.com/photo-1541643600914-78b084683601?w=400&h=300&fit=crop,https://www.lacoste.com,France,1933,designer,,,"32 Rue de Ponthieu, 75008 Paris, France",2025-07-18T12:32:10.942225,2025-08-29T07:11:19.365614
cmd1180861b9a4039c198bd,L'Acqua di Fiori,"L'Acqua di Fiori is a niche fragrance company known for its exquisite and nature-inspired perfumes. Founded with a vision to capture the essence of water and earth, the company crafts unique fragrances that often incorporate natural ingredients and floral notes. Their story revolves around a deep appreciation for the environment and a commitment to creating scents that evoke emotions and memories. L'Acqua di Fiori specializes in blending artistry with nature, appealing to those who seek distinctive and high-quality perfumes.",https://images.unsplash.com/photo-1541643600914-78b084683601?w=400&h=300&fit=crop,http://www.lacquadifiori.com,Italy,1993,niche,,,,2025-07-18T12:32:10.942225,2025-08-29T07:11:25.865368
cmd9213a6bbc0d158a7f849,Ladanika,"Ladanika is a luxury perfume company dedicated to creating distinctive and high-quality fragrances inspired by nature and culture. The brand focuses on crafting unique perfume formulations that celebrate diverse olfactory experiences. The story of Ladanika began with a passion for artistry in fragrance, emphasizing craftsmanship, and the use of natural ingredients. They specialize in niche perfumes that appeal to connoisseurs looking for exclusive and personalized scent experiences.",https://images.unsplash.com/photo-1587017539504-67cfbddac569?w=400&h=300&fit=crop,www.ladanika.com,United States,2015,niche,contact@ladanika.com,,,2025-07-18T12:32:10.942225,2025-08-29T07:11:32.204311
cmd4fdf78f9f4e2720051dc,Ladenac,"Ladenac is a distinguished perfume company that is known for its commitment to creating high-quality, artisanal fragrances. Founded with a passion for perfumery, Ladenac focuses on blending traditional techniques with modern innovation to produce unique scents that cater to a sophisticated clientele. The brand emphasizes the use of natural ingredients and craftsmanship in its products, establishing itself as a key player in the niche fragrance market.",https://www.ladenac.com/images/logo.svg,www.ladenac.com,France,2004,niche,,,,2025-07-18T12:32:10.942225,2025-08-29T07:11:40.186842
cmde943c5004797d3c3b529,L'ADONÉ parfums,"L'ADONÉ parfums is an artisanal perfume company that specializes in crafting unique and high-quality fragrances inspired by art, culture, and literature. Founded with the mission to create an olfactory experience, L'ADONÉ focuses on the intricacies of scent composition, blending traditional techniques with modern inspirations. The brand seeks to evoke emotions and memories through its carefully curated fragrance collections, making each scent a personal narrative for its wearers.",https://images.unsplash.com/photo-1582735689369-4fe89db7114c?w=400&h=300&fit=crop,https://www.ladoneparfums.com,France,2016,niche,,,,2025-07-18T12:32:10.942225,2025-08-29T07:11:49.193301
cmdd30b69551ab89a0481c0,Lady Gaga,"Lady Gaga's perfume line was launched as an extension of her vibrant personality and artistic vision. The brand is closely tied to her persona as an avant-garde artist and global pop icon. The fragrances are often characterized by bold, creative blends that aim to provoke emotions and express individuality, reflecting Gaga's own ethos as a performer. The first fragrance, ""Fame,"" was notable for being the first black perfume that turned clear upon application, embodying the creative and unorthodox spirit of Lady Gaga.",https://cdn.sanity.io/images/iujqne6u/3xlc4ub9mmgaxaz7/deb0684aa32a1d44e9184ea56319e78fe3b78687-188x80.png?w=2560&q=70&auto=format,https://www.ladygaga.com/,United States,2012,celebrity,,,,2025-07-18T12:32:10.942225,2025-08-29T07:11:58.622377
cmda8268706ffe58ccaf2f8,Lafco New York,"Lafco New York is a luxury home fragrance and personal care company known for their artisanal approach to perfume-making. Founded in 1992, they specialize in creating high-quality candles, room sprays, and body care products that embody unique scents designed to transport users into a specific ambiance or evoke a particular memory. Lafco emphasizes craftsmanship, sourcing premium materials and utilizing expert perfumers to develop signature fragrances that reflect the essence of New York and beyond. Their products are celebrated for their aesthetic appeal, sophisticated formulations, and attention to detail.",https://images.unsplash.com/photo-15907369626-6c63ac16f3df?w=400&h=300&fit=crop,https://www.lafconewyork.com,United States,1992,niche,,,,2025-07-18T12:32:10.942225,2025-08-29T07:12:08.830819
cmd1faf0e8615dfe57c0ba2,Laflachère,"Laflachère is a contemporary perfume house known for its unique and artisanal fragrances that blend traditional craftsmanship with modern scent profiles. Established by a team of passionate perfumers, the brand aims to evoke emotions and memories through its thoughtfully curated collections. Laflachère prides itself on using high-quality, sustainable ingredients, ensuring that each fragrance tells a story while embracing eco-conscious practices. The company also emphasizes creativity and individuality, appealing to a niche market of perfume enthusiasts seeking exclusive and bespoke scent experiences.",https://images.unsplash.com/photo-1541643600914-78b084683601?w=400&h=300&fit=crop,www.laflachere.com,France,2018,niche,contact@laflachere.com,,,2025-07-18T12:32:10.942225,2025-08-29T07:12:15.553876
cmd69b2b15e392b72ea5dc7,Lagerfeld,"Karl Lagerfeld was a German fashion designer, photographer, and artist known for his impactful contribution to the fashion industry. Beyond apparel, Lagerfeld's design legacy also includes a line of perfumes that reflects his signature style—bold, chic, and innovative. The Lagerfeld fragrance line includes a range of scents for both men and women, drawing on Lagerfeld's artistic input and his unique aesthetic vision, emphasizing elegance and modernity. The company began its foray into the fragrance market in the late 1970s and quickly became known for unique and compelling scents that resonate with the fashion-forward consumer.",https://www.karllagerfeld.com/cdn/shop/files/FW25_Mainline_-_Tier_2_-_PDP_Images_-_2040x2400px_-_TIFF_-_WSW_LOOK_-_MUST_BUY_-_FULL_LOOK.jpg?v=1756200703&width=432,https://www.karllagerfeld.com,France,1978,designer,,,"40 Rue de la Verrerie, 75004 Paris, France",2025-07-18T12:32:10.942225,2025-08-29T07:12:27.518569
cmded3ae1f26b1aaa98c2ba,Laggridore,"Laggridore is a niche perfume company known for its artisanal approach to fragrance creation. Founded by a passionate perfumer with a vision to blend nature and art, Laggridore focuses on crafting unique and high-quality scents that reflect the beauty of the natural world. Their collections are often inspired by personal stories and natural landscapes, allowing wearers to experience a profound connection to nature through their fragrances. The company prides itself on using sustainable ingredients and environmentally friendly practices in their production process.",https://images.unsplash.com/photo-1587017539504-67cfbddac569?w=400&h=300&fit=crop,www.laggridore.com,France,2015,niche,contact@laggridore.com,,"15 Rue des Fleurs, Paris, France",2025-07-18T12:32:10.942225,2025-08-29T07:12:33.976838
cmda9a3d8b82d68ebd99404,L'Air D'or,"L'Air D'or is a niche perfume company known for creating unique and high-quality fragrances that often draw inspiration from the natural world and various artistic themes. Founded by passionate perfumers, the brand aims to evoke emotions and memories through scent, crafting each fragrance with meticulous attention to detail. Their specialty lies in the fusion of creativity and artistry, appealing to discerning customers who value individuality in their fragrant choices.",https://images.unsplash.com/photo-1541643600914-78b084683601?w=400&h=300&fit=crop,http://www.lair-dor.com,France,2010,niche,contact@lair-dor.com,,"25 Rue de la Fragrance, Paris, France",2025-07-18T12:32:10.942225,2025-08-29T07:12:40.169951
cmd6949e9811af8c522a24c,Lake & Skye,"Lake & Skye is a niche perfume company that specializes in creating clean, modern fragrances inspired by nature and designed to enhance personal moments. Founded in 2014 by the entrepreneur, only the founder's vision is focused on offering unique scents that resonate on a personal level, integrating the ethos of mindfulness and well-being. Their products comprise of perfumes, candles, and body oils, often using high-quality ingredients without harmful chemicals. The brand is known for its minimalist aesthetic and commitment to sustainability, making it a meaningful choice for consumers seeking conscious luxury in fragrance.",https://www.lakeandskye.com/cdn/shop/files/LS_NAVIGATION_CATEGORYTHUMBNAIL_1111.jpg?v=1723572272&width=700,https://www.lakeandskye.com,United States,2014,niche,,,,2025-07-18T12:32:10.942225,2025-08-29T07:12:48.014230
cmd3af34e2d48bfe73085cf,Laline,"Laline is a cosmetics and fragrance company specializing in personal care products such as body care, skin care, and home fragrances. Established in Israel in 1999, the brand focuses on delivering luxurious, high-quality products inspired by natural ingredients. They emphasize creativity and innovation in scent development, and their product lines often feature unique, signature fragrances that cater to diverse consumer preferences. Laline operates retail stores across several countries and offers an online shopping experience, making their products accessible to a global audience.",https://laline.com/cdn/shop/files/logo.png?v=1735040910&width=320,https://www.laline.com,Israel,1999,indie,,,,2025-07-18T12:32:10.942225,2025-08-29T07:12:55.545553
cmd7854e7a6463694b88bcc,Lalique,"Lalique is a luxury brand known for its exquisite crystal creations and fine fragrances. Founded by the renowned French glassmaker René Lalique in the early 20th century, the company initially gained fame for its art nouveau glass work, which was celebrated for its intricate designs and craftsmanship. In the realm of perfumery, Lalique is recognized for producing high-quality fragrances that often reflect the artistic direction of its heritage, combining elegance with floral, woody, and oriental notes. The brand's perfumes often come in beautifully designed bottles that are a testament to their artistic roots.",https://images.unsplash.com/photo-15907369626-6c63ac16f3df?w=400&h=300&fit=crop,https://www.lalique.com,France,1888,niche,,,"27 rue du Faubourg Saint-Antoine, 75011 Paris, France",2025-07-18T12:32:10.942225,2025-08-29T07:13:03.306804
cmddcd0521fabb8da0a4492,Lamar Jackson,,https://images.unsplash.com/photo-1541643600914-78b084683601?w=400&h=300&fit=crop,,United States,2022,celebrity,,,,2025-07-18T12:32:10.942225,2025-08-29T07:13:08.597156
cmd52d5881963622be0b2c7,Lambada,"Lambada is a contemporary perfume company that focuses on creating unique, high-quality fragrances inspired by the vibrant culture and energy of the Brazilian carnival. The company began with a vision to encapsulate the essence of joy and celebration through their scent profiles, which often feature tropical and exotic notes. Each scent is designed to evoke feelings of happiness and freedom, reflecting their commitment to innovation in the olfactory realm. Lambada collaborates with skilled perfumers to ensure their creations are both distinctive and luxurious, appealing to a broad audience that appreciates the art of fragrance.",https://images.unsplash.com/photo-1582735689369-4fe89db7114c?w=400&h=300&fit=crop,www.lambadaperfumes.com,Brazil,2015,niche,contact@lambadaperfumes.com,+55 11 1234 5678,"Rua das Flores, 123, São Paulo, SP, Brazil",2025-07-18T12:32:10.942225,2025-08-29T07:13:14.618743
cmd109a7e522ed921e9a403,Lambert-Pharmacal Co,"Lambert-Pharmacal Co, known for its innovative approach and extensive range of personal care and fragrance products, has a long-standing history in the perfume industry. The company specializes in creating unique scents that appeal to a diverse audience while maintaining a commitment to quality and customer satisfaction. Over the years, they have focused on developing fragrances that cater to both individual expression and practical everyday use.",https://images.unsplash.com/photo-1556909114-f6e7ad7d3136?w=400&h=300&fit=crop,,United States,1930,drugstore,,,,2025-07-18T12:32:10.942225,2025-08-29T07:13:20.876475
cmd5f5d949de1ac7e50712b,Lamborghini,"Lamborghini is a luxury automotive manufacturer known primarily for its high-performance sports cars and SUVs. The company has diversified into the fragrance industry, producing a range of perfumes that capture the essence of the Lamborghini brand. Their fragrances typically reflect the brand’s bold, adventurous spirit and focus on high-quality ingredients, appealing to consumers who align with the luxury lifestyle.",https://www.lamborghini.com/sites/it-en/files/DAM/lamborghini/logos/2024/03_26/logo_header_01.svg,https://www.lamborghini.com,Italy,1963,designer,,,"Via Modena, 12, 41053 Sant'Agata Bolognese, Italy",2025-07-18T12:32:10.942225,2025-08-29T07:13:27.020992
cmdafba4e26b06d44d84375,Lambre,"Lambre is a fragrance company that specializes in creating high-quality perfumes and colognes at accessible prices. Founded with the intention of providing unique and captivating scents, Lambre offers a wide range of products, catering to various preferences and demographics. They are particularly known for mimicking popular designer fragrances, making them an attractive choice for consumers seeking luxury scents without the hefty price tag. The company emphasizes creativity and originality in its offerings while maintaining a commitment to customer satisfaction.",https://am-assets.pl/themes/light/img/layout/logo3.png,https://www.lambre.pl,Poland,2012,indie,,,,2025-07-18T12:32:10.942225,2025-08-29T07:13:34.493707
cmd6920c5948dd670bae70e,Lambretta,"Lambretta is a brand that originated from the world of fashion, particularly recognized for its association with the iconic Lambretta scooters. The company has expanded its creative legacy into the perfume industry, crafting fragrances that encapsulate the spirit of adventure, individuality, and nostalgia linked to the Lambretta ethos. The perfume line aims to reflect the lifestyle and culture associated with the brand, appealing to those who value style and authenticity in both fashion and scent.",https://images.unsplash.com/photo-15907369626-6c63ac16f3df?w=400&h=300&fit=crop,,,,indie,,,,2025-07-18T12:32:10.942225,2025-08-29T07:13:40.120005
cmd97179984de2856acfe58,Lamotte Taurelle,"Lamotte Taurelle is a niche perfume company specializing in the creation of high-quality, bespoke fragrances. Established with a passion for olfactory artistry, they focus on crafting unique scents using rare ingredients sourced from around the world. The company's ethos revolves around individuality and personalized experiences in fragrance, appealing to a discerning clientele who seek out exclusivity and sophistication in their perfume choices.",https://images.unsplash.com/photo-15907369626-6c63ac16f3df?w=400&h=300&fit=crop,www.lamottetaurelle.com,France,2010,niche,contact@lamottetaurelle.com,+33 1 23 45 67 89,"123 Fragrance Ave, 75001 Paris, France",2025-07-18T12:32:10.942225,2025-08-29T07:13:47.016040
cmd785385fd0b50c7976bdd,L'Amour Mere,"L'Amour Mere is a contemporary perfume company known for its artisanal approach to fragrance creation. The brand emphasizes high-quality, unique scents that evoke personal and emotional connections. Established with a passion for the craft of perfumery, L'Amour Mere focuses on using natural ingredients and sustainable practices, often drawing inspiration from various cultures and histories to develop its signature fragrances.",https://lamourmere.com/cdn/shop/files/people-logo.webp?v=1730438993&width=500,www.lamourmere.com,United States,2018,indie,contact@lamourmere.com,,,2025-07-18T12:32:10.942225,2025-08-29T07:13:56.467798
cmd038c7c44791223126280,Lancaster Group,"Lancaster Group is a leading company in the fragrance industry known for creating premium perfumes. Established with a commitment to innovation and quality, Lancaster Group specializes in formulating exotic and captivating scents. Over the years, the company has built a reputation for excellence and creativity, combining classic techniques with modern trends to produce fragrances that appeal to a sophisticated clientele. They have a diverse portfolio that includes both men’s and women’s fragrances, aiming to provide olfactory experiences that resonate deeply with their customers.",https://images.unsplash.com/photo-15907369626-6c63ac16f3df?w=400&h=300&fit=crop,http://www.lancaster-group.com,Switzerland,1980,niche,,,,2025-07-18T12:32:10.942225,2025-08-29T07:14:03.295659
cmdcff2cf37a43e20632094,Lancaster,"Lancaster is a prominent name in the beauty industry, known for its innovative skincare and fragrance products. Established in the late 20th century, Lancaster focuses on the interplay between efficacy and luxury, offering a range of perfumes that combine sophisticated scents with high-quality ingredients. The brand is recognized for its commitment to creating unique fragrances that encapsulate the essence of its Mediterranean heritage, often inspired by sun, sea, and nature.",https://www.lancaster-beauty.com/sites/default/files/shared/catalog/range/lancaster-beauty-suncare-perfect-serum-unifiant-youth-protection-mea.png,https://www.lancaster-beauty.com,Monaco,1946,designer,,,,2025-07-18T12:32:10.942225,2025-08-29T07:14:10.523878
cmd0a814e0930c52fa385d0,Lancetti,"Lancetti is an Italian fashion house established in the 1980s, known primarily for its luxury fragrances and fashion accessories. The brand combines elegance and modernity, reflecting the culture and craftsmanship of Italy. Lancetti initially gained fame for its haute couture and ready-to-wear collections, eventually venturing into the fragrance market, where they offer a variety of scents that appeal to a sophisticated audience. Their perfumes embody the essence of Italian design, characterized by quality ingredients and artistic bottle designs.",http://www.lancetti.com/images/logo.png,http://www.lancetti.com,Italy,1980,designer,,,,2025-07-18T12:32:10.942225,2025-08-29T07:14:17.806145
cmd68ecd202ed771307c8dd,Lancôme,"Lancôme is a French luxury cosmetics and skincare brand that was established in 1935. The brand is renowned for its high-quality perfumes, skincare products, and makeup. Lancôme combines the elegance of French beauty with advanced technology to create products that cater to various skin types and preferences. Established by Armand Petitjean, the brand's name is inspired by the Château de Lancôme in the Loire Valley. Lancôme is known for iconic fragrances such as La Vie Est Belle and Trésor, emphasizing a blend of sophistication and modernity in their scent compositions.",https://images.unsplash.com/photo-15907369626-6c63ac16f3df?w=400&h=300&fit=crop,https://www.lancome.com,France,1935,designer,,,"28 Rue du Faubourg Saint-Honoré, 75008 Paris, France",2025-07-18T12:32:10.942225,2025-08-29T07:14:25.738856
cmd0877143a50c5b61cc8ce,Landor,"Landor is a design and branding agency known for its expertise in creating and enhancing brand identities. They specialize in packaging design, brand strategy, and brand experience, including in the fragrance sector. Founded in 1941 by Walter Landor, the company has a storied history of collaborating with top brands to craft memorable designs and experiences around products, including perfumes, that resonate in the marketplace and connect with consumers on an emotional level.",https://landor.com/assets/images/landor-logo.svg,https://landor.com,United States,1941,designer,,,,2025-07-18T12:32:10.942225,2025-08-29T07:14:32.696569
cmded188a4b374752521c6c,Lane Bryant,"Lane Bryant is a retail company that specializes in offering fashionable women's clothing, including a variety of sizes and styles. The company is particularly known for catering to plus-size women and providing trendy options that enhance body positivity and self-expression. Founded in 1904, Lane Bryant has built a reputation for its wide-ranging collections that blend comfort, style, and affordability, making it a favorite destination for women looking for inclusive fashion.",https://images.unsplash.com/photo-1587017539504-67cfbddac569?w=400&h=300&fit=crop,https://www.lanebryant.com,United States,1904,designer,,,,2025-07-18T12:32:10.942225,2025-08-29T07:14:39.054147
