id,name,description,image,website,country,founded,type,email,phone,address,createdAt,updatedAt
cmda5c3f1e6c1514e812070,Tartine et Chocolat,"Tartine et Chocolat is a renowned French high-end brand that specializes in luxury children's apparel and accessories, as well as niche fragrances. Founded in 1977 by designer Catherine de Médicis, the brand embodies elegance and the spirit of childhood, offering a curated selection of products designed for children. Their fragrance line is particularly focused on capturing innocent and playful scents that appeal to both children and adults. Tartine et Chocolat has gained a reputation for its exquisite craftsmanship and an emphasis on quality, ensuring that every item reflects the brand's commitment to luxury.",https://images.unsplash.com/photo-1556909114-f6e7ad7d3136?w=400&h=300&fit=crop,https://www.tartineetchocolat.com,France,1977,niche,,,,2025-07-18T12:32:10.942225,2025-08-29T14:19:33.294713
cmddeafc478300088dce536,TasteTV,"TasteTV is a lifestyle brand that focuses on food, wine, spirits, and fragrances. They curate and showcase various artisan perfumers and products, offering a platform for their unique creations to reach a broader audience. Founded by a team passionate about taste and creativity, TasteTV not only promotes high-end perfumes but also engages in global events to celebrate gourmet culture. Their specialty lies in promoting niche fragrances that reflect artisanal craftsmanship.",https://www.tastetv.com/theme2/wp-content/uploads/2014/06/enfold-logo-test2.jpg,https://www.tastetv.com,United States,2005,niche,,,,2025-07-18T12:32:10.942225,2025-08-29T14:19:45.972183
cmd962b5dc460afc2596044,Tattooed by Inky,"Tattooed by Inky is a fragrance brand that focuses on creating unique and bold scents inspired by the artistry and culture of tattoos. The company aims to capture the essence of individuality and self-expression through its carefully crafted fragrances, which resonate with those who appreciate body art. Their story revolves around the celebration of creativity and personal narratives, resulting in perfumes that not only smell good but also tell a story.",https://images.unsplash.com/photo-1582735689369-4fe89db7114c?w=400&h=300&fit=crop,www.tattooedbyinky.com,United States,2020,indie,contact@tattooedbyinky.com,,,2025-07-18T12:32:10.942225,2025-08-29T14:19:52.317681
cmd689e1c2aefdcf6467db1,Tauer,"Tauer Perfumes is an independent perfume house founded by Swiss perfumer Andy Tauer in 2005. The company is renowned for its artisanal approach to fragrance creation, focusing on high-quality raw materials and unique compositions. Tauer's fragrances are characterized by their complexity and depth, often inspired by personal experiences and travels. The brand emphasizes transparency in its production process and sustainability in sourcing ingredients, setting itself apart in the niche perfume market.",https://tauerperfumes.com/cdn/shop/files/LogoAT_Kopie.png?v=1745848127&width=120,https://www.tauerperfumes.com,Switzerland,2005,niche,,,,2025-07-18T12:32:10.942225,2025-08-29T14:20:00.220003
cmd971d5c56305febdca0e1,Tauerville,"Tauerville is a niche perfume brand created by renowned perfumer Tauer Perfumes, founded by Andreas Wilhelm Taucher in 2005. The brand specializes in high-quality, artisanal fragrances that are characterized by their unique compositions and a focus on natural ingredients. Tauerville emphasizes the art of perfumery while offering distinctive scents that cater to fragrance enthusiasts looking for something out of the ordinary. Their philosophy revolves around authenticity and creativity in fragrance development, leading to a portfolio of perfumes that blend personal narrative with sensory experience.",https://images.unsplash.com/photo-1556909114-f6e7ad7d3136?w=400&h=300&fit=crop,https://www.tauerperfumes.com/tauerville,Switzerland,2016,niche,,,,2025-07-18T12:32:10.942225,2025-08-29T14:20:07.172213
cmd246bbee6e1cb1e9d4ef1,Tauleto,"Tauleto is a luxury perfume house that specializes in crafting unique and artisanal fragrances. Founded by a team of passionate perfumers, Tauleto aims to blend traditional perfume-making techniques with innovative approaches to create scents that evoke emotion and individuality. The brand focuses on sustainable sourcing, often using rare and high-quality natural ingredients, making their offerings distinct in an oversaturated market. Their story began with a vision to reintroduce the art of perfumery and revitalize the sensory experience that bespoke fragrances can provide.",https://images.unsplash.com/photo-1587017539504-67cfbddac569?w=400&h=300&fit=crop,https://www.tauleto.com,France,2018,niche,contact@tauleto.com,,"24 Rue des Fleurs, 75008 Paris, France",2025-07-18T12:32:10.942225,2025-08-29T14:20:13.690917
cmdfb30e9fb0fbb97bb92db,Taylor of London,"Taylor of London is a British fragrance company renowned for its elegant and sophisticated scents, catering to both men and women. Founded in the late 20th century, the company has established a reputation for producing high-quality perfumes that are often inspired by classic British heritage. Its specialty lies in creating distinctive and timeless fragrances that evoke a sense of luxury and refinement, often drawing upon traditional English motifs and themes.",https://images.unsplash.com/photo-15907369626-6c63ac16f3df?w=400&h=300&fit=crop,https://www.tayloroftheuk.com,United Kingdom,1974,designer,,,,2025-07-18T12:32:10.942225,2025-08-29T14:20:20.692954
cmd93acd8c3991ff56b5783,Taylor of Old Bond Street,"Taylor of Old Bond Street is a renowned British grooming and fragrance company that specializes in classic shaving products, men's grooming essentials, and fine fragrances. Established in 1854, the company has built a reputation for its high-quality, traditional products, which combine craftsmanship with a sense of heritage. Their offerings include a variety of fragrances that embody the elegance and sophistication of British perfumery, as well as an array of shaving creams, aftershaves, and essential grooming items. The brand prides itself on its commitment to quality and has a loyal customer base that appreciates their classic yet contemporary approach.",https://www.tayloroldbondst.co.uk/cdn/shop/files/taylor-of-old-bond-street-logo_2000x.png?v=1614297400,https://www.tayloroldbondst.co.uk,United Kingdom,1854,indie,,+44 (0)20 7493 2020,"74-75 Charing Cross Road, London, WC2H 0BN, United Kingdom",2025-07-18T12:32:10.942225,2025-08-29T14:20:28.954494
cmdb352ecd086db8adb7183,Taylor Swift,"Taylor Swift's perfume line is an extension of her brand that incorporates her artistic identity and personal style into signature fragrances. Launched as a part of her broader celebrity merchandise, the perfumes aim to resonate with her fan base by encapsulating emotions and moments from her music and life experiences. The fragrances often emphasize femininity, with a blend of floral tones and sweet undertones, reflecting Taylor's persona and storytelling approach through scent.",https://images.unsplash.com/photo-1556909114-f6e7ad7d3136?w=400&h=300&fit=crop,https://www.taylorswift.com,United States,2011,celebrity,,,,2025-07-18T12:32:10.942225,2025-08-29T14:20:34.865333
cmd62af91fb97b1cea06a3b,Tayyib,"Tayyib is a perfume company specializing in high-quality, natural fragrances inspired by Middle Eastern traditions. The brand focuses on using authentic, pure ingredients to create unique scents that reflect cultural heritage and craftsmanship in perfumery. Tayyib aims to provide consumers with artisanal perfumes that embody luxury and the spirit of the region.",https://images.unsplash.com/photo-1556909114-f6e7ad7d3136?w=400&h=300&fit=crop,www.tayyib.com,United Arab Emirates,2020,niche,contact@tayyib.com,+971 4 123 4567,"Al Quoz, Dubai, United Arab Emirates",2025-07-18T12:32:10.942225,2025-08-29T14:20:41.112665
cmd052b8e263f1813153920,TC World of Women,"TC World of Women is a perfume company that specializes in creating fragrances specifically for women, focusing on empowering and celebrating femininity. The brand emphasizes the connection between scent and emotion, crafting unique blends that resonate with their target audience. They aim to provide a luxurious experience while promoting self-confidence among women through the art of perfumery. The company's story centers around a commitment to innovation and quality, catering to the diverse preferences of modern women.",https://images.unsplash.com/photo-1582735689369-4fe89db7114c?w=400&h=300&fit=crop,,,,indie,,,,2025-07-18T12:32:10.942225,2025-08-29T14:20:47.709134
cmd8add98d928a195ae7c4b,Tchibo,"Tchibo is a German company that originally began as a coffee vendor but expanded its offerings to include a wide range of products including perfumes, fashion, and household items. The company was founded in 1949 and has developed a strong reputation for quality and innovation. Tchibo is known for its unique business model that combines retail with a weekly changing assortment of new products, including fragrances that are typically sold through their stores and online. Their approach emphasizes convenience, value, and a diverse range of merchandise that often reflects seasonal trends.",https://www.tchibo.com/media/pages/de/de/9914b45c48-1713344208/tchibo_logo-hor_gold-light_srgb.svg,https://www.tchibo.com,Germany,1949,drugstore,,,,2025-07-18T12:32:10.942225,2025-08-29T14:20:57.222419
cmdaa0709f3dc3d65b78059,Te plus Te,"Te plus Te is a niche perfume company that merges innovative fragrance concepts with artistry in perfumery. Founded by a passionate team focused on crafting unique scent experiences, the company emphasizes the creative process and personalization in fragrance creation, drawing inspiration from nature, culture, and individual stories. Their specialty lies in artisanal production methods, ensuring that each perfume is a reflection of their philosophy of self-expression and sensory exploration.",https://www.tepluste.com/cdn/shop/files/SquareLogoG-01_25ca7732-bdc4-416d-b5ec-0787f2e80869.png?v=1630544756&width=600,https://tepluste.com,Spain,2018,niche,info@tepluste.com,,"Calle de Vallehermoso 105, 28015 Madrid, Spain",2025-07-18T12:32:10.942225,2025-08-29T14:21:05.283097
cmd1d6d8c2fd89e108b1a9e,Teaching Men's Fashion,"Teaching Men's Fashion is a lifestyle brand focused on offering fashion and grooming advice, which extends into the realm of fragrances. The company provides a curated selection of colognes and grooming products, emphasizing modern style. Their story revolves around empowering men to enhance their personal style, particularly through fragrance, as an essential element of overall grooming.",https://images.unsplash.com/photo-1541643600914-78b084683601?w=400&h=300&fit=crop,https://teachingmensfashion.com,United States,2016,indie,,,,2025-07-18T12:32:10.942225,2025-08-29T14:21:10.964646
cmdd5eb0c8eca5d6c8ac90e,Teaology,"Teaology is a unique brand that specializes in creating fragrance and skincare products infused with the essence of tea, merging the art of perfumery with the health benefits of botanical ingredients. Founded with the idea of harnessing the aromatic and restorative properties of tea, Teaology focuses on delivering high-quality, luxurious fragrances that cater to both men and women. Their products are known for their blend of natural ingredients and aromatic compounds, catering to an audience that appreciates the finer things in life while also being mindful of personal health and wellness.",https://ibevconcepts.com/cdn/shop/files/ibc_logo_1.png?v=1614318972&width=320,https://www.teaology.com,Italy,2015,indie,,,,2025-07-18T12:32:10.942225,2025-08-29T14:21:18.342253
cmd3bd4701967a5d2e1645b,Teatro Fragranze,"Teatro Fragranze is an Italian fragrance company that specializes in artisanal perfumes, candles, and home fragrances. The brand draws inspiration from the beauty of Italian culture and life, creating unique scents that evoke emotions and memories. Each fragrance is crafted with high-quality ingredients and reflects a meticulous attention to detail, merging traditional methods with modern aesthetics. Teatro Fragranze emphasizes storytelling through its fragrances, making each product a sensory experience that connects consumers to the essence of Italy.",https://images.unsplash.com/photo-1556909114-f6e7ad7d3136?w=400&h=300&fit=crop,https://www.teatrofragranze.com,Italy,2009,niche,,,,2025-07-18T12:32:10.942225,2025-08-29T14:21:34.572564
cmd4cead73064cfb2306717,Technarom,"Technarom is a well-established company that specializes in the development and production of high-quality fragrance compositions. Founded on a passion for scent and innovation, the company offers a wide range of customized fragrances for various sectors, including personal care, home care, and industrial applications. Technarom is known for its commitment to sustainability and sourcing natural ingredients to create unique and environmentally friendly products.",https://images.unsplash.com/photo-15907369626-6c63ac16f3df?w=400&h=300&fit=crop,https://www.technarom.com,France,1980,niche,,+33 1 23 45 67 89,"15 Rue des Fragrances, 75000 Paris, France",2025-07-18T12:32:10.942225,2025-08-29T14:21:41.031580
cmd4d93ec0a3a4c39e73794,Technique Indiscrete,"Technique Indiscrete is a niche perfume company known for its unique and artistic approach to fragrance creation. The brand specializes in crafting high-quality, avant-garde scents that often draw inspiration from various cultural and artistic influences. Each fragrance is designed to evoke emotions and memories, making them a personalized experience for the wearer. Technique Indiscrete has gained a reputation for its innovative blends and is sought after by fragrance connoisseurs who appreciate distinctive olfactory experiences.",https://www.techniqueindiscrete.com/img/technique-indiscrete-logo-1556873384.jpg,https://www.techniqueindiscrete.com,France,2018,niche,,,,2025-07-18T12:32:10.942225,2025-08-29T14:21:51.209192
cmd97a0c3b71b1a5ac3d23e,Ted Baker,"Ted Baker is a British multinational clothing retail company known for its stylish and contemporary casual and formal wear. Founded in 1988 by Ted Baker himself, the brand has earned a reputation for high-quality fabrics and attention to detail. Ted Baker extended its offerings into the fragrance market, creating a range of scents that reflect the brand's quirky yet sophisticated aesthetic. The fragrances are known for their unique compositions and playful packaging, aligning with the overall identity of the brand, which is characterized by creativity and innovation.",https://www.tedbaker.com/cdn/shop/files/Ted_Baker-logo-black.svg?v=1742200662&width=170,https://www.tedbaker.com,United Kingdom,1988,designer,,,,2025-07-18T12:32:10.942225,2025-08-29T14:21:58.157977
cmd9ce872ac60064b3e4eca,Ted Lapidus,"Ted Lapidus is a French fashion house that was established by designer Ted Lapidus in the late 1950s. Renowned for its innovative approach to style, the brand became particularly popular in the 1960s and 1970s for its ready-to-wear collections, which emphasized a modern, urban aesthetic. The company expanded into fragrances in the 1980s, creating perfumes that encapsulate the spirit of the brand's fashion ethos. Ted Lapidus is known for its bold, creative scents that appeal to a wide demographic, often drawing inspiration from the vibrant culture of Paris.",https://www.flannels.com/images/core/flanlogo-black.svg,http://www.tedlapidus.com,France,1951,designer,,,,2025-07-18T12:32:10.942225,2025-08-29T14:22:14.815967
cmddca707d9b55207f2b05c,Temper Chocolates,"Temper Chocolates specializes in artisanal handcrafted chocolates. Founded by a team of passionate chocolatiers, the company is committed to using high-quality, sustainable ingredients to create unique flavor profiles. They combine traditional chocolate-making techniques with modern innovations to ensure every chocolate piece is crafted with precision. Over the years, they have developed a strong reputation for their luxurious chocolate offerings and have expanded into creating fragrance-infused chocolates that appeal to a niche market.",https://images.unsplash.com/photo-1582735689369-4fe89db7114c?w=400&h=300&fit=crop,,,,niche,,,,2025-07-18T12:32:10.942225,2025-08-29T14:22:20.342115
cmd1d69d90811ef1f3efcc8,Tempus Vitae Parfums,"Tempus Vitae Parfums is a niche perfume house focused on creating unique and artistic fragrances that celebrate the essence of time and nature. Founded by a group of passionate fragrance makers, the company seeks to craft luxurious scents using high-quality, sustainably sourced ingredients. Each creation reflects a story or an experience, inviting consumers to explore the depths of sensory experience through olfactory artistry.",https://i0.wp.com/tempusvitaeparfums.com/wp-content/uploads/2024/04/TVPR570x125.png?fit=570%2C125&ssl=1,https://www.tempusvitaeparfums.com,United States,2019,niche,contact@tempusvitaeparfums.com,,,2025-07-18T12:32:10.942225,2025-08-29T14:22:27.279875
cmda13b5e7a36fbddf38261,Ten Digit Creations,"Ten Digit Creations is a niche perfume company that focuses on creating unique, high-quality fragrances. They are known for their innovative scent compositions and emphasize the artistic aspect of perfumery, appealing to fragrance enthusiasts seeking distinct olfactory experiences. Additionally, the company often highlights the storytelling aspect of their scents, fostering a connection between the user and the fragrance.",https://images.unsplash.com/photo-1582735689369-4fe89db7114c?w=400&h=300&fit=crop,https://tendigitcreations.com,United States,2017,niche,info@tendigitcreations.com,,,2025-07-18T12:32:10.942225,2025-08-29T14:22:33.504220
cmd956d43e16137493a727d,Téo Cabanel,"Téo Cabanel is a luxury niche perfume house based in France, renowned for its artisanal approach to fragrance creation. Established in 2009 by perfumer Téo Cabanel, the brand expounds on the philosophy of fine craftsmanship. The company specializes in unique, high-quality perfumes, often utilizing rare and exquisite ingredients. Each fragrance embodies a story, aiming to evoke emotions and memories through scent. Their creations reflect a deep heritage of perfumery traditions, combined with a modern sensibility, catering to a discerning clientele seeking individuality and depth in their fragrance choices.",https://images.unsplash.com/photo-1556909114-f6e7ad7d3136?w=400&h=300&fit=crop,https://www.teocabanel.com,France,2009,niche,,,,2025-07-18T12:32:10.942225,2025-08-29T14:22:39.476429
cmd12e6999a5acf18c53a4d,TRNP (Teone Reinthal Natural Perfume),"Teone Reinthal Natural Perfume (TRNP) specializes in crafting natural and eco-friendly perfumes, emphasizing the use of high-quality, organic ingredients sourced sustainably. Founded by perfumer Teone Reinthal, the company is known for its unique approach to fragrance creation, which combines artistry with an environmentally conscious philosophy. Their offerings include a range of bespoke scents designed to evoke specific moods and emotions, reflecting a deep understanding of the olfactory experience. TRNP has garnered a loyal customer base that appreciates the personal touch and customizability of their products, as well as a commitment to ethical practices.",https://www.teonereinthal.com/wp-content/uploads/2022/05/TR-long-black-logo-120h.jpg,https://www.teonereinthal.com,United States,2018,indie,,,,2025-07-18T12:32:10.942225,2025-08-29T14:22:48.547589
cmdff24cdbe2b7198bec889,Teone Reinthal Natural Perfume,"Teone Reinthal Natural Perfume is a boutique perfume company that specializes in the creation of natural and organic fragrances. Founded by perfumer Teone Reinthal, the company seeks to blend artistry with nature, utilizing sustainably sourced botanicals to craft unique scent experiences. The fragrance line is inspired by the natural world and emphasizes the purity of ingredients. The company aims to cater to consumers looking for eco-friendly and non-toxic fragrance options, often focusing on small-batch production to maintain quality and exclusivity.",https://www.teonereinthal.com/wp-content/uploads/2022/05/TR-long-black-logo-120h.jpg,https://www.teonereinthal.com,Australia,2013,niche,,,,2025-07-18T12:32:10.942225,2025-08-29T14:22:57.084220
cmdb97289025d1a8585ee97,Tequila Perfumes,"Tequila Perfumes is known for its unique approach to fragrance creation, utilizing the essence of tequila and the culture surrounding it. The brand was established with the vision of encapsulating the spirit of tequila in a series of sophisticated and alluring scents. They focus on crafting artisan perfumes that celebrate the rich history and craftsmanship of tequila distillation, incorporating natural ingredients that reflect the vibrant landscapes of Mexico.",https://www.tequilaperfumes.com/img/logo/logo2.png,www.tequilaperfumes.com,Mexico,2018,niche,info@tequilaperfumes.com,+52 55 1234 5678,"Av. Insurgentes Sur 1234, Mexico City, Mexico",2025-07-18T12:32:10.942225,2025-08-29T14:23:04.774667
cmd9db5ca0f346cc3d181ef,Teresa Helbig,"Teresa Helbig is a fashion designer renowned for her unique blend of high fashion and artisan techniques. The company initially started as a couture label and expanded into the world of fragrance, creating perfumes that embody the same elegance and creativity found in her clothing line. The scents are characterized by their sophistication and attention to detail, reflecting Helbig's artistic vision and deep connection to her Spanish heritage.",https://teresahelbig.com/cdn/shop/files/02._TERESA_HELBIG_._Campaign4030_2d7efa99-67b8-40f4-b46b-b325d34b9dde.jpg?v=1739428494&width=4096,https://www.teresahelbig.com,Spain,2005,niche,,,,2025-07-18T12:32:10.942225,2025-08-29T14:23:11.891055
cmdea72691dedc081f46593,Terra Moderna 55,"Terra Moderna 55 is a niche perfume company that focuses on crafting unique, artisanal fragrances inspired by nature and modern aesthetics. Their story began with a passion for creating scents that evoke emotions and memories, emphasizing sustainable and eco-friendly practices in the fragrance industry. Specializing in small-batch productions, they pride themselves on using high-quality, natural ingredients sourced from around the world, aiming to create an olfactory experience that tells a story through each bottle.",https://images.unsplash.com/photo-15907369626-6c63ac16f3df?w=400&h=300&fit=crop,www.terramoderna55.com,Italy,2020,niche,contact@terramoderna55.com,+39 0123 456 789,"Via della Fragrance, 55, Florence, Italy",2025-07-18T12:32:10.942225,2025-08-29T14:23:17.863524
cmd04b5cee37bdfcfa8c0a2,TerraNova,"TerraNova is a fragrance company that specializes in creating high-quality, natural perfumes and body care products. Founded on the principles of using eco-friendly and ethically sourced ingredients, TerraNova offers a diverse range of scents that are inspired by nature and designed to evoke a sense of well-being. Their products emphasize a holistic approach to scent and self-care, appealing to consumers who value sustainability and natural formulations. The company's story is rooted in a passion for beneficial botanicals and a commitment to developing fragrances that are both refreshing and uplifting.","https://img1.wsimg.com/isteam/ip/4332ccbf-ee44-405e-b714-4ef7b3278cdc/AKA%20TN%20Nectarine%20Logo_600x97.76.jpg/:/rs=h:86,cg:true,m/qt=q:95",https://www.terranovabody.com,United States,1979,indie,,,,2025-07-18T12:32:10.942225,2025-08-29T14:23:24.657236
cmd9b8784bd7271aa22cb3d,Terre del Garda,"Terre del Garda is a niche perfume company that specializes in creating high-quality, artisanal fragrances inspired by the natural beauty and the cultural heritage of the Lake Garda region in Italy. The company is dedicated to capturing the essence of the landscape, combining traditional craftsmanship with modern technology. They focus on using carefully sourced ingredients to ensure the authentic representation of the fragrances. Terre del Garda aims to evoke emotions and memories through their unique scent compositions, appealing to connoisseurs of fine fragrances who appreciate the artistry behind perfumery.",https://images.unsplash.com/photo-1541643600914-78b084683601?w=400&h=300&fit=crop,http://www.terredelgarda.com,Italy,2016,niche,info@terredelgarda.com,,,2025-07-18T12:32:10.942225,2025-08-29T14:23:31.561311
cmd76d53a4eb5732fdca5bd,Terri Michele,"Terri Michele is a niche perfume company known for its unique and artisanal fragrances that emphasize quality ingredients and craftsmanship. The brand was founded by fragrance designer Terri Michele, who has a passion for creating scents that evoke emotions and memories. Their specialty lies in blending both traditional and contemporary fragrance notes, offering a diverse range of perfumes that cater to various preferences and skin types.",https://images.unsplash.com/photo-1587017539504-67cfbddac569?w=400&h=300&fit=crop,https://www.terrimichele.com,United States,2015,niche,contact@terrimichele.com,,,2025-07-18T12:32:10.942225,2025-08-29T14:23:37.350160
cmd89b4f795564861838f6e,Terry de Gunzburg,"Terry de Gunzburg is a luxury perfume brand founded by Terry de Gunzburg, a former makeup artist and beauty entrepreneur. The company is renowned for its high-quality fragrances that blend elegance with artistic inspiration. De Gunzburg gained fame for her innovative approach to beauty and scent, and she launched her perfume line with a vision to create unique, sophisticated fragrances that evoke emotion and artistry. The brand's products reflect a commitment to craftsmanship and creativity, drawing on de Gunzburg's extensive experience in the beauty industry.",https://images.unsplash.com/photo-1556909114-f6e7ad7d3136?w=400&h=300&fit=crop,[www.byterry.com](https://www.byterry.com),France,2013,niche,,,,2025-07-18T12:32:10.942225,2025-08-29T14:23:44.231879
cmd365de6a403436be3bb85,Tesco,"Tesco is a British multinational grocery and general merchandise retailer. Founded in 1919, Tesco has expanded its offerings to include a wide range of products, including private label perfumes and fragrances under its supermarket brand. Their approach focuses on affordability and accessibility, catering to a diverse customer base.",https://images.unsplash.com/photo-1587017539504-67cfbddac569?w=400&h=300&fit=crop,https://www.tesco.com,United Kingdom,1919,drugstore,,,,2025-07-18T12:32:10.942225,2025-08-29T14:24:14.442754
cmd1a6564b0691e95145dfa,Tesori d'Oriente,"Tesori d'Oriente is a fragrance company based in Italy, known for its unique approach to scent creation that draws inspiration from ancient cultures and traditions. The brand offers a wide range of products including perfumes, body lotions, and shower gels, all infused with intricate notes that reflect exotic lands and ancient civilizations. Since its inception, Tesori d'Oriente has focused on providing luxurious scents that celebrate the beauty and richness of different cultures, making their products luxurious yet accessible. The brand emphasizes quality and craftsmanship in its products, which are designed to transport consumers to far-off places through scent.",https://www.tesoridoriente.com/themes/custom/tso/logo.svg,https://www.tesoridoriente.com,Italy,2001,niche,,,,2025-07-18T12:32:10.942225,2025-08-29T14:24:22.497007
cmd81d7c01d265f546b4347,Tessa Williams,"Tessa Williams is a boutique perfume company that focuses on crafting unique, high-quality fragrances inspired by nature and personal experiences. Founded by Tessa Williams, the brand emphasizes the use of natural ingredients and sustainable practices in their fragrance development. Their collections offer a blend of modern and classic scents, appealing to both niche fragrance enthusiasts and those who appreciate artisanal craftsmanship.",https://images.unsplash.com/photo-1556909114-f6e7ad7d3136?w=400&h=300&fit=crop,www.tessawilliamsfragrance.com,United States,2015,niche,info@tessawilliamsfragrance.com,,,2025-07-18T12:32:10.942225,2025-08-29T14:24:28.636548
cmdc392f84374325f44c0ce,Testa Maura,"Testa Maura is a niche perfume company specializing in artisanal fragrance creation that focuses on high-quality ingredients and unique scent compositions. The brand is known for its commitment to artisanal craftsmanship and often draws inspiration from natural elements and personal stories. Founded with a vision to create wearable art, Testa Maura blends traditional perfumery techniques with modern sensibilities to create distinctive fragrances that resonate with both connoisseurs and casual users alike.",https://images.unsplash.com/photo-1587017539504-67cfbddac569?w=400&h=300&fit=crop,https://www.testamaura.com,Italy,2014,niche,info@testamaura.com,,"Via Roma 123, 00100 Rome, Italy",2025-07-18T12:32:10.942225,2025-08-29T14:24:35.658984
cmdffa0e85dfa0e94b22bbf,Testament London,"Testament London is a niche perfume company known for its elegant and diverse range of fragrances. Established with a mission to capture stories and memories through scent, the brand emphasizes the artistry and craftsmanship behind perfumery. Testament London's perfumes often evoke a sense of nostalgia, combined with a modern twist, engaging the senses by offering unique olfactory experiences. The brand is dedicated to creating limited editions and bespoke fragrances, appealing to those who appreciate individuality and luxury.",https://images.unsplash.com/photo-1587017539504-67cfbddac569?w=400&h=300&fit=crop,https://www.testamentlondon.com,United Kingdom,2020,niche,,,,2025-07-18T12:32:10.942225,2025-08-29T14:24:41.328839
cmd0ebb7dc63cac42920a53,Testament,"Testament is a luxury perfume company that focuses on creating unique and artistic fragrances inspired by various cultural and historical influences. Their story is rooted in a passion for scent exploration, aiming to evoke emotions and tell stories through the olfactory experience. They specialize in crafting high-quality, artisanal perfumes that appeal to discerning customers looking for distinctive and personalized scents.",https://images.unsplash.com/photo-1582735689369-4fe89db7114c?w=400&h=300&fit=crop,https://www.testamentperfumes.com,United States,2020,niche,contact@testamentperfumes.com,,"123 Scent Street, Fragrance City, CA 90001",2025-07-18T12:32:10.942225,2025-08-29T14:24:47.606966
cmd6316915db2c9c438fedb,Thaila Sodi,"Thaila Sodi is a fragrance brand known for its unique and vibrant scents that embody the spirit of contemporary elegance and creativity. The company is the brainchild of the Brazilian fashion designer Thaila Sodi, who translates her passion for fashion into the world of perfume. With a focus on high-quality ingredients and a blend of traditional and modern olfactory notes, Thaila Sodi aims to create memorable scents that resonate with consumers. The brand emphasizes the connection between fragrance and personal expression, making each perfume a statement of individuality.",https://images.unsplash.com/photo-1556909114-f6e7ad7d3136?w=400&h=300&fit=crop,https://www.thailasodi.com,Brazil,2014,designer,,,,2025-07-18T12:32:10.942225,2025-08-29T14:24:53.536473
cmdd04c3c9575f9e40ab9b4,Thalia Sodi,"Thalia Sodi is a fashion brand that encompasses a range of lifestyle products including clothing, jewelry, and fragrances. The brand is known for its vibrant and expressive designs that reflect Thalia's Latin heritage and personal style. Thalia Sodi's fragrances often embody the spirit of empowerment and femininity associated with the brand, targeting a diverse consumer base looking for products that resonate with their lifestyle and identity.",https://www.thaliasodi.com/img/logo.svg,https://www.thaliasodi.com,United States,2014,celebrity,,,,2025-07-18T12:32:10.942225,2025-08-29T14:24:59.489918
cmd971274811af8b5db1fd8,Thameen,"Thameen is a luxury perfume company known for creating high-quality, artisanal fragrances. Founded in 2013 by the perfumer Abdulaziz Althunayan, the brand draws inspiration from the rich cultural heritage and opulence of the Middle East, particularly the art of perfumery in traditional Arabian culture. Thameen specializes in crafting unique fragrances that often incorporate rare ingredients and an intricate blending process, offering a distinctive scent experience for its clientele. The brand is recognized for its elegant presentation and bespoke creations, which aim to evoke a sense of richness and sophistication.",https://images.unsplash.com/photo-15907369626-6c63ac16f3df?w=400&h=300&fit=crop,https://thameen.com,United Kingdom,2013,niche,,,,2025-07-18T12:32:10.942225,2025-08-29T14:25:06.227885
cmdfcdcd8d153f51605c181,That's So...,"That's So... is a contemporary fragrance brand that focuses on creating accessible, high-quality perfumes inspired by unique themes and moments. The company aims to evoke specific memories and feelings through their scent compositions. They leverage storytelling in their marketing to connect deeper with their customers, fostering a strong brand identity that resonates particularly well with younger demographics looking for personal expression.",https://images.unsplash.com/photo-1541643600914-78b084683601?w=400&h=300&fit=crop,https://www.thatsso.com,United Kingdom,2019,indie,,,,2025-07-18T12:32:10.942225,2025-08-29T14:25:12.361958
cmda6cd923a854d80974ea9,THD,"THD is a niche perfume company known for its unique and artisanal fragrance creations. The brand focuses on crafting high-quality perfumes using rare and exotic ingredients. Founded with the vision of bringing a personal touch to fragrance design, THD has established a strong reputation for its innovative scent compositions and limited edition releases, appealing to fragrance connoisseurs and enthusiasts who appreciate individuality and craftsmanship in their scents.",https://images.unsplash.com/photo-1582735689369-4fe89db7114c?w=400&h=300&fit=crop,,,,niche,,,,2025-07-18T12:32:10.942225,2025-08-29T14:25:18.175127
cmd17077a8aee9126d6d4f9,The 5th,"The 5th is an innovative perfume company specializing in luxury fragrances designed to evoke emotions and memories. Founded by a team of passionate artisans, they focus on quality ingredients and unique scent compositions. Their story is one of creativity and dedication to the art of perfumery, offering a curated collection that aims to celebrate individuality and self-expression through scent.",https://the5th.com/wp-content/uploads/2024/11/the5th_logo_FF8900.svg,https://the5th.com,United States,2021,niche,,,,2025-07-18T12:32:10.942225,2025-08-29T14:25:31.290109
cmd91d3327f2f87652608f8,The 7 Virtues,,https://the7virtues.com/cdn/shop/t/43/assets/1x1_small.png?v=18463420843009316671752585658,https://the7virtues.com,Canada,2010,indie,,,,2025-07-18T12:32:10.942225,2025-08-29T14:25:38.497010
cmd72338aa75bc9524f58d4,The Abstract Perfumer,"The Abstract Perfumer is a niche perfume company known for its artistic and conceptual approach to fragrance creation. Founded with the vision of redefining the perfumery experience, the company emphasizes individuality and unique scent formulations that tell stories and evoke emotions. Their collections typically explore abstract concepts and aim to connect with customers on a deeper, more personal level. Specializing in small-batch, handcrafted perfumes, The Abstract Perfumer fosters a culture of creativity and experimentation, appealing to fragrance connoisseurs seeking distinct and innovative olfactive experiences.",https://images.unsplash.com/photo-1541643600914-78b084683601?w=400&h=300&fit=crop,www.theabstractperfumer.com,United States,2020,niche,contact@theabstractperfumer.com,,,2025-07-18T12:32:10.942225,2025-08-29T14:25:44.468974
cmda191e8614a3bcbb6da5a,The American Line,"The American Line is a perfume company that focuses on creating distinctive fragrances inspired by American culture and heritage. Established by a group of passionate perfumers, the company aims to encapsulate the essence of various American experiences and landscapes into their fragrances. Their specialty lies in blending traditional perfumery techniques with contemporary aesthetics to create scents that reflect the diverse character of the United States. The brand places a strong emphasis on quality and authenticity, using carefully sourced ingredients in their formulations.",https://images.unsplash.com/photo-1556909114-f6e7ad7d3136?w=400&h=300&fit=crop,www.theamericanline.com,United States,2018,niche,,,,2025-07-18T12:32:10.942225,2025-08-29T14:25:50.618001
cmdae4ea9cf5a3cd13099b3,The Animale Group,"The Animale Group is a perfume company known for its unique and bold fragrance creations that cater to a diverse clientele. Founded by a group of passionate fragrance enthusiasts, the company focuses on creating distinctive scent profiles that reflect contemporary lifestyle and individual expression. The Animale Group specializes in developing both women's and men's fragrances, often characterized by their striking packaging and provocative advertising campaigns that capture the essence of adventure and freedom in scent.",https://images.unsplash.com/photo-15907369626-6c63ac16f3df?w=400&h=300&fit=crop,https://animale.com,United States,1987,niche,,,,2025-07-18T12:32:10.942225,2025-08-29T14:25:56.725940
cmdb9f68f40f1046342ce81,The Antique Shoppe,"The Antique Shoppe is a boutique perfume company that specializes in creating unique and artisanal fragrances inspired by vintage scents. Their story began with a passion for nostalgia, focusing on evoking memories through olfactory experiences. The company emphasizes handcrafted production, often using natural ingredients and traditional methods that pay homage to historic perfume-making techniques, making each scent a work of art.",https://images.unsplash.com/photo-1541643600914-78b084683601?w=400&h=300&fit=crop,www.theantiqueshoppe.com,United States,2021,indie,info@theantiqueshoppe.com,,,2025-07-18T12:32:10.942225,2025-08-29T14:26:03.367509
cmdcfabfdeadac5d71564c5,The Art of the Perfumer,"The Art of the Perfumer is a boutique perfume house dedicated to crafting high-quality, artisanal fragrances. Founded on the principle of blending traditional perfumery techniques with contemporary inspirations, the company focuses on creating unique scent profiles that tell a story. Each fragrance is designed to evoke memories and emotions, inviting consumers to explore the art of scent. With a team of skilled perfumers, they emphasize the use of natural ingredients and sustainable practices, appealing to a discerning clientele that values authenticity and creativity in their personal scents.",https://theartoftheperfumer.com/cdn/shop/files/Screenshot_2022-03-10_at_14.03.22_250x.png?v=1646921238,www.theartoftheperfumer.com,United States,2015,niche,contact@theartoftheperfumer.com,,"123 Fragrance Lane, Scent City, NY 10001",2025-07-18T12:32:10.942225,2025-08-29T14:26:10.292949
cmdc68a4e86a61f51cb6a21,The Balm,"The Balm is a cosmetics company that specializes in creating high-quality and affordable beauty products, including a range of perfumes. Known for its cheeky branding and vintage-inspired packaging, The Balm offers a variety of fragrances that are designed to appeal to modern consumers while exuding a classic charm. The company prides itself on using quality ingredients and aims to provide a fun, playful approach to beauty through its product offerings. Founded in 2004 by Marissa Shipman, The Balm has developed a loyal following for its versatile makeup and fragrance lines.",https://thebalm.com/cdn/shop/files/Logo_1500px.png?v=1740001021&width=240,https://thebalm.com,United States,2004,indie,,,,2025-07-18T12:32:10.942225,2025-08-29T14:26:18.019852
cmd10ceb42376f272949d30,The Bathroom,"The Bathroom is a unique body and home fragrance company that focuses on creating scented products inspired by the experiences and emotions associated with personal and communal spaces. Founded on the belief that fragrance can transform everyday life, The Bathroom crafts a range of high-quality perfumes, candles, and diffusers designed to elevate and personalize the ambient experience. Their specialty lies in utilizing innovative scent profiles that evoke memories and sensations tied to intimate and domestic environments.",https://images.unsplash.com/photo-1556909114-f6e7ad7d3136?w=400&h=300&fit=crop,https://www.thebathroom.com,United States,2019,indie,info@thebathroom.com,,"123 Scented Lane, Fragrance City, CA 90210",2025-07-18T12:32:10.942225,2025-08-29T14:26:24.265295
cmd4ab251c0795204493574,The Bearded Bastard,"The Bearded Bastard is a niche fragrance company specializing in handcrafted, artisanal perfumes and grooming products. Founded out of a passion for crafting high-quality scents, the company began with the belief that fragrance should be personal and unique. They create small batches of perfumes, beard oils, and solid colognes, emphasizing the use of natural ingredients and traditional methods. Their signature scents often draw inspiration from the rugged, outdoor lifestyle, appealing to those who appreciate bold and complex fragrances. The brand prides itself on its authenticity and quality, catering primarily to a clientele seeking distinctive, artisanal products.",https://images.unsplash.com/photo-1541643600914-78b084683601?w=400&h=300&fit=crop,www.thebeardedbastard.com,United States,2012,niche,,,,2025-07-18T12:32:10.942225,2025-08-29T14:26:30.668828
cmda640d2beb274241c2d6c,The Beautiful Mind Series,"The Beautiful Mind Series is a unique perfume company that focuses on creating fragrances inspired by the beauty of the human mind and emotions. Their story revolves around the exploration of psychological themes, aiming to evoke specific feelings and memories through scent. The brand emphasizes artistry and innovation, often collaborating with artisans and psychologists to develop unique olfactory experiences. They specialize in niche fragrances that encourage deep personal connections and self-expression.",https://images.unsplash.com/photo-1541643600914-78b084683601?w=400&h=300&fit=crop,www.thebeautifulmindseries.com,United States,2021,niche,contact@thebeautifulmindseries.com,,,2025-07-18T12:32:10.942225,2025-08-29T14:26:37.051155
cmd46e43e01397cec35cf1f,The Beehive,"The Beehive is a unique perfume company that specializes in crafting artisanal fragrances inspired by the natural world. Their philosophy revolves around sustainability and the use of eco-friendly ingredients, often sourcing materials from local suppliers. The company has a rich heritage, focusing on the art of perfume-making while promoting environmental awareness and the importance of bees in the ecosystem. Known for their distinctive scents that evoke memories and emotions, The Beehive has carved a niche for itself in the competitive fragrance industry.",https://images.unsplash.com/photo-15907369626-6c63ac16f3df?w=400&h=300&fit=crop,www.thebeehiveperfumes.com,United States,2015,indie,contact@thebeehiveperfumes.com,,,2025-07-18T12:32:10.942225,2025-08-29T14:26:43.530093
cmde35accaa9ff954d3a65d,The Big Apple,"The Big Apple is a perfume company that specializes in creating unique and innovative fragrances inspired by the essence and vibrancy of New York City. Established with the aim of capturing the multifaceted culture, energy, and diversity of the city, The Big Apple crafts scents that evoke nostalgia and excitement. The brand emphasizes quality and artistry, often collaborating with local artists and fragrance designers to create limited-edition collections that reflect various aspects of city life.",https://images.unsplash.com/photo-1556909114-f6e7ad7d3136?w=400&h=300&fit=crop,www.thebigapple.com,United States,2015,indie,contact@thebigapple.com,,"123 Fragrance Lane, New York, NY 10001, USA",2025-07-18T12:32:10.942225,2025-08-29T14:27:00.004813
cmd37ca8c0170b17b8c5966,The Blossomcare Company,"The Blossomcare Company is a boutique fragrance house specializing in creating artisan perfumes that draw inspiration from nature, flora, and the art of perfumery. Founded with a vision to blend natural elements with modern olfactory design, the company focuses on sustainability and ecological practices. They pride themselves on using high-quality, ethically sourced materials and aim to evoke emotional connections through their unique scent compositions.",https://images.squarespace-cdn.com/content/v1/5907bf5937c581f99cdabe62/1506479211425-CGH44TD2GR1AR3RBGF02/20170509_041341211_iOS.png,www.blossomcare.com,United States,2018,indie,contact@blossomcare.com,,,2025-07-18T12:32:10.942225,2025-08-29T14:27:07.092667
cmdd2a002e87f39daccdba4,The Bluebeards Revenge,"The Bluebeards Revenge is a British grooming brand that specializes in men's personal care products, including a range of high-quality fragrances. Established with the goal of providing unique and effective grooming solutions, their line of products features classic, masculine scents designed to appeal to men looking for distinct and long-lasting fragrances. Their signature scent is inspired by traditional barbering, and the brand emphasizes quality ingredients and sleek packaging, appealing to a modern aesthetic.",https://bluebeards-revenge.co.uk/cdn/shop/files/grade-performance.png?v=1732203455&width=600,https://www.bluebeards-revenge.co.uk,United Kingdom,2012,indie,,,,2025-07-18T12:32:10.942225,2025-08-29T14:27:14.552048
cmdf6b1c9ef8a11aad666fd,The Body Deli,"The Body Deli is a skincare and fragrance brand known for its commitment to crafting natural and organic products. Founded in 1995, the company emphasizes the use of high-quality ingredients that are free from synthetic chemicals. The Body Deli specializes in artisanal perfumes and skincare that not only enhance beauty but also nourish the skin. Their story began with a focus on raw, fresh ingredients, and over the years, they've developed a reputation for creating unique and innovative products that resonate with eco-conscious consumers.",https://www.thebodydeli.com/cdn/shop/files/TBD-logo.1.png?height=106&v=1715638342,https://thebodydeli.com,United States,1995,indie,,,,2025-07-18T12:32:10.942225,2025-08-29T14:27:22.319729
cmdcf62229a05b46431f8c0,The Bon Marché,"The Bon Marché is a historic department store located in Paris, France, known for its wide range of products including fragrances, cosmetics, fashion, and luxury goods. Established in the mid-19th century, it has built a reputation for offering high-quality items and exceptional customer service. The store specializes in both established luxury brands and niche perfumery, offering a curated selection of scents that cater to diverse preferences, and often highlighting artisanal and unique fragrance houses.",https://images.unsplash.com/photo-1587017539504-67cfbddac569?w=400&h=300&fit=crop,https://www.bonmarche.com,France,1852,designer,,,"2 Rue de la Chaussée d'Antin, 75009 Paris, France",2025-07-18T12:32:10.942225,2025-08-29T14:27:28.503792
cmdeeb0d916dc955d6d438c,The Boring Company,"The Boring Company is an infrastructure and tunnel construction services company founded by Elon Musk. Although primarily focused on tunneling projects, they have gained notoriety for their unique approach to branding, including the development of novelty products like novelty flamethrowers and a proposed line of fragrances. Their specialty lies in innovative technology and unique consumer products that align with the company’s futuristic vision and branding.",https://images.squarespace-cdn.com/content/v1/6063b0835f68896079d7d643/367844c9-6818-4963-985d-9cfeb9d077b0/white+logo.png,https://www.boringcompany.com,United States,2016,indie,,,,2025-07-18T12:32:10.942225,2025-08-29T14:27:34.377576
cmd26bedcccbf15308fb256,The Bottle Company,"The Bottle Company is a unique player in the perfume industry, known for its artistic approach to fragrance design. Founded by a team of passionate perfumers and designers, the company focuses on creating high-quality, artisanal fragrances that encapsulate emotion and storytelling. The Bottle Company emphasizes sustainability and innovation in its product development process, utilizing eco-friendly materials for both their scents and packaging. They aspire to connect with consumers on a personal level, encouraging a deep exploration of scent as a medium of expression.",https://static.HugeDomains.com/images/hdv3-img/hd-header-logo-v3.svg,www.thebottlecompany.com,United States,2015,indie,contact@thebottlecompany.com,,,2025-07-18T12:32:10.942225,2025-08-29T14:27:40.989893
cmd10bcbf04d9bf125a8953,The C. Collection,"The C. Collection is a luxury perfume brand known for its artisanal, handcrafted fragrances. The company specializes in creating unique and personalized scents, often drawing inspiration from various cultural themes and natural ingredients. Founded with the vision of redefining how fragrances can evoke emotions and memories, The C. Collection places a strong emphasis on quality and originality, ensuring each bottle represents a story waiting to be told.",https://images.unsplash.com/photo-1587017539504-67cfbddac569?w=400&h=300&fit=crop,https://www.theccollection.com,United States,2016,niche,info@theccollection.com,,,2025-07-18T12:32:10.942225,2025-08-29T14:27:46.675205
cmded0171ff7825e6281bf5,The Candy Perfume Boy,"The Candy Perfume Boy is an independent fragrance brand known for its unique and artistic approach to perfumery. Founded by the renowned fragrance blogger, they focus on creating distinctive scents that often draw inspiration from pop culture and contemporary themes. The brand emphasizes creativity and quality, often collaborating with artists to produce limited edition fragrances and engaging storytelling around their products.",https://images.unsplash.com/photo-15907369626-6c63ac16f3df?w=400&h=300&fit=crop,https://www.candyperfumeboy.com,United Kingdom,2016,indie,,,,2025-07-18T12:32:10.942225,2025-08-29T14:27:52.489689
cmd8d9083503d3b37e40f72,The Caplin Family,"The Caplin Family is a niche perfume company known for its artisanal approach to fragrance creation. Founded by members of the Caplin family, the company focuses on crafting unique, high-quality scents that reflect personal stories and emotions. They source rare and exotic ingredients, often emphasizing sustainability and ethical sourcing practices. The brand aims to create a sense of nostalgia and connection through its fragrances, offering limited-edition releases that highlight their heritage and craftsmanship.",https://images.unsplash.com/photo-15907369626-6c63ac16f3df?w=400&h=300&fit=crop,www.thecaplinfamily.com,United States,2015,niche,contact@thecaplinfamily.com,,,2025-07-18T12:32:10.942225,2025-08-29T14:27:58.375014
cmdd0c71abac64673f31aeb,The Center,"The Center is an innovative perfume company that specializes in creating unique, artisanal fragrances inspired by nature and the urban experience. Founded by a team of fragrance enthusiasts, The Center emphasizes sustainability and ethical sourcing in its ingredients, aiming to create scents that resonate with the emotional and sensory experiences of its customers. The company is known for its meticulous craftsmanship and commitment to quality, blending traditional perfumery techniques with modern aesthetics.",https://images.unsplash.com/photo-1541643600914-78b084683601?w=400&h=300&fit=crop,www.thecenterfragrances.com,United States,2018,niche,info@thecenterfragrances.com,,"123 Fragrance Ave, New York, NY 10001, United States",2025-07-18T12:32:10.942225,2025-08-29T14:28:05.033522
cmdf4cd76d6a8775eae90a5,The Communications Store,"The Communications Store is a strategic consulting agency that specializes in brand communications for the beauty and lifestyle sectors, including fragrance. They offer a wide range of services including public relations, social media management, and event planning aimed at elevating brand presence and driving consumer engagement. The company prides itself on its deep understanding of luxury markets and leverages this expertise to create impactful campaigns that resonate with target audiences.",https://images.unsplash.com/photo-1541643600914-78b084683601?w=400&h=300&fit=crop,https://www.thecommunicationstore.com,United Kingdom,1999,niche,,,,2025-07-18T12:32:10.942225,2025-08-29T14:28:10.836427
cmdd2bef23bdeeca60c4f1e,The Cross,"The Cross is a boutique perfume company that specializes in crafting artisanal fragrances. Their story begins with a passion for unique scent profiles and a commitment to using high-quality, natural ingredients. The brand focuses on creating distinctive, hand-blended perfumes that evoke emotions and memories, aiming to provide customers with an exceptional olfactory experience. They take pride in their small-batch production process and often draw inspiration from nature and culture in their compositions.",https://images.unsplash.com/photo-1582735689369-4fe89db7114c?w=400&h=300&fit=crop,www.thecrossfragrances.com,United States,2015,indie,info@thecrossfragrances.com,,"123 Fragrance St, Scent City, CA 90210",2025-07-18T12:32:10.942225,2025-08-29T14:28:16.495975
cmdb3867fa27bb64499fb47,The Cure Shop,"The Cure Shop is a niche perfume company that focuses on creating artisanal fragrances using high-quality, natural ingredients. Founded by a team of fragrance enthusiasts, The Cure Shop aims to provide unique scents that evoke emotions and memories. Their story is rooted in the belief that scents can heal and enhance wellbeing, leading them to develop a collection that combines modern perfumery techniques with traditional crafting methods. They specialize in bespoke fragrances that are often handcrafted, ensuring exclusivity and personal touch in each bottle.",https://images.unsplash.com/photo-1587017539504-67cfbddac569?w=400&h=300&fit=crop,https://www.thecureshop.com,United States,2019,niche,contact@thecureshop.com,,,2025-07-18T12:32:10.942225,2025-08-29T14:28:22.807462
cmd50be066f767bf7ed4e9a,The Dandy Gent,"The Dandy Gent is a niche perfume company that specializes in creating unique, handcrafted fragrances inspired by traditional men's grooming and vintage style. Founded by a passionate perfumer, the company focuses on quality ingredients and artisanal methods to produce sophisticated scents that appeal to discerning customers. The brand’s story revolves around celebrating masculinity and elegance, offering a curated selection of perfumes that embody a classic yet modern aesthetic.",https://static.HugeDomains.com/images/hdv3-img/hd-header-logo-v3.svg,https://www.thedandygent.com,United Kingdom,2013,niche,info@thedandygent.com,,,2025-07-18T12:32:10.942225,2025-08-29T14:28:28.984776
cmda4838f6bd96ca8692823,The Diamond Collection,"The Diamond Collection is a luxury fragrance brand known for its unique and exquisite perfume offerings. The brand emphasizes the use of high-quality ingredients and artisanal craftsmanship, creating scents that resonate with elegance and sophistication. Founded with the idea to embody luxury and glamour, The Diamond Collection aims to transform the everyday experience of wearing perfume into a cherished ritual. Their specialty lies in crafting fragrances that reflect opulence, often inspired by gemstones and precious materials.",http://www.thediamondcollection.com/img/logo2.svg,http://www.thediamondcollection.com,United States,2015,niche,,,,2025-07-18T12:32:10.942225,2025-08-29T14:28:35.038174
cmd96e67ac792aa7c1fcc9d,The Different Company,"The Different Company is a niche perfume house known for its innovative and artistic approach to fragrance creation. Established by perfumer Jean-Claude Ellena in 2000, the brand emphasizes quality ingredients, unique scent compositions, and minimalistic yet luxurious packaging. The company focuses on offering a distinct olfactory experience that sets it apart from mainstream fragrance brands, often drawing inspiration from nature, art, and personal experiences. Their collection features a variety of unisex fragrances that cater to a clientele looking for individuality and sophistication in perfumery.",https://www.thedifferentcompany.com/cdn/shop/files/TDC_Logo_cartouche_white_site_200x.png?v=1644840211,https://www.thedifferentcompany.com,France,2000,niche,,,,2025-07-18T12:32:10.942225,2025-08-29T14:28:42.207850
cmd27a644f2dc13691c7532,The Equitium Group,"The Equitium Group is a specialized company in the perfume industry that focuses on creating high-quality, artisanal fragrances. Founded with a vision to innovate within the fragrance market, the company emphasizes unique scent formulations and sustainable sourcing of ingredients. They are known for their commitment to craftsmanship and their ability to blend traditional perfumery techniques with modern trends, aiming to provide sensory experiences that resonate with consumers. The Equitium Group also engages in strategic partnerships and collaborations to expand their fragrance offerings and reach wider audiences.",https://images.unsplash.com/photo-1587017539504-67cfbddac569?w=400&h=300&fit=crop,www.equitiumgroup.com,United States,2018,niche,,,,2025-07-18T12:32:10.942225,2025-08-29T14:28:48.059648
cmda17a3a4f323a889ca4d5,The Exotic Island Perfumer,"The Exotic Island Perfumer is a fragrance house known for creating unique and high-quality perfumes inspired by various exotic locations around the world. The company focuses on using natural ingredients and traditional perfumery techniques to craft fragrances that evoke the essence of their thematic inspirations. Their story began with a passion for travel and exploration, which motivated the founder to capture the scents of different cultures and landscapes in their products, making each perfume a sensory journey.",https://images.unsplash.com/photo-1541643600914-78b084683601?w=400&h=300&fit=crop,www.theexoticislandperfumer.com,United States,2015,niche,contact@theexoticislandperfumer.com,,,2025-07-18T12:32:10.942225,2025-08-29T14:28:53.614779
cmd449593528278d9390c0c,The Face Shop,"The Face Shop is a South Korean beauty and skincare brand that specializes in natural ingredients to formulate its products. Established in 2003, the company focuses on providing a wide range of skincare, cosmetics, and fragrance products inspired by traditional Asian remedies and modern beauty trends. With its commitment to eco-friendly practices and natural ingredients, The Face Shop has become a popular destination for consumers looking for effective and innovative beauty solutions.",https://images.unsplash.com/photo-1582735689369-4fe89db7114c?w=400&h=300&fit=crop,https://www.thefaceshop.com,South Korea,2003,drugstore,,,,2025-07-18T12:32:10.942225,2025-08-29T14:29:01.108931
cmdc5cb382350910552af54,The First,"The First is a luxury perfume house dedicated to creating sophisticated and unique fragrances. Established by a passionate team of fragrance artisans, they focus on crafting scents that tell a story and evoke emotions, utilizing high-quality ingredients and innovative techniques. Their approach blends traditional perfumery with a modern touch, allowing them to stand out in the competitive fragrance market. The company emphasizes personal experience and storytelling in their fragrance lines, with each scent representing an element of art and culture.",https://images.unsplash.com/photo-1541643600914-78b084683601?w=400&h=300&fit=crop,www.thefirstfragrance.com,United States,2019,niche,,,,2025-07-18T12:32:10.942225,2025-08-29T14:29:06.726608
cmda5683694b989fd3aa305,The Fragrance Box,"The Fragrance Box is a niche perfume company specializing in luxury and artisanal fragrances. Founded with the vision to provide a curated selection of high-quality perfumes, the company focuses on unique scent profiles that cater to diverse preferences. The Fragrance Box is dedicated to supporting indie and emerging perfumers by offering their creations alongside exclusive branded perfumes. Their story revolves around the love of scent and the art of perfumery, emphasizing craftsmanship and the emotion that fragrances invoke.",https://images.unsplash.com/photo-15907369626-6c63ac16f3df?w=400&h=300&fit=crop,www.thefragrancebox.com,United States,2015,niche,info@thefragrancebox.com,,,2025-07-18T12:32:10.942225,2025-08-29T14:29:12.817410
cmd2afa4eda274e5cc4f300,The Fragrance Engineers,"The Fragrance Engineers is a niche perfume company that specializes in creating unique and artisanal scents using high-quality ingredients. Founded by a team of skilled perfumers and fragrance enthusiasts, the company aims to push the boundaries of traditional fragrance-making by incorporating innovative techniques and sustainable practices. With a focus on individuality and self-expression, their perfumes are designed to evoke emotions and memories, allowing customers to find a scent that truly resonates with them.",https://www.thefragranceengineers.com/cdn/shop/files/CLEAR_VIEW_300x.png?v=1613527397,www.thefragranceengineers.com,United States,2017,niche,info@thefragranceengineers.com,,,2025-07-18T12:32:10.942225,2025-08-29T14:29:18.944997
cmd46cb32212f7fb5111a19,The Fragrance Foundation,"The Fragrance Foundation is a non-profit organization dedicated to promoting the fragrance industry and its appreciation among consumers and professionals. Established in 1949, the foundation aims to foster an understanding and admiration for fragrance as a form of art and self-expression. It actively supports fragrance education, innovation, and celebrates excellence in the industry through various events and awards, such as the annual Fragrance Foundation Awards, acknowledging outstanding achievements in fragrance creation and marketing.",http://fragrance19prd.wpengine.com/wp-content/uploads/2019/09/accords-logo-1024x175.png,https://www.fragrance.org,United States,1949,indie,,,"200 West 41st Street, Suite 1003, New York, NY 10036, USA",2025-07-18T12:32:10.942225,2025-08-29T14:29:26.228527
cmdaac700d1beb03c041ebb,The Fragrance Group,"The Fragrance Group is a prominent player in the fragrance industry, known for its wide range of scent offerings including fine fragrances, personal care products, and home fragrances. The company was established with a vision to create unique and sophisticated scents that appeal to diverse markets. Focusing on innovation and quality, The Fragrance Group collaborates with international brands and has developed a solid reputation for producing captivating and memorable scent experiences.","https://static.wixstatic.com/media/035244_3511e868a21748338c395d7843494e00~mv2.png/v1/fill/w_26,h_26,al_c,q_85,usm_0.66_1.00_0.01,enc_avif,quality_auto/035244_3511e868a21748338c395d7843494e00~mv2.png",https://www.thefragrancegroup.com,United States,2011,niche,,,,2025-07-18T12:32:10.942225,2025-08-29T14:29:33.920469
cmd25debb34207d18d91bdf,The Fragrance Kitchen,"The Fragrance Kitchen is a luxury perfume house based in Kuwait, renowned for creating artisanal scents that reflect the rich cultural heritage of the Middle East. Founded by the prominent perfumer Mohammed Ghosn in 2012, the company specializes in blending traditional Arabic notes with contemporary fragrance trends, offering a unique collection of perfumes that cater to both local and international markets. Their story emphasizes a deep connection to the artistry of perfumery, celebrating the craftsmanship behind each signature scent. The brand is particularly noted for its use of high-quality, natural ingredients and its commitment to authenticity in fragrance creation.",https://thefragrancekitchen.com/cdn/shop/files/Add_a_heading.png?v=1736776049&width=500,https://www.thefragrancekitchen.com,Kuwait,2012,niche,,,,2025-07-18T12:32:10.942225,2025-08-29T14:29:41.019825
cmd404c7f1ddc4fc6d62b6b,The Fragrance Shop (UK),"The Fragrance Shop is a leading perfume retailer in the UK, specializing in offering a wide range of fragrances for men, women, and children. Established to provide customers with a memorable scent experience, the company prides itself on its extensive collection of designer and niche perfumes at competitive prices. With a focus on customer service and an expert knowledge of fragrances, The Fragrance Shop aims to make every fragrance purchase a special moment. They operate both physical stores and an online shop, catering to diverse customer preferences.",https://images.unsplash.com/photo-1556909114-f6e7ad7d3136?w=400&h=300&fit=crop,https://www.thefragranceshop.co.uk,United Kingdom,1994,drugstore,,0121 559 0660,"1st Floor, 4-6 Lower Marsh, London, SE1 7RJ, United Kingdom",2025-07-18T12:32:10.942225,2025-08-29T14:29:47.930517
cmdb1cce3e9fe613e177b8f,The Fragrance,"The Fragrance is a luxury perfume brand known for its unique and exquisite scent compositions that blend traditional artisanal techniques with modern trends. Founded by a group of fragrance enthusiasts and industry veterans, the company strives to create high-quality, evocative perfumes that resonate with individual experiences and emotions. The Fragrance specializes in niche scents that are crafted from rare ingredients sourced globally, offering a bespoke experience to its clientele. Their story is rooted in a desire to provide personalized fragrances that tell a story through scent, often incorporating elements of art and culture into their creations.",https://images.unsplash.com/photo-1587017539504-67cfbddac569?w=400&h=300&fit=crop,www.thefragrance.com,USA,2015,niche,contact@thefragrance.com,,,2025-07-18T12:32:10.942225,2025-08-29T14:30:06.919408
cmd5440d5e12d8ba61440a2,The Gate Paris,"The Gate Paris is a niche perfume house that specializes in creating unique and artistic fragrances that echo the essence of Parisian culture and lifestyle. Their story begins with a vision to blend modern influences with classic craftsmanship, aiming to evoke emotions through scent. Each fragrance is designed to tell a story, celebrating the artistry of perfumery with limited-edition releases and high-quality ingredients, making their offerings distinct in the competitive landscape of the fragrance industry.",https://thegateparis.com/cdn/shop/files/Asset_14x_ee4622c7-76dc-415b-b786-91d9fe77cd2e.png?v=1735784970&width=50,https://thegateparis.com,France,2019,niche,,,,2025-07-18T12:32:10.942225,2025-08-29T14:30:14.258236
cmdf3106e0d3e1d636e554c,The Gentleman's Shop,"The Gentleman's Shop is a retailer specializing in men's grooming products, including a finely curated selection of perfumes and fragrances tailored for the modern gentleman. Founded to cater to the needs of discerning customers, the shop places an emphasis on quality, craftsmanship, and elegance in its offerings. They pride themselves on providing products that enhance personal style and self-care, offering a unique shopping experience that combines classic sophistication with contemporary trends.",https://images.unsplash.com/photo-1556909114-f6e7ad7d3136?w=400&h=300&fit=crop,https://www.gentlemansshop.com,United Kingdom,2006,indie,,,,2025-07-18T12:32:10.942225,2025-08-29T14:30:22.146030
cmd37b7c93ce8a548af85c3,The Golden Pineapple Fragrance Awards,"The Golden Pineapple Fragrance Awards is an annual awards event dedicated to recognizing and celebrating excellence in the fragrance industry. Established to honor outstanding perfume brands, perfumers, and innovative scents, the awards aim to elevate the craft of perfumery and promote creativity. The event gathers industry experts, influencers, and enthusiasts to celebrate achievements and push the boundaries of fragrance artistry.",https://images.unsplash.com/photo-1582735689369-4fe89db7114c?w=400&h=300&fit=crop,https://www.goldenpineapplefragranceawards.com,United States,2020,niche,contact@goldenpineapplefragranceawards.com,,,2025-07-18T12:32:10.942225,2025-08-29T14:30:27.974466
cmd2ab5c887f5ca17c6b4a6,The Golden Shower Beauty,"The Golden Shower Beauty is a niche perfume company that focuses on creating unique and luxurious fragrances inspired by nature and individual experiences. Founded with the vision of offering exclusive and artistic scents, the brand aims to redefine beauty and self-expression through olfactory art. The company's story is rooted in the belief that fragrance can evoke powerful memories and emotions, allowing individuals to connect deeply with their own personal narrative. Their specialty lies in handcrafting high-quality perfumes made from ethically sourced ingredients, catering to a discerning clientele that values authenticity and creativity.",https://www.thegoldenshowerbeauty.com/cdn/shop/files/TGS_logos-11.png?v=1750866218&width=2724,www.thegoldenshowerbeauty.com,United States,2018,niche,contact@thegoldenshowerbeauty.com,,,2025-07-18T12:32:10.942225,2025-08-29T14:30:35.370660
cmdc37141433a2bfcc5fba9,The Goth Rosary,"The Goth Rosary is an indie perfume company known for its unique and imaginative fragrance offerings inspired by gothic themes and aesthetics. Founded by a dedicated fragrance artist, the company specializes in hand-crafted perfumes that often incorporate dark and mystical elements, appealing to those who resonate with alternative and subculture styles. The brand has cultivated a strong niche following through its commitment to quality and creativity, often reflecting themes of romance, darkness, and individuality in its offerings.",https://images.unsplash.com/photo-1582735689369-4fe89db7114c?w=400&h=300&fit=crop,https://thegothrosary.com,United States,2015,indie,info@thegothrosary.com,,,2025-07-18T12:32:10.942225,2025-08-29T14:30:42.143043
cmdca2688aad58a513ff4e4,The Harmonist,"The Harmonist is a luxury perfume company that specializes in the creation of fragrances inspired by the principles of harmony, balance, and the philosophy of Yin and Yang. Founded by a former fashion executive, the brand seeks to blend art and science through olfactory experiences that reflect the energy and character of the wearer. Each fragrance is crafted with a thoughtful approach to create an emotional connection, making them unique and distinctive. The Harmonist is known for its commitment to high-quality ingredients and its elaborate, aesthetically pleasing bottle designs that reflect the harmony philosophy.",https://www.theharmonist.com/cdn/shop/files/harmonist-logo-black.png?crop=center&height=47&v=1702414955&width=390,https://theharmonist.com,France,2016,niche,,,,2025-07-18T12:32:10.942225,2025-08-29T14:30:50.174608
cmd8c320b64a82452912020,The Healing Garden,"The Healing Garden is a wellness-oriented company specializing in holistic skincare and fragranced products that focus on the therapeutic benefits of essential oils. Founded with the philosophy of combining nature’s healing properties with the power of aromatherapy, The Healing Garden crafts products that promote physical and emotional well-being. The company has a rich history in the personal care market and emphasizes the use of natural ingredients to enhance the health of both body and mind.",https://images.unsplash.com/photo-1582735689369-4fe89db7114c?w=400&h=300&fit=crop,https://www.thehealinggarden.com,United States,1990,indie,,,,2025-07-18T12:32:10.942225,2025-08-29T14:30:56.178405
cmd6c9d190204628f09b2b9,The Heart Company,"The Heart Company is a niche perfume manufacturer that focuses on creating unique, artisanal fragrances. Established with the vision to evoke emotional connections through scent, their products are crafted with high-quality ingredients sourced from around the world. The company prides itself on a storytelling approach to perfumery, where each fragrance is designed to reflect a specific narrative or experience. They emphasize creativity and individual expression in fragrance, often collaborating with artisan perfumers to create one-of-a-kind scents that appeal to a discerning clientele.",https://images.unsplash.com/photo-1582735689369-4fe89db7114c?w=400&h=300&fit=crop,www.theheartcompany.com,United States,2015,niche,contact@theheartcompany.com,,,2025-07-18T12:32:10.942225,2025-08-29T14:31:41.733208
cmda0264debac4e819ed361,The Holy Black,"The Holy Black is a niche fragrance and grooming company that specializes in creating unique and artisan perfumes, shaving products, and grooming essentials. Established in 2013 and based in Michigan, the company combines traditional craftsmanship with modern aesthetics to offer a distinct line of products that appeal to those seeking high-quality, handmade items. Their formulations often draw inspiration from historical fragrances and vintage styles, highlighting their commitment to individuality in a crowded market.",https://theholyblack.com/cdn/shop/files/toplogo_2000x.png?v=1614401913,https://theholyblack.com,United States,2013,niche,,,,2025-07-18T12:32:10.942225,2025-08-29T14:31:50.128015
cmd9cc704aa375be3127e4a,The Institute for Art and Olfaction,"The Institute for Art and Olfaction (IAO) is a non-profit organization dedicated to promoting the exploration and education of scent and perfume. Founded in 2012 by Saskia Wilson-Brown, the IAO serves as a hub for artists, perfumers, and the general public, offering workshops, courses, and events that focus on the creative and artistic aspects of scent-making. The organization also hosts the annual Art and Olfaction Awards, which recognizes and celebrates excellence in independent and artisan perfumery. The IAO's mission is to foster a greater appreciation for the complexities of scent and its role in art and culture, encouraging experimentation and discovery within the olfactory arts.",https://i0.wp.com/artandolfaction.com/wp-content/uploads/2019/12/IAO_Logo_2020_Website_Tiny.png?fit=150%2C150&ssl=1,https://www.artandolfaction.com,United States,2012,indie,,,,2025-07-18T12:32:10.942225,2025-08-29T14:31:58.353052
cmd537ea3e680ae06554793,The Lab Fragrances,"The Lab Fragrances is a unique fragrance company that offers a range of high-quality perfumes inspired by elements of nature, art, and culture. The company is known for its commitment to craftsmanship and creativity, producing fragrances that are distinctive and appealing. They emphasize the use of fine ingredients and have gained a reputation for their innovative scents, designed for individuals who appreciate artisan perfumery. The Lab Fragrances aims to provide a sensory experience that resonates with its customers, and they often experiment with unconventional notes to create signature scents.",https://images.squarespace-cdn.com/content/v1/59aa95f0f14aa1fbc5815057/1505034537609-0HPKQRDNY641WCSAFORS/Header+Logo.JPG,https://www.thelabfragrances.com,United Kingdom,2016,indie,,,,2025-07-18T12:32:10.942225,2025-08-29T14:32:08.297237
cmd62f20fddb331598b3f37,The Limited,"The Limited is a retail company primarily known for its women’s clothing and accessories. While it started as a fashion retailer, The Limited has diversified its offerings, including introducing a line of fragrances that reflect their stylish and contemporary brand identity. The company aims to provide modern women with clothing that is versatile and chic, often integrating seasonal trends into their perfume offerings, focusing on fragrances that complement their apparel.",https://images.unsplash.com/photo-1556909114-f6e7ad7d3136?w=400&h=300&fit=crop,,United States,1963,Designer,,,,2025-07-18T12:32:10.942225,2025-08-29T14:32:18.921443
cmdd2736b879b76259dad29,The Little Alchemist,"The Little Alchemist is an artisan perfume company specializing in handcrafted, natural fragrances. Founded with the philosophy of using high-quality ingredients, they focus on sustainability and the botanical origins of their products. The brand emphasizes transparency in sourcing, allowing consumers to understand the journey of their perfumes from nature to bottle. The company’s story is rooted in a passion for chemistry and nature, aiming to create functional fragrances that not only smell good but also promote well-being.",https://images.unsplash.com/photo-1556909114-f6e7ad7d3136?w=400&h=300&fit=crop,https://www.thelittlealchemist.com.au,Australia,2015,indie,,,,2025-07-18T12:32:10.942225,2025-08-29T14:32:28.048997
cmd862db07f1a509343dd90,The Lyfestyle Co,"The Lyfestyle Co is a forward-thinking perfume company that specializes in creating high-quality, eco-friendly fragrances. They focus on combining sustainable practices with unique scent profiles that cater to modern lifestyles. Established to promote a lifestyle of wellness and sustainability, their scents are crafted with attention to detail and an emphasis on using natural ingredients. The company prides itself on being part of a movement towards responsible consumption and aims to provide an inclusive range of fragrances that appeal to a diverse audience.",https://thelyfestyleco.com/cdn/shop/files/1200px-VOGUE_revista_-_logo.png?v=1737327966&width=3200,www.thelyfestyleco.com,Australia,2017,indie,info@thelyfestyleco.com,,,2025-07-18T12:32:10.942225,2025-08-29T14:32:37.820932
cmd24d22e4775d449ea8784,The Maker,"The Maker is an innovative perfume company known for its artisanal fragrances that blend the art of perfumery with sustainable practices. Founded by a group of passionate artisans, The Maker emphasizes the importance of natural ingredients and ethical sourcing. Their story is rooted in a desire to create unique scents that tell stories and evoke emotions, drawing inspiration from various cultural elements and personal experiences. The company is particularly noted for their bespoke fragrance services, allowing customers to create personalized perfumes that cater to their individual preferences.",https://images.unsplash.com/photo-1556909114-f6e7ad7d3136?w=400&h=300&fit=crop,https://www.themakerperfume.com,United States,2015,niche,info@themakerperfume.com,,,2025-07-18T12:32:10.942225,2025-08-29T14:32:44.117415
cmd686701980659bf6f7c9f,The Master Perfumer,"The Master Perfumer is an innovative perfume company specializing in artisanal fragrances that focus on high-quality, natural ingredients. Founded by a group of experienced perfumers, the brand is known for its unique olfactory creations that blend traditional perfumery techniques with modern aesthetics. Their philosophy revolves around the art of scent, aiming to evoke emotions and memories through expertly crafted formulas. The Master Perfumer prides itself on its commitment to sustainability and ethical sourcing, ensuring that all ingredients are responsibly obtained and produced.",https://www.theMasterPerfumer.com/gallery_gen/18ec0f1127cc201da855ef823c5352ac_510x510_fit.jpg?ts=1754240491,www.theMasterPerfumer.com,United States,2015,niche,contact@theMasterPerfumer.com,,,2025-07-18T12:32:10.942225,2025-08-29T14:32:50.757416
