id,name,description,image,website,country,founded,type,email,phone,address,createdAt,updatedAt
cmd040bbf1796b4bf8ad7db,Colette,"Colette was a Parisian concept store known for its carefully curated selection of fashion, beauty, and lifestyle products. Founded by Colette Rousseaux and her daughter Sarah Andelman in 1997, the store quickly became a cultural landmark and was recognized for its avant-garde approach to retail. Colette was particularly famous for its unique fragrance offerings, collaborating with niche perfume houses and providing exclusive scents that catered to sophisticated and discerning customers. The store not only sold products but also fostered an environment of artistic expression and innovation. Colette closed its doors in December 2017, leaving behind a significant legacy in the perfume and fashion industries.",https://images.unsplash.com/photo-1582735689369-4fe89db7114c?w=400&h=300&fit=crop,,France,1997,niche,,,"213 Rue Saint-Honoré, 75001 Paris, France",2025-07-18T12:32:10.942225,2025-08-28T12:14:54.893258
cmd74a9cb725001969bedf6,Colgate-Palmolive,"Colgate-Palmolive is a global consumer products company that specializes in the production and marketing of personal care, home care, and oral care products, including perfumes and fragrances. Established in 1806, the company has a rich history, originally starting with soap and candle production. Over the years, Colgate-Palmolive evolved into a leading provider of health and hygiene products, focusing on sustainability and innovation in both their manufacturing processes and product development. They offer a wide range of fragrances under various brands, targeting different market segments from budget to premium products.",https://images.unsplash.com/photo-1582735689369-4fe89db7114c?w=400&h=300&fit=crop,https://www.colgatepalmolive.com,United States,1806,drugstore,,,"300 Park Avenue, New York, NY 10022, United States",2025-07-18T12:32:10.942225,2025-08-28T12:15:01.536049
cmd7492054e1899067c3825,Colgate,"Colgate-Palmolive Company is a global leader in the consumer goods sector, primarily known for its oral care products, personal care items, and household goods. Established in 1806, Colgate initially focused on soaps and candles before evolving into a leading name in oral hygiene with the launch of the Colgate toothpaste line. Over the years, the company has diversified its portfolio to include various personal care and hygiene products, including perfumes under their Palmolive brand. Their specialty lies in producing high-quality products that cater to everyday consumer needs while maintaining a reputation for innovation and sustainability.",https://images.unsplash.com/photo-1582735689369-4fe89db7114c?w=400&h=300&fit=crop,https://www.colgatepalmolive.com,United States,1806,drugstore,,,"300 Park Avenue, New York, NY 10022, United States",2025-07-18T12:32:10.942225,2025-08-28T12:15:08.102767
cmd14b63347561d01ff2a85,Collect & Bottle,"Collect & Bottle is a niche fragrance company that specializes in creating artisanal scents using high-quality ingredients. Founded with the mission of celebrating individuality, the brand emphasizes craftsmanship and unique scent profiles, sourcing inspiration from various cultures and natural elements. The company allows customers to explore their own fragrance preferences and often features limited edition releases that convey a story or concept behind each perfume.",https://freight.cargo.site/t/original/i/4bd6f9f0fbec82523e161cc69b500e75d202198def4941d78fdbc0ec87eebb19/COLLECT-BOTTLE_W.svg,https://collectandbottle.com,United Kingdom,2019,niche,info@collectandbottle.com,,,2025-07-18T12:32:10.942225,2025-08-28T12:15:14.555780
cmd379c4b017745cb2969ee,Collection 2000,"Collection 2000 is a well-known British brand that initially launched as a cosmetics line before expanding into the fragrance sector. With a focus on producing affordable and accessible beauty products, Collection 2000 has gained popularity for its youthful and trendy image. The company's fragrances are designed to cater to a younger audience, offering a range of scents that are both fresh and lively, reflecting modern trends in the fragrance market. The brand is particularly recognized for its playful approach to packaging and marketing, aiming to resonate with a vibrant, fashion-conscious demographic.",https://images.unsplash.com/photo-1582735689369-4fe89db7114c?w=400&h=300&fit=crop,https://www.collection2000.co.uk,United Kingdom,1983,drugstore,,,,2025-07-18T12:32:10.942225,2025-08-28T12:15:30.838842
cmd4996d6c18ba04e092505,Collines de Provence,"Collines de Provence is a French brand that specializes in creating high-quality, artisanal fragrances and body care products inspired by the natural beauty and essence of the Provence region. The company emphasizes the use of natural ingredients and traditional craftsmanship, often featuring scents derived from the flora and landscapes of Provence. Their products are designed to evoke the charm and authenticity of the region, offering a sensory journey through their scented creations.",https://www.collinesdeprovence.com/img/collines-de-provence-logo-1739777774.jpg,https://www.collinesdeprovence.com,France,1976,indie,,,,2025-07-18T12:32:10.942225,2025-08-28T12:15:37.757563
cmd80d4f3c97c6b0285e6b2,Collistar,"Collistar is an Italian cosmetic company founded in 1983, known for its innovative approach to beauty, combining the realms of skincare and fragrance. The brand has made a name for itself in the perfume industry with a range of perfumes that blend high-quality ingredients and luxury with an emphasis on Italian heritage. Collistar's specialty lies in creating elegant scents that cater to the contemporary consumer, reflecting trends while maintaining a classic appeal. The company's story is rooted in its commitment to research and development, which has established it as a trustworthy brand in both the fragrance and beauty sectors.",https://cdn2.collistar.com.filoblu.com/static/version1753863458926/img/logo.svg,https://www.collistar.com,Italy,1983,designer,,,,2025-07-18T12:32:10.942225,2025-08-28T12:15:46.474844
cmd466c7ed10b1c38044779,Cologne & Cotton,"Cologne & Cotton is a perfume and home fragrance company specializing in high-quality scents that evoke the essence of traditional perfumery. Founded with a passion for crafting unique fragrances, the brand focuses on luxurious, hand-blended perfumes and essential oils that emphasize natural ingredients and nostalgic aromas. Their story began with a desire to bring the elegance of British fragrance-making to a wider audience, offering products that reflect both contemporary and classic inspirations. The company is known for its commitment to quality, artisanal craftsmanship, and its curated selection of home fragrance products, including diffusers and candles.",https://www.cologneandcotton.com/media/fishpig/webp/wysiwyg/Yellow_candy_crop.webp,https://www.cologneandcotton.com,United Kingdom,1992,niche,,,,2025-07-18T12:32:10.942225,2025-08-28T12:15:54.061024
cmd0db2fbda11a44aca919d,Colomer Group,"Colomer Group is a global company specializing in the beauty and personal care market, with a distinct focus on developing and marketing fragrances, professional haircare, and other beauty products. They operate multiple brands, catering to diverse consumer needs across various segments of the market. The company is known for its commitment to quality and innovation in the fragrance industry, combining tradition with modernity to create appealing scents.",https://static.HugeDomains.com/images/hdv3-img/hd-header-logo-v3.svg,https://www.colomergroup.com,Spain,1990,designer,,,,2025-07-18T12:32:10.942225,2025-08-28T12:16:00.555334
cmdbad33a5fc4e96e63df80,Colonel Ichabod Conk,"Colonel Ichabod Conk is a brand known for its high-quality grooming products, particularly in the realm of men's fragrances and shaving supplies. Founded by Ichabod Conk, the brand has a rich history linked to traditional gentleman's grooming. Their signature products often reflect a vintage aesthetic combined with modern sensibilities, focusing on offering a unique blend of classic and contemporary fragrances that cater to discerning customers. The brand is particularly notable for its commitment to quality and craftsmanship, making it a recognized name among shaving enthusiasts and those who appreciate artisanal grooming products.",https://images.unsplash.com/photo-1587017539504-67cfbddac569?w=400&h=300&fit=crop,https://www.conk.com,United States,1865,indie,,,,2025-07-18T12:32:10.942225,2025-08-28T12:16:07.888460
cmded6f7ac3feab2319f2ac,Colonia,"Colonia, also known as Acqua di Parma, is an Italian luxury fragrance house founded in 1916. The brand is renowned for its artisanal, high-quality perfumes, particularly its signature scent, Colonia, which captures the essence of Italian craftsmanship with fresh citrus notes. The company's story is steeped in a dedication to Italian elegance and sophistication, and it specializes in creating sophisticated fragrances that embody the spirit of Italian heritage. Acqua di Parma has expanded its offerings to include a range of personal and home fragrances, grooming products, and bath essentials, all maintaining a strong emphasis on natural ingredients and traditional production methods.",https://images.unsplash.com/photo-1582735689369-4fe89db7114c?w=400&h=300&fit=crop,https://www.acquadiparma.com,Italy,1916,niche,,,"Via S. Giovanni in Persiceto, 14, 20121 Milano MI, Italy",2025-07-18T12:32:10.942225,2025-08-28T12:16:14.987439
cmdbe6c8f0f84f704491619,Colorful Licenses,"Colorful Licenses specializes in creating and packaging unique and vibrant fragrances, often focusing on younger and trend-conscious demographics. The company has a reputation for bringing playful and colorful designs to the fragrance market, appealing to consumers looking for less conventional scents. Through collaborations and innovative product development, they emphasize creativity and individuality in their offerings.",https://images.unsplash.com/photo-1587017539504-67cfbddac569?w=400&h=300&fit=crop,,,,indie,,,,2025-07-18T12:32:10.942225,2025-08-28T12:16:20.429609
cmdfa2cf555f966fe0095df,Colour Me Fragrances,"Colour Me Fragrances is a fragrance company known for its vibrant and playful scents that cater primarily to a youthful audience. Established with the vision of making unique fragrances accessible to all, the brand emphasizes creativity and individuality in its offerings. Each fragrance is carefully crafted to embody various attitudes and lifestyles, allowing customers to express their personalities through scent. The products often feature bold packaging and are marketed as fun and trendy, appealing to consumers looking for distinct and affordable fragrance options.",https://images.unsplash.com/photo-1587017539504-67cfbddac569?w=400&h=300&fit=crop,www.colourmefragrances.com,United Kingdom,2016,indie,,,,2025-07-18T12:32:10.942225,2025-08-28T12:16:26.426590
cmdecebe70c31c1446f7c2d,Colton,"Colton is a luxury perfume company known for its artisanal approach to fragrance formulation. Established with a commitment to high-quality ingredients and innovative scent compositions, Colton draws inspiration from nature and art to create unique, evocative scents. The brand emphasizes craftsmanship and exclusivity, using traditional perfumery techniques to produce a limited selection of perfumes that appeal to discerning customers seeking distinctive fragrances.",https://images.unsplash.com/photo-1556909114-f6e7ad7d3136?w=400&h=300&fit=crop,www.coltonfragrances.com,United States,2015,niche,contact@coltonfragrances.com,,,2025-07-18T12:32:10.942225,2025-08-28T12:16:32.159436
cmd105c7ca842f3ee333b94,Combe,"Combe Incorporated is an American company specializing in health and beauty products, including a range of personal care items, such as fragrances and deodorants. Founded in 1949, Combe has built a reputation for its innovative and effective products, focusing on both over-the-counter and prescription treatments while maintaining a strong commitment to quality and customer satisfaction. The company is well-known for its popular fragrance brands and continues to cater to a diverse consumer base.",https://www.combe.com/sites/g/files/sgirzt161/files/combe.png,https://www.combe.com,United States,1949,drugstore,,,,2025-07-18T12:32:10.942225,2025-08-28T12:16:38.321173
cmdfe622d05070cf630da09,Comfort Zone,"Comfort Zone is a luxury skincare brand that specializes in developing high-quality products inspired by the principles of wellness and sustainability. Founded in Italy in 1996, the brand aims to create innovative formulations that enhance the skin's natural balance while being mindful of environmental impact. Comfort Zone is known for its holistic approach to skincare, combining science, nature, and luxury to deliver effective solutions for various skin concerns. The brand also extends its offerings to fragrances, enhancing the overall experience of well-being.",https://www.comfortzone.com/-/media/project/oneweb/comfortzone/images/logos/cz_logo.png?h=120&iar=0&w=222&hash=2255597E7D6A93C0D4C8168EACACAA4C,https://www.comfortzone.com,Italy,1996,niche,,,,2025-07-18T12:32:10.942225,2025-08-28T12:16:44.754669
cmd426e22f6ab994f60a948,Comin Parfum,"Comin Parfum is a unique perfume company known for its dedication to crafting exquisite fragrances that are inspired by art and culture. The company emphasizes the importance of storytelling through scent, often drawing on historical influences and artistic expressions to create their perfumes. Established with a vision to bring a personal touch to the fragrance market, Comin Parfum focuses on high-quality ingredients and exclusive blends, appealing to a discerning clientele looking for niche fragrances that stand apart from mainstream offerings.",https://images.unsplash.com/photo-1582735689369-4fe89db7114c?w=400&h=300&fit=crop,https://cominparfum.com,France,2005,niche,contact@cominparfum.com,,,2025-07-18T12:32:10.942225,2025-08-28T12:16:51.300788
cmd29199a821df8d4232966,Comma Cosmetics,"Comma Cosmetics is a niche perfume company that focuses on creating a distinct range of fragrances inspired by natural elements and sophisticated aromas. Founded with a passion for blending traditional perfume-making techniques with modern trends, the company emphasizes sustainability and quality in its ingredients. Comma Cosmetics aims to provide unique olfactory experiences for those who appreciate artisanal craftsmanship in the perfume industry.",https://images.unsplash.com/photo-1556909114-f6e7ad7d3136?w=400&h=300&fit=crop,https://www.commacosmetics.com,United States,2015,niche,,,,2025-07-18T12:32:10.942225,2025-08-28T12:16:57.143665
cmd2e42ddcfe2283a9b39a3,Comme des Garçons,"Comme des Garçons is a Japanese fashion brand founded by designer Rei Kawakubo in 1969. The company is renowned for its avant-garde style and innovation, offering a unique blend of fashion and fragrance. In 1994, they launched their first perfume, ""Comme des Garçons 1,"" which was notable for its unconventional scents and minimalist packaging. Over the years, the brand has built a reputation for its artistic and experimental approach to perfumery, producing both classic and limited-edition fragrances that challenge traditional scent profiles.",https://www.comme-des-garcons.com/dm/2025_aw/1.jpg,https://www.comme-des-garcons.com,Japan,1969,niche,,,"3-7-9 Minami-Aoyama, Minato-ku, Tokyo, Japan",2025-07-18T12:32:10.942225,2025-08-28T12:17:05.402995
cmdadea053800044e6b4c41,Commodity,"Commodity is a fragrance brand that specializes in creating high-quality, artisanal perfumes designed for everyday wear. Founded with the mission to break down the barriers in the fragrance market, Commodity offers a unique approach to scent by focusing on personal preferences rather than traditional marketing. Their fragrances are often classified into different categories such as ""Bold,"" ""Personal,"" and ""Essence,"" allowing consumers to choose scents that resonate with their personality and lifestyle. The brand places a strong emphasis on transparency, quality ingredients, and an inclusive experience for all fragrance lovers.",https://www.commodityfragrance.com/img/icon_enhanced-security-no-threats.svg,https://www.commodityfragrance.com,United States,2013,indie,,,,2025-07-18T12:32:10.942225,2025-08-28T12:17:13.629200
cmdf4012bfff8a5d6e5305d,Common Brimstone,"Common Brimstone is a niche perfume company that focuses on creating unique, artisanal fragrances inspired by nature and environmental elements. Their story is one of sustainability and a deep appreciation for the natural world, aiming to evoke emotions and memories through scent. Common Brimstone specializes in small-batch production, using high-quality, ethically sourced ingredients to craft their distinctive fragrances that cater to an audience seeking authenticity and a personal connection to their perfume choices.",https://images.unsplash.com/photo-15907369626-6c63ac16f3df?w=400&h=300&fit=crop,https://commonbrimstone.com,United States,2021,niche,contact@commonbrimstone.com,,,2025-07-18T12:32:10.942225,2025-08-28T12:17:19.632061
cmde7950d3dab7305e91851,Commune,"Commune is a niche fragrance company known for its artisanal approach to perfume-making, aiming to create unique and evocative scents that capture the essence of urban life and nature. Established in Los Angeles, Commune blends traditional perfume craftsmanship with modern influences, focusing on high-quality, sustainable ingredients. Their story is rooted in a passion for storytelling through fragrance, where each bottle is designed to evoke memories and emotions related to the community and environment around it.",https://images.unsplash.com/photo-1587017539504-67cfbddac569?w=400&h=300&fit=crop,https://www.commune.com,United States,2015,niche,,,,2025-07-18T12:32:10.942225,2025-08-28T12:17:26.026418
cmd7abe8c213b2adbec8c14,Community Concepts,"Community Concepts is a forward-thinking perfume company dedicated to creating fragrances that resonate with individual identities and promote inclusivity. The company emphasizes community engagement in its brand narrative, sourcing inspiration from diverse cultural backgrounds and experiences. Their mission centers around not only creating high-quality scented products but also fostering a sense of belonging and interconnectedness among users. Specializing in unique, artisanal scents that appeal to various personalities, Community Concepts aims to redefine the fragrance landscape by prioritizing ethical production and sustainable practices.",https://images.unsplash.com/photo-15907369626-6c63ac16f3df?w=400&h=300&fit=crop,,,,indie,,,,2025-07-18T12:32:10.942225,2025-08-28T12:17:32.420009
cmdaf53ba83d64fed80a9b1,Como & Brigante,"Como & Brigante is a niche perfume brand known for its unique and artisanal approach to fragrance creation. The company specializes in crafting high-quality, handcrafted perfumes that often feature complex and intriguing scent profiles. Established with a passion for blending traditional perfumery techniques with contemporary influences, Como & Brigante offers a bespoke experience, often drawing inspiration from nature and art, making each fragrance a work of art.",https://images.unsplash.com/photo-1541643600914-78b084683601?w=400&h=300&fit=crop,https://www.comoandbrigante.com,United Kingdom,2014,niche,,,,2025-07-18T12:32:10.942225,2025-08-28T12:17:38.851451
cmdf4a9a0868fcada66be04,Compagnia Delle Indie,"Compagnia Delle Indie is an Italian perfume house known for its artisanal approach to fragrance creation. The company focuses on crafting unique and evocative scents that reflect diverse cultural inspirations, drawing on historical references and contemporary art. Established by a group of passionate perfumers, the brand aims to create olfactory experiences that tell stories and resonate with individual emotions. Their specialty lies in blending rare ingredients and employing traditional Italian craftsmanship to produce niche fragrances that cater to discerning customers seeking something truly original.",https://images.unsplash.com/photo-1582735689369-4fe89db7114c?w=400&h=300&fit=crop,https://www.compagniadelleindie.com,Italy,2013,niche,,,,2025-07-18T12:32:10.942225,2025-08-28T12:17:45.731311
cmd01a2b385047f4284dd52,Compagnie de Provence,"Compagnie de Provence is a French fragrance and personal care brand that specializes in producing high-quality, artisanal products inspired by the traditions and scents of the Provence region in France. Established with a commitment to authenticity and craftsmanship, the company focuses on creating elegant, contemporary products including perfumes, soaps, and body care items. Their unique offerings often feature natural ingredients sourced from the Mediterranean, embodying a blend of modern design and classic French elegance. The brand's story is rooted in a deep appreciation for local heritage, making their products not just perfumery but a reflection of the Provençal lifestyle.",https://images.unsplash.com/photo-1556909114-f6e7ad7d3136?w=400&h=300&fit=crop,https://www.compagniedeprovence.com,France,1990,indie,,,,2025-07-18T12:32:10.942225,2025-08-28T12:17:52.578799
cmd237797ef3c0639dd64c9,Compagnie Europeenne des Parfums,"Compagnie Européenne des Parfums is a fragrance company known for its dedication to creating high-quality, unique scents. Founded by fragrance specialists, the company focuses on the artistry of perfumery, utilizing fine ingredients and sophisticated blends. Their portfolio features both classic and contemporary scents designed to evoke emotions and enhance personal expression through fragrance. The company is recognized for its commitment to innovation and quality, establishing a prominent presence in the niche perfume market.",https://images.unsplash.com/photo-1556909114-f6e7ad7d3136?w=400&h=300&fit=crop,http://www.compagnie-europeenne-des-parfums.com,France,1994,niche,,,,2025-07-18T12:32:10.942225,2025-08-28T13:01:28.498923
cmd80d1777ebefb74842f5f,Companhia da Terra,"Companhia da Terra is a brand that focuses on creating unique, high-quality fragrances inspired by the natural beauty and culture of Brazil. Established with a dedication to sustainability, they pride themselves on using environmentally friendly practices in their production processes. The company emphasizes the use of natural ingredients sourced from the rich biodiversity of the Brazilian landscape, aiming to connect consumers with the essence of the Earth through evocative scents.",https://cdn.vnda.com.br/companhiadaterra/2022/09/12/11_9_9_944_1_9_1_117_logo10.svg?v=1662991235,www.companhiadaterra.com,Brazil,2005,niche,,,,2025-07-18T12:32:10.942225,2025-08-28T13:01:37.301536
cmde042678600a3b2ab30e5,Comporta Perfumes,"Comporta Perfumes is a niche perfume company that specializes in capturing the essence of the Comporta region in Portugal through its fragrances. Founded by a team with a passion for perfumery and the unique landscapes of their region, they create scents that evoke the natural beauty and tranquility of Comporta, using high-quality raw materials. Their story reflects a commitment to artisanal craftsmanship and sustainability, aiming to provide customers with an olfactory journey through one of Portugal's most enchanting areas.",https://images.unsplash.com/photo-1556909114-f6e7ad7d3136?w=400&h=300&fit=crop,https://www.comportapefumes.com,Portugal,2016,niche,,,,2025-07-18T12:32:10.942225,2025-08-28T13:01:45.044031
cmd331ef643cb95546c1f00,Composition,"Composition is an independent fragrance company that specializes in unique, artistic perfumes crafted with a focus on high-quality ingredients. The brand aims to push the boundaries of traditional perfumery by creating innovative scents that tell a story and evoke strong emotions. Founded by a group of perfumers and artists, Composition's creations are inspired by various art forms and concepts, making each fragrance a piece of olfactory art.",https://images.unsplash.com/photo-15907369626-6c63ac16f3df?w=400&h=300&fit=crop,www.compositionfragrances.com,United States,2014,indie,info@compositionfragrances.com,,,2025-07-18T12:32:10.942225,2025-08-28T13:01:53.405397
cmd93a88c549e0b49495e7d,Comptoir des Cotonniers,"Comptoir des Cotonniers is a French fashion brand founded in 1995, specializing in women’s ready-to-wear and accessories. The company prides itself on creating high-quality, stylish, and timeless pieces that blend classic French elegance with contemporary trends. Initially launched as a clothing brand, it has expanded its offerings to include a range of perfumes that embody the feminine spirit and essence of modernity. The fragrances are often inspired by the brand's heritage and the cosmopolitan lifestyle of its clientele.",https://images.unsplash.com/photo-1582735689369-4fe89db7114c?w=400&h=300&fit=crop,https://www.comptoirdescotonniers.com,France,1995,designer,,,,2025-07-18T12:32:10.942225,2025-08-28T13:02:00.709620
cmd4f50657c002860a0d024,Comptoir Sud Pacifique,"Comptoir Sud Pacifique is a French fragrance house founded in 1973, known for its unique and tropical scents inspired by various exotic destinations. The company blends traditional perfumery techniques with a whimsical approach, aiming to transport users to sunny, Pacific-inspired locales through their exceptional fragrances. Their collection emphasizes the use of natural ingredients and offers a range of perfumes, including eau de cologne, body care products, and home fragrances, often characterized by fruity, floral, and sweet notes. Over the years, Comptoir Sud Pacifique has gained a reputation for creating uplifting, distinctive fragrances that evoke feelings of nostalgia and adventure.",https://images.unsplash.com/photo-1556909114-f6e7ad7d3136?w=400&h=300&fit=crop,https://www.comptoir-sud-pacifique.com,France,1973,niche,,,,2025-07-18T12:32:10.942225,2025-08-28T13:02:09.639603
cmdf959678a0f56fa5227b3,Concorde,"Concorde is a perfume company known for its unique and luxurious fragrances. The company specializes in crafting high-quality, artisanal perfumes, often inspired by the elegance and sophistication of the iconic Concorde aircraft. Their products reflect a blend of tradition and modernity, appealing to both perfume enthusiasts and those seeking an exquisite scent experience. The brand prides itself on using fine ingredients and maintaining a focus on craftsmanship and authenticity.",https://images.unsplash.com/photo-1582735689369-4fe89db7114c?w=400&h=300&fit=crop,,United States,,indie,,,,2025-07-18T12:32:10.942225,2025-08-28T13:02:17.115885
cmd40b977aae43596d10905,Condé,"Condé is a luxury perfume company known for its artisanal fragrance creations that harmoniously blend unique ingredients to evoke emotions and memories. The brand specializes in crafting small-batch perfumes, promoting an artistry approach to fragrance creation. Through a commitment to quality and creativity, Condé has established itself in the high-end perfume market, appealing to sophisticated consumers looking for distinctive scents that tell a story.",https://images.unsplash.com/photo-1582735689369-4fe89db7114c?w=400&h=300&fit=crop,https://www.condefragrance.com,United States,2018,niche,info@condefragrance.com,,"123 Perfume Lane, New York, NY 10001, USA",2025-07-18T12:32:10.942225,2025-08-28T13:02:24.917575
cmdfe91b1d2e37b20a7df07,Confessions of A Rebel,"Confessions of A Rebel is a niche perfume house that was launched to challenge conventional fragrances and inspire self-expression through scent. Founded by a group of passionate fragrance enthusiasts, the brand believes in breaking the rules of traditional perfumery and promotes the idea of personal freedom and authenticity. Their collections often explore daring and contemporary scent combinations, catering to the modern individual who seeks to define their identity through fragrance.",https://confessionsofarebel.com/cdn/shop/files/coar-logo-glitch.gif?v=10376395399957394620,https://www.confessionsofarebel.com,United States,2017,niche,,,,2025-07-18T12:32:10.942225,2025-08-28T13:02:32.755325
cmdf4ae19ad3bb49badff38,Confetti London,"Confetti London is a perfume company focused on creating unique fragrances that embody joy, celebration, and individuality. They emphasize the use of high-quality ingredients and craftsmanship in their products, catering to customers seeking distinctive scents that stand out in the market. The brand aims to capture the essence of special moments in life through its carefully curated fragrance collections.",https://images.unsplash.com/photo-1582735689369-4fe89db7114c?w=400&h=300&fit=crop,https://www.confettilondon.com,United Kingdom,2016,indie,,,,2025-07-18T12:32:10.942225,2025-08-28T13:02:39.157363
cmd5c00ce23976f4c8e13e2,Conjure Oils,"Conjure Oils is an independent perfume company known for creating unique and eclectic fragrances that often draw inspiration from mythology, literature, and history. Established as a niche brand, they specialize in handcrafted perfumes, oils, and other fragrance products that cater to a diverse clientele. Their offerings often incorporate layering techniques and the use of high-quality ingredients, appealing to those looking for distinctive scents. The company's story emphasizes creativity and an artistic approach to perfumery, making each product not just a fragrance, but a storytelling experience.",https://www.conjureoils.com/limited eds disc/welcome/welcome.png,https://www.conjureoils.com,United States,2006,indie,,,,2025-07-18T12:32:10.942225,2025-08-28T13:02:46.282010
cmd4b3fbd475d514d58e286,Connock,,https://connockengland.co.uk/cdn/shop/files/connock_logo.png?v=1741101233&width=600,https://connocklondon.com,United Kingdom,2007,indie,,,,2025-07-18T12:32:10.942225,2025-08-28T13:02:55.575682
cmd396be2c4813aa50c4c8b,Conquest Personal Care,"Conquest Personal Care is a dynamic company specializing in the development and marketing of quality personal care and fragrance products. The company is recognized for its commitment to creating innovative and accessible products that cater to a diverse consumer base. With a focus on excellence in fragrance, Conquest aims to elevate personal care routines and enhance everyday experiences through captivating scents and effective formulations. The company’s story is rooted in a passion for personal expression and a desire to create memorable olfactory experiences.",https://images.unsplash.com/photo-1556909114-f6e7ad7d3136?w=400&h=300&fit=crop,https://www.conquestpersonalcare.com,United States,,indie,,,,2025-07-18T12:32:10.942225,2025-08-28T13:03:03.302244
cmd5af2346940f7255b8f74,Conroy,"Conroy is a bespoke perfume company specializing in creating unique, handcrafted fragrances tailored to individual preferences. Established by a passionate artisan perfumer, the brand focuses on quality ingredients and meticulous production processes. Their story began with a mission to revive the art of perfumery, offering personalized scent experiences that resonate with each customer’s identity. Conroy also emphasizes sustainability by sourcing ingredients ethically and incorporating environmentally friendly practices in their operations.",https://images.unsplash.com/photo-15907369626-6c63ac16f3df?w=400&h=300&fit=crop,www.conroyperfume.com,United States,2015,niche,contact@conroyperfume.com,,,2025-07-18T12:32:10.942225,2025-08-28T13:03:11.037603
cmd93c75d2b36579a9ec0e8,Consent,"Consent is a niche perfume company that focuses on creating fragrances that evoke a sense of intimacy and connection. The brand emphasizes the importance of consent in relationships, using its fragrances as a metaphor for personal boundaries and emotional connections. Each scent is meticulously crafted to tell a story, often inspired by themes of love, trust, and mutual respect. Established by a team of fragrance enthusiasts, Consent aims to challenge the conventional norms of the perfume industry by promoting awareness and conversations around consent in personal relationships.",https://images.unsplash.com/photo-1541643600914-78b084683601?w=400&h=300&fit=crop,www.consentperfumes.com,United States,2021,niche,info@consentperfumes.com,,,2025-07-18T12:32:10.942225,2025-08-28T13:03:18.601891
cmdec9dc69789f11c0510e0,Constance Carroll,"Constance Carroll is a cosmetics and perfume brand known for its commitment to providing high-quality products at an affordable price. The brand specializes in a variety of beauty products, including fragrances, making it accessible to a wide audience. Their mission focuses on empowering individuals through beauty solutions that enhance personal expression and confidence.",https://images.unsplash.com/photo-1587017539504-67cfbddac569?w=400&h=300&fit=crop,https://www.constancecarroll.com,United Kingdom,1985,drugstore,,,,2025-07-18T12:32:10.942225,2025-08-28T13:03:25.092945
cmde63e211f41e7e4b9b91e,Contes de Parfums,"Contes de Parfums is a niche fragrance house founded in 2011 by perfumer and creative director, Jean-Claude Ellena. The company is known for its exquisite and poetic approach to perfumery, drawing inspiration from literature, art, and personal experiences to create unique and evocative scents. With a commitment to craftsmanship and the art of fragrance, Contes de Parfums emphasizes the use of high-quality ingredients and artisanal blending techniques, resulting in perfumes that tell stories and evoke emotions. The brand has garnered a loyal following among fragrance enthusiasts who appreciate its artistic and whimsical interpretations of scent.",https://contesdeparfums.com/wp-content/uploads/2022/05/LOGO_CdP-2-cortado.png,https://www.contesdeparfums.com/,France,2011,niche,,,,2025-07-18T12:32:10.942225,2025-08-28T13:03:35.320392
cmd6b047ff055c2872e1412,Contessa di Castiglione,"Contessa di Castiglione is a luxury perfume house that specializes in creating unique and artisanal fragrances inspired by the life and legacy of the historical figure, the Contessa di Castiglione. The brand focuses on high-quality ingredients, creativity, and craftsmanship, aiming to evoke a sense of sophistication and elegance through its scent compositions. Established by a group of perfumers and artists, the brand emphasizes the art of perfumery while drawing from rich European traditions and historical narratives.",https://images.unsplash.com/photo-1556909114-f6e7ad7d3136?w=400&h=300&fit=crop,http://www.contessadicastiglione.com,Italy,2009,niche,,,,2025-07-18T12:32:10.942225,2025-08-28T13:03:42.575653
cmd99bb8723db116e889390,Continental Bottle Company,"Continental Bottle Company specializes in the design, manufacture, and distribution of glass bottles and containers for the fragrance and cosmetic industries. Founded on the principles of quality and innovation, the company has become known for producing high-end, custom bottles that appeal to both niche and designer brands. Their extensive range of products includes various styles, sizes, and finishes, catering to the unique needs of perfume manufacturers.",https://static.HugeDomains.com/images/hdv3-img/hd-header-logo-v3.svg,https://www.continentalbottle.com,United States,1947,niche,,,"1805 East 39th Street, Chicago, IL 60640",2025-07-18T12:32:10.942225,2025-08-28T13:03:50.091803
cmdacf185a5186e8736da75,Contraband,"Contraband is a niche perfume company known for its unique and avant-garde fragrance offerings. Established to challenge conventional scents, Contraband draws inspiration from urban culture and contemporary art. The brand prides itself on utilizing high-quality ingredients and creating compositions that evoke emotion and tell a story, positioning itself as a standout in the luxury fragrance market.",https://images.unsplash.com/photo-1587017539504-67cfbddac569?w=400&h=300&fit=crop,www.contrabandfragrance.com,United States,2015,niche,contact@contrabandfragrance.com,,"123 Perfume Street, Los Angeles, CA 90001, USA",2025-07-18T12:32:10.942225,2025-08-28T13:03:56.642167
cmdc250785b6c0c3298f3e9,Contro Corrente,"Contro Corrente is an artisan perfumery that specializes in creating unique, innovative fragrances that challenge conventional norms in the perfume industry. The brand's concept is rooted in a philosophy of embracing the unexpected and celebrating individuality, appealing to niche markets looking for personalized and distinctive scents. Their story began with a passion for olfactory art and a commitment to using high-quality ingredients in their formulations, resulting in memorable olfactory experiences that resonate with their clientele.",https://images.unsplash.com/photo-15907369626-6c63ac16f3df?w=400&h=300&fit=crop,https://www.controcorrente.com,Italy,2016,niche,,,"Via della Libertà, 32, 00192 Roma RM, Italy",2025-07-18T12:32:10.942225,2025-08-28T13:04:03.396745
cmd5cb2b478db0bc87576d7,Converse,"Converse is primarily known as a footwear and apparel company, particularly famous for its Chuck Taylor All-Stars sneakers. The brand has ventured into the fragrance industry as part of its lifestyle product offerings. The fragrances often embody the youthful, rebellious spirit associated with the brand's identity. Converse fragrances may emphasize boldness and originality, catering to its predominantly young audience and aligning with fashion trends.",https://images.unsplash.com/photo-1582735689369-4fe89db7114c?w=400&h=300&fit=crop,www.converse.com,United States,1908,designer,,,,2025-07-18T12:32:10.942225,2025-08-28T13:04:11.695750
cmd8ecf246ee09ec1559f7c,Coolife,"Coolife is a contemporary fragrance company known for its innovative and refreshing scents that appeal to a youthful audience. The brand focuses on creating high-quality perfumes with unique blends, often drawing inspiration from modern lifestyles and trends. With an emphasis on sustainability and ethical sourcing, Coolife aims to produce fragrances that not only resonate with consumers emotionally but also responsibly contribute to environmental preservation. The brand has garnered a strong following for its distinctive packaging and engaging marketing strategies that connect with a diverse demographic.",https://images.unsplash.com/photo-1556909114-f6e7ad7d3136?w=400&h=300&fit=crop,,,,indie,,,,2025-07-18T12:32:10.942225,2025-08-28T13:04:18.888502
cmd3ffce5d9f9c4753bf408,Coop,"Coop is a company that specializes in creating and marketing a wide range of home fragrances and personal care products. They focus on innovative scent formulations that provide a unique sensory experience, combining quality ingredients and contemporary design. Founded with a passion for elevating everyday moments through fragrance, Coop aims to bring joy and freshness into consumers' lives.",https://images.unsplash.com/photo-1541643600914-78b084683601?w=400&h=300&fit=crop,www.coopfragrance.com,United States,2020,indie,contact@coopfragrance.com,,,2025-07-18T12:32:10.942225,2025-08-28T13:04:25.745836
cmd945116d75cc70a65f7ac,Coppeneur,"Coppeneur is a niche perfume company that specializes in creating artisanal fragrances inspired by the rich heritage of perfumery and the use of high-quality natural ingredients. The company is known for its dedication to craftsmanship and the art of scent creation, often incorporating unique olfactory elements that reflect their commitment to innovation and sustainability. Founded by a passionate team of perfumers, Coppeneur aims to offer personalized fragrance experiences, emphasizing the emotions and stories behind their creations.",https://images.unsplash.com/photo-15907369626-6c63ac16f3df?w=400&h=300&fit=crop,https://www.coppeneur.com,Germany,2006,niche,,,,2025-07-18T12:32:10.942225,2025-08-28T13:04:34.139761
cmd7a6a9c5298fbba017e26,Copra,,https://www.copra.fr/assets/img/base/logo-copra-geo.png,http://www.copra.fr,France,2015,niche,,,,2025-07-18T12:32:10.942225,2025-08-28T13:04:42.523323
cmdf4aee5350098131d35e8,Coqui Coqui,"Coqui Coqui is a luxury lifestyle brand that combines the essence of natural ingredients with the artistry of perfumery. Founded by the duo of actress and model, and landscape architect, Coqui Coqui specializes in artisanal perfumes sourced from the beautiful landscape of the Yucatán Peninsula in Mexico. Their products showcase a rich heritage of Mayan culture, reflecting the region's natural beauty through unique scent profiles. Coqui Coqui is widely recognized for its commitment to quality and authenticity, making it a significant player in the niche perfume market.",https://images.unsplash.com/photo-1582735689369-4fe89db7114c?w=400&h=300&fit=crop,https://www.coquicoqui.com,Mexico,2004,niche,,,,2025-07-18T12:32:10.942225,2025-08-28T13:04:50.739605
cmd4cd596651f1b9154893d,Coquillete Paris,"Coquillete Paris is a niche perfume brand known for its artistic and unique fragrance creations. Founded by perfumer Christian Carbonnel, the company focuses on the blending of high-quality ingredients to create sophisticated scents that tell a story. The brand emphasizes craftsmanship and artistry in perfumery, embracing a boutique approach that highlights individuality and character in each fragrance.",https://images.unsplash.com/photo-1556909114-f6e7ad7d3136?w=400&h=300&fit=crop,https://coquilleteparis.com,France,2016,niche,,,,2025-07-18T12:32:10.942225,2025-08-28T13:05:38.439187
cmd2eb9cb0e43efb5203b2a,Cora-Revillon Group,"Cora-Revillon Group is a historic fragrance and cosmetics house with roots dating back to 1828. Initially founded by Pierre-François Revillon, the company quickly established itself as a specialist in creating luxury perfumes and scented products. Over the centuries, Cora-Revillon has developed a rich portfolio of both classic and contemporary fragrances, known for their sophisticated and innovative compositions. Their expertise lies in the combination of high-quality raw materials and contemporary fragrance trends, catering to a discerning clientele that values tradition as well as modernity in scent.",https://images.unsplash.com/photo-1541643600914-78b084683601?w=400&h=300&fit=crop,,France,1828,niche,,,,2025-07-18T12:32:10.942225,2025-08-28T13:05:46.892994
cmdf5d1b2d118798a049845,Corania,"Corania is a luxury perfume company known for its artisanal approach to fragrance creation. Founded on the principles of quality and exclusivity, Corania marries traditional perfumery techniques with modern aesthetics, offering a range of unique scents that tell a story. The company prides itself on using natural ingredients and sustainable practices, catering to consumers who appreciate the artistry behind perfume. Their niche in the market emphasizes personal expression through scent and caters to an upscale clientele.",https://www.corania.com/wp-content/uploads/2023/11/logo-v3-30x4.png,www.corania.com,France,2015,niche,contact@corania.com,,,2025-07-18T12:32:10.942225,2025-08-28T13:05:56.392461
cmd8b65c71887b79bd771bc,Corday,"Corday is a historic perfume company known for its classic fragrances that emphasize craftsmanship and aromatic artistry. Established in the early 20th century, Corday has built a reputation for creating sophisticated and imaginative scents that cater to both men and women. The brand is often associated with luxury and timelessness, focusing on high-quality ingredients and unique formulations. Their offerings include a range of signature perfumes that encapsulate both elegance and individuality.",https://images.unsplash.com/photo-15907369626-6c63ac16f3df?w=400&h=300&fit=crop,,United States,1920,niche,,,,2025-07-18T12:32:10.942225,2025-08-28T13:06:03.601738
cmd830604f17c37767ed9a9,Coreterno,"Coreterno is an Italian niche perfume company founded by the visionary Alberto Morillas and his partner, Raffaele D’Angelo. The brand's ethos revolves around blending art, symbolism, and fragrance, creating a unique olfactory experience that reflects a dialogue between the past and present. Coreterno's collections are deeply influenced by the concepts of passion, love, and life’s multifaceted experiences, often inspired by art and literature. Each perfume is crafted with a distinctive story, aiming to evoke emotions and memories, making their creations highly sought after by fragrance enthusiasts.",https://coreterno.com/wp-content/uploads/2024/09/logo_txt_black.svg,https://coreterno.com,Italy,2015,niche,,,,2025-07-18T12:32:10.942225,2025-08-28T13:06:11.486612
cmd952cdaa626402a312196,Corsair,"Corsair is a fragrance company known for creating unique, high-quality perfumes that appeal to niche markets and perfume enthusiasts. Established with a passion for blending exclusive ingredients and artistic concepts, Corsair has built a reputation for its attention to detail and creativity in scent formulation. Their specialty lies in crafting limited-edition fragrances that tell a story and evoke emotions, making each scent a unique olfactory experience. The company often collaborates with artists and designers to develop scents that resonate deeply with customers, allowing them to explore new dimensions of fragrance.",https://images.unsplash.com/photo-1541643600914-78b084683601?w=400&h=300&fit=crop,,,,niche,,,,2025-07-18T12:32:10.942225,2025-08-28T13:06:18.136580
cmd9a4958c997903df77ea1,Corvette,"Corvette is a distinctive perfume company that specializes in creating high-quality fragrances inspired by the automotive spirit of modernity and adventure. The brand has developed a niche for itself in the fragrance market by combining innovative scent development with the aesthetic appeal of automotive design. Their story is interwoven with the Corvette brand, known for its performance and luxury, and they aim to encapsulate the essence of freedom and vigor associated with driving in their fragrances.",https://images.unsplash.com/photo-1587017539504-67cfbddac569?w=400&h=300&fit=crop,,United States,,designer,,,,2025-07-18T12:32:10.942225,2025-08-28T13:06:25.140419
cmd9559114187daa8e21c10,Coryse Salome,"Coryse Salome is a luxury perfume house known for its exquisite and unique fragrances that blend traditional craftsmanship with modern sensibility. Established in the early 2000s, the brand specializes in creating artisanal perfumes that evoke emotions and encapsulate stories through scent. Drawing inspiration from diverse sources, including literature and art, Coryse Salome aims to create olfactory experiences that are both personal and memorable. Each fragrance is meticulously crafted using high-quality ingredients, ensuring a distinctive scent profile that caters to discerning clientele.",https://images.unsplash.com/photo-1582735689369-4fe89db7114c?w=400&h=300&fit=crop,https://www.corysesalome.com,France,2001,niche,,,,2025-07-18T12:32:10.942225,2025-08-28T13:06:33.049154
cmd931f86bc955c20e5f743,Corysé,"Corysé is a niche perfume brand known for its artisanal fragrance creations that encapsulate unique storytelling and olfactory experiences. Established by a passionate perfumer, Corysé focuses on crafting perfumes that blend traditional techniques with modern sensibilities, drawing inspiration from various cultures and nature. The brand aims to create an intimate connection between scent and memory, offering a limited collection of fragrances that stand out for their originality and quality.",https://static.HugeDomains.com/images/hdv3-img/hd-header-logo-v3.svg,www.coryse.com,France,2018,niche,contact@coryse.com,,"123 Fragrance Lane, Paris, France",2025-07-18T12:32:10.942225,2025-08-28T13:06:41.131405
cmdd12b03b0964036bc7dff,Cos Perfumery,"Cos Perfumery is a boutique fragrance house known for its artisanal approach to perfumery, specializing in creating unique, hand-crafted perfumes. The company was founded with a passion for exploring the emotional connections that scents can evoke and aims to provide a curated selection of high-quality fragrances that cater to individualistic tastes. By blending traditional techniques with modern aesthetics, Cos Perfumery has established itself as a leader in the niche market of personalization and craftsmanship in perfumery.",https://images.unsplash.com/photo-1541643600914-78b084683601?w=400&h=300&fit=crop,www.cosperfumery.com,United States,2015,niche,contact@cosperfumery.com,,"123 Fragrance Way, New York, NY 10001, USA",2025-07-18T12:32:10.942225,2025-08-28T13:06:47.792261
cmd679b9e07bf3ef92cae7a,Coscentra,"Coscentra is a fragrance company that specializes in creating high-quality, alcohol-free perfumes made with natural ingredients. Their products aim to provide customers with luxurious scents at affordable prices. The company has a commitment to sustainability and health, offering an alternative to traditional perfumes that often contain synthetic fragrances. Coscentra's offerings include a range of personal fragrances and home scents, with a focus on catering to diverse preferences and needs. They have built a reputation for innovative and unique blends while maintaining a strong dedication to quality and purity in their formulations.",https://coscentra.com/wp-content/uploads/2025/03/Coscentra_BLACK.svg,https://www.coscentra.com,Netherlands,2016,indie,,,,2025-07-18T12:32:10.942225,2025-08-28T13:06:56.204047
cmd4069f3a029beb7a3dcf4,Cosmair,"Cosmair, Inc. is a renowned perfume company that initially started as a distributor of various high-end fragrance brands in the United States. Over the years, the company evolved by developing its own line of fragrances, leveraging its expertise in marketing and distribution. It specializes in creating unique and innovative scent profiles, focusing on both the retail and mass market. Cosmair has played a significant role in the American fragrance market, especially during the 1980s and 1990s, partnering with prestigious brands and celebrities to launch signature perfumes.",https://images.unsplash.com/photo-1556909114-f6e7ad7d3136?w=400&h=300&fit=crop,,United States,1983,designer,,,,2025-07-18T12:32:10.942225,2025-08-28T13:07:03.167538
cmdf1f96f126c7343c848eb,Cosmar,"Cosmar is a fragrance company known for creating high-quality perfumes that embody elegance and sophistication. Founded on the premise of merging art with science in the world of scent, Cosmar has built a reputation for its innovative and unique fragrances, catering to an audience that values both classic and contemporary olfactory experiences. The company draws inspiration from diverse cultures, natural elements, and artistic expressions, allowing them to develop signature scents that resonate with consumers seeking individualistic choices.",https://images.unsplash.com/photo-1541643600914-78b084683601?w=400&h=300&fit=crop,www.cosmarfragrances.com,Italy,2002,niche,contact@cosmarfragrances.com,+39 06 1234567,"Via della Perfumeria 45, Rome, Italy",2025-07-18T12:32:10.942225,2025-08-28T13:07:11.051429
cmdbf204d281c86882d1e7b,Cosme De,"Cosme De' is a luxury perfume and cosmetics company known for its unique and high-quality fragrances. Established with a vision to create exquisite and captivating scents, Cosme De' has built a reputation for its attention to detail and innovative formulations. The company combines the art of perfumery with sophistication, catering to discerning customers who appreciate luxury in personal care products. With a diverse range of fragrances designed for various occasions, Cosme De' aims to enhance personal expression and individuality.",https://images.unsplash.com/photo-1582735689369-4fe89db7114c?w=400&h=300&fit=crop,https://www.cosmede.com,United States,2015,niche,support@cosmede.com,,,2025-07-18T12:32:10.942225,2025-08-28T13:07:19.391649
cmdfcea05a089712c7a8b6b,Cosmedias,"Cosmedias is a perfume company that specializes in creating unique, high-quality fragrances tailored to a diverse clientele. With a focus on combining innovative scent technologies with traditional perfumery techniques, Cosmedias aims to deliver scents that evoke emotions and memories. The company prides itself on sustainability and ethical sourcing of materials, ensuring that all their products are both luxurious and environmentally friendly. They are known for their attention to detail and artistry in fragrance creation, appealing to connoisseurs and casual wearers alike.",https://images.unsplash.com/photo-1587017539504-67cfbddac569?w=400&h=300&fit=crop,https://www.cosmedias.com,United States,2018,indie,contact@cosmedias.com,,,2025-07-18T12:32:10.942225,2025-08-28T13:07:26.363110
cmd00597f24ae585f07215e,Cosmedicine,"Cosmedicine is a skincare and fragrance company that specializes in creating clinically effective products. Founded on the premise that skincare should be both functional and luxurious, the brand merges scientific research with a commitment to high-quality ingredients. Their products often focus on enhancing natural beauty through innovative formulations that target various skin concerns while also providing a sensorial experience through fragrance. Cosmedicine's story began with a vision to redefine the skincare experience, emphasizing efficacy and enjoyment.",https://images.unsplash.com/photo-1556909114-f6e7ad7d3136?w=400&h=300&fit=crop,http://www.cosmedicine.com,United States,2001,indie,,,,2025-07-18T12:32:10.942225,2025-08-28T13:07:33.208062
cmd35dc340393087f92b148,Cosmetic Essence,"Cosmetic Essence is a prominent perfume manufacturer that specializes in creating high-quality fragrances through a combination of innovative technology and artistry. The company is known for its commitment to meticulous sourcing of raw materials and blending techniques. Cosmetic Essence offers a broad selection of scents, catering to both consumers and various beauty brands looking for private label fragrance solutions. Established by a team of experienced perfumers and industry professionals, the company has gained a reputation for its expertise in fragrance development and production.",https://images.unsplash.com/photo-1582735689369-4fe89db7114c?w=400&h=300&fit=crop,https://www.cosmeticessence.com,United States,1998,indie,info@cosmeticessence.com,,"2500 West 30th Avenue, Kenosha, WI 53140, USA",2025-07-18T12:32:10.942225,2025-08-28T13:07:41.043422
cmd01fb577a00b367027185,Cosmetic Mall,"Cosmetic Mall is an online retailer specializing in fragrance, skincare, and beauty products. The company offers a wide selection of perfumes from both well-known and emerging brands, catering to a diverse customer base looking for competitive pricing and a broad range of options. Established as a go-to destination for fragrance lovers, Cosmetic Mall focuses on providing excellent customer service and authentic products to their clientele.",https://images.unsplash.com/photo-1541643600914-78b084683601?w=400&h=300&fit=crop,https://www.cosmeticmall.com,United States,1998,drugstore,,1-800-238-1542,,2025-07-18T12:32:10.942225,2025-08-28T13:07:48.513200
cmd83e034ebb6d6899fcb31,Cosmetics to Go,"Cosmetics to Go was a mail-order cosmetics company that aimed to provide high-quality, cruelty-free beauty products, including fragrances, skincare, and body care. The company was known for its innovative approach to marketing and product design, drawing customers in with vibrant packaging and a whimsical brand personality. Operating primarily online, they focused on affordability without compromising on quality, ultimately serving a niche market of conscious consumers.",https://images.unsplash.com/photo-15907369626-6c63ac16f3df?w=400&h=300&fit=crop,,United Kingdom,1993,indie,,,,2025-07-18T12:32:10.942225,2025-08-28T13:07:54.961578
cmde187cd13d8d4ab7ccc9f,Cosmetique et Parfum International,"Cosmetique et Parfum International is a fragrance company specializing in the development, manufacture, and distribution of high-quality perfumes. The company focuses on blending traditional craftsmanship with innovative techniques to create unique scent profiles. With a commitment to sustainability and quality, they cater to both niche markets and larger clients. Established by a group of fragrance enthusiasts, they have built a strong reputation for their bespoke scents and exceptional service, positioning themselves as a key player in the perfume industry.",https://images.unsplash.com/photo-1556909114-f6e7ad7d3136?w=400&h=300&fit=crop,www.cosmetiqueetparfum.com,France,1990,niche,contact@cosmetiqueetparfum.com,+33 1 23 45 67 89,"123 Rue de la Fragrance, 75001 Paris, France",2025-07-18T12:32:10.942225,2025-08-28T13:08:03.201331
cmd55610174acb995084154,Cosmetíque,"Cosmetíque is a fragrance company specializing in creating high-quality perfumes that cater to a discerning clientele. The company prides itself on using premium ingredients and innovative scent blending techniques to craft unique fragrances. Founded by a team of fragrance enthusiasts, Cosmetíque has carved out a niche in the perfume industry by focusing on both artistic expression and high performance in wearability. Their story began with a passion for scent and has grown to encompass a diverse range of offerings, including both unisex and gender-specific fragrances, often inspired by art and nature.",https://images.unsplash.com/photo-1541643600914-78b084683601?w=400&h=300&fit=crop,www.cosmetiqueparfums.com,France,2015,niche,contact@cosmetiqueparfums.com,+33 1 23 45 67 89,"123 Rue de Parfum, Paris, 75001, France",2025-07-18T12:32:10.942225,2025-08-28T13:08:14.925604
cmdcf93f4976dfeeed94276,Cosmetiques et Parfums de France,,https://images.unsplash.com/photo-1541643600914-78b084683601?w=400&h=300&fit=crop,,France,,niche,,,,2025-07-18T12:32:10.942225,2025-08-28T13:08:22.133847
cmdc0256e626a9fff3fdcb2,Cosmopolitan Cosmetics,"Cosmopolitan Cosmetics is a recognized player in the fragrance industry, specializing in the development and marketing of a diverse range of perfumes and cosmetics. The company derives its name from the well-known lifestyle magazine, Cosmopolitan, and leverages its brand equity to target a fashion-forward audience. The company emphasizes trendy, youthful scents that cater to modern consumers, often featuring limited edition releases that resonate with contemporary fashion and beauty ideals.",https://images.unsplash.com/photo-1541643600914-78b084683601?w=400&h=300&fit=crop,https://www.cosmopolitancosmetics.com,United States,1998,designer,,,,2025-07-18T12:32:10.942225,2025-08-28T13:08:29.021075
cmd27be4d917deab4b2688b,Cosmopolitan,"Cosmopolitan, a popular lifestyle brand, is well-known for its magazine but has also ventured into the fragrance industry, launching a range of perfumes. The brand aims to capture the essence of the modern, confident woman, appealing to trends and lifestyle aspirations. Cosmopolitan fragrances often feature vibrant and playful scents, aligning with the brand's energetic identity and popular cultural resonance.",https://www.cosmopolitan.com/_assets/design-tokens/cosmopolitan/static/images/logos/logo.eca17dd.svg?primary=%2523000000,https://www.cosmopolitan.com,United States,1995,designer,,,,2025-07-18T12:32:10.942225,2025-08-28T13:08:36.053782
cmddc8c7f5cff748085bfaa,Cosmoprod,"Cosmoprod is a leading perfume manufacturer that specializes in the development and production of high-quality fragrance products. The company has carved a niche for itself within the fragrance industry by focusing on creativity and innovation in scent formulation. With a portfolio that includes both designer and bespoke fragrances, Cosmoprod aims to cater to upmarket customers as well as emerging brands. Established by a group of perfumers and fragrance experts, the company has a rich history of providing comprehensive perfume solutions, including formulation, design, and marketing support.",https://images.unsplash.com/photo-1541643600914-78b084683601?w=400&h=300&fit=crop,https://www.cosmoprod.com,Italy,1998,indie,info@cosmoprod.com,+39 02 1234567,"Via della Profumeria 10, Milan, Italy",2025-07-18T12:32:10.942225,2025-08-28T13:08:44.382549
cmd88873f71ccdd66c7b913,Cosmoss,"Cosmoss is a luxury perfume brand that focuses on creating unique and sophisticated fragrance experiences. Founded by a well-known figure in the beauty industry, the brand emphasizes the use of high-quality ingredients and artisanal methods of production to craft its perfumes. Cosmoss aims to blend nature and modernity in their scents, offering a line of products that appeal to discerning customers seeking elegance and individuality in their fragrance choices.",https://images.unsplash.com/photo-15907369626-6c63ac16f3df?w=400&h=300&fit=crop,https://www.cosmoss.com,United Kingdom,2022,niche,,,,2025-07-18T12:32:10.942225,2025-08-28T13:08:50.935596
cmde3a329cd6dd8425b1db9,Costamor,"Costamor is a niche perfume company known for its unique and artisanal fragrances that reflect the essence of coastal living and travel. Established in the heart of New York City, Costamor focuses on crafting high-quality, small-batch perfumes that blend luxurious scents with the adventurous spirit of the ocean. The brand aims to evoke memories of far-off places and natural beauty through its carefully curated ingredients and evocative compositions.",https://images.unsplash.com/photo-1587017539504-67cfbddac569?w=400&h=300&fit=crop,https://www.costamor.com,United States,2018,niche,,,,2025-07-18T12:32:10.942225,2025-08-28T13:08:59.610869
cmd20d4e2015a75e4dc6aa9,Costume National,"Costume National is an Italian fashion house founded by designer Ennio Capasa in 1986. The brand is known for its avant-garde approach to fashion, blending traditional Italian craftsmanship with contemporary aesthetics. In addition to clothing, Costume National has expanded its offerings to include a distinctive range of fragrances. Their perfumes embody the core design ethos of the brand, characterized by minimalism and sophistication, often targeting a niche market of luxury consumers.",https://images.unsplash.com/photo-1582735689369-4fe89db7114c?w=400&h=300&fit=crop,[www.costumenational.com](http://www.costumenational.com),Italy,1986,niche,,,,2025-07-18T12:32:10.942225,2025-08-28T13:09:06.441936
cmdd05a1f059130a2768dfa,Cosway Company,"Cosway Company is a diversified retailer known for offering a wide range of products including personal care items, health supplements, and fragrances. Established in 1979, Cosway has built a strong presence in various markets, particularly in Asia, by providing quality products that cater to the lifestyle needs of consumers. The company specializes in using innovative marketing strategies and direct selling approaches, allowing them to connect with customers effectively and enhance their shopping experience. With a commitment to quality and service, Cosway also focuses on creating its own line of perfumes, appealing to customers seeking affordable yet distinct fragrances.",https://cosway.com/wp-content/uploads/2022/05/cropped-Cosway-Temp-PNG-Logo-Blk.png,https://www.cosway.com/,Malaysia,1979,indie,,,,2025-07-18T12:32:10.942225,2025-08-28T13:09:14.009718
cmd70dd30825c26e0223c73,Côté Bastide,"Côté Bastide is a French brand renowned for its luxurious fragrances and home products inspired by the essence of Provence. Established to evoke a sense of luxury and authenticity, Côté Bastide offers an array of products that include perfumes, scented candles, and body care items. The company focuses on using natural ingredients and embodies a philosophy of simplicity, elegance, and the art of living well, which is reflected in their beautifully crafted products that aim to create a serene ambiance reminiscent of the French countryside.",https://images.unsplash.com/photo-1587017539504-67cfbddac569?w=400&h=300&fit=crop,https://www.cotebastide.com,side.,1990,niche,,,,2025-07-18T12:32:10.942225,2025-08-28T13:09:20.684282
cmdcf590d8ae42d78e30384,Cotswold Perfumery,"Cotswold Perfumery is a niche fragrance house located in the picturesque Cotswold region of England. Established in 2006 by the founder Charles B. Jackson, the company specializes in crafting high-quality, handmade perfumes that capture the essence and natural beauty of the Cotswold countryside. They focus on using traditional methods and natural ingredients, creating unique fragrances that tell a story about their environment and heritage. Cotswold Perfumery is known for its commitment to artisanal processes and has garnered a dedicated customer base for its bespoke scent creations.",https://www.cotswoldperfumery.co.uk/images/cp-shop-logo.png,https://www.cotswoldperfumery.co.uk,"side. They focus on using traditional methods and natural ingredients, creating unique fragrances that tell a story about their environment and heritage. Cotswold Perfumery is known for its commitment to artisanal processes and has garnered a dedicated customer base for its bespoke scent creations.",2006,niche,,,,2025-07-18T12:32:10.942225,2025-08-28T13:09:29.693539
cmde06a2cf996eaf6322909,Cottan-Porte,"Cottan-Porte is a niche perfume company that specializes in creating high-quality, artisanal fragrances inspired by various elements of nature and unique experiences. Founded by a group of fragrance enthusiasts and artisans, the company focuses on blending traditional perfume-making techniques with modern sensibilities to deliver an exquisite range of scents that cater to discerning customers. Their carefully curated collections emphasize sustainable sourcing and the use of natural ingredients, aiming to tell a story with each fragrance.",https://images.unsplash.com/photo-1582735689369-4fe89db7114c?w=400&h=300&fit=crop,www.cottanporte.com,France,2015,niche,info@cottanporte.com,,,2025-07-18T12:32:10.942225,2025-08-28T13:09:35.869080
cmd610940d61e5caa47836b,Coty Consumer Brands,"Coty Consumer Brands is a global leader in beauty, specializing in cosmetics, skincare, fragrances, and hair color. Founded in 1904 by François Coty, the company has a rich heritage in the perfume industry, having pioneered the modern fragrance industry by promoting high-quality perfumes. Coty has evolved through a series of acquisitions and partnerships, creating a diverse portfolio of brands that appeal to a wide audience. The company is known for its innovation and commitment to creating unique scents and beauty solutions tailored to consumers' preferences.",https://www.coty.com/_next/image?url=https%3A%2F%2Fimages.contentstack.io%2Fv3%2Fassets%2Fblted39bd312054daca%2Fblt0aeff3ce26d29c12%2F66e97585c4217a441dc6ffaa%2FCoty_com_homepage_banner_2024_desktop.jpg&w=3840&q=90,https://www.coty.com,United States,1904,drugstore,,,"350 5th Avenue, New York, NY 10118, USA",2025-07-18T12:32:10.942225,2025-08-28T13:09:43.842307
cmd985874758cf1b572018d,Coty Inc,,https://www.coty.com/_next/image?url=https%3A%2F%2Fimages.contentstack.io%2Fv3%2Fassets%2Fblted39bd312054daca%2Fblt0aeff3ce26d29c12%2F66e97585c4217a441dc6ffaa%2FCoty_com_homepage_banner_2024_desktop.jpg&w=3840&q=90,https://www.coty.com,United States,1904,designer,,+1 212-798-9900,,2025-07-18T12:32:10.942225,2025-08-28T13:09:52.015712
cmdd0fa83004cdab1e2dc39,Coty Prestige,"Coty Prestige is a division of Coty Inc., which is a leading global beauty company with a rich heritage in the fragrance industry. Established in 1904 by François Coty, the company has expanded its presence to include a portfolio of fragrances for some of the most recognized brands worldwide. Coty Prestige focuses on the development, marketing, and distribution of luxury perfumes, representing both famous fashion houses and celebrity fragrances. They pride themselves on their innovative approach to scent creation, utilizing both classic and modern techniques to appeal to a diverse consumer base.",https://www.coty.com/_next/image?url=https%3A%2F%2Fimages.contentstack.io%2Fv3%2Fassets%2Fblted39bd312054daca%2Fblt0aeff3ce26d29c12%2F66e97585c4217a441dc6ffaa%2FCoty_com_homepage_banner_2024_desktop.jpg&w=3840&q=90,https://www.coty.com/,United States,1904,designer,,,,2025-07-18T12:32:10.942225,2025-08-28T13:09:58.817507
cmd0f951587a1801360a07c,Coty,"Coty Inc. is a global beauty company founded in 1904 by François Coty in Paris, France. Initially focusing on the production of perfumes, the company has expanded its offerings to include cosmetics, skincare, and professional beauty products. They are renowned for their innovative marketing and have created a diverse portfolio that includes luxurious fragrances as well as mass-market options. Coty is known for collaborating with celebrities and fashion brands, positioning itself as a prominent player in both niche and mainstream perfume markets. The company has a rich history of contributing to the evolution of fragrance and beauty, emphasizing quality and creative expression.",https://www.coty.com/_next/image?url=https%3A%2F%2Fimages.contentstack.io%2Fv3%2Fassets%2Fblted39bd312054daca%2Fblt0aeff3ce26d29c12%2F66e97585c4217a441dc6ffaa%2FCoty_com_homepage_banner_2024_desktop.jpg&w=3840&q=90,https://www.coty.com,United States,1904,designer,,+1 212-389-7300,"350 5th Avenue, New York, NY 10118, United States",2025-07-18T12:32:10.942225,2025-08-28T13:10:06.249009
cmdf0edee2fcf2b94bb6ab3,Countess Mara,"Countess Mara is a perfume company known for its luxurious fragrances that often embody the essence of femininity and elegance. The brand has a rich history linked to the Countess Mara, a fictional character representing sophistication and refined taste. Countess Mara specializes in creating distinct scents that appeal to a clientele seeking unique olfactory experiences. Their fragrances often draw inspiration from art and culture, reflecting a sense of luxury and sophistication.",https://images.unsplash.com/photo-15907369626-6c63ac16f3df?w=400&h=300&fit=crop,http://www.countessmara.com,United States,1986,designer,,,,2025-07-18T12:32:10.942225,2025-08-28T13:10:22.883339
cmd943bfd4a234132cc2342,Country Candle,"Country Candle is known for its artisanal approach to candle making, crafting high-quality scented candles that embody a sense of nostalgia and the charm of rural life. The company's story begins with a passion for creating unique fragrances inspired by the natural beauty of the countryside. They specialize in hand-poured candles made from a blend of natural waxes, offering a variety of scents that evoke memories of seasonal changes, nature, and home.",https://images.unsplash.com/photo-1582735689369-4fe89db7114c?w=400&h=300&fit=crop,https://www.countrycandle.com,"Candle is known for its artisanal approach to candle making, crafting high-quality scented candles that embody a sense of nostalgia and the charm of rural life. The company's story begins with a passion for creating unique fragrances inspired by the natural beauty of the countryside. They specialize in hand-poured candles made from a blend of natural waxes, offering a variety of scents that evoke memories of seasonal changes, nature, and home.",2003,indie,,,,2025-07-18T12:32:10.942225,2025-08-28T13:10:42.520839
cmdafca62528765c2b628e4,Courrèges,"Courrèges is a French fashion house founded by designer André Courrèges in 1961. The brand is well-known for its innovative approach to fashion and fragrances, often combining modernist aesthetics with a playful spirit. Courrèges rose to fame in the 1960s for its futuristic designs and vibrant collections, including iconic miniskirts and space-age styles. Alongside its fashion lines, the company also produces perfumes that reflect the brand's avant-garde and contemporary approach to lifestyle, emphasizing freshness and youthfulness.",https://cdn.sanity.io/images/rnprfgry/production/e982fc2615823329a5e9857f35572b200b576e79-2000x2000.jpg?auto=format,https://www.courreges.com,France,1961,designer,,,,2025-07-18T12:32:10.942225,2025-08-28T13:10:49.848359
cmd91300642aae1fb9add80,Courvoisier,"Courvoisier is a renowned French cognac house that has also ventured into the fragrance industry. Established in the early 19th century, Courvoisier is famous for its high-quality cognacs, and its perfumes reflect the same level of craftsmanship and luxury. The brand's fragrances often embody the sophistication and heritage associated with the Courvoisier name, utilizing rich ingredients and complex scent profiles akin to their cognac creations. The company is known for its artisanal approach, drawing inspiration from vintage recipes and the art of blending.",https://www.courvoisier.com/app/uploads/2024/06/courvoisier-logo-wordmark.svg,https://www.courvoisier.com,France,1809,designer,,,,2025-07-18T12:32:10.942225,2025-08-28T13:10:58.020217
cmda7a2538aa7de7e31bb11,Cousu de Fil Blanc,"Cousu de Fil Blanc is a Paris-based perfume house that specializes in creating artisanal fragrances inspired by the art of natural perfumery. Established in the heart of the French capital, the brand emphasizes craftsmanship and creativity, drawing inspiration from personal stories and emotions to craft unique, evocative scents. Each fragrance is meticulously designed to reflect a narrative, combining high-quality ingredients sourced from around the world, with a focus on ethical practices and sustainable sourcing. Their offerings cater to a discerning clientele looking for distinctive and intimate fragrance experiences.",https://cdn.lazadapro.co/lazada/laz-img-cdn.alicdn.com/images/ims-web/TB1gNcMWBr0gK0jSZFnXXbRRXXa.png,https://www.cousudefilblanc.com,France,2015,niche,,,,2025-07-18T12:32:10.942225,2025-08-28T13:11:07.746513
cmdcf5cb4ba72668d9a4616,Couteau de Poche,"Couteau de Poche is a French perfume house that specializes in creating artisanal fragrances inspired by the landscapes and cultural heritage of France. The company prides itself on using high-quality, locally sourced ingredients that reflect the essence of the regions they represent. Established with a mission to blend tradition and innovation, Couteau de Poche focuses on crafting unique olfactory experiences that tell a story through scent.",https://images.unsplash.com/photo-1587017539504-67cfbddac569?w=400&h=300&fit=crop,https://couteaudeporte.com,France,2013,niche,contact@couteaudeporte.com,,"15 Rue des Frères Lumière, 69008 Lyon, France",2025-07-18T12:32:10.942225,2025-08-28T13:11:15.347218
cmd37cadb76ba47b48ade96,Cover Girl,"CoverGirl is a well-known cosmetics brand that specializes in makeup products, including but not limited to foundations, mascaras, and lipsticks. Launched in 1961 by the Noxzema Chemical Company, CoverGirl has built a reputation for accessible beauty, offering a wide range of products that cater to diverse skin tones and types. The brand is recognized for its innovative advertising campaigns, featuring a variety of celebrities and models, which have contributed to its popularity and appeal among consumers. Although primarily a cosmetics brand, CoverGirl has also ventured into the fragrance market, providing scent options that align with their beauty ethos.",https://images.contentstack.io/v3/assets/blt3bfa7d7d8c566146/blt45d49a0b8972d935/65bb7ca724ea49484bde720e/Covergirl_Navigation-Thumbnail_Face_Essence_xl.jpg?width=1080&quality=50&auto=webp,https://www.covergirl.com,United States,1961,drugstore,,,,2025-07-18T12:32:10.942225,2025-08-28T13:11:23.267756
cmd0e80aac0be2dfcf02db3,Cowshed,"Cowshed is a British brand renowned for its natural skincare and beauty products, which include a wide range of bath, body, and home fragrances. The company was established in 1998 within the confines of Babington House, a private members' club in Somerset, England. Cowshed prides itself on using high-quality, natural ingredients in its products while drawing inspiration from traditional herbal remedies and pure essential oils. It specializes in creating products that are vibrant and aromatic, which contribute to a holistic approach to self-care and wellness, reflecting a rustic and charming aesthetic tied to the English countryside.",https://www.cowshed.com/cdn/shop/files/Shelfie_with_Hamper_2_1.jpg?v=1753790942&width=533,https://www.cowshed.com,side.,1998,indie,,+44 (0) 20 3519 0140,,2025-07-18T12:32:10.942225,2025-08-28T13:11:31.518326
cmdcf0ff2c9ab47ed42452a,CPL Aromas,"CPL Aromas is a global fragrance house, specializing in the creation of fine fragrances and scent solutions for a variety of industries, including personal care, household and industrial applications. Founded in 1971, CPL Aromas has built a strong reputation for innovation and quality, emphasizing a creative approach to fragrance creation, alongside a commitment to sustainability. The company offers bespoke fragrance solutions, catering to the specific needs of clients and has a rich history of expertise in fragrance formulation.",https://www.cplaromas.com/themes/cplaromas_theme/assets/img/svg/logo.svg,https://www.cplaromas.com,United Kingdom,1971,niche,,,,2025-07-18T12:32:10.942225,2025-08-28T13:11:39.582240
cmde9c8e319c197629c255a,CR7,"CR7 is a perfume brand launched by the globally renowned football player Cristiano Ronaldo. The brand reflects his personal style and values, offering a range of fragrances for men that capture the essence of charisma and confidence. CR7 perfumes are designed to appeal to a youthful audience, combining sporty and elegant notes. The brand emphasizes a luxurious yet accessible essence, aiming to embody Ronaldo's vibrant persona and his dedication to success in both sports and life.",https://images.unsplash.com/photo-1556909114-f6e7ad7d3136?w=400&h=300&fit=crop,https://www.cr7.com,Portugal,2017,celebrity,,,,2025-07-18T12:32:10.942225,2025-08-28T13:11:48.835012
cmde917afeab5a252a471c3,CRA-YON,"CRA-YON is a contemporary perfume company that specializes in creating unique, artistic fragrances. Founded to challenge the traditional boundaries of olfactory experiences, CRA-YON focuses on innovative scent combinations that inspire creativity and personalization. The brand emphasizes a playful aesthetic in both its products and marketing, often appealing to younger, trend-conscious consumers with a love for self-expression.",https://www.cra-yon.com/cdn/shop/files/printemps-logo_550x.webp?v=1720098461,https://www.cra-yon.com,France,2020,indie,contact@cra-yon.com,,"45 Rue de l'Artisanat, Paris, France",2025-07-18T12:32:10.942225,2025-08-28T13:11:55.872129
