id,name,description,image,website,country,founded,type,email,phone,address,createdAt,updatedAt
cmdd1ed70d8268c0eafa780,Diana Ross,"Diana Ross is a renowned American singer and actress who has also ventured into the perfume industry. Her fragrances embody the essence of glamour and sophistication, often reflecting her own iconic status. Through her perfume line, Diana Ross aims to capture her spirit and offer a signature scent that appeals to her fans and perfume enthusiasts alike. The perfume collections often feature floral and fruity notes, catering to a wide audience that seeks elegance and charm.",https://images.unsplash.com/photo-1587017539504-67cfbddac569?w=400&h=300&fit=crop,,United States,1990,celebrity,,,,2025-07-18T12:32:10.942225,2025-08-28T13:41:31.299809
cmd8e6787237bc071f781c1,Diana Vreeland,"Diana Vreeland is a luxury fragrance brand that embodies the spirit and flamboyance of its namesake, the iconic fashion editor Diana Vreeland. The company was established to create perfumes that reflect Vreeland’s love for the theatrical and her unique perspective on beauty and style. Known for its extravagant and artisanal scents, the brand aims to transport users to fantastical places through olfactory experiences that celebrate individuality and sophistication.",https://images.unsplash.com/photo-15907369626-6c63ac16f3df?w=400&h=300&fit=crop,https://www.dianavreelandperfumes.com,United States,2014,niche,,,,2025-07-18T12:32:10.942225,2025-08-28T13:41:37.640126
cmdc9fb71a84110e730a50e,Diane Pernet,"Diane Pernet is a renowned figure in the perfume industry, known for her expertise in niche fragrances and her unique approach to scent creation. The brand was established by the influential fashion and beauty blogger and filmmaker, Diane Pernet, who is recognized for her distinctive aesthetic and deep understanding of olfactory art. Diane Pernet’s fragrances are crafted to evoke emotions and memories, emphasizing the importance of storytelling through scent. The brand is celebrated for its artisanal quality and limited production, catering to a clientele that appreciates individuality and sophistication in their fragrance choices.",https://images.unsplash.com/photo-1587017539504-67cfbddac569?w=400&h=300&fit=crop,https://www.dianepernet.com,France,2008,niche,,,,2025-07-18T12:32:10.942225,2025-08-28T13:41:44.771467
cmd84f3fc8189c398368f2a,Diane von Furstenberg,"Diane von Furstenberg is an esteemed American fashion designer known for her iconic wrap dresses and bold prints. Founded in 1972, the brand has expanded its offerings to include a line of fragrances that embody the spirit of femininity and empowerment central to the designer's ethos. The fragrance collections often reflect the aesthetic of the fashion line, emphasizing elegance, confidence, and a vibrant lifestyle. Diane von Furstenberg's story is rooted in her own journey as an immigrant and entrepreneur, and her designs aim to celebrate women's strength and individuality.",https://www.dvf.com/cdn/shop/files/DVF_PFALL_MAY_Horizontal_MartinaKeenan_1.jpg?crop=center&height=1200&v=1753843928&width=2000,https://www.dvf.com,United States,1972,designer,,,,2025-07-18T12:32:10.942225,2025-08-28T13:41:52.107621
cmdb844295af49a41071446,Diego Dalla Palma,"Diego Dalla Palma is an Italian beauty brand that specializes in cosmetics, skincare, and fragrances. Founded by the passionate makeup artist Diego Dalla Palma, the brand focuses on the art of beauty, offering a range of high-quality products that emphasize innovation, elegance, and Italian craftsmanship. The brand has made a name for itself in the beauty industry by combining classic and modern aesthetics while addressing the diverse needs of its clientele. Diego Dalla Palma is recognized not only for its cosmetics but also for its distinct and sophisticated fragrances that reflect its unique identity.",https://diegodallapalma.com/cdn/shop/files/menu-makeup-plump-fill-1.jpg?v=1755868096&width=128,https://www.diegodallapalma.com,Italy,1970,niche,,,ing the diverse needs of its clientele. Diego Dalla Palma is recognized not only for its cosmetics but also for its distinct and sophisticated fragrances that reflect its unique identity.,2025-07-18T12:32:10.942225,2025-08-28T13:42:02.513991
cmd0af85ce7e491e9d0bb09,DIEM,"DIEM is a contemporary perfume company that focuses on creating unique and personal fragrances for individuals who seek an expression of their identity through scent. DIEM was founded with the philosophy of celebrating moments and the concept of time, integrating these elements into their fragrance compositions. They are known for their meticulous craftsmanship and dedication to high-quality ingredients, offering consumers a range of bespoke fragrances that resonate with their personal stories. The brand positions itself at the intersection of art and commerce, providing not only scented products but also an experience crafted around individual narratives.",https://images.unsplash.com/photo-1556909114-f6e7ad7d3136?w=400&h=300&fit=crop,www.diemfragrance.com,United States,2020,indie,contact@diemfragrance.com,,,2025-07-18T12:32:10.942225,2025-08-28T13:42:09.227463
cmd5bf8cbfbec09e0408df9,Diesel,"Diesel is an Italian retail clothing company known primarily for its denim and casual wear. Founded by Renzo Rosso in 1978, Diesel has evolved beyond fashion apparel into the fragrance industry, launching several successful perfume lines. The brand is recognized for its innovative marketing strategies and has cultivated a distinct lifestyle image, often associated with youth culture and urban aesthetic. Diesel fragrances are characterized by their bold, contemporary scents that align with the brand's edgy and rebellious identity.",https://images.unsplash.com/photo-1541643600914-78b084683601?w=400&h=300&fit=crop,https://www.diesel.com,Italy,1978,designer,,,"Via dell’Industria, 5, 36061 Bassano del Grappa VI, Italy",2025-07-18T12:32:10.942225,2025-08-28T13:42:16.871424
cmd25baa4e07ce038b331c1,Diffractive Studio,"Diffractive Studio is an innovative fragrance company known for its artistic approach to perfumery. The company focuses on creating unique and complex scents that often blend traditional perfume-making techniques with modern creativity. Established by a group of fragrance enthusiasts, Diffractive Studio aims to disrupt the conventional perfume industry by offering an immersive olfactory experience that tells a story. Their specialty lies in small batch production of bespoke fragrances, allowing for high-quality craftsmanship and artisanal quality in each bottle.",https://images.unsplash.com/photo-15907369626-6c63ac16f3df?w=400&h=300&fit=crop,www.diffractivestudio.com,United States,2019,indie,info@diffractivestudio.com,,,2025-07-18T12:32:10.942225,2025-08-28T13:42:22.527594
cmd66fa72668e0de64c96d9,Dilis,"Dilis is a perfume company founded in the early 2000s, which specializes in creating unique and high-quality fragrances. The brand is known for blending traditional perfumery with contemporary trends, offering a variety of scents that cater to diverse tastes. Dilis focuses on high craftsmanship, sourcing premium ingredients, and emphasizes the art aspect of fragrance creation, positioning itself as a unique player in the perfume market.",https://images.unsplash.com/photo-15907369626-6c63ac16f3df?w=400&h=300&fit=crop,http://www.dilis.com.tr,Turkey,2007,indie,,,,2025-07-18T12:32:10.942225,2025-08-28T13:42:28.812982
cmd2515603ee4d9cf4f6378,Dime Beauty,"Dime Beauty is a clean beauty brand that focuses on creating high-quality, effective, and affordable skincare and fragrance products. Established with the mission to provide consumers with pure and ethically sourced ingredients, Dime Beauty aims to enhance the beauty experience while prioritizing the health of both the user and the environment. The company also emphasizes sustainability and transparency in its production processes. Their specialty lies in offering products that cater to a wide audience, combining luxury with accessibility.",https://dimebeautyco.com/cdn/shop/t/982/assets/DIME_Wordmark_Black.svg?v=88596684977330140921753894198,https://dimebeautyco.com,United States,2015,indie,,,,2025-07-18T12:32:10.942225,2025-08-28T13:42:37.117045
cmdf99de1ca1005579a1d9b,Dimensione Uomo,"Dimensione Uomo is a niche perfume company that specializes in creating unique and sophisticated fragrances primarily for men. Established with a mission to capture the essence of masculinity, the brand focuses on the use of high-quality ingredients and artisanal craftsmanship to produce scents that resonate with modern gentlemen. Over the years, Dimensione Uomo has developed a reputation for its innovative blends that combine traditional perfumery techniques with contemporary trends, thus appealing to a discerning clientele looking for individuality and elegance in their fragrance choices.",https://images.unsplash.com/photo-1556909114-f6e7ad7d3136?w=400&h=300&fit=crop,https://www.dimensioneuomo.com,Italy,2015,niche,,,,2025-07-18T12:32:10.942225,2025-08-28T13:42:44.335333
cmdcffe5853b955db5a1370,Dina Cosmetics,"Dina Cosmetics is a private label cosmetics company that specializes in developing a wide range of perfume lines, skincare products, and cosmetics. The company emphasizes the combination of high quality and innovative approaches to beauty and fragrance. Each product line is crafted with care, focusing on both the aesthetic and functional aspects to meet diverse customer preferences. The company has gained recognition for its commitment to quality and customer satisfaction, supporting both retail and wholesale distribution.",https://images.unsplash.com/photo-1541643600914-78b084683601?w=400&h=300&fit=crop,https://www.dinacosmetics.com,United States,1995,indie,,,,2025-07-18T12:32:10.942225,2025-08-28T13:42:50.895911
cmdfd647e818b2eec7b94ee,Dino Sadino,"Dino Sadino is a niche perfume company specializing in creating artisanal fragrances that draw inspiration from natural elements and cultural themes. The company prides itself on using high-quality, ethically sourced ingredients to craft unique scents that offer an olfactory journey. Founded by a passionate perfumer with a background in traditional fragrance-making, Dino Sadino aims to blend contemporary creativity with classic techniques, appealing to fragrance enthusiasts who seek distinct and memorable scents.",https://www.dinosadino.de/cdn/shop/files/Dino-Sadino_Logo.png?v=1666171369,www.dinosadino.com,Italy,2015,niche,contact@dinosadino.com,,"Via della Fragrance 12, Bologna, Italy",2025-07-18T12:32:10.942225,2025-08-28T13:42:58.547207
cmdc639ab0c06e2abe8013d,Diolene,"Diolene is a perfume company that specializes in creating high-quality, artisanal fragrances. Founded with a commitment to craftsmanship, Diolene focuses on the use of natural and sustainable ingredients sourced from around the world. The company aims to evoke emotions and memories through its unique scent compositions, catering to a discerning clientele that appreciates the art of perfumery. Over the years, Diolene has cultivated a reputation for its luxurious scent offerings and bespoke fragrance services.",https://images.unsplash.com/photo-1541643600914-78b084683601?w=400&h=300&fit=crop,,,,indie,,,,2025-07-18T12:32:10.942225,2025-08-28T13:43:04.794704
cmd01f982dba5585ed89370,Dionne Warwick,"Dionne Warwick is a renowned American singer, actress, and television host who has ventured into the fragrance industry by launching her own line of perfumes. The perfumes are inspired by her music career and personal experiences, aimed at capturing the emotional resonance of her artistry. The fragrances often reflect her personal style and connection to her audience, embodying elegance and sophistication. Dionne has several fragrances released over the years, each crafted to resonate with different facets of her life and artistry, specializing primarily in offerings that appeal to her fan base and the wider fragrance market.",https://images.unsplash.com/photo-1587017539504-67cfbddac569?w=400&h=300&fit=crop,www.dionnewarwick.com,United States,1999,celebrity,,,,2025-07-18T12:32:10.942225,2025-08-28T13:43:12.379701
cmd2d8a3502bbef57cd9e56,DiParco,"DiParco is a niche perfume company known for its unique and artisanal fragrances, blending classic perfumery techniques with modern inspirations. Established in response to a growing demand for personalized scent experiences, DiParco creates high-quality perfumes that reflect individual tastes and stories. Their commitment to using natural ingredients and sustainable practices sets them apart in the competitive fragrance market.",https://images.unsplash.com/photo-1587017539504-67cfbddac569?w=400&h=300&fit=crop,www.diparco.com,Italy,2015,niche,contact@diparco.com,,,2025-07-18T12:32:10.942225,2025-08-28T13:43:23.479764
cmd28e516809552a9ddb9e0,Diptyque,"Diptyque is a luxury French fragrance and home fragrance company well-known for its high-quality perfumes, scented candles, and skincare products. Founded in 1961 by Christiane Gautrot, Desmond Knox-Leet, and Yves Coueslant, Diptyque began as a fabric and wallpaper design company in Paris. The founders soon shifted focus to creating unique and artistic fragrances, with their first perfume, ""L'Eau,"" launched in 1968. The company is esteemed for its sophisticated blends that frequently draw inspiration from nature and travel, boasting a rich olfactory portfolio that resonates with consumers seeking niche, artisanal quality.",https://images.ctfassets.net/4sg0zck18nfj/2kuJ8jmCa21mTg4M74F0bv/9386d153fa6cff356f5557817000a5c6/FLEUR_DE_PEAU_EDT_2025_VISUEL_PRIORITAIRE_EDT_100ML_RVB_2025_x_1518_px_DIPTYQUE.jpg?fm=avif&w=1920&q=90,https://www.diptyqueparis.com,France,1961,niche,,,"34 Boulevard Saint-Germain, 75005 Paris, France",2025-07-18T12:32:10.942225,2025-08-28T13:43:33.091493
cmd6c168fbb3c5f5ce2e6f4,Direct Cosmetics,"Direct Cosmetics is a UK-based online retailer specializing in the sale of discounted perfumes, cosmetics, and skincare products. Founded with the vision to provide consumers with brand-name products at affordable prices, Direct Cosmetics offers a wide range of high-quality fragrances from well-known brands, targeting bargain-conscious customers looking for genuine products at lower costs. The company's mission is centered around accessibility and customer satisfaction, offering competitive prices, deals, and a convenient shopping experience.",https://images.unsplash.com/photo-1582735689369-4fe89db7114c?w=400&h=300&fit=crop,https://www.directcosmetics.com,United Kingdom,2001,drugstore,,,,2025-07-18T12:32:10.942225,2025-08-28T13:43:42.258767
cmdea2c80257216669df450,Dirk Bikkembergs,"Dirk Bikkembergs is a renowned fashion brand that fuses luxury with sportswear. Founded by Belgian designer Dirk Bikkembergs in the 1980s, the company is noted for its innovative approach to design and its unique blend of high-fashion aesthetics with masculine elements. Initially gaining recognition for its men's clothing, Dirk Bikkembergs has expanded into a diverse range of products, including perfumes. The fragrance line is characterized by bold and fresh scents that reflect the brand's energetic and dynamic ethos.",https://images.unsplash.com/photo-1556909114-f6e7ad7d3136?w=400&h=300&fit=crop,https://www.dirkbikkembergs.com,Italy,1986,designer,,,,2025-07-18T12:32:10.942225,2025-08-28T13:44:09.605679
cmd1aa21cc06235da059c60,Discothèque,"Discothèque is a contemporary niche perfume house that focuses on blending unique, high-quality ingredients to create captivating and memorable fragrances. Established by a group of passionate scent enthusiasts, the brand draws inspiration from the vibrant nightlife culture and retro disco era. Their specialty lies in crafting unisex perfumes that celebrate individuality and self-expression through olfactory experiences. The company emphasizes sustainability and ethical sourcing in its ingredient selection, aiming to appeal to modern consumers who value conscious luxury.",https://images.unsplash.com/photo-15907369626-6c63ac16f3df?w=400&h=300&fit=crop,https://www.discothequeperfumes.com,United States,2020,niche,info@discothequeperfumes.com,,,2025-07-18T12:32:10.942225,2025-08-28T13:44:15.965014
cmd5703120a178b488adae7,Disney Princess,"Disney Princess is a brand of The Walt Disney Company that specializes in products inspired by the beloved princess characters from Disney's animated films. The perfume line captures the essence of each princess's story and character, featuring fragrances that are often colorful, playful, and suited for a younger demographic. The brand aims to evoke the magic and adventure associated with each princess through their olfactory experiences, appealing to children and their parents alike.",https://images.unsplash.com/photo-1582735689369-4fe89db7114c?w=400&h=300&fit=crop,https://www.disney.com/princess,United States,2000,designer,,,,2025-07-18T12:32:10.942225,2025-08-28T13:44:24.916316
cmd2c9e97a16a8cbb0950ed,Disney,,https://images.unsplash.com/photo-1556909114-f6e7ad7d3136?w=400&h=300&fit=crop,https://www.disney.com,United States,1923,celebrity,,,,2025-07-18T12:32:10.942225,2025-08-28T13:44:32.333368
cmd56ec1377d85c904a7d75,Disperse Group,"Disperse Group is a fragrance development company specializing in creating unique scents for various applications, including fine fragrances, personal care products, and home fragrances. Founded with the mission to offer bespoke fragrance solutions, Disperse Group has built a reputation for innovation in olfactory design, utilizing advanced technology and creative artistry. Their team comprises experienced perfumers and fragrance experts dedicated to delivering high-quality, customized products that cater to the diverse needs of clients in the fragrance market.",https://images.unsplash.com/photo-1556909114-f6e7ad7d3136?w=400&h=300&fit=crop,www.dispersegroup.com,United States,2010,niche,,,,2025-07-18T12:32:10.942225,2025-08-28T13:44:39.330968
cmd3da27d4637bfbf2515a8,Distillery General,"Distillery General is a niche perfume company specializing in crafting artisanal fragrances inspired by the natural world and the distillation process. Their approach blends traditional perfumery techniques with innovative methods to produce unique scents that evoke the essence of various botanicals. Founded by a team of passionate fragrance enthusiasts, Distillery General stands out for its commitment to quality and sustainability, using ethically sourced ingredients and eco-friendly practices.",https://images.unsplash.com/photo-1587017539504-67cfbddac569?w=400&h=300&fit=crop,https://distillerygeneral.com,United States,2016,niche,,,,2025-07-18T12:32:10.942225,2025-08-28T13:44:45.822533
cmd4c49769ba670c0decbfb,Dita von Teese,"Dita von Teese is a perfume brand launched by the iconic burlesque performer Dita von Teese. Known for her vintage glamour and unique style, Dita von Teese's perfumes embody qualities of femininity and sophistication. The brand carefully crafts fragrances that reflect Dita's aesthetic and style, creating scents that appeal to a modern yet classic audience. The company's story is intertwined with Dita's own career as a performer, model, and businesswoman, making it a unique addition to the perfume market.",https://images.unsplash.com/photo-1556909114-f6e7ad7d3136?w=400&h=300&fit=crop,https://www.ditavonteese.com,United States,2007,celebrity,,,,2025-07-18T12:32:10.942225,2025-08-28T13:44:53.029889
cmd46e6d0bb542b5fe811cf,Divage,"Divage is a cosmetic brand known for its vibrant and youthful approach to beauty, catering primarily to the needs of modern women. Established in 2005, the brand focuses on a wide range of products, including makeup and fragrances, emphasizing affordability without compromising quality. Divage aims to inspire self-expression and creativity among its consumers, offering a diverse selection that allows individuals to freely explore their style and enhance their beauty routine.",https://www.divage.com/bitrix/templates/new/images/logo.svg,https://www.divage.com,Italy,2005,drugstore,,,,2025-07-18T12:32:10.942225,2025-08-28T13:45:01.885370
cmdd0fedd4034331addd36f,Divine Life,"Divine Life is a niche perfume company that focuses on creating high-quality, artisanal fragrances inspired by natural elements and holistic principles. Founded by a team of fragrance enthusiasts, Divine Life emphasizes sustainable sourcing and the use of organic ingredients to craft unique scents that resonate with the user's personal journey. The company aims to promote a lifestyle that harmonizes luxury with eco-consciousness, often incorporating aromatherapy aspects into their product lines.",https://images.unsplash.com/photo-1587017539504-67cfbddac569?w=400&h=300&fit=crop,www.divinelife.com,United States,2021,niche,contact@divinelife.com,,,2025-07-18T12:32:10.942225,2025-08-28T13:45:08.782672
cmd3fb2713a5a826e545d3d,Divine,"Divine is a niche perfume company known for its artisanal approach to fragrance creation. Founded by perfumer Philippe Neirinck in 1986, the brand focuses on crafting high-quality, unique scents that celebrate the essence of nature and emotions. Specializing in complex fragrance compositions that often draw inspiration from mythology and the natural world, Divine has garnered a loyal following amongst perfume aficionados who appreciate the artistry behind each creation.",https://www.divine.fr/wp-content/uploads/2023/03/logo-divinex2-1.svg,https://www.divine.fr,France,1986,niche,,,,2025-07-18T12:32:10.942225,2025-08-28T13:45:34.086587
cmddfeacec033e61e60bb2b,Divona,"Divona is a perfume company specializing in high-quality fragrances that blend traditional craftsmanship with modern innovation. The brand is known for creating unique scent profiles that cater to diverse tastes and preferences. With a focus on luxury and artistry in fragrance creation, Divona aims to evoke emotions and memories through its distinctive perfumes, appealing to connoisseurs of fine scents. Their journey began with a passion for olfactory experiences, leading to the development of their personalized and bespoke fragrance services.",https://images.unsplash.com/photo-1556909114-f6e7ad7d3136?w=400&h=300&fit=crop,,,,niche,,,,2025-07-18T12:32:10.942225,2025-08-28T13:45:41.372755
cmd4244b5cf6326096a2351,Dixit & Zak,"Dixit & Zak is a niche perfume house known for its artistic approach to fragrance creation. Founded by two perfumers, the company emphasizes the concept of storytelling through scent, developing unique, high-quality fragrances that evoke emotions and memories. Their collections often feature limited-edition releases and are celebrated for their captivating compositions and rich narratives. The brand blends artistic inspiration with craftsmanship, catering to connoisseurs of niche perfumery.",https://images.unsplash.com/photo-1582735689369-4fe89db7114c?w=400&h=300&fit=crop,https://www.dixitandzak.com,United Kingdom,2015,niche,info@dixitandzak.com,,,2025-07-18T12:32:10.942225,2025-08-28T13:45:48.943837
cmd45822b04172e8e9c8a9e,Dlish,"Dlish is a niche perfume company known for its unique and creative fragrance blends, focusing on personal expression and individual style. The brand combines high-quality ingredients with innovative formulations and emphasizes contemporary aesthetics in its product designs. Dlish aims to provide consumers with exclusive, artisanal perfumes that cater to a diverse audience and emphasize the art of perfumery.",https://images.unsplash.com/photo-1541643600914-78b084683601?w=400&h=300&fit=crop,www.dlishfragrance.com,United States,2015,niche,contact@dlishfragrance.com,,,2025-07-18T12:32:10.942225,2025-08-28T13:45:55.347203
cmd88ece1f3b7041be72cd2,Documents,"Documents is a niche fragrance company known for its unique approach to crafting scents that evoke emotions and memories. They focus on storytelling through fragrances, creating blends that resonate with personal experiences and experiences shared in the context of various environments. The company prides itself on using high-quality ingredients to achieve its signature olfactory profiles, and they often release limited edition collections that reflect contemporary themes or art influences. Their ambition is to redefine how people perceive and wear perfume, turning personal stories into wearable art.",https://images.unsplash.com/photo-1587017539504-67cfbddac569?w=400&h=300&fit=crop,https://www.documentsfragrance.com,United States,2019,niche,contact@documentsfragrance.com,,,2025-07-18T12:32:10.942225,2025-08-28T13:46:02.281642
cmdebcca7b9382666e415ba,Dog Generation,"Dog Generation is a niche perfume company that specializes in creating unique fragrances inspired by the bond between humans and dogs. Their story revolves around celebrating the love and companionship provided by pets, particularly dogs. They aim to produce scents that reflect the joy and playful nature of dogs, utilizing high-quality ingredients and focusing on sustainability. The company is known for its whimsical and engaging marketing, often incorporating elements that resonate with pet lovers.",https://images.unsplash.com/photo-1556909114-f6e7ad7d3136?w=400&h=300&fit=crop,,,,niche,,,,2025-07-18T12:32:10.942225,2025-08-28T13:46:09.176613
cmdaed2c6dad1931256375a,Dolce & Gabbana,"Dolce & Gabbana is an Italian luxury fashion house founded by designers Domenico Dolce and Stefano Gabbana. The brand is known for its eclectic and glamorous aesthetic, often inspired by Sicily’s rich culture and heritage. Dolce & Gabbana has made a significant impact on the perfume industry with its distinctive fragrances that blend traditional Italian ingredients with modern elements, offering consumers a sophisticated and luxurious olfactory experience. The brand has created numerous iconic fragrances for both men and women, and their collections often showcase bold, sensual themes.",https://images.unsplash.com/photo-1582735689369-4fe89db7114c?w=400&h=300&fit=crop,https://www.dolcegabbana.com,Italy,1985,designer,,,"Dolce & Gabbana S.R.L. Via Goldoni, 34, 20129 Milano MI, Italy",2025-07-18T12:32:10.942225,2025-08-28T13:46:17.177299
cmd9af5ce2347c7699bff5f,Dolce & Mania,"Dolce & Mania is a luxury perfume brand that focuses on creating unique and high-quality fragrances, often characterized by their artistic and avant-garde approaches to scent. The brand was founded with a vision to blend sophistication with a sense of adventure, catering to individuals who appreciate elegant and bold expressions of personality through fragrance. The company draws inspiration from various cultures and artistic movements to craft its signature scents, making each fragrance a story in itself.",https://images.unsplash.com/photo-1587017539504-67cfbddac569?w=400&h=300&fit=crop,,,,niche,,,,2025-07-18T12:32:10.942225,2025-08-28T13:46:23.753539
cmd2dd12c54fe0e604ea2a0,Dolly Parton,"Dolly Parton is an iconic American singer, songwriter, and actress who has also ventured into the fragrance industry with her signature perfume line. Known for her vibrant personality and philanthropic work, Dolly Parton has created fragrances that encapsulate her Southern charm and femininity. The perfumes reflect her personal style and are often inspired by her life experiences and love for her Tennessee roots. The fragrance line has become a popular choice for fans of her music and those who appreciate celebrity-endorsed products.",https://dollyparton.com/dp-uploads/2023/10/instagram-icon.png,https://www.dollyparton.com,United States,2022,celebrity,,,,2025-07-18T12:32:10.942225,2025-08-28T13:46:31.099719
cmd34bbdf6da5432188387b,Domaine Privé,"Domaine Privé is a specialized perfume house that focuses on creating bespoke fragrances with a strong emphasis on sourcing high-quality ingredients. The company is known for its artisanal approach to perfume making, where each scent is crafted to evoke a unique emotional response, providing a personal and luxurious experience for its clientele. With a passion for the olfactory arts, Domaine Privé merges traditional techniques with contemporary creativity, ensuring that every fragrance tells a story.",https://images.unsplash.com/photo-1582735689369-4fe89db7114c?w=400&h=300&fit=crop,https://www.domaineprive.com,France,2015,niche,contact@domaineprive.com,,,2025-07-18T12:32:10.942225,2025-08-28T13:46:37.577599
cmd43ebc142d2736c255fff,Domenico Caraceni,"Domenico Caraceni is an Italian fragrance house known for its luxurious perfumes that embody the artistry of craftsmanship in blending unique scents. Founded by Domenico Caraceni, a renowned tailor and perfumer, the company merges haute couture principles with fine perfumery. Their fragrances are crafted to tell a story, highlighting Italian elegance and sophistication, which reflects in both the scents themselves and the exquisite packaging. Over the years, Domenico Caraceni has cultivated a niche market, appealing to connoisseurs of fine fragrances who appreciate quality and artistry.",https://images.squarespace-cdn.com/content/v1/5dbae0282ec1aa64752568f7/332f4163-036a-48f9-a3f4-6181c77c5eb6/Senza+titolo-1_Tavola+disegno+1.png,https://www.domenicocaraceni.com,Italy,1996,niche,,,,2025-07-18T12:32:10.942225,2025-08-28T13:46:45.034666
cmdb8c9a7c8a8510708405e,Dominica,"Dominica is a niche perfume company known for its artisan approach to fragrance creation. The brand focuses on blending unique natural ingredients with innovative scent design to curate an exclusive line of perfumes that evoke the lush scenery and rich culture of the Caribbean island for which it is named. Established with a commitment to sustainability and ethical sourcing, Dominica emphasizes the importance of craftsmanship and individual expression in fragrance.",https://images.unsplash.com/photo-1582735689369-4fe89db7114c?w=400&h=300&fit=crop,www.dominicaperfumes.com,Dominican Republic,2018,niche,contact@dominicaperfumes.com,,,2025-07-18T12:32:10.942225,2025-08-28T13:46:51.480220
cmdc75d03a5a2a68ab6dd1b,Dominican Perfumes,"Dominican Perfumes specializes in creating unique fragrances that embody the essence of the Dominican Republic. The company focuses on blending local ingredients and cultural influences to craft high-quality perfumes that appeal both locally and internationally. Their story began with a passion for the island's natural beauty, incorporating indigenous elements and craftsmanship into each scent. Dominican Perfumes aims to offer a distinctive sensory experience that resonates with the richness of Dominican heritage.",https://images.unsplash.com/photo-1541643600914-78b084683601?w=400&h=300&fit=crop,https://www.dominicanperfumes.com,Dominican Republic,2010,indie,info@dominicanperfumes.com,,,2025-07-18T12:32:10.942225,2025-08-28T13:46:57.169447
cmd93aa72681335ba31ee50,Domino's Pizza,"Domino's Pizza is primarily a pizza delivery and carryout chain known internationally for its wide variety of pizzas, pasta, sides, and desserts. Founded in 1960, the company has grown to become one of the largest pizza delivery chains globally, focusing on speedy service and innovative technology, such as its pizza tracker and mobile apps. Their specialty lies in offering customizable pizzas and a commitment to delivering hot and fresh food quickly.",https://images.unsplash.com/photo-1556909114-f6e7ad7d3136?w=400&h=300&fit=crop,https://www.dominos.com,United States,1960,indie,,,,2025-07-18T12:32:10.942225,2025-08-28T13:47:03.475475
cmda9bb1f7c601ee7b10f41,Don Algodón,"Don Algodón is a fragrance brand originating from Argentina, known for its vibrant and youthful scents that embody the spirit of Latin American culture. The brand was created by designer Francisco ""Paco"" Sosa, who sought to merge the essence of cotton with fragrant experiences. Over the years, Don Algodón has expanded its product lines to include not only perfumes but also body care and home fragrances, capturing the playful and fresh aesthetic of its founder's vision.",https://donalgodon.com/cdn/shop/files/DA_Full_logo_positive_2291b3fb-b1b5-489e-ba58-f98a6ce6e370.svg?v=1752302882&width=360,https://www.donalgodon.com/,Argentina,1983,designer,,,,2025-07-18T12:32:10.942225,2025-08-28T13:47:11.744874
cmd91c4fea958de2c75e57a,Donald Trump,"Donald Trump Perfumes is a fragrance line associated with the prominent real estate mogul and former president, Donald Trump. Launched in the early 2000s, the brand offers a range of fragrances targeted towards both men and women, emphasizing luxury and masculinity. The perfumes are typically characterized by bold and vibrant scents, aimed at those who want a statement perfume that reflects success and confidence. The product line is part of a larger brand strategy that ties into Donald Trump's lifestyle and public persona.",https://images.unsplash.com/photo-1541643600914-78b084683601?w=400&h=300&fit=crop,https://www.trump.com/,United States,2004,celebrity,,,,2025-07-18T12:32:10.942225,2025-08-28T13:47:18.809292
cmd885ddde162eb037b76b9,Donati,"Donati is a perfume company known for its exquisite fragrances that blend unique ingredients with sophisticated craftsmanship. The brand has a legacy rooted in a passion for perfumery, favoring artisanal methods over mass production. Specializing in creating high-quality, luxurious scents, Donati aims to provide an olfactory experience that resonates with individual identity and personal expression. Their story is marked by a dedication to sustainable sourcing and ethical practices, ensuring that each perfume captures the essence of nature while adhering to high ethical standards.",https://images.unsplash.com/photo-1541643600914-78b084683601?w=400&h=300&fit=crop,www.donatifragrances.com,Italy,2015,niche,contact@donatifragrances.com,,"Via Roma, 15, Milan, Italy",2025-07-18T12:32:10.942225,2025-08-28T13:47:25.205803
cmd8d24a8d9749ddf7231f1,DKNY,"DKNY, short for Donna Karan New York, is a fashion and lifestyle brand founded by designer Donna Karan in 1984. The brand is known for its unique blend of urban sophistication and comfort, reflecting the spirit of New York City. DKNY specializes not only in fashion, but also in fragrances that embody the energy and essence of the city. The DKNY fragrance line launched in 1992 and has since gained recognition for its innovative scents that cater to a modern, cosmopolitan lifestyle.",https://www.dkny.com/cdn/shop/files/DKNYlogo_horiz_bk.svg?v=1711406646&width=294,https://www.dkny.com,United States,1984,designer,,,,2025-07-18T12:32:10.942225,2025-08-28T13:47:32.675524
cmdfd1bdba26053d5dc18c6,Donna Karan,"Donna Karan is a prominent American fashion designer known for her eponymous label. Established in the 1980s, the company specializes in luxury clothing and fragrances, emphasizing versatility and comfort with a modern aesthetic. Karan is particularly noted for introducing the ""seven easy pieces"" concept, which revolutionized women's wardrobes by allowing them to mix and match essential clothing items. The brand's fragrance line, launched in 1992, encompasses a range of scents that reflect Karan's New York inspiration and a lifestyle-oriented approach.",https://www.donnakaran.com/cdn/shop/files/Donna-Karan-white.png?v=1700506775&width=500,https://www.donnakaran.com,United States,1984,designer,,,"550 Seventh Avenue, New York, NY 10018, USA",2025-07-18T12:32:10.942225,2025-08-28T13:47:40.814761
cmd0183852c348cd4a64c16,Dora The Explorer,"Dora The Explorer is not a perfume company but rather a children's animated television series which has also expanded into various merchandise including fragrances for kids. The show, created by Chris Gifford, Valerie Walsh, and Eric Weiner, features a young girl named Dora who embarks on adventures with her monkey friend Boots. The specialty includes educational toys, clothing, and beauty products designed for young audiences, including fragrances that capture the adventurous and playful spirit of the show.",https://images.unsplash.com/photo-1541643600914-78b084683601?w=400&h=300&fit=crop,https://www.nickjr.com/dora-the-explorer/,United States,2000,celebrity,,,,2025-07-18T12:32:10.942225,2025-08-28T13:47:47.996675
cmd8b39d444ac2400eea565,Dorin,"Maison Dorin is a historic perfume company that has been crafting fragrances since 1780. It is recognized for its commitment to artisanal skills and high-quality ingredients, deriving inspiration from traditional French perfumery techniques. The brand's specialty lies in creating unique scents that tell a story and evoke emotions, setting them apart in the competitive fragrance market. Dorin also has a rich heritage, serving as the official perfumer to several royal households and has evolved its product range to include home fragrances, body care, and candles, while maintaining a focus on luxury and elegance.",https://www.dorin.com/jsp/Template2//images/logo.jpg,https://www.dorin.com,France,1780,niche,,,,2025-07-18T12:32:10.942225,2025-08-28T13:47:57.532218
cmd4320350dc925cb3859db,Dorissima,"Dorissima is an artisanal perfume company known for its unique and luxurious fragrances that blend traditional perfumery techniques with modern inspirations. Founded by a team of dedicated perfume enthusiasts, Dorissima aims to create scents that capture emotions and memories, offering customers an experience rather than just a product. The company places a strong emphasis on sourcing high-quality natural ingredients and crafting each perfume in small batches to ensure exclusivity and attention to detail.",https://images.unsplash.com/photo-1556909114-f6e7ad7d3136?w=400&h=300&fit=crop,www.dorissimafragrances.com,Italy,2015,niche,contact@dorissimafragrances.com,,"Via Roma 21, 00184 Rome, Italy",2025-07-18T12:32:10.942225,2025-08-28T13:48:04.196265
cmda918fd02707bea7cdde5,Dorothy Gray,"Dorothy Gray is a historic beauty and fragrance brand founded in the early 20th century, known for its innovative approach to skincare and perfumes. Originally a pioneer in the women's beauty industry, the brand was named after its founder, Dorothy Gray, who aimed to create products that enhance the beauty and confidence of women. The company is recognized for its commitment to quality and craftsmanship, specializing in a range of fragrances that blend timeless elegance with modern sensibility. Dorothy Gray's products often evoke a sense of nostalgia while still appealing to contemporary tastes.",https://images.unsplash.com/photo-1556909114-f6e7ad7d3136?w=400&h=300&fit=crop,,United States,1916,indie,,,,2025-07-18T12:32:10.942225,2025-08-28T13:48:10.402987
cmdc3ba6ba768b8263444c3,D'Orsay,"D'Orsay is a historic French perfume house founded in the early 19th century, known for its luxurious and refined fragrances. The brand gained prominence for creating unique scents that appealed to the tastes of the aristocracy and the elite. D'Orsay specializes in blending traditional craftsmanship with contemporary aesthetics, offering a range of perfumes that evoke emotional experiences and memories. Their focus on artistry and quality ingredients has established them as a notable name in the niche perfume market.",https://images.unsplash.com/photo-1587017539504-67cfbddac569?w=400&h=300&fit=crop,https://www.dorsayparfums.com,France,1830,niche,,,,2025-07-18T12:32:10.942225,2025-08-28T13:48:16.600802
cmd5d78d5c6a991ae9154bc,Dossier,"Dossier is a fragrance company known for its mission to provide high-quality, affordable scents inspired by luxury perfumes. Established to democratize the fragrance industry, Dossier offers a unique approach by emphasizing transparency in ingredients and pricing. The company sources its scents from renowned perfumers and aims to create products that capture the essence of designer fragrances without the hefty price tag, allowing customers to experience luxury at an accessible cost. Dossier's emphasis on sustainability and eco-friendly packaging also reflects its commitment to responsible consumerism.",https://cdn.shopify.com/s/files/1/0047/4067/7699/files/shop-all-perfumes.png?v=1731574472,https://dossier.co,United States,2018,indie,hello@dossier.co,,,2025-07-18T12:32:10.942225,2025-08-28T13:48:23.316123
cmd0b613e936194e2fe2de9,DoubleYou,"DoubleYou is a perfume company known for its innovative approach to fragrance creation. Established to deliver unique olfactory experiences, DoubleYou has gained recognition for its artisanal quality and commitment to sustainable sourcing. The brand aims to combine traditional perfumery techniques with modern aesthetics, often exploring niche themes and inspirations that resonate with a diverse audience. Over the years, DoubleYou has built a loyal customer base, focusing on crafting distinct scents that reflect individual personalities and preferences.",https://images.unsplash.com/photo-1587017539504-67cfbddac569?w=400&h=300&fit=crop,www.doubleyouparfums.com,France,2015,niche,contact@doubleyouparfums.com,,"45 Rue des Fleurs, Paris, France",2025-07-18T12:32:10.942225,2025-08-28T13:48:29.498728
cmdfec4dc914b2ddf016350,Douces Angevines,"Douces Angevines is a niche perfume company rooted in the tradition of artisanal fragrance-making. Established by a team of passionate perfumers, the brand is known for creating high-quality, handcrafted perfumes that draw inspiration from the rich cultural heritage and natural beauty of the French region of Anjou. Their specialty lies in blending unique ingredients sourced from local landscapes, which allows them to craft scents that evoke emotions and memories. With an emphasis on sustainability and artisanal practices, Douces Angevines aims to provide customers with a sensory experience that is both personal and evocative.",https://images.unsplash.com/photo-15907369626-6c63ac16f3df?w=400&h=300&fit=crop,https://www.doucesangevines.com,France,2014,niche,,,,2025-07-18T12:32:10.942225,2025-08-28T13:48:37.124177
cmdbd23b8ff2f132d1b8e3e,Douglas Hannant,"Douglas Hannant is a luxury brand known for its high-quality fragrances. Founded by designer Douglas Hannant, the company operates at the intersection of couture and fragrance, offering unique and sophisticated scents that reflect the elegance and style of the fashion world. The brand emphasizes artisanal craftsmanship and uses premium ingredients to create its perfumes, catering to a clientele that appreciates luxury and exclusivity.",https://images.unsplash.com/photo-1582735689369-4fe89db7114c?w=400&h=300&fit=crop,www.douglashannant.com,United States,2007,niche,,,,2025-07-18T12:32:10.942225,2025-08-28T13:48:42.908777
cmd2bca726e3c8b643e0fca,Douglas Hopkins,"Douglas Hopkins is a perfume company known for creating a range of unique and high-quality fragrances. The company focuses on crafting scents that evoke emotions and memories, often drawing inspiration from diverse cultural heritages and modern artistry. Their specialty lies in blending traditional perfumery techniques with contemporary elements to provide customers with an olfactory experience that is both innovative and rooted in classic practices. Douglas Hopkins aims to cater to fragrance enthusiasts who appreciate artisanal and bespoke perfume creations.",https://images.unsplash.com/photo-1541643600914-78b084683601?w=400&h=300&fit=crop,,,,indie,,,,2025-07-18T12:32:10.942225,2025-08-28T13:48:48.594234
cmd91b07f104ecfda2efed1,Douglas,,https://images.unsplash.com/photo-1587017539504-67cfbddac569?w=400&h=300&fit=crop,https://www.douglas.de,Germany,1821,drugstore,,,,2025-07-18T12:32:10.942225,2025-08-28T13:48:55.470146
cmd92856d12a20517882d19,Doussan French Perfumery Co.,"Doussan French Perfumery Co. is a boutique perfume house known for its artisanal fragrances that embody the essence of classic French perfumery. Established by a passionate perfumer with a deep appreciation for fragrance history, the company combines traditional techniques with contemporary artistry to create unique and evocative scents. Each fragrance is meticulously crafted from high-quality ingredients, aiming to evoke emotions and memories. The brand emphasizes sustainability and sourcing from ethical suppliers, showcasing a commitment to both craftsmanship and environmental responsibility.",https://images.unsplash.com/photo-1556909114-f6e7ad7d3136?w=400&h=300&fit=crop,www.doussanperfumes.com,United States,2015,niche,info@doussanperfumes.com,,"123 Fragrance Lane, Los Angeles, CA 90001, USA",2025-07-18T12:32:10.942225,2025-08-28T13:49:01.779411
cmd2dbdeab4aec22d5461b6,Dowal Walker,"Dowal Walker is a renowned perfume company that specializes in creating unique and evocative fragrances. With a deep understanding of scent composition and a passion for the art of perfumery, they aim to deliver exceptional olfactory experiences. The company prides itself on using high-quality ingredients and traditional methods while also embracing contemporary trends. Their story began with a vision to blend cultural influences and personal experiences into each fragrance, allowing wearers to express their individuality through scent.",https://images.unsplash.com/photo-1556909114-f6e7ad7d3136?w=400&h=300&fit=crop,www.dowalwalker.com,United Kingdom,,niche,,,,2025-07-18T12:32:10.942225,2025-08-28T13:49:08.068232
cmd1cfbe6157ffb224ceac0,Downton Abbey,"Downton Abbey Fragrances is a perfume company inspired by the popular British television series ""Downton Abbey."" The brand captures the essence of the series by creating scents that evoke the elegance and grandeur of the early 20th-century English aristocracy. Each fragrance reflects the lifestyle and values of the characters within the series, allowing fans to experience the show's historical charm and sophistication through scent. The fragrances are designed with a focus on quality and luxurious ingredients, appealing to both fans of the show and perfume enthusiasts.",https://images.unsplash.com/photo-1582735689369-4fe89db7114c?w=400&h=300&fit=crop,https://www.downtonabbeyfragrances.com,United Kingdom,2014,celebrity,,,,2025-07-18T12:32:10.942225,2025-08-28T13:49:15.181465
cmdc2305f34eb266f618119,Dr. Albersheim,"Dr. Albersheim specializes in creating bespoke perfumes that focus on individual scent profiles tailored to each client. Founded by a perfumer with a deep understanding of olfactory art, the company prides itself on high-quality ingredients and artisanal craftsmanship. Their story began with a passion for unique, personalized fragrances, allowing clients to express their individuality through scent.",https://images.unsplash.com/photo-1541643600914-78b084683601?w=400&h=300&fit=crop,www.dr-albersheim.com,United States,2015,niche,contact@dr-albersheim.com,,"123 Scent Avenue, Fragrance City, CA 90001",2025-07-18T12:32:10.942225,2025-08-28T13:49:21.083660
cmd672dbecbc660da052128,Dr. Jon's,"Dr. Jon's is a grooming and fragrance company that specializes in creating high-quality, handcrafted grooming products, including barbershop fragrances. The company started with a passion for traditional grooming and has grown to encompass a range of products that appeal to both men and women who appreciate artisanal quality and unique scents. Their specialty lies in blending traditional fragrance concepts with modern sensibilities, offering a variety of scents that cater to different preferences.",https://images.unsplash.com/photo-1587017539504-67cfbddac569?w=400&h=300&fit=crop,https://drjons.com,United States,2013,indie,,,,2025-07-18T12:32:10.942225,2025-08-28T13:49:27.008236
cmdfdc27c4d75a15c58189b,Dr George Dodd,"Dr. George Dodd is a specialized perfume company known for its bespoke fragrances and commitment to artisanal craftsmanship. Established by Dr. Dodd, who has a background in both chemistry and perfumery, the company focuses on creating unique scents tailored to individual preferences. Dr. Dodd emphasizes the use of high-quality, sustainable ingredients and has garnered a loyal client base seeking personalized fragrance experiences.",https://images.unsplash.com/photo-15907369626-6c63ac16f3df?w=400&h=300&fit=crop,,,,indie,,,,2025-07-18T12:32:10.942225,2025-08-28T13:49:32.361398
cmdd26ee357142f9ef9bc17,Dr. Grandel,"Dr. Grandel is a German perfume and cosmetics company that specializes in high-quality skincare and fragrance products. With a focus on innovative formulations and luxury, Dr. Grandel has built a reputation for offering effective, science-based solutions tailored to the needs of various skin types. Founded in 1947, the company emphasizes using premium ingredients combined with cutting-edge technology to ensure their products meet the highest quality standards. Their extensive range of offerings includes both skincare and perfumery, making them a prominent name in the beauty and cosmetic industry.",https://images.unsplash.com/photo-1582735689369-4fe89db7114c?w=400&h=300&fit=crop,https://www.dr-grandel.com,Germany,1947,indie,,,,2025-07-18T12:32:10.942225,2025-08-28T13:49:39.053016
cmd910686593d5111718ee5,Dr Lipp,"Dr Lipp is a skincare brand that specializes in natural and multi-functional balms for skin care, with a particular focus on the lips. Founded by Dr. Lipp, the company distinguishes itself in the market by utilizing high-quality, natural ingredients, including medical-grade lanolin, emphasizing moisture retention and skin health. The brand's story began with a mission to create effective and nourishing products, leading to the development of their flagship product, the Original Nipple Balm, initially designed for breastfeeding mothers but quickly gained popularity among a wider audience for its hydrating properties.",https://drlipp.com/cdn/shop/files/drlb.svg?v=1709172756&width=600,https://www.drlipp.com,United Kingdom,2008,indie,,,,2025-07-18T12:32:10.942225,2025-08-28T13:49:46.382938
cmdf0843ced2e53aea4358e,Dr Sebagh,"Dr. Sebagh is a well-regarded skincare brand founded by Dr. Jean-Louis Sebagh, a leading cosmetic doctor with over 25 years of experience. Initially focused on skincare, the company has expanded to include a line of luxurious perfumes that embody the philosophy of minimalism and high-quality ingredients. Dr. Sebagh's products are designed to enhance natural beauty, emphasizing the importance of skincare as a foundation for fragrance. The brand is known for its scientific approach to beauty, combining advanced dermatological techniques with the art of perfumery.",https://www.drsebagh.com/cdn/shop/files/090523B-Dr_Sebagh_Logo_B_W.png?v=1683625914&width=320,https://www.drsebagh.com,United Kingdom,1994,niche,,,,2025-07-18T12:32:10.942225,2025-08-28T13:49:53.151521
cmd40a59b9b08cc0da422e6,Dr. Squatch,"Dr. Squatch is a personal care brand that specializes in natural, handcrafted grooming products for men, particularly focusing on soaps and solid cologne. The company was founded with the mission to create high-quality products free from harmful chemicals typically found in traditional grooming products. Dr. Squatch has gained popularity through its unique marketing strategies, including engaging content and a strong emphasis on natural ingredients, which resonates especially with a younger demographic looking for eco-friendly and skin-friendly products.",https://images.unsplash.com/photo-1582735689369-4fe89db7114c?w=400&h=300&fit=crop,https://drsquatch.com,United States,2013,indie,,,,2025-07-18T12:32:10.942225,2025-08-28T13:49:59.476237
cmdf030bbe18e326c076d71,Dr. Taffi,"Dr. Taffi is an Italian company that specializes in the creation of high-quality fragrances inspired by the rich cultural heritage of Italy. Founded in the Tuscan region, the brand emphasizes the use of natural ingredients and artisan craftsmanship in their perfumery. The company is known for its unique scent blends, integrating classic Italian aromas with modern fragrance trends, appealing to both local and international markets. They also focus on eco-friendly practices and sustainable sourcing in their production processes.",https://images.unsplash.com/photo-1556909114-f6e7ad7d3136?w=400&h=300&fit=crop,http://www.drtaffi.com,Italy,1980,niche,,,,2025-07-18T12:32:10.942225,2025-08-28T13:50:06.131083
cmd3c02fc5944ac3266a66b,Dr. Vranjes,"Dr. Vranjes is an Italian fragrance company founded by Paolo Vranjes in Florence. The brand specializes in creating high-quality home fragrances, perfumes, and diffusers that embody the rich tradition of Italian craftsmanship. The company's story began with a passion for scents and a dedication to quality, leading to unique blends inspired by nature, art, and culture. Dr. Vranjes is known for its luxurious products that utilize natural ingredients and traditional techniques to provide an aromatic experience that enhances any environment.",https://drvranjes.us/static/version1755590968/frontend/Webformat/drvranjes/en_US/images/logo-footer-black.svg,https://www.drvranjes.com,Italy,2006,niche,,,,2025-07-18T12:32:10.942225,2025-08-28T13:50:13.497009
cmd4e86966edaca0317d04e,Dragoco,"Dragoco is a global fragrance company known for its innovative approach to fragrance creation. Founded in the mid-20th century, Dragoco specializes in the development and production of high-quality fragrances for the fine fragrance, personal care, and household product markets. The company has a rich history of collaboration with both luxury brands and emerging designers, leveraging cutting-edge technology and a deep understanding of olfactory preferences to craft unique scent profiles that appeal to a diverse clientele.",https://img.atom.com//public/images/logo.svg,https://www.dragoco.com,Germany,1919,designer,,,,2025-07-18T12:32:10.942225,2025-08-28T13:50:20.797763
cmdc451693fca57e691f960,Dragonfly Blue,"Dragonfly Blue is a boutique fragrance brand known for crafting unique and luxurious perfumes inspired by nature and personal stories. The company focuses on artisanal production methods, ensuring high-quality ingredients and sustainability in their creations. They aim to evoke emotions and memories through their signature scents, each designed to tell a story through fragrance.",https://images.unsplash.com/photo-1587017539504-67cfbddac569?w=400&h=300&fit=crop,,,,indie,,,,2025-07-18T12:32:10.942225,2025-08-28T13:50:26.295032
cmdc194722db9536b6d6662,Dralle,"Dralle is a niche perfume company renowned for its artistic approach to fragrance creation. The company focuses on crafting high-quality, unique scents that reflect a blend of tradition and modernity. Established by a passionate perfumer, Dralle has carved a niche in the market by emphasizing the use of natural ingredients and balancing olfactory art with individual expression. Their story began with a vision to create perfumes that resonate with emotions and memories, drawing inspiration from various cultures and experiences.",https://images.unsplash.com/photo-1541643600914-78b084683601?w=400&h=300&fit=crop,www.dralle.com,Germany,2015,niche,info@dralle.com,,,2025-07-18T12:32:10.942225,2025-08-28T13:50:35.932837
cmd54fddba773cf6fbc128d,D''Ram,"D'Ram is a luxury fragrance brand that specializes in creating unique and captivating perfumes. The company was founded to provide high-quality, artisanal fragrances made from rare and exquisite ingredients sourced from around the world. D'Ram aims to combine traditional perfumery techniques with modern sensibilities to create scents that evoke emotions and tell stories. Over the years, they have gained a reputation for their attention to detail and creativity, catering to fragrance connoisseurs seeking individuality in their scents.",https://images.unsplash.com/photo-1556909114-f6e7ad7d3136?w=400&h=300&fit=crop,,,,niche,,,,2025-07-18T12:32:10.942225,2025-08-28T13:50:41.944270
cmdeb041fba02055ffdb687,Dream Chaser,"Dream Chaser is a boutique perfume company that specializes in creating unique, artisanal fragrances inspired by personal dreams and aspirations. Founded by a group of passionate perfumers, the company aims to encapsulate the essence of hope and ambition in each scent. Their story began with the vision of crafting perfumes that not only smell exquisite but also evoke emotions and memories tied to the concept of chasing one's dreams. They use high-quality, sustainable ingredients and often collaborate with artists to tell a story through their fragrances, emphasizing individuality and self-expression.",https://images.unsplash.com/photo-15907369626-6c63ac16f3df?w=400&h=300&fit=crop,www.dreamchaserperfumes.com,United States,2015,niche,contact@dreamchaserperfumes.com,,"123 Dream St, Suite 100, New York, NY 10001, USA",2025-07-18T12:32:10.942225,2025-08-28T13:50:48.717697
cmd3f08f67c6b7250fea24c,Dreamworks,"Dreamworks is primarily known as a film and animation studio, particularly acclaimed for its animated features and characters. However, it has broadened its horizons into the fragrance industry, creating perfumes inspired by its popular movie franchises. The company aims to capture the essence of beloved characters and stories through unique scent profiles, appealing to both fans of the films and general fragrance enthusiasts. Their specialty lies in merging the worlds of entertainment and fragrance, offering products that celebrate the Dreamworks brand.",https://images.unsplash.com/photo-1556909114-f6e7ad7d3136?w=400&h=300&fit=crop,,United States,1994,indie,,,,2025-07-18T12:32:10.942225,2025-08-28T13:50:54.398676
cmdaf749ac9277611aa95c6,Dries Van Noten,"Dries Van Noten is a Belgian fashion designer known for his eclectic prints and textures in apparel and accessories. In addition to clothing, the brand has ventured into the world of fragrance, launching perfumes that reflect the same artistic vision and depth found in his fashion collections. The brand is celebrated for its avant-garde approach, often blending traditional styles with contemporary influences to create unique, sophisticated scents.",https://images.unsplash.com/photo-1556909114-f6e7ad7d3136?w=400&h=300&fit=crop,https://www.driesvannoten.be,Belgium,1986,designer,,,,2025-07-18T12:32:10.942225,2025-08-28T13:51:10.533006
cmdad32193887ca9e83c6df,Drift,"Drift is a niche perfume company that specializes in creating artisanal fragrances inspired by nature and the environment. Their focus is on sustainability and the use of high-quality, natural ingredients. Established with a vision to craft unique scent experiences, Drift aims to connect individuals with the beauty of the natural world through their perfumes. The company emphasizes storytelling through fragrance, drawing inspiration from specific geographic locations and experiences.",https://images.unsplash.com/photo-1556909114-f6e7ad7d3136?w=400&h=300&fit=crop,https://www.driftperfumes.com,United States,2018,niche,contact@driftperfumes.com,,"123 Main Street, Cityville, State, Zip Code, USA",2025-07-18T12:32:10.942225,2025-08-28T13:51:17.275943
cmd288739020bcf6d0041c0,Drom,"Drom is a renowned fragrance manufacturer and supplier, specializing in developing and creating unique and innovative scents for various applications, including fine fragrances, home fragrances, and personal care products. Established in 1923, the company has a rich heritage and expertise in perfumery, combining tradition with modern technology and creativity. Drom collaborates with various global brands, providing them with tailored fragrance solutions and ensuring high-quality standards across all its products.",https://images.unsplash.com/photo-1587017539504-67cfbddac569?w=400&h=300&fit=crop,https://www.drom.com,Germany,1923,niche,,,,2025-07-18T12:32:10.942225,2025-08-28T13:51:23.449681
cmd47e871237e4fa79c4eba,Drops (Toni Cabal),"Drops is a niche fragrance company founded by Toni Cabal, recognized for its innovative approach to scent creation. The brand focuses on crafting high-quality, artisanal perfumes that emphasize unique ingredients and complex compositions. With a commitment to sustainability and creativity, Drops stands out in the perfume market by offering personalized fragrance experiences that resonate with individual emotions and stories. Their journey began with a desire to connect people through scents, celebrating cultural diversity and personal expression through olfactory artistry.",https://images.unsplash.com/photo-1556909114-f6e7ad7d3136?w=400&h=300&fit=crop,https://www.dropsfragrance.com,Spain,2021,niche,,,,2025-07-18T12:32:10.942225,2025-08-28T13:51:29.837418
cmd44ec06eb7f5661911aec,Drugstore.com,"Drugstore.com was an online retailer specializing in pharmacy and personal care products, including a wide range of perfumes and cosmetics. The company was founded in 1999 and initially focused on selling over-the-counter medicines, health and beauty products, and personal care items through its e-commerce platform. Over the years, Drugstore.com expanded its offerings to include various cosmetic and fragrance brands, positioning itself as a convenient one-stop shop for consumers. In 2011, Drugstore.com was acquired by Walgreens, further enhancing its product offerings and reach within the online retail space.",https://images.unsplash.com/photo-15907369626-6c63ac16f3df?w=400&h=300&fit=crop,,United States,1999,drugstore,,,,2025-07-18T12:32:10.942225,2025-08-28T13:51:37.073450
cmd5af7277b28942afcc6ba,Dryland Wilds,"Dryland Wilds is a perfumery that specializes in creating unique and natural fragrances inspired by the landscapes and flora of Australia. The company focuses on sustainable practices, utilizing locally sourced ingredients to craft small-batch perfumes that embody the essence of the Australian wilderness. Founded by a group of passionate artisans dedicated to celebrating the region's biodiversity, Dryland Wilds aims to promote eco-consciousness in the fragrance industry while providing customers with distinctive scents that tell a story of the wild.",https://images.unsplash.com/photo-1541643600914-78b084683601?w=400&h=300&fit=crop,https://drylandwilds.com.au,Australia,2019,indie,hello@drylandwilds.com.au,,,2025-07-18T12:32:10.942225,2025-08-28T13:51:44.180517
cmd4e09b975a296519daf08,DSH Perfumes,"DSH Perfumes, founded by perfumer Dawn Spencer Hurwitz, specializes in creating niche, artisanal fragrances that often tell a story or evoke memories and emotions. Each scent is crafted with a deep respect for the art of perfumery, utilizing high-quality ingredients and focusing on innovative formulations. DSH Perfumes aims to blend the traditional perfume-making techniques with modern concepts, catering to a clientele that appreciates unique, handcrafted fragrances.",https://images.unsplash.com/photo-15907369626-6c63ac16f3df?w=400&h=300&fit=crop,http://www.dshperfumes.com,United States,2000,niche,,,,2025-07-18T12:32:10.942225,2025-08-28T13:51:50.901483
cmdb73e1d2fd484be358f6f,Dsquared2,"Dsquared2 is a luxury fashion brand founded by Canadian twin brothers Dean and Dan Caten. Established in 1995, the company is known for its contemporary approach to fashion, which combines casual and formal styles, often with a playful and bold attitude. Their perfumery line incorporates this ethos, offering fragrances that reflect the brand's distinct identity and innovative spirit. Dsquared2 specializes in creating unique scents that blend traditional and modern ingredients, appealing to a clientele that values high-quality, designer fragrances.",https://images.unsplash.com/photo-1587017539504-67cfbddac569?w=400&h=300&fit=crop,https://www.dsquared2.com,Italy,1995,designer,,,,2025-07-18T12:32:10.942225,2025-08-28T13:51:57.428974
cmdd8efdcd57f4223767cbe,DSTL,"DSTL is a contemporary perfume company known for its innovative approach to fragrance creation. Rooted in a passion for the art of perfumery, DSTL combines unique scent profiles with artistic presentation, focusing on quality ingredients and sustainable practices. The brand aims to offer an experiential journey through scent, targeting a modern audience that appreciates individuality and creative expression in fragrance.",https://images.unsplash.com/photo-1556909114-f6e7ad7d3136?w=400&h=300&fit=crop,https://www.dstlfragrance.com,United States,2021,indie,contact@dstlfragrance.com,,"1234 Aroma Lane, Fragrance City, CA 90210, USA",2025-07-18T12:32:10.942225,2025-08-28T13:52:05.113324
cmd22f4648a2d6634a53c7c,Dua Fragrances,"Dua Fragrances is an indie perfume company known for creating high-quality, affordable fragrances that often replicate popular niche scents. Established in 2015, Dua Fragrances prides itself on crafting complex, long-lasting fragrances that appeal to fragrance enthusiasts around the world. The company is committed to using premium ingredients and innovative formulations, allowing customers to enjoy luxurious scents without the hefty price tag often associated with niche perfumes.",https://images.unsplash.com/photo-1582735689369-4fe89db7114c?w=400&h=300&fit=crop,https://duafragrances.com,United States,2015,indie,,,,2025-07-18T12:32:10.942225,2025-08-28T13:52:11.159399
cmd17dd0b9b79e802618206,Dubarry Perfumery Company,"Dubarry Perfumery Company is known for its unique and luxurious fragrance creations, focusing on crafting high-quality perfumes that embody elegance and sophistication. Established with a vision to blend traditional methods with contemporary aesthetics, the company has built a reputation for its captivating scents that cater to discerning clients. Their specialty lies in using rare ingredients and innovative formulations, which appeal to a niche market of perfume enthusiasts seeking exclusive olfactory experiences.",https://images.unsplash.com/photo-1556909114-f6e7ad7d3136?w=400&h=300&fit=crop,,,,niche,,,,2025-07-18T12:32:10.942225,2025-08-28T13:52:16.997417
cmd130cbbdd4c3ce35c69f5,DuBarry,"DuBarry is a well-established perfume company known for its luxurious fragrances that have been crafted with a commitment to quality and elegance. Founded in the early 20th century, the brand has a rich history that emphasizes the art of perfume making and offers a range of products that appeal to sophisticated clientele. DuBarry specializes in creating unique, memorable scents that reflect classic charm and modern refinement, thus gaining recognition in both local and international markets.",https://dubarry.fr/wp-content/uploads/2022/07/logo.png,https://www.dubarry.fr,France,1921,niche,,,,2025-07-18T12:32:10.942225,2025-08-28T13:52:31.523620
cmd2d1ecfd5aa985b683bfd,Ducati,"Ducati is primarily known as a manufacturer of high-performance motorcycles, but they have ventured into the lifestyle branding market, which includes a signature line of fragrances. The company, founded in 1926, is celebrated for its engineering prowess and stylish designs that reflect the spirit of motorcycle culture. Their perfumes often embody the dynamics and energy associated with their motorcycle brand, targeting fans of Ducati who appreciate the connection between the senses of speed, adventure, and scent.",https://images.unsplash.com/photo-1587017539504-67cfbddac569?w=400&h=300&fit=crop,https://www.ducati.com,Italy,1926,designer,,,"Ducati Motor Holding S.p.A., Via Cavalieri Ducati, 3, 40132 Bologna BO, Italy",2025-07-18T12:32:10.942225,2025-08-28T13:52:38.663694
cmdb6de6fb181227b5372f4,Duccio Pasolini,"Duccio Pasolini is a luxury niche perfume house known for its artistic approach to fragrance creation. Founded by Italian perfumer Duccio Pasolini, the company emphasizes the use of high-quality ingredients and artisanal techniques. Each fragrance tells a story, often inspired by art, culture, and personal experiences, appealing to connoisseurs who appreciate uniqueness and craftsmanship in scents.",https://jjparfums.com/cdn/shop/files/Diseno_sin_titulo_17.png?v=1732659846&width=600,https://www.ducciopasolini.com,Italy,2018,niche,,,,2025-07-18T12:32:10.942225,2025-08-28T13:52:52.372870
cmd930b327fba45b68a50d6,duckeggBLUE,"duckeggBLUE is a perfume company that offers a distinct range of artisanal fragrances. Known for their unique blends and focus on natural ingredients, the company emphasizes sustainability and craftsmanship in its creations. Their story reflects a passion for perfume-making, dedicated to capturing the essence of nature and the world around them. Each scent is meticulously crafted to provide a sensory experience that is both personal and evocative.",https://images.unsplash.com/photo-1587017539504-67cfbddac569?w=400&h=300&fit=crop,https://www.duckeggblue.com,United Kingdom,2018,indie,info@duckeggblue.com,,,2025-07-18T12:32:10.942225,2025-08-28T13:52:58.842303
cmd85f40bd6e3d68f93ed87,Duerr's,"Duerr's is a historic British perfume and fragrance company known for producing high-quality scent products. Established in the 19th century, the company initially began as a manufacturer of perfumery and has evolved into a versatile brand that offers a range of products including perfumes, aftershaves, and personal care items. They pride themselves on their craftsmanship, utilizing traditional techniques combined with innovative approaches to create unique and appealing fragrances.",https://www.duerrs.co.uk/wp-content/uploads/2019/03/logo-2019.png,www.duerrs.co.uk,United Kingdom,1885,indie,,,,2025-07-18T12:32:10.942225,2025-08-28T13:53:06.001166
cmda53af5afe053121ff7de,Dueto Parfums,"Dueto Parfums is a niche perfume company that specializes in creating high-quality, artisanal fragrances. The brand emphasizes a blend of artisanal craftsmanship and modern perfumery techniques, offering unique scent profiles that are inspired by various cultural and historical elements. Their story is rooted in the passion for olfactory artistry, aiming to provide fragrances that resonate on a personal level with their customers. They focus on limited edition releases, allowing them to maintain exclusivity in the competitive perfume market.",https://images.unsplash.com/photo-1587017539504-67cfbddac569?w=400&h=300&fit=crop,,,,niche,,,,2025-07-18T12:32:10.942225,2025-08-28T13:53:12.283375
cmd95603d474487542f2505,Duftkumpels,"Duftkumpels is a niche perfume company based in Germany that focuses on creating unique and high-quality fragrances. The company prides itself on its artisanal approach to perfumery, offering a curated selection of scents that cater to diverse preferences. Duftkumpels emphasizes personal connection with their customers and often involves them in the fragrance creation process. They aim to deliver personalized experiences and bespoke perfumes that resonate with individual identities, setting themselves apart from mainstream fragrance brands.",https://images.unsplash.com/photo-1541643600914-78b084683601?w=400&h=300&fit=crop,https://www.duftkumpels.de,Germany,2015,niche,,,,2025-07-18T12:32:10.942225,2025-08-28T13:53:19.387205
cmd8b09fb440476e6cef0b6,Duke Cannon,,https://dukecannon.com/cdn/shop/files/Duke_Cannon_Desktop_Logo_130x.svg?v=1728088730,https://www.dukecannon.com,United States,2011,indie,,,,2025-07-18T12:32:10.942225,2025-08-28T13:53:26.936601
cmd80bb4d9cdce2d8b39866,Dukes of Pall Mall,"Dukes of Pall Mall is a niche perfume company that specializes in crafting luxurious and artisanal fragrances. Inspired by British heritage and classic English tradition, the brand draws upon the rich history of fragrance-making. Founded by a team of perfumers with a passion for unique olfactory experiences, Dukes of Pall Mall aims to create scents that evoke sophistication and elegance, often using rare and high-quality ingredients sourced from around the world. Their offerings include both personal fragrances and home scents, catering to discerning customers who value quality and craftsmanship in their perfumes.",https://images.unsplash.com/photo-1556909114-f6e7ad7d3136?w=400&h=300&fit=crop,https://www.dukesofpallmall.com,United Kingdom,2013,niche,,,,2025-07-18T12:32:10.942225,2025-08-28T13:53:34.598570
cmd509b77a90a49be98a625,Dunhill,"Dunhill, officially known as Alfred Dunhill Ltd., is a luxury brand recognized for its high-end menswear, leather goods, and fragrance. Founded in the late 19th century by Alfred Dunhill, the brand initially catered to the automotive industry, producing items for car enthusiasts. Over the years, Dunhill expanded its offerings to include fine quality perfumes, known for their sophisticated and classic scents that resonate with the modern gentleman. Their perfumes often embody the essence of British elegance, focusing on rich traditions and contemporary interpretations of fragrance.",https://images.unsplash.com/photo-1556909114-f6e7ad7d3136?w=400&h=300&fit=crop,https://www.dunhill.com,United Kingdom,1893,designer,,,"5/6 Duke of York Square, Kings Road, London SW3 4LY, United Kingdom",2025-07-18T12:32:10.942225,2025-08-28T13:53:41.421445
cmd9239e93c8937c9392ae0,dunhill London,"Dunhill London is a luxury brand that specializes in men's apparel and accessories, including a collection of fine fragrances. Established by Alfred Dunhill in 1893, the brand initially focused on motor accessories for automobiles and has since evolved into a key player in the luxury market with a strong presence in menswear. Dunhill's perfumes reflect the brand's commitment to quality and sophistication, often inspired by the rich heritage of British craftsmanship. They are known for creating fragrances that evoke refinement and masculinity, catering to discerning clientele who appreciate timeless elegance.",https://images.unsplash.com/photo-1587017539504-67cfbddac569?w=400&h=300&fit=crop,https://www.dunhill.com,United Kingdom,1893,designer,,,,2025-07-18T12:32:10.942225,2025-08-28T13:53:47.974141
cmd9cba6c8b65d0b5726aab,Dunlop,"Dunlop is primarily recognized as a leading brand in the automotive and sports sectors, particularly known for its tires. However, it has expanded into the fragrance industry by creating perfumes that encapsulate the essence of performance and adrenaline, appealing to sports enthusiasts and active individuals. The brand's story is rooted in a commitment to innovation and quality, reflecting its history of pushing boundaries in automotive technology. While not primarily known for perfumes, Dunlop’s foray into this market leverages its adventurous brand image.",https://images.unsplash.com/photo-1556909114-f6e7ad7d3136?w=400&h=300&fit=crop,,United Kingdom,1889,indie,,,,2025-07-18T12:32:10.942225,2025-08-28T13:53:54.288743
cmd30231b920454f13ab7c1,dupetit Natural Products,"dupetit Natural Products is a company specializing in the creation of natural and organic perfumes. They focus on using high-quality, sustainably sourced ingredients to create fragrances that are both eco-friendly and unique. The company emphasizes transparency in their production process and aims to provide consumers with healthier alternatives to traditional synthetic perfumes. Their story is rooted in a passion for perfumery, with a commitment to sustainability and a holistic approach to beauty.",https://images.unsplash.com/photo-1541643600914-78b084683601?w=400&h=300&fit=crop,,,,indie,,,,2025-07-18T12:32:10.942225,2025-08-28T13:54:04.374280
cmda093b3c913bcebb0fa7a,Duquesa de Medinaceli,"Duquesa de Medinaceli is a perfume company that specializes in the creation of luxurious fragrances inspired by the rich heritage and culture of Spain. Founded by the noble line of the Duquesa de Medinaceli, the brand aims to encapsulate the elegance and sophistication associated with Spanish nobility. Their perfumes are often characterized by the use of high-quality ingredients and traditional craftsmanship, reflecting a commitment to the art of perfumery. Each scent tells a story that connects the wearer to the historical and cultural essence of Spain.",https://images.unsplash.com/photo-1582735689369-4fe89db7114c?w=400&h=300&fit=crop,http://www.duquesademedinaceli.com,Spain,1995,niche,,,,2025-07-18T12:32:10.942225,2025-08-28T13:54:12.087668
