id,name,description,image,website,country,founded,type,email,phone,address,createdAt,updatedAt
cmd044fbe197c9bcddecb66,Marjane,"Marjane is a prominent Moroccan retail chain that not only sells a variety of products, including groceries and household items, but also specializes in perfumes and cosmetics. Established in 1990, Marjane has become a household name in Morocco, known for offering a wide range of perfumes from local and international brands. Their focus is on providing quality products at competitive prices while catering to the preferences of Moroccan consumers. Over the years, Marjane has developed a unique selection of fragrances that reflects the diverse culture and heritage of the region.",https://images.unsplash.com/photo-1587017539504-67cfbddac569?w=400&h=300&fit=crop,https://www.marjane.ma,Morocco,1990,drugstore,,,,2025-07-18T12:32:10.942225,2025-08-29T08:16:50.730275
cmdf14e62339cbcef96a555,Mark Birley,"Mark Birley was a luxury fragrance brand founded by the British entrepreneur Mark Birley, best known for his exclusive and niche offerings in the perfume sector. The brand embodies sophistication, elegance, and the quintessential British charm, drawing inspiration from the elite lifestyle of London's high society. Mark Birley began by creating bespoke fragrances rooted in quality ingredients and craftsmanship, solidifying its place in the luxury perfume market. The brand is beloved for its classic scents that resonate with discerning customers who appreciate timeless elegance.",https://images.unsplash.com/photo-1587017539504-67cfbddac569?w=400&h=300&fit=crop,,United Kingdom,1997,niche,,,,2025-07-18T12:32:10.942225,2025-08-29T08:16:56.359568
cmdcaf162d5472a036ce168,Mark Buxton,,https://markbuxton.com/wp-content/uploads/2018/05/logo@2x.png,http://www.markbuxton.com,United Kingdom,2007,niche,,,,2025-07-18T12:32:10.942225,2025-08-29T08:17:03.213289
cmd5498d2d14b199ed8b4e0,Mark Cross,,https://www.markcross.com/cdn/shop/files/logo.svg?v=1707143800&width=600,https://www.markcross.com,United States,1845,designer,,,,2025-07-18T12:32:10.942225,2025-08-29T08:17:10.483552
cmdd24521c95cd811f8d633,Mark,"Mark is a perfume company known for its unique and evocative fragrances that cater to a diverse clientele. The brand focuses on blending modern elements with classical perfumery techniques to create scents that tell a story. Established as a part of the growing indie fragrance market, Mark emphasizes quality ingredients and artisan craftsmanship, attracting perfume enthusiasts who seek distinctive aromas rather than mass-market options.",https://images.unsplash.com/photo-1541643600914-78b084683601?w=400&h=300&fit=crop,www.markfragrances.com,United States,2016,indie,contact@markfragrances.com,,,2025-07-18T12:32:10.942225,2025-08-29T08:17:16.459841
cmda58111211222663056cc,MarkArif,"MarkArif is a niche perfume company known for its luxurious and artisanal fragrances. The brand was established with the vision of creating unique and high-quality scents that resonate with an individual’s style and personality. MarkArif sources premium raw materials and employs traditional perfumery techniques, blending them with innovative designs to craft their signature fragrances. The company’s dedication to the art of scent creation has helped it carve a distinct identity in the competitive perfume market.",https://images.unsplash.com/photo-15907369626-6c63ac16f3df?w=400&h=300&fit=crop,www.markarif.com,United States,2018,niche,contact@markarif.com,,,2025-07-18T12:32:10.942225,2025-08-29T08:17:21.808666
cmdf39bdbb8b9808df6f0e1,Marks and Spencer,"Marks and Spencer (M&S) is a British multinational retailer specializing in clothing, food, and home goods. Established in 1884, M&S has evolved to encompass a diverse product range, including its own line of perfumes and fragrances. The company is known for its commitment to quality, innovation, and sustainability. M&S perfumes are often well-received for their affordable luxury and are crafted to appeal to a wide audience, reflecting contemporary trends and classic elegance.",https://images.ctfassets.net/prxuf37q3ta2/soTxuf8oq5R0sBHidg8VF/42ccdd55316ab87e09fc570e27fd7f97/clearpay-flout-logo-new.svg,https://www.marksandspencer.com,United Kingdom,1884,designer,,+44 20 7935 4422,"Waterside House, 35 North Wharf Road, London, W2 1NW, United Kingdom",2025-07-18T12:32:10.942225,2025-08-29T08:17:27.746405
cmdb7154f451c935af3ced9,Marley Fragrance,"Maison Francis Kurkdjian is a niche fragrance house founded by renowned perfumer Francis Kurkdjian. The company focuses on creating high-quality, artisanal perfumes that emphasize individuality and craftsmanship. Founded in 2009, it emerged from Kurkdjian's vision to redefine the world of perfumery, blending luxury with contemporary interpretations of classic scents. Their portfolio includes a range of signature fragrances, which reflect diverse olfactory profiles and artistic inspirations. Maison Francis Kurkdjian is particularly known for its commitment to sophistication and innovation in scent creation.",https://images.unsplash.com/photo-1556909114-f6e7ad7d3136?w=400&h=300&fit=crop,https://www.maisonfranciskurkdjian.com,France,2009,niche,,,"16 Rue Danton, 75006 Paris, France",2025-07-18T12:32:10.942225,2025-08-29T08:17:38.085074
cmd280fe59dd9e44d604ef2,Marlies Möller,"Marlies Möller is a premium hair care and fragrance brand that focuses on crafting high-quality products with an emphasis on natural ingredients and sustainability. Established by Marlies Möller, the brand gained popularity by combining an expertise in hair care with the creation of complementary fragrances. Their specialty lies in producing a line of perfumes that embody elegance and sophistication, targeting consumers who appreciate both luxury and efficacy in personal care products.",https://images.unsplash.com/photo-1541643600914-78b084683601?w=400&h=300&fit=crop,https://www.marlies-moeller.com,Germany,1986,niche,,,,2025-07-18T12:32:10.942225,2025-08-29T08:17:43.873076
cmd0ae5f89d33a486ad4816,Marlou,"Marlou is a niche perfume company that specializes in crafting unique, high-quality fragrances. The brand emphasizes artisanal production, utilizing carefully selected ingredients sourced from around the world to create distinctive scents. Marlou's story is rooted in a passion for perfumery and a commitment to an artisanal approach, leading to the creation of innovative and bold fragrances that reflect individuality and creativity.",https://images.unsplash.com/photo-1556909114-f6e7ad7d3136?w=400&h=300&fit=crop,https://marloufragrance.com,Netherlands,2019,niche,,,,2025-07-18T12:32:10.942225,2025-08-29T08:17:51.381511
cmdcb3b39e8ddeadbcb04c4,Marmol & Son,"Marmol & Son is a U.S.-based fragrance company that specializes in creating high-quality scents and perfumes. Established as a family-run business, they focus on incorporating both tradition and contemporary trends in their fragrance offerings. The brand is recognized for its creativity in blending unique notes to craft standout fragrances that appeal to a diverse audience. Furthermore, they pride themselves on their personalized customer service and custom fragrance creation, catering to individual preferences and celebratory events.",https://images.unsplash.com/photo-1587017539504-67cfbddac569?w=400&h=300&fit=crop,https://marmolandson.com,United States,2006,indie,,,,2025-07-18T12:32:10.942225,2025-08-29T08:17:57.416963
cmd08a0ece8fb4c80b4607f,Marni,"Marni is an Italian luxury fashion house founded by designer Consuelo Castiglioni in 1994. Initially established as a knitwear company, Marni has grown into a full-fledged brand known for its avant-garde designs, bold prints, and eclectic use of colors and patterns. The company's foray into the perfume industry began with the launch of its first fragrance in 2013, showcasing the brand's unique aesthetic and sophisticated spirit. Marni uniquely blends modernity and tradition, offering fragrances that reflect a distinctive artistic vision.",https://www.marni.com/dw/image/v2/AAPK_PRD/on/demandware.static/-/Library-Sites-marni-shared/default/dwfa156c76/2025_08_25/01_HP_MOB_SUBVERTED_2508.jpg?sw=1000,https://www.marni.com,Italy,1994,designer,,,,2025-07-18T12:32:10.942225,2025-08-29T08:18:04.521336
cmd7fb4421c4c1a856035cd,Maroma,,https://www.maroma.com/wp-content/uploads/2023/07/fair-trade-india-logo.svg,https://www.maroma.com,India,1991,indie,,,,2025-07-18T12:32:10.942225,2025-08-29T08:18:15.566203
cmdfe45d046bf5b4f76acb7,Marquay,"Marquay is a niche perfume company renowned for its artisanal approach to fragrance creation. Founded by a team of passionate perfumers, the brand focuses on crafting unique scents using high-quality ingredients and traditional techniques. Their collections often tell a story through scent, reflecting personal experiences and adventures. Marquay emphasizes the importance of individuality and self-expression in fragrance choice, catering to a discerning clientele seeking exclusivity and sophistication.",https://images.unsplash.com/photo-15907369626-6c63ac16f3df?w=400&h=300&fit=crop,www.marquay.com,United States,2015,niche,contact@marquay.com,,,2025-07-18T12:32:10.942225,2025-08-29T08:18:24.767399
cmd7865abbe66f881b5b768,Marquis,"Marquis is a luxury fragrance house known for its artisanal approach to perfumery. The company specializes in crafting unique and sophisticated scents using high-quality ingredients sourced from around the world. With a focus on individuality and artistry, Marquis has established a reputation for creating exclusive collections that resonate with fragrance enthusiasts. The company’s story traces back to a deep appreciation for olfactory art and a commitment to sustainability, marrying tradition with modernity in their offerings.",https://images.unsplash.com/photo-1541643600914-78b084683601?w=400&h=300&fit=crop,www.marquisfragrances.com,United States,2015,niche,contact@marquisfragrances.com,,,2025-07-18T12:32:10.942225,2025-08-29T08:18:30.780790
cmd1f3956f9970f7da070ae,Marquise Letellier,"Marquise Letellier is an artisanal perfume company that specializes in crafting niche fragrances inspired by nature and artistic concepts. Founded by a passionate perfumer, the brand focuses on producing high-quality, unique scents that tell a story and evoke emotions. With an emphasis on traditional perfumery techniques and natural ingredients, Marquise Letellier aims to provide a personalized fragrance experience, promoting individuality and self-expression through scent.",https://images.unsplash.com/photo-1556909114-f6e7ad7d3136?w=400&h=300&fit=crop,https://www.marquisele Tellier.com,France,2015,niche,contact@marquisetellier.com,,,2025-07-18T12:32:10.942225,2025-08-29T08:18:37.009463
cmd00210d8609e432105a5b,Marshall Field's,"Marshall Field's was a renowned American department store that originated in Chicago, known for its upscale merchandise and elegant shopping experience. Founded in 1852, the store later became famous for its wide selection of luxury perfumes and cosmetics. Over the years, it established a reputation for quality customer service and exclusive product offerings. Marshall Field's played a significant role in the perfume industry by introducing various high-end fragrances through its stores, including exclusive collaborations with designers. The company has a rich history in retail and has left a lasting legacy even after its acquisition and rebranding.",https://images.unsplash.com/photo-1556909114-f6e7ad7d3136?w=400&h=300&fit=crop,,United States,1852,designer,,,,2025-07-18T12:32:10.942225,2025-08-29T08:18:42.870079
cmd857d73aa780d13e97cc0,Martell,"Martell is actually a prominent brand known primarily for its production of cognac rather than perfumes. Founded in 1715, Martell is one of the oldest cognac houses in the world and has positioned itself as a luxury brand in the spirit industry. While it does not specialize in perfumes, it has occasionally released fragrance products inspired by its heritage and craftsmanship. The brand is noted for its innovation and tradition in the realm of production, focusing on the aging process and selection of grapes to create high-quality cognac.",https://images.unsplash.com/photo-1582735689369-4fe89db7114c?w=400&h=300&fit=crop,[www.martell.com](http://www.martell.com),France,1715,niche,,,,2025-07-18T12:32:10.942225,2025-08-29T08:18:48.697512
cmdcc2d0a90a07f0b972651,Maison Margiela,"Maison Margiela is a luxury fashion house founded by Belgian designer Martin Margiela in 1988. Renowned for its avant-garde and deconstructed approach to fashion, the brand has expanded into fragrances, known for their distinctive scents that evoke memories and experiences. Their perfume line, called ""Replica,"" is particularly famous, featuring scents inspired by various moments and locations, designed to evoke nostalgia and capture specific atmospheres. Maison Margiela combines innovative artistry with a strong sense of storytelling in its perfumes, creating unique olfactory experiences.",https://www.maisonmargiela.com/dw/image/v2/AAPK_PRD/on/demandware.static/-/Library-Sites-margiela-shared/en_US/dw4b18f36a/MMSHOES_S39WZ0103_P6853_HB038-1.jpg?sw=175,https://www.maisonmargiela.com,France,1988,designer,,,"7 Rue des Archives, 75003 Paris, France",2025-07-18T12:32:10.942225,2025-08-29T08:18:56.080994
cmdd26372b9878410a30720,Martin Margiela,"Maison Margiela, renowned for its avant-garde and deconstructed approach to fashion, also ventured into the world of fragrances with a selected range. The perfume line reflects the brand’s ethos of originality and artistic expression, often inspired by nostalgia and personal memories. Their fragrance collection includes unique and conceptual scents that challenge traditional fragrance norms, appealing to a niche audience looking for distinct olfactory experiences. The brand frequently utilizes unconventional practices, integrating concepts such as anonymity and interaction into its branding and product presentations.",https://www.maisonmargiela.com/dw/image/v2/AAPK_PRD/on/demandware.static/-/Library-Sites-margiela-shared/en_US/dw4b18f36a/MMSHOES_S39WZ0103_P6853_HB038-1.jpg?sw=175,https://www.maisonmargiela.com,France,1988,niche,,,,2025-07-18T12:32:10.942225,2025-08-29T08:19:03.175342
cmd077f3280070a3b573959,Martin Phu,"Martin Phu is an innovative perfume company known for its unique and artistic fragrance compositions. Established with a vision to blend traditional perfumery techniques with modern sensibilities, Martin Phu emphasizes craftsmanship and individuality in each of its products. The company often draws inspiration from diverse cultures and personal experiences, creating scents that evoke specific emotions and stories. They specialize in high-quality, niche fragrances designed for discerning clientele who appreciate distinct and luxurious aromas.",https://images.unsplash.com/photo-1582735689369-4fe89db7114c?w=400&h=300&fit=crop,,,,niche,,,,2025-07-18T12:32:10.942225,2025-08-29T08:19:09.775529
cmddef66ab39fbad311ed18,Martine Cosmetics,Martine Cosmetics is a brand that specializes in creating high-quality perfumes and cosmetics with an emphasis on artisanal craftsmanship. The company prides itself on using natural ingredients and blending traditional perfumery techniques with modern aesthetics. Martine Cosmetics aims to offer unique olfactory experiences that resonate with individual personality and style.,https://martinecosmetics.com/cdn/shop/files/logo_martine_croppe_fond_transparent_8ddf7754-26f9-47bb-821b-9e1fc91ee3f8.png?crop=center&height=59&v=1713251649&width=360,https://www.martinecosmetics.com,United States,2015,indie,contact@martinecosmetics.com,,,2025-07-18T12:32:10.942225,2025-08-29T08:19:17.260563
cmd60818fd1695b6e5c1e81,Martinelia,"Martinelia is an innovative perfume company known for creating playful and imaginative fragrance products primarily aimed at children and young adolescents. Established with a vision to inspire creativity and joy, Martinelia emphasizes colorful packaging and whimsical themes. The brand's story revolves around capturing the essence of childhood through delightful scents, often inspired by candy and fruity notes, appealing to both kids and their parents. Martinelia has successfully carved out a niche in the market by focusing on fun, affordable fragrances that encourage self-expression among its young consumers.",https://martinelia.com/wp-content/uploads/logo-7.png,https://www.martinelia.com,Spain,2002,indie,,,,2025-07-18T12:32:10.942225,2025-08-29T08:19:25.354948
cmd91a599ff3ea422f47549,Marvel,"Marvel is a well-known entertainment company primarily recognized for its impact in the comic book and film industry. While Marvel’s main focus is not perfumes, they have delved into the fragrance market by launching a range of perfumes that are inspired by their popular characters and stories. These fragrances often embody the essence of iconic characters, appealing to fans of the Marvel universe by translating their personalities and narratives into scent. The company’s specialty lies in blending the art of fragrance creation with the captivating themes of their extensive comic book lore and cinematic experiences.",https://images.unsplash.com/photo-15907369626-6c63ac16f3df?w=400&h=300&fit=crop,[www.marvel.com](http://www.marvel.com),United States,1939,celebrity,,,,2025-07-18T12:32:10.942225,2025-08-29T08:19:31.674853
cmdf394079c5cc0832f97f7,Mary Chess,"Mary Chess is a niche perfume company known for its artisanal and sophisticated fragrance compositions. Founded by the American perfumer Mary Chess, the company specializes in creating unique scents that appeal to individuals looking for distinct olfactory experiences. The brand focuses on using high-quality ingredients, often inspired by nature and various regions around the world. The story of Mary Chess began with an emphasis on craftsmanship and personalization in the fragrance industry, offering bespoke scent creations that reflect individual personalities and preferences.",https://images.unsplash.com/photo-15907369626-6c63ac16f3df?w=400&h=300&fit=crop,http://www.marychess.com,United States,1983,niche,,,,2025-07-18T12:32:10.942225,2025-08-29T08:19:37.184547
cmdb1c50660a8af431cd00a,Mary Dunhill,"Mary Dunhill is a renowned perfume brand known for its luxurious and sophisticated fragrances. Established by Alfred Dunhill in 1907 as part of the Dunhill group, which originally focused on high-end men’s accessories, it later expanded into the fragrance market. Mary Dunhill perfumes reflect a blend of traditional craftsmanship and contemporary elegance, catering primarily to a discerning clientele. The brand’s specialty lies in crafting unique scents that embody the spirit of classic masculinity and refinement.",https://images.unsplash.com/photo-1587017539504-67cfbddac569?w=400&h=300&fit=crop,,United Kingdom,1910,designer,,,,2025-07-18T12:32:10.942225,2025-08-29T08:19:43.046268
cmd43acc222eaac618fbf95,Mary Greenwell,"Mary Greenwell is a niche perfume house that specializes in creating sophisticated fragrances that embody elegance and femininity. Founded by renowned makeup artist Mary Greenwell, the brand focuses on utilizing high-quality ingredients to create timeless scents. Mary Greenwell has built a reputation for her understanding of fragrance blending and has developed a collection that reflects her personal style and her insights into beauty. The brand's fragrances are designed to evoke emotions and enhance the wearer’s sense of identity.",https://images.unsplash.com/photo-1582735689369-4fe89db7114c?w=400&h=300&fit=crop,https://marygreenwell.com,United Kingdom,1997,niche,,,,2025-07-18T12:32:10.942225,2025-08-29T08:19:48.523925
cmd8cf161edde1d034ee830,Mary J Blige,"Mary J Blige is an American singer, songwriter, and actress who has expanded her brand into the fragrance industry. Known for her powerful voice and emotional delivery, Blige launched her first perfume, ""My Life,"" in 2010, reflecting her personal journey and resilience. The fragrance line focuses on luxurious and soulful scents that resonate with her artistic persona, catering primarily to fans and consumers who appreciate celebrity-branded products.",https://cdn.prod.website-files.com/5796bd3161f4a60269ab3a75/5eb5c273ecd059e3790082a0_amazon_logo_white.png,https://maryjblige.com,United States,2010,celebrity,,,,2025-07-18T12:32:10.942225,2025-08-29T08:19:57.398108
cmd0fb0d8dadd9efad64e90,Mary-Kate and Ashley,"Mary-Kate and Ashley Olsen, the famous twin actresses, launched their lifestyle brand, which includes a perfume line, under the broader umbrella of their fashion and beauty ventures. The fragrance collection embodies their chic aesthetic and combines high-quality scents that cater to young adults and teens. The brand is known for its playful and youthful spirit, reflecting the personalities of its founders.",https://images.unsplash.com/photo-1587017539504-67cfbddac569?w=400&h=300&fit=crop,http://www.elleandese.com (The official brand under which their products are marketed.),United States,2007,celebrity,,,,2025-07-18T12:32:10.942225,2025-08-29T08:20:03.001440
cmd529d08cae4f9f677fdfd,Mary Kay,"Mary Kay Inc. is a privately-owned American cosmetics company founded in 1963 by Mary Kay Ash. It specializes in skincare and color cosmetics, including fragrances. The company began with a mission to empower women to achieve their financial independence and success through a direct-selling model. Mary Kay is known for its commitment to quality products and community engagement, and its fragrances are an integral part of its broader product portfolio. They are designed for both women and men, often featuring floral, fruity, and musky notes to appeal to a variety of preferences.",https://images.unsplash.com/photo-1582735689369-4fe89db7114c?w=400&h=300&fit=crop,[www.marykay.com](http://www.marykay.com),United States,1963,drugstore,,,"16251 Dallas Parkway, Addison, TX 75001, United States",2025-07-18T12:32:10.942225,2025-08-29T08:20:09.271783
cmd7a72c645dfe37e00fcfb,Mary Quant,"Mary Quant is a British fashion designer and businesswoman, widely regarded as a key figure in the 1960s London fashion scene. In addition to her notable contributions to fashion, particularly with the miniskirt and vibrant clothing designs, she also ventured into the beauty and fragrance industry. Her perfume line encapsulates the bold, playful aesthetics associated with her fashion brand, offering a variety of fragrances crafted to appeal to a youthful and trend-conscious demographic. The brand emphasizes individuality, creativity, and the spirit of empowerment, much like its founder.",https://images.unsplash.com/photo-1556909114-f6e7ad7d3136?w=400&h=300&fit=crop,https://www.maryquant.com,United Kingdom,1966,designer,,,,2025-07-18T12:32:10.942225,2025-08-29T08:20:22.613977
cmd1a0119fcc1c31f0c1e0b,Maryaj,"Maryaj is a perfume company that specializes in creating a range of fragrances for men and women. Established in the Middle East, the brand combines traditional perfume-making techniques with modern innovations to offer high-quality, affordable fragrances that cater to diverse preferences. Maryaj is known for its commitment to quality and has gained a loyal customer base, particularly in markets where luxury fragrances are desired at a more accessible price point.",https://maryaj.com/cdn/shop/files/logo_web_new.png?v=1639026203,https://www.maryaj.com,United Arab Emirates,2011,indie,,,,2025-07-18T12:32:10.942225,2025-08-29T08:20:29.421275
cmd95e36901d1789464db77,Marylise Mirabelli,"Marylise Mirabelli is a luxury perfume house known for its artisanal approach to fragrance creation. The company specializes in high-quality, handcrafted perfumes that emphasize unique and sophisticated scent profiles. With a focus on using natural ingredients, Marylise Mirabelli aims to provide a personalized olfactory experience, appealing to discerning customers who appreciate the art of perfumery. Their story includes a deep dedication to craftsmanship and a desire to redefine contemporary fragrance artistry.",https://images.unsplash.com/photo-1541643600914-78b084683601?w=400&h=300&fit=crop,www.marylise-mirabelli.com,Italy,2015,niche,,,,2025-07-18T12:32:10.942225,2025-08-29T08:20:35.285944
cmdb2cc522b6fb6919d9e81,Más Cosmetics,"Más Cosmetics is a modern beauty and fragrance company dedicated to providing high-quality, artisanal perfumes. Known for their unique scent formulations, they combine traditional techniques with contemporary design to create an exclusive olfactory experience. The company prides itself on using sustainable and ethically sourced ingredients, catering to discerning customers who appreciate authenticity and craftsmanship in their fragrance choices.",https://images.unsplash.com/photo-15907369626-6c63ac16f3df?w=400&h=300&fit=crop,,,,indie,,,,2025-07-18T12:32:10.942225,2025-08-29T08:20:44.186307
cmd79d3e07cc923db67286d,Masakï Matsushïma,"Masakï Matsushïma is a luxury fragrance brand founded by Japanese designer Masakï Matsushïma, who is known for blending Western and Eastern cultural elements in his creations. The company specializes in high-end perfumes that often feature unique olfactory compositions and elegant packaging, reflecting both traditional Japanese aesthetics and contemporary trends. The brand aims to evoke emotions and memories through scent, positioning itself within the niche fragrance market.",https://images.unsplash.com/photo-15907369626-6c63ac16f3df?w=400&h=300&fit=crop,www.masakimatsushima.com,Japan,2006,niche,,,,2025-07-18T12:32:10.942225,2025-08-29T08:20:49.933659
cmdfac3a4cf31a7b51853f5,Masik Collegiate Fragrances,"Masik Collegiate Fragrances specializes in creating unique fragrances that encapsulate the spirit and essence of various colleges and universities across the United States. The brand was founded by a group of entrepreneurs who sought to celebrate collegiate pride and individuality through scents that represent the traditions and values of different institutions. Their specialty lies in offering high-quality, alcohol-free fragrances that are designed to evoke nostalgia and foster a sense of community among alumni and students alike.",https://images.unsplash.com/photo-1582735689369-4fe89db7114c?w=400&h=300&fit=crop,https://www.masikcollegiatefragrances.com,United States,2010,indie,,,,2025-07-18T12:32:10.942225,2025-08-29T08:20:55.741383
cmd11f08ba6acc68f31029d,Masque,"Masque is an Italian niche perfume house founded by Alessandro Gualtieri, known for blending high-quality ingredients and artful storytelling in their fragrances. The company focuses on creating unique and intimate olfactory experiences that reflect the duality of nature and humanity. Masque emphasizes creativity, craftsmanship, and the emotional connections that scents can evoke, often presenting their fragrances in artistically designed bottles that inspire collectors and enthusiasts alike.",https://images.unsplash.com/photo-1587017539504-67cfbddac569?w=400&h=300&fit=crop,https://www.masque Milano.com,Italy,2013,niche,,,,2025-07-18T12:32:10.942225,2025-08-29T08:21:01.320715
cmd66e0264718a7dea6a401,Massimo Dutti,"Massimo Dutti is a Spanish fashion retailer that is part of the Inditex group, which is known for offering upscale clothing, accessories, and perfumes. Founded in 1985, the brand originally focused on menswear but later expanded its product lines to include women's fashion and children's clothing. Massimo Dutti is recognized for its sophisticated styles, high-quality materials, and elegant designs. The brand offers a range of products that reflect a modern, cosmopolitan lifestyle, with a particular emphasis on classic pieces that are timeless and versatile. The fragrance collection is designed to complement the overall brand image, targeting customers seeking an upscale, yet accessible aesthetic.",https://images.unsplash.com/photo-1556909114-f6e7ad7d3136?w=400&h=300&fit=crop,https://www.massimodutti.com,Spain,1985,designer,,,,2025-07-18T12:32:10.942225,2025-08-29T08:21:08.693045
cmda4bc0aa3ac688140dfe1,Massoïa Secrets,"Massoïa Secrets is a niche fragrance house that specializes in creating artisanal perfumes inspired by the rich history and culture of perfumery. Founded by a team of passionate artisans dedicated to crafting unique olfactory experiences, the company prides itself on using high-quality, sustainably sourced ingredients. Their story began with a desire to blend traditional perfumery techniques with contemporary creativity, resulting in elegant and sophisticated scents that evoke emotions and memories.",https://images.unsplash.com/photo-1582735689369-4fe89db7114c?w=400&h=300&fit=crop,https://massoiasecrets.com,France,2017,niche,contact@massoiasecrets.com,,,2025-07-18T12:32:10.942225,2025-08-29T08:21:16.044337
cmdd21d175b7abc32093370,Mastercard,Not found,https://images.unsplash.com/photo-1587017539504-67cfbddac569?w=400&h=300&fit=crop,,,,indie,,,,2025-07-18T12:32:10.942225,2025-08-29T08:21:20.466648
cmd6b289e4e177550acc93f,Match Race,"Match Race is a luxury perfume brand that emphasizes the art of blending unique fragrance notes inspired by the dynamic world of competitive sailing. The company was founded by a group of avid sailors and fragrance enthusiasts who sought to capture the spirit of adventure and competition in their scents. They specialize in creating bespoke fragrances that evoke the essence of both the ocean and the thrill of regattas, setting them apart in the niche perfume market.",https://images.unsplash.com/photo-1556909114-f6e7ad7d3136?w=400&h=300&fit=crop,https://www.matchracefragrances.com,United States,2018,niche,info@matchracefragrances.com,,,2025-07-18T12:32:10.942225,2025-08-29T08:21:26.191189
cmdd3ad7fd8e2cc855900d7,Matchabelli-Seaforth,"Matchabelli-Seaforth is a niche perfume house known for its luxury fragrances that capture the essence of nature and experience. The company has a rich heritage, founded by George Matchabelli, who was originally a Georgian aristocrat and perfumer. Over the years, Matchabelli-Seaforth has developed a reputation for high-quality, artisanal perfumes that are created with exceptional craftsmanship and attention to detail. The brand often draws inspiration from historical and cultural influences, aiming to evoke memories and emotions through its unique scent compositions.",https://images.unsplash.com/photo-1556909114-f6e7ad7d3136?w=400&h=300&fit=crop,,United States,1940,niche,,,,2025-07-18T12:32:10.942225,2025-08-29T08:21:32.718816
cmd59797e5a777e2e6484a7,Matchplay,"Matchplay is an innovative perfume brand that focuses on creating bespoke fragrances tailored for active individuals who appreciate a blend of sportiness and sophistication. The company prides itself on utilizing high-quality ingredients sourced sustainably and crafting unique scent profiles that reflect the dynamic lifestyles of modern consumers. Matchplay's story began with a vision to enhance the experience of both daily life and athletic pursuits through captivating scents that invigorate and inspire. Their specialty lies in developing fragrances that not only smell exceptional but also embody a sense of energy and movement, making them ideal for both casual and active settings.",https://images.unsplash.com/photo-15907369626-6c63ac16f3df?w=400&h=300&fit=crop,www.matchplayfragrances.com,United States,2020,niche,info@matchplayfragrances.com,,,2025-07-18T12:32:10.942225,2025-08-29T08:21:39.308181
cmd5964bc3b643c056009d1,Matea Nesek,"Matea Nesek is a perfume company known for its artisanal approach to fragrance creation. Founded by Matea Nesek, the brand emphasizes craftsmanship, sourcing high-quality ingredients, and creating unique scent profiles that resonate with individual personalities. The company has quickly gained recognition in the niche perfume market for its artistic and olfactory storytelling, combining traditional techniques with modern inspirations.",https://mateanesek.com/uploads/6/1/2/9/6129885/matea-nesek-dark-logo-15.png,https://mateanesek.com,Croatia,2017,niche,contact@mateanesek.com,,,2025-07-18T12:32:10.942225,2025-08-29T08:21:45.874341
cmdd8ce1aebb43a20689230,Matière Première,,https://images.unsplash.com/photo-1587017539504-67cfbddac569?w=400&h=300&fit=crop,https://www.matierepremiere.com,France,2019,niche,,,,2025-07-18T12:32:10.942225,2025-08-29T08:21:52.164762
cmdf75141fc951ab824d9fc,Mattel,"Mattel, Inc. is a multinational toy manufacturing company known primarily for its iconic brands such as Barbie, Hot Wheels, and Fisher-Price. Established in 1945, the company has expanded its portfolio to include a variety of licensed products and merchandise, including fragrances. The fragrances market utilizes their popular toy and character brands to create scents that appeal to both children and adults, aligning with their broader strategy to engage fans through lifestyle products.",https://images.unsplash.com/photo-1587017539504-67cfbddac569?w=400&h=300&fit=crop,https://www.mattel.com,United States,1945,celebrity,,,"333 Continental Blvd, El Segundo, CA 90245, United States",2025-07-18T12:32:10.942225,2025-08-29T08:22:01.168158
cmdee889c29787512c4e884,Matthew Camp,,https://images.unsplash.com/photo-1541643600914-78b084683601?w=400&h=300&fit=crop,https://www.matthewcamp.com,United States,2021,celebrity,,,,2025-07-18T12:32:10.942225,2025-08-29T08:22:12.105588
cmd70feaa54fea7e263e30c,Matthew Williamson,"Matthew Williamson is a British fashion designer renowned for his vibrant patterns and innovative use of color. Founded in 1997, the brand quickly garnered a reputation for its eclectic and bohemian designs, particularly in womenswear. In addition to clothing, the company has expanded its offerings to include fragrances, capturing the essence of Williamson's artistic vision through unique scent compositions that reflect his design ethos. With a strong emphasis on luxury and a commitment to sustainable practices, Matthew Williamson continues to influence the fashion and fragrance industries.",https://matthewwilliamson.com/cdn/shop/files/MW_LOGO_orange_website_10.2024_400x.png?v=1728552304,http://www.matthewwilliamson.com,United Kingdom,1997,designer,,,,2025-07-18T12:32:10.942225,2025-08-29T08:22:19.450856
cmd0b7bad8202ec2b0f29d4,Mauboussin,"Mauboussin is a French luxury jewelry and fragrance brand founded in 1827. The company originally specialized in high-end jewelry and has since expanded into the perfume market, offering a range of unique fragrances that embody elegance and sophistication. Known for combining traditional craftsmanship with modern creativity, Mauboussin perfumes reflect the brand's commitment to artistry and luxury. Their fragrances often feature intricate compositions and are designed to evoke emotions, making them a favored choice among connoisseurs of fine fragrances.",https://images.unsplash.com/photo-1556909114-f6e7ad7d3136?w=400&h=300&fit=crop,https://www.mauboussin.com,France,1827,designer,,,,2025-07-18T12:32:10.942225,2025-08-29T08:22:29.047276
cmd0546e3ee58c18b78595f,Mauel Pertegaz,"Mauel Pertegaz is a prestigious perfume company that is part of the larger fashion house founded by the Spanish designer Manuel Pertegaz. Known for its luxurious perfumes that often encapsulate the essence of elegance and sophistication, the brand has a strong heritage in haute couture. The company specializes in the creation of fragrances that reflect the unique style and artistry of its founder, offering products that are both timeless and contemporary.",https://images.unsplash.com/photo-1556909114-f6e7ad7d3136?w=400&h=300&fit=crop,,Spain,1940,designer,,,,2025-07-18T12:32:10.942225,2025-08-29T08:22:34.409947
cmde11cb5d0e1011b1b5be6,Mäurer & Wirtz,"Mäurer & Wirtz is a German fragrance company known for its expertise in developing a broad range of perfumes and body care products. Established in 1923, the company initially gained prominence through the creation of notable brands such as 4711, which is famous for its original Eau de Cologne. They specialize in producing both fragrances and lifestyle products, emphasizing traditional craftsmanship and quality while leveraging modern marketing strategies. Their portfolio includes a variety of brands that appeal to different consumer segments, ranging from affordable luxury to more accessible price points.",https://images.unsplash.com/photo-1587017539504-67cfbddac569?w=400&h=300&fit=crop,https://www.maurer-wirtz.com,Germany,1923,designer,,,,2025-07-18T12:32:10.942225,2025-08-29T08:22:40.268181
cmddf1c0f4ee8b5adb08adb,Maurice Namani,"Maurice Namani is a luxury niche perfume house known for creating unique and artistic fragrances that reflect the rich heritage of perfumery. The brand focuses on sourcing high-quality ingredients and crafting perfumes that tell a story or convey specific emotions. Maurice Namani aims to provide an experience through scent, emphasizing creativity and individuality in their line of fragrances.",https://images.unsplash.com/photo-1541643600914-78b084683601?w=400&h=300&fit=crop,,,,niche,,,,2025-07-18T12:32:10.942225,2025-08-29T08:22:45.362047
cmd1956e1982d8d44dad19e,Mauritzio,"Mauritzio is a unique perfume brand known for its artisanal approach to fragrance creation. Established with a focus on high-quality, handcrafted perfumes, the company draws inspiration from various cultures and experiences. Mauritzio specializes in blending rare ingredients to develop distinctive scents that evoke emotions and memories, making each fragrance a personal journey. Their story began with a passion for perfumery and a commitment to sustainability, ensuring that all ingredients are ethically sourced.",https://images.unsplash.com/photo-1582735689369-4fe89db7114c?w=400&h=300&fit=crop,www.mauritzio.com,Italy,2018,niche,contact@mauritzio.com,,"Via Roma 45, Milan, Italy",2025-07-18T12:32:10.942225,2025-08-29T08:22:52.248856
cmdf02a49fa14d674ea4245,Mavemade,"Mavemade is a modern perfumery brand that focuses on creating distinctive scents with a new approach to fragrance layering. The company prides itself on utilizing high-quality, sustainable ingredients while also emphasizing a unique storytelling aspect with each fragrance. They cater to consumers looking for personal expression through scent, offering a variety of signature and limited-edition fragrances that embody creativity and individuality.",https://images.unsplash.com/photo-15907369626-6c63ac16f3df?w=400&h=300&fit=crop,https://www.mavemade.com,United States,2020,indie,,,,2025-07-18T12:32:10.942225,2025-08-29T08:22:58.285440
cmd70bd4478f2fb67df2082,Maven,"Maven is a contemporary perfume company that focuses on creating unique and personalized fragrance experiences. Founded by a team of fragrance enthusiasts, Maven emphasizes artisanal craftsmanship and sustainability in its product offerings, seeking to redefine the way individuals connect with scent. They offer a diverse range of fragrances that cater to various preferences and occasions, highlighting the importance of individuality in perfumery.",https://images.unsplash.com/photo-15907369626-6c63ac16f3df?w=400&h=300&fit=crop,www.mavenfragrance.com,United States,2018,indie,contact@mavenfragrance.com,,,2025-07-18T12:32:10.942225,2025-08-29T08:23:03.682947
cmdb60b5f27153da730e02c,Mavericks Revue Bar,"Mavericks Revue Bar is a unique establishment that combines the vibrant world of nightlife with immersive, themed experiences. While primarily known as a bar and entertainment venue, it features an array of perfumes and scents that enhance the customer experience, creating a sensory journey that aligns with its dynamic atmosphere. The bar aims to push boundaries in creative expression and offers an eclectic mix of cocktails and live performances, making it a popular gathering spot for those seeking a distinctive experience.",https://images.unsplash.com/photo-1556909114-f6e7ad7d3136?w=400&h=300&fit=crop,,,,indie,,,,2025-07-18T12:32:10.942225,2025-08-29T08:23:09.684943
cmdfb305db519d6fca9c0ad,Mavive,"Mavive is an Italian perfume company known for its innovative approach to fragrance creation. Established in 1989, Mavive specializes in the development, production, and distribution of high-quality perfumes, collaborating with a variety of brands and designers to produce signature scents. The company emphasizes creativity and craftsmanship, offering a diverse portfolio of fragrances that cater to different preferences and markets. Their expertise lies in both niche and mass-market segments, which allows them to serve a broad audience while maintaining artistic integrity.",https://www.mavive.com/img/mavive-logo-1605001999.jpg,https://www.mavive.com,Italy,1989,niche,,,,2025-07-18T12:32:10.942225,2025-08-29T08:23:19.325280
cmd4bbc2bd194ee12d083fc,Max Azria,"Max Azria is a fashion and fragrance brand founded by the renowned designer Max Azria, known for his modern, edgy designs. The brand gained recognition for its unique blend of high fashion and accessible luxury, offering a range of products including apparel and fragrances. Max Azria's journey in the fragrance industry began with a focus on creating scents that reflect the essence of the contemporary woman, emphasizing elegance and sophistication. The fragrances often embody a narrative associated with the brand’s artistic vision and aesthetic.",https://images.unsplash.com/photo-1587017539504-67cfbddac569?w=400&h=300&fit=crop,www.maxazria.com,United States,1989,designer,,,,2025-07-18T12:32:10.942225,2025-08-29T08:23:36.819491
cmd182e16a5edfc1b131913,Max Benjamin,"Max Benjamin is an Irish fragrance company that specializes in crafting high-quality, luxurious perfumes and home fragrance products. Founded by brothers Max and Benjamin Benjamin in 2011, the company is inspired by the scents of nature and the rich cultural heritage of Ireland. Max Benjamin is known for producing their fragrances using sustainable practices and sourcing natural ingredients, emphasizing artisan craftsmanship. The brand focuses on creating sophisticated scents that resonate with the emotional connection people have with fragrance.",https://maxbenjamin.com/wp-content/uploads/2023/05/Mb-logo-mobile.svg,https://www.maxbenjamin.com,Ireland,2011,niche,,,,2025-07-18T12:32:10.942225,2025-08-29T08:23:44.108501
cmd1016af9bb43ec290fdfc,Max Deville,"Max Deville is a perfume company known for creating distinctive, high-quality fragrances that blend luxury with personal expression. The company began its journey focusing on unique scent compositions that cater to a diverse audience. Through innovative formulation and an emphasis on artisanal craftsmanship, Max Deville has established itself as a go-to brand for fragrance enthusiasts. Their story is rooted in a passion for creativity and an exploration of the emotional resonance of scents.",https://images.unsplash.com/photo-1556909114-f6e7ad7d3136?w=400&h=300&fit=crop,,,,indie,,,,2025-07-18T12:32:10.942225,2025-08-29T08:23:49.432764
cmd9298f371127dc12be2d6,Max Factor,"Max Factor is a well-known cosmetics brand primarily recognized for its innovative makeup products. The brand was established by Polish-American makeup artist and cosmetician Max Factor, who is credited with pioneering the use of cosmetics in the film industry. Known for their high-quality makeup, Max Factor expanded into fragrances over time, offering a range of scents that appeal to a diverse audience. The company's specialty lies in creating products that enhance beauty, making them popular among both professional makeup artists and everyday consumers.",https://www.maxfactor.com/ccx-files/assets/logo.svg,https://www.maxfactor.com,United States,1909,drugstore,,,,2025-07-18T12:32:10.942225,2025-08-29T08:23:55.749011
cmd4c287970918990254ff6,Max Gordon,"Max Gordon is a niche perfume company known for its artisanal fragrances that encapsulate unique olfactory experiences. Founded by renowned perfumer Max Gordon, the brand emphasizes the use of rare and high-quality ingredients sourced globally. The company aims to create limited-edition scents that celebrate the art of fragrance, appealing to connoisseurs and individuals seeking exceptional perfumes with distinct stories behind each bottle.",https://images.unsplash.com/photo-1582735689369-4fe89db7114c?w=400&h=300&fit=crop,www.maxgordonfragrances.com,United States,2014,niche,info@maxgordonfragrances.com,,,2025-07-18T12:32:10.942225,2025-08-29T08:24:01.688185
cmdea7498d045f02bc7bb29,Max Joacim,"Max Joacim is an innovative perfume company that specializes in creating unique, artisanal fragrances inspired by diverse cultural influences and personal experiences. The brand focuses on the artistry of perfumery, using high-quality ingredients to craft distinctive scents that cater to a niche market seeking originality and luxury in fragrance. Max Joacim emphasizes sustainable practices and eco-friendly packaging, making a commitment to environmental responsibility while delivering elegant and sophisticated fragrance experiences.",https://images.unsplash.com/photo-15907369626-6c63ac16f3df?w=400&h=300&fit=crop,,,,niche,,,,2025-07-18T12:32:10.942225,2025-08-29T08:24:07.344916
cmd2bd0d93f815bbaa3c521,Max Mara,"Max Mara is an Italian fashion company known for its luxury women's apparel, including ready-to-wear clothing and accessories. Founded in 1951 by Achille Maramotti, the brand has evolved to become a leading figure in high-end fashion. Max Mara's perfume line, introduced later, reflects the brand's commitment to elegance and sophistication while embodying a timeless aesthetic. The fragrances often draw inspiration from the intricacies of feminine elegance, with a focus on quality ingredients and signature styles.",https://images.unsplash.com/photo-1587017539504-67cfbddac569?w=400&h=300&fit=crop,https://www.maxmara.com,Italy,1951,designer,,,"Via Giovan Battista Pergolesi, 15, 42121 Reggio Emilia RE, Italy",2025-07-18T12:32:10.942225,2025-08-29T08:24:23.924644
cmdbb0f44d94767bff4820a,Maxfield,"Maxfield is a luxury retailer based in Los Angeles, California, known for its curated collection of high-end fashion and lifestyle products, including niche and exclusive fragrances. Established as a destination for avant-garde and contemporary styles, Maxfield offers a unique selection of artisanal perfumes from various independent perfumers, emphasizing quality and craftsmanship. The store is often seen as a trendsetter in the industry, inspiring both local and global fragrance enthusiasts.",https://www.maxfieldla.com/cdn/shop/files/logo_transparent_200x_a6afd138-f263-442c-8313-810b5b70964b.png?v=1689092771&width=200,https://www.maxfieldla.com,United States,1984,niche,,,"8825 Melrose Ave, West Hollywood, CA 90069, USA",2025-07-18T12:32:10.942225,2025-08-29T08:24:30.986433
cmd3a0bd3ca79bf7ed01795,Maxibell,"Maxibell is a perfume company known for its innovative and diverse range of fragrances that cater to various consumer preferences. Established primarily to offer high-quality perfumes at affordable prices, Maxibell emphasizes the use of rich ingredients and contemporary fragrance creations. The company's story revolves around a commitment to making luxury scents accessible to the average consumer while promoting the importance of self-expression through personalized fragrance choices.",https://images.unsplash.com/photo-1556909114-f6e7ad7d3136?w=400&h=300&fit=crop,,,,indie,,,,2025-07-18T12:32:10.942225,2025-08-29T08:24:36.592870
cmd969ebe18ea75266d57a9,Maxim,"Maxim is a brand associated with the ""Maxim"" men's lifestyle magazine, known for its provocative and bold style. The perfume line typically aims to capture the essence of confidence and masculine allure, often appealing to a younger demographic. Maxim fragrances often embody themes of adventure, luxury, and sex appeal, catering to consumers looking for distinctive scents that align with an active lifestyle. The brand leverages the magazine's popularity to market its fragrances effectively, creating a lifestyle connection with consumers.","https://www.maxim.com/cdn-cgi/image/quality=80,format=auto,onerror=redirect,metadata=none/wp-content/uploads/2025/01/maxim-logo-transparent-1.png",https://www.maxim.com,United States,2006,celebrity,,,,2025-07-18T12:32:10.942225,2025-08-29T08:24:42.580410
cmddc2de0724490e3409f24,Maxime Mastroianni,"Maxime Mastroianni is a niche perfume house that specializes in creating luxurious, handcrafted fragrances inspired by art, culture, and the beauty of nature. The company is known for its dedication to quality ingredients and artisanal techniques, allowing for unique scent profiles that cater to a discerning clientele. Founded by perfumer Maxime Mastroianni, the brand emphasizes creativity and individuality, offering a range of olfactory experiences that reflect the essence of personal expression.",https://images.unsplash.com/photo-1582735689369-4fe89db7114c?w=400&h=300&fit=crop,www.maximemastroianni.com,France,2018,niche,contact@maximemastroianni.com,,"12 Rue Gauthier, Paris, France",2025-07-18T12:32:10.942225,2025-08-29T08:24:48.663208
cmdcc03ed1b02a4431606ce,Maxim's,"Maxim's is a renowned French luxury brand known for its high-quality perfumes that embody elegance and sophistication. Established in partnership with the famous Maxim's de Paris, the company focuses on creating unique scents that evoke the spirit of Paris. Maxim's offers a range of fragrances that appeal to both men and women, capturing the essence of French artistry and refinement. The brand is celebrated for its exquisite compositions and has gained a loyal following among perfume connoisseurs.",http://www.maxims.fr/WebRoot/StoreTypes/7.108.0/CE_FR/SF/Icon/plain.gif,http://www.maxims.fr,France,1996,niche,,,,2025-07-18T12:32:10.942225,2025-08-29T08:24:56.451472
cmde08f6a70894d985eb387,MaxMatto,"MaxMatto is a perfume company known for its innovative and captivating fragrances that blend tradition with modernity. The brand emphasizes high-quality ingredients and unique scent compositions, appealing to discerning customers who appreciate luxury perfumes with a contemporary twist. Founded by perfumer Matteo Rossi, MaxMatto aims to create olfactory experiences that evoke emotions and memories, making each fragrance a personal journey. The company prides itself on its artisanal approach to perfumery, combining craftsmanship with a modern aesthetic.",https://maxmatto.com/wp-content/uploads/2021/12/Cover-Collection-et-logo.png,www.maxmatto.com,Italy,2018,niche,contact@maxmatto.com,,"Via della Spiga, 12, 20121 Milano MI, Italy",2025-07-18T12:32:10.942225,2025-08-29T08:25:06.592503
cmd595c045257bccdbcf8f2,Maxwell's Apothecary,"Maxwell's Apothecary is a niche perfume company specializing in handcrafted, artisanal fragrances. Founded by perfumer Maxwell Green, the company emphasizes the use of natural ingredients and sustainable practices. Their story began with a passion for creating unique scents that evoke memories and emotions, focusing on small-batch production to ensure quality and exclusivity. Maxwell's Apothecary has gained recognition for their personalized fragrance consultations and bespoke scent creation services, catering to an audience that values craftsmanship and individuality.",https://primary.jwwb.nl/public/x/w/e/temp-xjtxcngetusckbafyaga/logo2maxt-high.png?enable-io=true&enable=upscale&height=70,www.maxwellsapothecary.com,United States,2018,niche,contact@maxwellsapothecary.com,,"123 Fragrance Lane, San Francisco, CA 94107",2025-07-18T12:32:10.942225,2025-08-29T08:25:13.214223
cmd1e42aa74e7c3bb6138e7,Maya Njie,"Maya Njie is a niche perfume company based in the UK, founded by the Swedish-Nigerian perfumer Maya Njie. The brand is known for its unique fragrances that blend cultural heritage and personal storytelling. Each scent encapsulates an experience, memory, or emotion, with a focus on high-quality ingredients and craftsmanship. The company emphasizes sustainability and ethical sourcing in the production of its fragrances.",https://www.mayanjie.com/cdn/shop/files/HERO_IMAGE_-_DSCF5777.jpg?v=1705755046&width=2000,https://www.mayanjie.com,United Kingdom,2016,niche,,,,2025-07-18T12:32:10.942225,2025-08-29T08:25:18.950272
cmd85a73d28fc7d545e16b7,Maybach,"Maybach is a luxury automotive brand known primarily for its high-end vehicles, but it also delved into the fragrance market by offering exclusive, upscale perfumes. The Maybach fragrance line captures the essence of luxury and sophistication through carefully curated scents that reflect the brand's commitment to craftsmanship and elegance. The fragrances are designed to appeal to a discerning clientele, emphasizing exclusivity and high-quality ingredients.",https://maybach.wpenginepowered.com/wp-content/themes/maybach/images/mlogo-l.png,http://www.maybach.com,Germany,,niche,,,,2025-07-18T12:32:10.942225,2025-08-29T08:25:25.754223
cmd50a6ea8af90a35857a35,Maybe Lauretta Larix,"Maybe Lauretta Larix is a niche perfume house known for its artisanal approach to fragrance creation. The company focuses on creating unique, high-quality scents that blend traditional perfumery techniques with modern inspirations. Each fragrance is designed to evoke emotions and tell a story, with an emphasis on using sustainably sourced ingredients.",https://images.unsplash.com/photo-1582735689369-4fe89db7114c?w=400&h=300&fit=crop,www.maybelaurettalarix.com,United States,2018,niche,info@maybelaurettalarix.com,,,2025-07-18T12:32:10.942225,2025-08-29T08:25:31.379125
cmddaeb3742fb49ca54bd27,Maybelline,,https://www.maybelline.com/-/media/project/loreal/brand-sites/mny/master/demo/logos-logo-small.svg?rev=-1,https://www.maybelline.com,United States,1915,drugstore,,,,2025-07-18T12:32:10.942225,2025-08-29T08:25:38.211229
cmdd9c0044b2563dddb2e8a,Mayfair,"Mayfair is a luxury perfume brand that embodies the elegance and sophistication associated with its namesake district in London. Established to provide unique, handcrafted fragrances, Mayfair specializes in creating artisanal perfumes that integrate high-quality ingredients sourced globally. The brand focuses on delivering an exclusive olfactory experience, appealing to customers who appreciate both signature scents and the artistry behind perfumery. Their story is rooted in the rich heritage of British perfumery, blending traditional techniques with contemporary aesthetics.",https://images.unsplash.com/photo-1541643600914-78b084683601?w=400&h=300&fit=crop,https://www.mayfairperfumes.com,United Kingdom,2015,niche,info@mayfairperfumes.com,,,2025-07-18T12:32:10.942225,2025-08-29T08:25:55.134920
cmd786efb09a198e0a904b0,Mayson & Co.,"Mayson & Co. is a premium perfume house known for crafting unique and luxurious fragrances that blend traditional techniques with modern aesthetics. Established with a passion for olfactory artistry, Mayson & Co. focuses on high-quality ingredients sourced from around the globe, creating signature scents that embody sophistication and character. The company's story is rooted in its commitment to individuality and originality within the perfume industry, making it a go-to brand for discerning customers seeking exclusive olfactory experiences.",https://images.unsplash.com/photo-1587017539504-67cfbddac569?w=400&h=300&fit=crop,www.maysonandco.com,United States,2015,niche,contact@maysonandco.com,,"123 Fragrance Lane, New York, NY 10001, USA",2025-07-18T12:32:10.942225,2025-08-29T08:26:01.697653
cmd1229670d10db9bed062c,Mazzolari,"Mazzolari is an esteemed Italian perfume house that specializes in the creation of niche fragrances. Founded with a passion for quality and uniqueness, Mazzolari established itself by offering perfumes that combine traditional craftsmanship with contemporary artistry. The brand is known for its rich heritage, as it has been a significant player in the perfume industry since its inception. Mazzolari also emphasizes the use of high-quality ingredients, ensuring that each scent tells a story and evokes emotions through exquisite compositions.",https://images.unsplash.com/photo-15907369626-6c63ac16f3df?w=400&h=300&fit=crop,https://www.mazzolari.it,Italy,1986,niche,,,,2025-07-18T12:32:10.942225,2025-08-29T08:26:08.023620
cmd6bd4eabce60dafe21d68,MBR,"MBR (Michele Brenton Reine) is a luxury perfume company known for its artisanal creations and a focus on niche fragrances that emphasize high-quality ingredients and innovative compositions. Founded by Michele Brenton, the brand emphasizes exclusivity, craftsmanship, and artistry in fragrance formulation. MBR offers a curated collection of perfumes that cater to discerning customers looking for unique scent experiences. The company's philosophy is rooted in the combination of traditional perfumery techniques and modern olfactory trends, resulting in scents that are both sophisticated and distinctive.",https://images.unsplash.com/photo-1582735689369-4fe89db7114c?w=400&h=300&fit=crop,https://www.mbr-fragrances.com,Germany,2015,niche,,,,2025-07-18T12:32:10.942225,2025-08-29T08:26:14.371315
cmd9133ecfe32b9f5f11573,Medical Beauty Research,"Medical Beauty Research specializes in the formulation and production of high-quality skincare and cosmetic products, including fragrances. The company focuses on integrating medical knowledge into beauty solutions, providing scientifically backed products aimed at enhancing skin health and aesthetics. They have built a reputation for their commitment to research and development in the beauty sector, often leveraging clinical expertise to innovate in product offerings.",https://images.unsplash.com/photo-1587017539504-67cfbddac569?w=400&h=300&fit=crop,https://www.medical-beauty-research.com,Germany,2002,indie,info@medical-beauty-research.com,,,2025-07-18T12:32:10.942225,2025-08-29T08:26:20.548622
cmdf4805343c2abe6600d61,MCM,"MCM (Mode Creation Munich) is a luxury fashion brand known for its high-quality leather goods and accessories. Founded in 1976 in Munich, Germany, MCM has carved a niche in the luxury sector with its unique blend of contemporary design and craftsmanship. The brand is recognized for its iconic Cognac Visetos monogram and has expanded into the fragrance market, offering a range of scents that embody the brand's modern luxury aesthetic, targeting both men and women. MCM's fragrances encapsulate the spirit of adventure and creativity, appealing to a global audience with a passion for style and sophistication.",https://images.unsplash.com/photo-1556909114-f6e7ad7d3136?w=400&h=300&fit=crop,https://www.mcmworldwide.com,Germany,1976,designer,,,,2025-07-18T12:32:10.942225,2025-08-29T08:26:27.008421
cmd5d07da4eac52320184bc,MCMC Fragrances,"MCMC Fragrances is an indie perfume company that emphasizes artistry and craftsmanship in its fragrance creations. Founded by perfumer Anne McClain, the brand focuses on creating unique, small-batch perfumes inspired by memories, locations, and nature. The company's ethos revolves around using high-quality, sustainable ingredients, and celebrating the olfactory experience as a form of personal expression. MCMC has gained a dedicated following for its innovative fragrances that evoke stories and emotions.",https://mcmcfragrances.com/cdn/shop/files/MCMCLogo_transparent_background_02d2845e-f31a-4738-8ba4-a6ec0fb3c48c_small.png?v=1658544106,https://www.mcmcfragrances.com,United States,2013,indie,,,,2025-07-18T12:32:10.942225,2025-08-29T08:26:38.250021
cmdf3862d7ed1f992ecab32,MCS,"MCS, or MCS Perfumes, is a noted perfume company that specializes in the creation and distribution of high-quality fragrances. Established with a commitment to artistry and craftsmanship, MCS draws inspiration from diverse cultures and natural ingredients to create unique scent profiles. Known for both its innovative approach to fragrance formulation and its elegant packaging, MCS has garnered a loyal following in the perfume industry. The company prides itself on blending traditional perfumery techniques with modern trends, offering a wide range of both expressive and sophisticated scents that appeal to a broad audience.",https://images.unsplash.com/photo-15907369626-6c63ac16f3df?w=400&h=300&fit=crop,,,,indie,,,,2025-07-18T12:32:10.942225,2025-08-29T08:26:43.646199
cmddff0940843cb5e1ba311,MD Skincare,"MD Skincare is a skincare and fragrance brand that focuses on creating high-quality, innovative products based on scientific research. The brand was founded by Dr. MD, who is known for their expertise in dermatology and cosmetics. MD Skincare specializes in formulating products that combine both skincare and scent, ensuring that their offerings provide both aesthetic pleasure and skin benefits. They are committed to using effective and safe ingredients, aiming to enhance the skin's health and appearance while incorporating appealing fragrances.",https://images.unsplash.com/photo-1556909114-f6e7ad7d3136?w=400&h=300&fit=crop,https://www.mdskincare.com,USA,2001,indie,,,,2025-07-18T12:32:10.942225,2025-08-29T08:26:49.657666
cmdf0c67a65da4edfa49590,MDCI,"MDCI Parfums, or Maison de la Collection et de l'Innovation, is a French niche perfume house founded by the perfumer Marc-Antoine Corticchiato in 2003. The company is renowned for its artfully crafted fragrances that emphasize originality, craftsmanship, and luxury. MDCI’s creations often draw inspiration from the significant historical elements of perfume-making, particularly with a focus on the interplay between traditional techniques and modern artistry. They produce limited edition scents that reflect a deep respect for the art of perfumery, and their packaging often features exquisite designs akin to works of art, further emphasizing their commitment to luxury and elegance.",https://images.unsplash.com/photo-1582735689369-4fe89db7114c?w=400&h=300&fit=crop,https://www.mdci-parfums.com,France,2003,niche,,,,2025-07-18T12:32:10.942225,2025-08-29T08:26:55.874375
cmdbcb6f74d33d8a5f002e2,Me Me Me,"Me Me Me is a fragrance brand that focuses on creating unique and playful scents that appeal to a young and vibrantly creative audience. The brand was launched to inspire self-expression through fragrance, offering a range of perfumes that embody fun and an adventurous spirit. It prides itself on being makeup and fragrance-focused with an eye on innovative product designs and scents that resonate with modern lifestyle.",https://www.mememecosmetics.com/img/logo.png,https://www.mememecosmetics.com,United Kingdom,2012,indie,,,,2025-07-18T12:32:10.942225,2025-08-29T08:27:02.927262
cmdbc5999444215c6d3c9f7,Meadham Kirchhoff,"Meadham Kirchhoff is a fashion brand founded by designers Edward Meadham and Benjamin Kirchhoff in 2004, primarily recognized for their eclectic and artistic approach to fashion that blurs the lines between high fashion and streetwear. In addition to their clothing line, they have ventured into the fragrance industry, creating unique scents that reflect their avant-garde aesthetic and playful spirit. Their fragrances often embody a sense of creativity, individuality, and storytelling, aligning with their overall brand philosophy.",https://images.unsplash.com/photo-1556909114-f6e7ad7d3136?w=400&h=300&fit=crop,www.meadhamkirchhoff.com,United Kingdom,2004,niche,,,,2025-07-18T12:32:10.942225,2025-08-29T08:27:08.086980
cmd3c7cb0c266ef3af2f2b7,Meadow Farm,"Meadow Farm is a perfume company that specializes in creating unique, nature-inspired fragrances. With a commitment to using natural ingredients and sustainable practices, they aim to bring the essence of the outdoors into their scents. Their story began with a passion for the environment and a desire to craft perfumes that evoke the feeling of walking through a blooming meadow, capturing the beauty of nature in every bottle.",https://images.unsplash.com/photo-1587017539504-67cfbddac569?w=400&h=300&fit=crop,https://www.meadowfarm.com,United States,2010,indie,contact@meadowfarm.com,,,2025-07-18T12:32:10.942225,2025-08-29T08:27:13.771589
cmd5277caaab9010286c4e3,Mecca Cosmetica,"Mecca Cosmetica is a leading beauty retailer in Australia, renowned for its extensive range of premium cosmetics, skincare, fragrances, and beauty accessories. The company offers an immersive shopping experience with expert advice and high-quality products. Founded in 1997 by Jo Horgan, Mecca Cosmetica has grown into a beloved destination for beauty enthusiasts, showcasing both international and local brands while championing diverse beauty solutions. The company is known for its curated product selection that emphasizes luxury and high performance.",https://images.unsplash.com/photo-15907369626-6c63ac16f3df?w=400&h=300&fit=crop,https://www.meccacosmetica.com.au,Australia,1997,designer,,,,2025-07-18T12:32:10.942225,2025-08-29T08:28:39.667709
cmdb0681352b3361d32ddc4,Mel Merio,"Mel Merio is a creative perfume company that specializes in crafting unique and artistic fragrances. Founded by a passionate perfumer who aimed to bring innovative scents to the market, the brand emphasizes quality ingredients and individual expression through fragrance. Mel Merio has garnered attention for its contemporary approach and a distinct aesthetic that combines both art and olfaction, appealing to discerning customers looking for something beyond conventional offerings.",https://images.squarespace-cdn.com/content/v1/56165f29e4b0ecd479d59a49/1579183831912-62NR14QI62N8EXWY8ML1/13dcbf3f-1f47-4710-b9e6-6ff27093ba72.JPG?format=1500w,https://www.melmerio.com,United States,2019,niche,,,,2025-07-18T12:32:10.942225,2025-08-29T08:28:45.638571
cmd5210754f7d0372b038f4,Melanie Martinez,"Melanie Martinez is a performer and creative known for her unique approach to music and self-expression. She has entered the fragrance market by launching her own perfume line, which captures her artistic and eclectic style. The fragrances often reflect her persona and themes present in her music, appealing to her dedicated fanbase who connect with her imagery and concept-driven artistry.",https://images.unsplash.com/photo-1556909114-f6e7ad7d3136?w=400&h=300&fit=crop,https://www.melaniemartinez.com,United States,2020,celebrity,,,,2025-07-18T12:32:10.942225,2025-08-29T08:28:51.127939
cmdf25ecab28152e1af30a9,Meleg Parfum,"Meleg Parfum is an artisan fragrance company that specializes in creating luxurious, high-quality perfumes. Founded in Istanbul, Turkey, the brand seeks to capture the essence of Middle Eastern culture through unique, handcrafted fragrances. Their story revolves around passion for perfumery and a commitment to using fine ingredients, appealing to a discerning clientele that values authenticity and artistry in scent.",https://images.unsplash.com/photo-1556909114-f6e7ad7d3136?w=400&h=300&fit=crop,https://www.melegparfum.com,Turkey,2015,niche,contact@melegparfum.com,,,2025-07-18T12:32:10.942225,2025-08-29T08:28:56.195183
cmd2464fe47748bddedbd6f,Melinda Messenger,"Melinda Messenger is a brand that emerged from the popularity of its founder, a well-known British television presenter and model. The company is particularly recognized for creating fragrances that target a broad audience, combining market trends with personal touches reflective of Messenger's persona. Their specialty lies in crafting scents that capture the essence of femininity, appealing to the everyday woman while maintaining a sense of luxury and elegance. Melinda Messenger aims to provide accessible yet refined fragrances that resonate with its consumers’ lifestyles.",https://images.unsplash.com/photo-1556909114-f6e7ad7d3136?w=400&h=300&fit=crop,,United Kingdom,,celebrity,,,,2025-07-18T12:32:10.942225,2025-08-29T08:29:02.808082
cmdd07bdf53c003db0762b0,Mellerio,"Mellerio, founded in 1613, is a renowned French perfumery and jewelry house known for its exceptional craftsmanship and luxury creations. The company started as a jeweler and has maintained its reputation by incorporating high-quality fragrances into their offerings. Mellerio specializes in producing bespoke perfumes with a focus on personalization and artistry, often aligning their scent creations with their exquisite jewelry collections, making them a unique player in the perfume industry.",https://www.mellerio.fr/cdn/shop/files/2406_MELLERIO_SMN_08_0324_1.jpg?v=1727876185&width=400,https://www.mellerio.fr,France,1613,niche,,,,2025-07-18T12:32:10.942225,2025-08-29T08:29:10.219215
cmd901395df6eeb113a8726,Melrose Place,"Melrose Place is a luxury fragrance brand that embodies the essence of Los Angeles living, with a focus on artisanal craftsmanship and sophisticated scent profiles. Founded by a collective of fragrance enthusiasts, the company aims to create scents that evoke the lifestyle, culture, and vibrancy of Melrose Avenue. Their specialty lies in blending high-quality ingredients with contemporary design aesthetics, offering a unique sensory experience. Melrose Place emphasizes the importance of sustainability, using eco-friendly practices in their product development, and aims to connect with consumers seeking a modern yet classic fragrance experience.",https://images.unsplash.com/photo-15907369626-6c63ac16f3df?w=400&h=300&fit=crop,https://www.melroseplacefragrance.com,United States,2019,indie,,,,2025-07-18T12:32:10.942225,2025-08-29T08:29:14.869841
cmd5b56f927e2cd35d6762c,Melt Season,"Melt Season is a fragrance company that specializes in creating a unique blend of scents primarily focused on seasonal inspirations. The company aims to evoke emotions and memories through their carefully crafted perfumes, often influenced by various seasons, nature, and the changing environment. Established to cater to fragrance enthusiasts seeking distinctive and evocative blends, Melt Season prides itself on the sophistication and complexity of its offerings, appealing to a clientele that values artisanal and contemporary fragrance experiences.",https://images.unsplash.com/photo-1587017539504-67cfbddac569?w=400&h=300&fit=crop,www.meltseason.com,United States,2020,indie,info@meltseason.com,,"123 Fragrance Lane, New York, NY 10001, USA",2025-07-18T12:32:10.942225,2025-08-29T08:29:20.660953
cmdc792cbac689407d28d8f,Melvita,"Melvita is a French brand known for its commitment to organic and natural beauty products, particularly in the fragrance and skincare sectors. Founded in 1983 by Bernard Chevilliat, the company emphasizes the use of high-quality, sustainably sourced botanical ingredients. With a philosophy rooted in ecological respect and the promotion of biodiversity, Melvita has become a pioneer in the organic cosmetic field, recognized for its eco-friendly practices and certifications. It offers a range of products including perfumes that highlight natural scents drawn from flowers, plants, and essential oils, catering to a mindful, health-conscious consumer base.",https://images.unsplash.com/photo-1556909114-f6e7ad7d3136?w=400&h=300&fit=crop,https://www.melvita.com,France,1983,indie,,,,2025-07-18T12:32:10.942225,2025-08-29T08:29:26.944716
cmd1e75fd373e469ade5e10,MEM Company,"MEM Company specializes in creating unique and artisanal fragrances, drawing inspiration from cultural narratives and heritage. Founded by a group of passionate perfumers, the company aims to provide an experience that transcends the traditional perfume market by focusing on storytelling through scent. Their product line includes both personal fragrances and bespoke scent solutions for luxury venues.",https://static.HugeDomains.com/images/hdv3-img/hd-header-logo-v3.svg,www.memcompany.com,United States,2015,niche,info@memcompany.com,,,2025-07-18T12:32:10.942225,2025-08-29T08:29:32.905250
cmd4a9e638e89fb1b96e040,Memo International,"Memo International is a niche perfume house founded in 2007 specializing in high-quality, artisanal fragrances that evoke the spirit of travel and adventure. The brand is known for its innovative blends and unique storytelling through scent, often inspired by different cultures and locations. Memo's fragrances convey a sense of wanderlust through their luxurious compositions, crafted with a focus on rare and high-quality raw materials. Their signature style includes elaborate bottle designs and artistic presentations, drawing in fragrance enthusiasts who appreciate uniqueness and elegance.",https://www.memoparis.com/cdn/shop/files/Logo_Noir_Memo_3cm_2.png?v=1732619299&width=355,https://www.memoparis.com,France,2007,niche,,,,2025-07-18T12:32:10.942225,2025-08-29T08:29:39.027098
cmdecae58878c575d95a32c,Memo,"Memo is a luxury niche perfume brand founded in 2006 by Clara and John Molloy. The brand specializes in unique fragrances inspired by travel and the rich tapestry of global cultures. Memo is known for its artisanal approach to perfumery, using high-quality ingredients to create distinct scents that evoke memories and places. The company has gained a reputation for its storytelling through fragrance, offering collections that transport wearers to different landscapes around the world, such as ""Italian Leather"" and ""African Leather.""",https://www.memoparis.com/cdn/shop/files/Logo_Noir_Memo_3cm_2.png?v=1732619299&width=355,https://www.memo-paris.com,France,2006,niche,,,,2025-07-18T12:32:10.942225,2025-08-29T08:29:45.332324
