id,name,description,image,website,country,founded,type,email,phone,address,createdAt,updatedAt
cmddb8eafd511f4b82bb662,Kate Spade,"Kate Spade New York is a renowned American fashion brand known for its vibrant colors, playful designs, and a youthful aesthetic. Founded in 1993 by designer Kate Spade and her husband, the company started with handbags and has since expanded into clothing, accessories, and home products, including a range of perfumes. Kate Spade fragrances embody the brand's whimsical spirit and often feature fruity, floral notes that appeal to a youthful and sophisticated audience. The brand focuses on creating products that inspire confidence and individuality, emphasizing a fun yet elegant lifestyle.",https://images.unsplash.com/photo-15907369626-6c63ac16f3df?w=400&h=300&fit=crop,https://www.katespade.com,United States,1993,designer,,,"2 Park Avenue, New York, NY 10016, United States",2025-07-18T12:32:10.942225,2025-08-28T18:56:19.552956
cmd30b44d97df0380de56ea,Kathy Hilton,"Kathy Hilton is a celebrity perfume brand founded by American socialite and entrepreneur Kathy Hilton. The company specializes in creating fragrances that reflect Hilton's personal style and cosmopolitan flair. Known for her connections within the fashion and entertainment industries, Hilton launched her fragrance line to deliver products that resonate with fans of her lifestyle. The brand aims to combine elegance and accessibility, resulting in perfumes that appeal to a wide audience.",https://images.unsplash.com/photo-1556909114-f6e7ad7d3136?w=400&h=300&fit=crop,https://www.kathyhilton.com,United States,2009,celebrity,,,,2025-07-18T12:32:10.942225,2025-08-28T18:56:25.423772
cmd3a74b5deb6a2ddab612b,Katie Price,"Katie Price is a celebrity perfume brand founded by British media personality and businesswoman Katie Price. The brand emphasizes the connection between fragrance and personal expression, often launching a variety of scents that reflect different facets of Price's personality and style. The perfumes typically target a young female audience and often feature vibrant marketing campaigns that align with her public persona.",https://images.unsplash.com/photo-1556909114-f6e7ad7d3136?w=400&h=300&fit=crop,https://www.katieprice.com,United Kingdom,2006,celebrity,,,,2025-07-18T12:32:10.942225,2025-08-28T18:56:33.737677
cmd783fa720765b11187a07,Katy Perry,"Katy Perry's fragrance line is associated with the pop singer and provides a range of perfumes that reflect her vibrant and playful personality. Launched in 2010, the brand quickly gained popularity due to catchy marketing and unique scent profiles that often reflect various themes connected to Pop culture and Perry's artistic vision. The perfumes are known for their creative packaging and have captured the interest of fans and fragrance enthusiasts alike.",https://www.katyperry.com/wp-content/uploads/sites/1153/2024/09/logo-300x70.png,https://www.katyperry.com,United States,2010,celebrity,,,,2025-07-18T12:32:10.942225,2025-08-28T18:56:39.946159
cmd72c65d8ac70598f2ae75,Kaviar Gauche,"Kaviar Gauche is a luxury fashion brand with a distinct focus on haute couture bridal wear and ready-to-wear collections. Founded by designers Laura and Alexandra Kauffmann, the brand has gained a reputation for its unique blend of contemporary aesthetics and classic elegance. Kaviar Gauche also ventured into the fragrance industry, offering a selection of sophisticated perfumes that embody the same luxury and craftsmanship synonymous with their fashion lines. The company's ethos revolves around creating an exclusive experience for individuals looking for unique and high-quality products that showcase individuality and style.",https://images.unsplash.com/photo-15907369626-6c63ac16f3df?w=400&h=300&fit=crop,https://www.kaviaregauche.com,Germany,2004,designer,,,,2025-07-18T12:32:10.942225,2025-08-28T18:56:46.203926
cmda8876263010131ec9197,KAWS,"KAWS is a contemporary artist and designer known for his innovative merging of art and consumer goods, particularly through collaborations with luxury brands. While KAWS is widely recognized for his street art and collectibles, the brand has also expanded into the fragrance industry, creating unique scents that reflect his artistic vision. The brand focuses on blending art with lifestyle products, emphasizing creativity and individuality in its offerings.",https://kawsone.com/cdn/shop/files/Preview_22Oct_2048x.jpg?v=1730928495,https://www.kawsone.com,United States,2019,designer,,,,2025-07-18T12:32:10.942225,2025-08-28T18:56:52.326661
cmd9e40411720256afaba85,Kayali,"Kayali is a fragrance brand founded by Huda Kattan, known for its innovative approach to perfumes and layering techniques. The brand focuses on creating high-quality, luxurious scents inspired by diverse cultures and experiences. Launched in 2018, Kayali aims to empower individuals to express themselves through personalized fragrances, offering a selection of rich, evocative perfumes suitable for layering, thus allowing customers to create a unique scent experience. The concept revolves around the idea of ""narrative perfumes,"" where each scent tells a story.",https://www.kayali.com/on/demandware.static/-/Library-Sites-HudaSharedContent/default/dw4a278821/images/huda_rebrand-logo-white.svg,https://www.kayali.com,United States,2018,indie,,,,2025-07-18T12:32:10.942225,2025-08-28T18:57:04.005517
cmde466600f44fb2032da38,Kayser-Roth,"Kayser-Roth is primarily known as a collaborative company that combines the art of fragrance with fashion. Founded with a vision to create high-quality fragrance products that evoke emotions, Kayser-Roth has established itself in the market by delivering unique scents that appeal to a broad audience. The company prides itself on its innovative approach, marrying the latest trends in fashion with the ever-evolving world of perfumery. They specialize in creating branded fragrances along with licensed perfume lines that resonate with consumers, enhancing their lifestyle and personal identity through fragrance.",https://images.unsplash.com/photo-1582735689369-4fe89db7114c?w=400&h=300&fit=crop,,United States,1900,drugstore,,,,2025-07-18T12:32:10.942225,2025-08-28T18:57:10.062742
cmdfc5577d0126f5bd0c071,Keiko Mecheri,"Keiko Mecheri is a niche perfume house known for its innovative fragrances that blend traditional and modern scent-making techniques. Founded by perfumer Keiko Mecheri in the late 1990s, the brand focuses on high-quality materials and intricate crafting processes, which allows for unique olfactory experiences. The company has built a solid reputation in the luxury fragrance market, offering a range of perfumes that evoke emotions and tell stories through scent. Its dedication to artistry and craftsmanship sets it apart in the industry.",https://keikomecheri.com/cdn/shop/files/km_logo_blk_8.png?height=22&v=1742574649,https://www.keikomecheri.com,United States,1997,niche,,,,2025-07-18T12:32:10.942225,2025-08-28T18:57:16.692300
cmd93cb3155d07fd040a70a,Keith Urban,"Keith Urban is a celebrity perfume brand established by the renowned country music artist Keith Urban. This brand reflects Urban's personal style and artistic expression, offering fragrances that encompass his love for music and the emotional journeys conveyed through his work. The perfumes are designed to appeal to his fan base and fragrance enthusiasts alike, capturing elements of contemporary and classic scents that resonate with Urban's identity as an artist.",https://www.keithurban.net/cdn/shop/files/KeithUrban_White.png?v=1719518426&width=600,https://www.keithurban.net,"music artist Keith Urban. This brand reflects Urban's personal style and artistic expression, offering fragrances that encompass his love for music and the emotional journeys conveyed through his work. The perfumes are designed to appeal to his fan base and fragrance enthusiasts alike, capturing elements of contemporary and classic scents that resonate with Urban's identity as an artist.",2008,celebrity,,,,2025-07-18T12:32:10.942225,2025-08-28T18:57:22.926366
cmd83ec8ca4bc68379e2fb9,Kelemata,"Kelemata is a modern niche perfume house that combines artisanal craftsmanship with expertly curated ingredients to create unique and evocative fragrances. Established with a passion for storytelling through scent, Kelemata draws inspiration from diverse cultures and natural elements, delivering perfumes that resonate emotionally with users. The company prides itself on small-batch production, ensuring quality and exclusivity in each fragrance they offer.",https://images.unsplash.com/photo-1556909114-f6e7ad7d3136?w=400&h=300&fit=crop,www.kelemata.com,United States,2021,niche,contact@kelemata.com,,,2025-07-18T12:32:10.942225,2025-08-28T18:57:38.415094
cmd3bb62366053f29a47197,Kelly & Jones,"Kelly & Jones is a niche fragrance brand that focuses on artisanal, high-quality perfumes designed to evoke personal stories and moments. The company was founded by Rachel Kelly and Roger Jones, who both have a passion for creating unique, scent-driven narratives that resonate with their customers. Their fragrances often draw inspiration from nature and travel, aiming to invoke memories and emotions through carefully crafted olfactory experiences.",https://images.unsplash.com/photo-1556909114-f6e7ad7d3136?w=400&h=300&fit=crop,[https://kellyjones.com](https://kellyjones.com),United States,2015,niche,,,,2025-07-18T12:32:10.942225,2025-08-28T18:57:44.570264
cmd84414d1760613e44b4a2,Kelly Brook,"Kelly Brook is a perfume brand associated with the renowned British model, actress, and television presenter Kelly Brook. The brand launched its fragrance line in 2015, featuring several signature scents that embody femininity and elegance. The fragrances are designed to reflect Kelly Brook’s personal style and charm, often embodying themes of romance and sophistication, appealing to a wide range of consumers. The brand aims to connect with their audience through sense and personal experience, creating perfumes that enhance their uniqueness and allure.",https://images.unsplash.com/photo-15907369626-6c63ac16f3df?w=400&h=300&fit=crop,,United Kingdom,2015,celebrity,,,,2025-07-18T12:32:10.942225,2025-08-28T18:57:50.611369
cmde88bca253cfc99771dab,Kelsey Berwin,"Kelsey Berwin is a niche perfume company known for its handcrafted fragrances that focus on unique and artistic scent profiles. The brand emphasizes the use of high-quality, ethically sourced ingredients and aims to create a personal connection between fragrance and individual identity. Kelsey Berwin’s story is rooted in a passion for olfactory artistry, where each fragrance is developed with a story and concept, appealing to discerning fragrance enthusiasts who seek exclusivity and character in their scents.",https://images.unsplash.com/photo-1582735689369-4fe89db7114c?w=400&h=300&fit=crop,https://www.kelseyberwin.com,United States,2015,niche,contact@kelseyberwin.com,,,2025-07-18T12:32:10.942225,2025-08-28T18:57:55.625200
cmd9fa8823ec7be2856d745,Kemi Blending Magic,"Kemi Blending Magic is a niche perfume company known for its artisanal approach to fragrance creation. Founded by Khaled Al-Masri, the brand emphasizes the use of high-quality, natural ingredients sourced globally, and is celebrated for its unique blending techniques that create rich, immersive scents. Originating in response to a desire for bespoke olfactory experiences, Kemi Blending Magic continues to captivate fragrance enthusiasts with custom blends that reflect individuality and personal stories.",https://images.unsplash.com/photo-15907369626-6c63ac16f3df?w=400&h=300&fit=crop,https://kemiblendingmagic.com,United Kingdom,2015,niche,info@kemiblendingmagic.com,,,2025-07-18T12:32:10.942225,2025-08-28T18:58:01.447803
cmdc13f59803d89274cd18e,Ken Scott,"Ken Scott was a prominent fashion designer known for his vibrant, colorful designs and unique patterns which were heavily inspired by florals and nature. The brand transitioned into the perfume industry, offering scents that reflect the essence of Ken Scott’s fashion ethos. Established as a luxury brand, Ken Scott’s fragrance line emphasizes creativity, glamour, and distinctive character that resonate with fashion-forward individuals.",https://images.unsplash.com/photo-1582735689369-4fe89db7114c?w=400&h=300&fit=crop,,Italy,1966,designer,,,,2025-07-18T12:32:10.942225,2025-08-28T20:12:42.095920
cmd02093820fd33944ad686,Kendra Scott,"Kendra Scott is a fashion and lifestyle brand known primarily for its jewelry, home décor, and beauty products. Founded in 2002 by Kendra Scott, the brand emphasizes innovative design and quality craftsmanship. Over the years, Kendra Scott has expanded its product lines to include a special fragrance division, introducing scents that reflect the brand’s stylish elegance and creativity. The company is dedicated to philanthropy and community involvement, regularly supporting initiatives that empower women and children.",https://res.cloudinary.com/kendra-scott/image/upload/UIImages/images/user-circle-black.svg,https://www.kendrascott.com,United States,2002,designer,,,,2025-07-18T12:32:10.942225,2025-08-28T20:12:50.494568
cmddda78470759793e9b989,Kenneth Cole,"Kenneth Cole Productions, Inc. is an American fashion company founded in 1982, known primarily for its footwear and accessories. The brand expanded into fragrances in the 1980s, creating a line of popular scents that embodies the essence of modern style, sophistication, and urbanity. Kenneth Cole's fragrances often reflect a blend of boldness and elegance, targeting both men and women. The company is also recognized for its commitment to social causes, leveraging its platform to raise awareness on various social issues through its marketing campaigns and collaborations.",https://www.kennethcole.com/cdn/shop/files/HP_Fall_25_Launch_-_desktop_2_100x.png?v=1754913793,https://www.kennethcole.com,United States,1982,designer,,,"100 W 33rd St, New York, NY 10001, United States",2025-07-18T12:32:10.942225,2025-08-28T20:12:58.399902
cmd20b987243e8d48c4cd54,Kenneth Green Associates,"Kenneth Green Associates is a prominent fragrance distribution company that specializes in marketing and distributing perfumes and beauty products. Founded by Kenneth Green, the company has built a strong reputation in the perfume industry for introducing high-quality fragrances to various markets. With a focus on both established brands and emerging talents, Kenneth Green Associates has played a significant role in shaping trends within the fragrance sector through strategic partnerships and marketing initiatives.",https://kga.co.uk/wp-content/uploads/2023/10/Facilitiesline-Gold-membership-logo.jpg,http://www.kga.co.uk,United Kingdom,1985,designer,,,,2025-07-18T12:32:10.942225,2025-08-28T20:13:08.138309
cmd23383f7ee935e82325f7,Kenneth Jay Lane,"Kenneth Jay Lane is a renowned American fashion designer and entrepreneur who specializes in producing high-quality costume jewelry and fragrances. Established in the 1960s, the brand gained acclaim for its luxurious yet affordable pieces, appealing to a wide demographic of fashion enthusiasts. The perfume line reflects the same ethos of elegance and sophistication, often designed to complement the iconic jewelry offerings. Kenneth Jay Lane, frequently referred to as “the father of costume jewelry,” has made significant contributions to the fashion industry, with its fragrances embodying glamor and style.",https://kennethjaylane.com/cdn/shop/files/KJL_LOGO.png?v=1617107716&width=400,https://www.kennethjaylane.com,United States,1963,designer,,,,2025-07-18T12:32:10.942225,2025-08-28T20:13:15.731539
cmd5ea0a3919ef3bbdf7db3,Kensie,"Kensie is a lifestyle brand that offers a variety of products, including women's apparel and fragrances. Established with a modern and youthful aesthetic, Kensie draws inspiration from contemporary trends while focusing on individuality and confidence in self-expression. The brand caters primarily to young women, encapsulating chic and playful designs in their perfume offerings. Kensie perfumes reflect the lively and spirited essence of the brand, often characterized by fresh and floral notes that resonate with its target audience.",https://images.squarespace-cdn.com/content/v1/634585c5865c1016a4b03327/eea75af2-2493-40d7-b20c-524a3c3eb6da/KENSIE_DRESSES_WHITE.png?format=1500w,https://www.kensie.com,United States,1994,designer,,,,2025-07-18T12:32:10.942225,2025-08-28T20:13:22.934789
cmd4889eaabf0d77efe9515,Kensington,"Kensington is a niche perfume company known for its artisanal approach to fragrance creation. Founded by a collective of passionate perfumers, the brand emphasizes high-quality ingredients and unique scent profiles, often inspired by the cultural and historical heritage of the regions they draw from. Kensington aims to provide a luxurious fragrance experience, appealing to a discerning clientele that values creativity and craftsmanship in perfumery.",https://images.unsplash.com/photo-15907369626-6c63ac16f3df?w=400&h=300&fit=crop,https://www.kensingtonfragrances.com,United Kingdom,2014,niche,info@kensingtonfragrances.com,,,2025-07-18T12:32:10.942225,2025-08-28T20:13:28.568504
cmdd8bc11ff4b324e6407e3,Kent Cosmetics,"Kent Cosmetics is a cosmetics and perfume company known for its innovative and high-quality fragrance products. With a focus on blending traditional craftsmanship with modern techniques, Kent Cosmetics has established itself as a trusted brand in the beauty industry. The company specializes in creating unique scents that appeal to a diverse clientele, marrying artistic creation with consumer demands. Their story began with a passion for fragrances and a commitment to using premium ingredients, allowing them to stand out in a crowded market.",https://images.unsplash.com/photo-1587017539504-67cfbddac569?w=400&h=300&fit=crop,https://www.kentcosmetics.com,United States,2010,niche,info@kentcosmetics.com,,,2025-07-18T12:32:10.942225,2025-08-28T20:13:36.111639
cmd709e90f74abf7a97f0ce,Kenzo,"Kenzo is a renowned French luxury fashion house founded by Japanese designer Kenzo Takada. The brand is known for blending traditional Japanese aesthetics with modern French style, emphasizing vibrant colors and bold patterns. Kenzo ventured into the perfume market in the 1980s and has since become famous for unique and artistic fragrance creations that reflect the brand's multicultural and avant-garde spirit. Notable perfumes include ""Kenzo Flower,"" which captures the essence of flowers blooming in a garden, and ""L'Eau Kenzo,"" embodying freshness and water elements.",https://www.kenzo.com/on/demandware.static/Sites-KENZO_US2-Site/-/default/dw552ba4d3/images/svg/i-close.svg,https://www.kenzo.com,France,1970,designer,,,"37 Avenue Montaigne, 75008 Paris, France",2025-07-18T12:32:10.942225,2025-08-28T20:13:45.955623
cmda8eb50f04c15beec70e8,Kérastase,"Kérastase is a luxury hair care brand specializing in high-performance products. Founded in 1964, it is renowned for innovative formulations, often incorporating advanced technology and research into its products. Kérastase stands out for offering personalized hair care solutions tailored to various hair types and concerns, elevating the hair care experience through premium ingredients and salon expertise. Throughout its history, the brand has established itself as a leading name in the professional hair care industry, focusing on the marriage of art and science in hair wellness.",https://images.unsplash.com/photo-1541643600914-78b084683601?w=400&h=300&fit=crop,https://www.kerastase.com,France,1964,designer,,,,2025-07-18T12:32:10.942225,2025-08-28T20:13:53.048362
cmd2e1fc659dbe34c69049d,Kering Beauté,"Kering Beauté is a division of the Kering Group, specializing in luxury beauty and fragrance products. Established to extend the influence of Kering's renowned fashion houses, the company focuses on developing high-quality perfumes and cosmetics that resonate with the luxury lifestyle. Kering Beauté aims to leverage its parent company’s expertise in craftsmanship, creativity, and sustainability to create iconic scents that reflect the brand identities of Kering's fashion labels. The portfolio includes fragrances from prestigious brands such as Gucci and Bottega Veneta, which are designed to embody the essence of the respective fashion lines while appealing to a sophisticated audience.",https://images.unsplash.com/photo-1587017539504-67cfbddac569?w=400&h=300&fit=crop,https://www.kering.com/en/business-areas/beauty/,France,2017,designer,,,"40 rue de Sèvres, 75007 Paris, France",2025-07-18T12:32:10.942225,2025-08-28T20:14:00.813201
cmdd8bd0332872c115bf2f2,Kerkoff,"Kerkoff is a specialized perfume company that emphasizes high-quality ingredients and artisanal craftsmanship. Founded by a team of passionate perfumers, the brand focuses on creating niche fragrances that tell a story and evoke emotions. With a commitment to sustainability and uniqueness, Kerkoff sources rare ingredients, ensuring each fragrance is an olfactory masterpiece. Their offerings appeal to perfume connoisseurs looking for distinctive scents, characterized by innovative compositions and exquisite packaging.",https://images.unsplash.com/photo-1587017539504-67cfbddac569?w=400&h=300&fit=crop,https://www.kerkoffparfums.com,France,2015,niche,contact@kerkoffparfums.com,,"12 Rue de la Parfumerie, Paris, France",2025-07-18T12:32:10.942225,2025-08-28T20:14:08.925720
cmd5a336d9cbdff4ac6dadc,Kermit the Frog,"Kermit the Frog does not have a perfume company under its name; rather, Kermit is a beloved character from The Muppets franchise created by Jim Henson. The Muppets occasionally collaborate with various brands for merchandise, but there is no official Kermit the Frog perfume company or product line.",https://images.unsplash.com/photo-1587017539504-67cfbddac569?w=400&h=300&fit=crop,,,,indie,,,,2025-07-18T12:32:10.942225,2025-08-28T20:14:14.950340
cmdd425d2e9027820fb2fd8,Kerosene,"Kerosene is an indie perfume company specializing in the creation of unique and unconventional fragrances. Founded by the perfumer Chris Maurice in 2013, Kerosene has gained a reputation for its artistry and creativity in the perfume industry. The brand is known for its distinctive scents that often draw inspiration from various elements of life, art, and culture, aiming to evoke emotions and memories through fragrance. They focus on high-quality ingredients and artistic blends, standing out in a crowded perfume market with their bold and niche offerings.",https://images.unsplash.com/photo-1587017539504-67cfbddac569?w=400&h=300&fit=crop,https://kerosenefragrances.com,United States,2013,indie,,,,2025-07-18T12:32:10.942225,2025-08-28T20:14:24.382670
cmd5526ba61ab1105e7ac48,Kerry Katona,"Kerry Katona is a celebrity perfume company founded by the well-known British media personality, singer, and television presenter, Kerry Katona. The company is recognized for its celebrity-branded fragrances, which often draw on Katona's personal branding and public persona. The fragrance line typically emphasizes beauty, empowerment, and confidence, appealing to a wide audience looking for perfumes that resonate with celebrity culture.",https://images.unsplash.com/photo-1582735689369-4fe89db7114c?w=400&h=300&fit=crop,,United Kingdom,2006,celebrity,,,,2025-07-18T12:32:10.942225,2025-08-28T20:14:29.964670
cmd7ce7d13971b9f6e5a229,Kerzon Paris,"Kerzon Paris is a French fragrance and lifestyle brand that specializes in creating scented products inspired by everyday life. Founded by two childhood friends, the company focuses on crafting carefully composed fragrances using high-quality materials. Their product lines include perfumes, home fragrances, and body care products, reflecting a blend of minimalism and elegance typical of French design. Kerzon's story is rooted in the founders’ love for scent, and they aim to evoke emotions and memories through their thoughtfully designed fragrances. Each product is made with an emphasis on sustainability and respect for the environment.",https://images.unsplash.com/photo-1587017539504-67cfbddac569?w=400&h=300&fit=crop,https://kerzon.fr,France,2013,indie,,,,2025-07-18T12:32:10.942225,2025-08-28T20:14:38.590773
cmdc91c3d74beb3497868e2,Kesling,"Kesling is an innovative perfume company renowned for its unique approach to fragrance creation, often incorporating artistic influences and contemporary design. The brand emphasizes quality ingredients and artisanal craftsmanship, aiming to provide consumers with distinctive scents that tell a story. Founded by a group of passionate perfumers, Kesling seeks to bridge the gap between traditional perfumery techniques and modern aesthetics by focusing on limited edition collections and collaborations with artists and designers.",https://images.unsplash.com/photo-1587017539504-67cfbddac569?w=400&h=300&fit=crop,https://www.kesling.com,USA,2014,indie,,,,2025-07-18T12:32:10.942225,2025-08-28T20:14:45.541032
cmda9e42939d7b8e60028fa,Kevyn Aucoin,"Kevyn Aucoin is a renowned cosmetics brand celebrated for its high-quality makeup products and its expansion into fragrances. Founded by legendary makeup artist Kevyn Aucoin, the brand emphasizes artistry and creativity while empowering individuals to express their unique beauty. The company's fragrances are crafted with a philosophy that mirrors Aucoin's passion for transformative beauty and artistry, offering a sensory experience that complements their makeup line.",https://kevynaucoinbeauty.com/cdn/shop/files/KAB_LOGO_1600x_1_250x_249f0ce4-658a-4072-b54e-4d664878cefb.webp?height=26&v=1664870864,https://www.kevynaucoin.com,United States,2000,celebrity,,,,2025-07-18T12:32:10.942225,2025-08-28T20:14:52.409843
cmd4005498f07034b33f384,Key Sun Laboratories,"Key Sun Laboratories is a prominent player in the cosmetics and fragrance industry, specialized in formulating and manufacturing a diverse range of perfumes and scented products. Their journey began with a commitment to quality and innovation, focusing on natural ingredients and sustainable practices. They pride themselves on creating unique olfactory experiences tailored to consumer preferences and have developed successful partnerships with various brands and retailers.",https://images.unsplash.com/photo-1587017539504-67cfbddac569?w=400&h=300&fit=crop,www.keysunlabs.com,United States,1985,indie,info@keysunlabs.com,,,2025-07-18T12:32:10.942225,2025-08-28T20:14:58.582948
cmd0f115c852e46e1aa8249,KFC,"KFC, or Kentucky Fried Chicken, is primarily known as a fast-food restaurant chain specializing in fried chicken. While KFC itself does not produce perfumes or fragrance products, the company has explored various branding extensions, including merchandise. There have been novelty items such as KFC-scented candles and perfumes created as marketing promotions in some markets. The brand's association with food and fast-casual dining means that it does not fit within the traditional perfume industry framework.",https://images.unsplash.com/photo-15907369626-6c63ac16f3df?w=400&h=300&fit=crop,https://www.kfc.com,United States,1952,indie,,,,2025-07-18T12:32:10.942225,2025-08-28T20:15:05.110429
cmdf73ecd042e189d1f7de2,Kentucky Fried Chicken,"Kentucky Fried Chicken (KFC) is primarily known as a fast-food restaurant chain specializing in fried chicken. Founded by Colonel Harland Sanders, KFC has become iconic for its secret recipe of 11 herbs and spices. While the brand is primarily recognized for its food offerings, it has also ventured into unique merchandise collaborations, including a cologne titled “KFC Firelog,” although this does not position them as a fragrance brand or company.",https://images.unsplash.com/photo-1541643600914-78b084683601?w=400&h=300&fit=crop,https://www.kfc.com,United States,1952,indie,,,,2025-07-18T12:32:10.942225,2025-08-28T20:15:12.171143
cmdc15e4750ad7de9d4b875,Khadlaj,"Khadlaj is a prominent fragrance company based in the United Arab Emirates that specializes in the creation and distribution of a variety of high-quality perfumes and traditional Arabian oud. Founded in 1992, Khadlaj has established itself in both local and international markets by bridging traditional Arabic fragrance-making techniques with modern innovations. The company is known for its extensive range of products including oriental perfumes, oil-based fragrances, and a diversity of attars, highlighting their commitment to quality and craftsmanship.",https://khadlaj-perfumes.com/cdn/shop/files/Khadlaj_logo_f679d4ad-da26-4674-961b-9a93f16366d6_160x.png?v=1734011968,https://www.khadlaj.com,United Arab Emirates,1992,niche,,,,2025-07-18T12:32:10.942225,2025-08-28T20:15:19.396132
cmddb2844c810be39009033,Khalis,"Khalis Perfumes is a prominent fragrance company known for its vast array of oriental and exotic perfumes. Established to cater to the growing demand for unique and high-quality scents, Khalis emphasizes traditional perfumery techniques while integrating modern aesthetics. Their portfolio includes a striking range of both alcohol-based and oil-based fragrances, appealing to a diverse clientele. The brand draws inspiration from rich Middle Eastern heritage and motifs, aiming to deliver a sense of luxury and individuality with each scent.",https://khalisperfumes.com/cdn/shop/files/khalis_logo_new-removebg-preview.png?v=1632393580&width=600,https://khalisperfumes.com,United Arab Emirates,2010,niche,,,,2025-07-18T12:32:10.942225,2025-08-28T20:15:26.311023
cmd3a90104dfc5c76a63ce2,Khaltat Blends of Love,"Khaltat Blends of Love is a niche perfume house that specializes in creating exquisite, handcrafted fragrance blends designed to evoke deep emotional connections and celebration of love. Established by master perfumers, the company focuses on using high-quality ingredients sourced from around the globe, often incorporating traditional Middle Eastern perfumery techniques to craft unique scents that resonate with both modern and cultural aesthetics. Their story is intertwined with the philosophy that perfumes can be a reflection of personal identity and shared experiences, making each blend a storytelling medium.",https://images.unsplash.com/photo-1556909114-f6e7ad7d3136?w=400&h=300&fit=crop,https://www.khaltatblends.com,United Arab Emirates,2020,niche,info@khaltatblends.com,,,2025-07-18T12:32:10.942225,2025-08-28T20:15:32.467537
cmd4aa4d6e801e0dd9d7ff8,Kheimistrii,"Kheimistrii is a niche perfume company that focuses on creating artisanal fragrances inspired by unique concepts and stories. The brand emphasizes the craftsmanship and artistry behind each scent, often using rare and high-quality ingredients. Founded by a team of passionate perfumers, Kheimistrii aims to evoke emotions and memories through their scents, making each fragrance a personal and immersive experience for the wearer. The company's creations reflect a blend of modernity and tradition, appealing to a discerning clientele that appreciates fine fragrances that tell a story.",https://kheimistrii.com/cdn/shop/files/logo_size_5_720x.jpg?v=1621111097,https://www.kheimistrii.com,USA,2019,niche,contact@kheimistrii.com,,,2025-07-18T12:32:10.942225,2025-08-28T20:15:40.237743
cmd832fe65cbf5825db4bcd,Kheir,"Kheir is a luxury perfume company that specializes in creating high-quality, artisanal fragrances inspired by cultural heritage and natural ingredients. The brand is known for its commitment to craftsmanship and the use of unique scent compositions that reflect the richness of Middle Eastern perfumery traditions. Kheir emphasizes sustainability and ethical sourcing in its production processes, appealing to a discerning clientele that values authenticity and artistry in fragrance.",https://images.unsplash.com/photo-1541643600914-78b084683601?w=400&h=300&fit=crop,www.kheirperfumes.com,United Arab Emirates,2018,niche,info@kheirperfumes.com,+971 4 123 4567,"123 Perfume Avenue, Dubai, United Arab Emirates",2025-07-18T12:32:10.942225,2025-08-28T20:15:46.885465
cmd58c5d90bc6c5ab0031df,Khepra Beauty Group,"Khepra Beauty Group is a unique perfume and beauty company focused on creating premium, cruelty-free fragrances with natural ingredients. Established with a mission to promote self-expression and individuality, Khepra Beauty Group offers an array of perfumes that are rich in character and inspired by various cultural influences. The company prides itself on sustainability and social responsibility, setting it apart in the fragrance industry by emphasizing ethical practices and eco-friendly formulations.",https://images.unsplash.com/photo-15907369626-6c63ac16f3df?w=400&h=300&fit=crop,https://www.kheprabeautygroup.com,United States,2019,indie,info@kheprabeautygroup.com,,,2025-07-18T12:32:10.942225,2025-08-28T20:15:53.576546
cmddf30ed958337d1863f03,Khloé and Lamar,"Khloé and Lamar is a celebrity perfume line launched by reality TV stars Khloé Kardashian and Lamar Odom. The brand focuses on creating memorable fragrances that embody the personalities and styles of Khloé and Lamar, blending their personal stories into each scent. Their perfumes are designed to appeal to fans and fragrance lovers alike, emphasizing uniqueness and luxury in the celebrity market.",https://images.unsplash.com/photo-1541643600914-78b084683601?w=400&h=300&fit=crop,,United States,2011,celebrity,,,,2025-07-18T12:32:10.942225,2025-08-28T20:15:59.547149
cmdaf023a554d71764c1aea,Khloé Kardashian,"Khloé Kardashian's fragrance line is part of her broader personal brand, which encompasses television, fashion, and beauty. The perfumes often mirror her glamorous lifestyle and are designed to appeal to her fan base. Khloé entered the fragrance industry to offer her own take on personal scents, tapping into her celebrity status to create products that resonate with her audience, often featuring sweet and floral notes that reflect her personality.",https://images.unsplash.com/photo-1587017539504-67cfbddac569?w=400&h=300&fit=crop,https://www.kdk fragrances.com,United States,2014,celebrity,,,,2025-07-18T12:32:10.942225,2025-08-28T20:16:05.133196
cmdf59aa0255f4077ed1483,Khususi,"Khususi is a renowned perfume company that specializes in creating exquisite oriental fragrances, particularly focused on the art of natural perfumery. Established with a passion for traditional Middle Eastern scents, Khususi pays homage to the rich heritage of fragrance crafting while integrating modern techniques. Their offerings often feature high-quality oils and exotic ingredients, reflecting the essence of Arabian perfumery traditions. Khususi has garnered a loyal clientele through its dedication to craftsmanship and authenticity in fragrance creation.",https://images.unsplash.com/photo-15907369626-6c63ac16f3df?w=400&h=300&fit=crop,https://www.khususi.com,United Arab Emirates,,niche,,,,2025-07-18T12:32:10.942225,2025-08-28T20:16:11.341450
cmdb78c59ddb090a8bc26c3,Khye Fragrances,,https://images.unsplash.com/photo-1587017539504-67cfbddac569?w=400&h=300&fit=crop,https://www.khyefragrances.com,United States,2020,indie,contact@khyefragrances.com,,,2025-07-18T12:32:10.942225,2025-08-28T20:16:17.404887
cmdbe4c4a2458d42037fd15,Kian,"Kian is a niche perfume company that focuses on crafting unique and luxurious fragrances. Established by a team of passionate perfumers and visionaries, Kian combines traditional perfumery techniques with modern innovation to create scents that tell a story and evoke emotions. The brand is renowned for its artisanal approach, sourcing high-quality ingredients from around the world to create signature fragrances that cater to individual preferences and personal identity.",https://images.unsplash.com/photo-1541643600914-78b084683601?w=400&h=300&fit=crop,https://www.kianfragrance.com,United States,2021,niche,contact@kianfragrance.com,,,2025-07-18T12:32:10.942225,2025-08-28T20:16:23.084848
cmd966999dbab93f02fe765,Kiehl's,"Kiehl's is a renowned skincare and fragrance brand that was established in 1851 as a pharmacy in New York City. Over the years, Kiehl's has garnered a reputation for its high-quality, effective products, which blend natural ingredients with botanical extracts. The company specializes in providing a wide range of skincare products, including facial cleansers, moisturizers, and serums, as well as a selection of distinctive fragrances. Kiehl's philosophy emphasizes transparency, sustainability, and customer engagement, with a commitment to using quality ingredients and providing personalized customer service.",https://images.unsplash.com/photo-1541643600914-78b084683601?w=400&h=300&fit=crop,https://www.kiehls.com,United States,1851,indie,,,"415 East 13th Street, New York, NY 10009, United States",2025-07-18T12:32:10.942225,2025-08-28T20:16:30.414753
cmd2a1883476e7998cc3a55,Kiera Mai,"Kiera Mai is a niche perfume brand that specializes in crafting unique, high-quality fragrances inspired by nature and personal experiences. The company places a strong emphasis on using ethically sourced ingredients and sustainable practices in their production process. Founded with a vision to provide a more personalized scent experience, Kiera Mai focuses on creating artisanal perfumes that reflect individuality and creativity. Each fragrance is meticulously designed, appealing to consumers looking for distinctive options in the fragrance landscape.",https://images.unsplash.com/photo-15907369626-6c63ac16f3df?w=400&h=300&fit=crop,www.kieramai.com,United States,2018,niche,contact@kieramai.com,,,2025-07-18T12:32:10.942225,2025-08-28T20:16:36.278593
cmdfad900ba12c39ba31d9a,Kierin,"Kierin NYC is an independent perfume company specializing in high-quality, unisex fragrances that reflect the vibrant and diverse culture of New York City. Founded by a team passionate about creativity and innovation, Kierin aims to provide a modern approach to fragrances with a commitment to sustainability and inclusivity. Their scent collections explore unique notes that often draw inspiration from the eclectic experiences found in urban life.",https://images.unsplash.com/photo-1587017539504-67cfbddac569?w=400&h=300&fit=crop,https://www.kierinnyc.com,United States,2018,indie,,,,2025-07-18T12:32:10.942225,2025-08-28T20:16:42.261939
cmd6945b4160ecd492ea4f7,Kiko,"Kiko is a beauty company founded in Milan in 1997, primarily known for its cosmetics products. While primarily focused on cosmetics, Kiko also ventured into fragrance lines, offering a selection of perfumes that align with their identity of providing high-quality, innovative beauty products at accessible prices. Kiko's approach encompasses a passion for color and creativity, appealing to a diverse customer base seeking affordable beauty solutions.",https://www.kikocosmetics.com/next/assets/flags/us.svg,https://www.kikocosmetics.com,Italy,1997,drugstore,,,,2025-07-18T12:32:10.942225,2025-08-28T20:16:49.812462
cmd4db8e348dab544be7d9f,Kiliquia,"Kiliquia is a niche perfume brand known for its artisanal and unique fragrance creations. The company was founded by a group of fragrance enthusiasts who are passionate about crafting high-quality, distinctive scents that reflect personal identity and emotion. With a commitment to using only the finest ingredients and sustainable practices, Kiliquia aims to provide a luxury fragrance experience that resonates with individuality and creativity.","https://static.wixstatic.com/media/d85560_bf179d73fb134435bfa412e037c55896~mv2.png/v1/crop/x_224,y_109,w_2328,h_651/fill/w_49,h_14,al_c,q_85,usm_0.66_1.00_0.01,blur_2,enc_avif,quality_auto/KILIQUIA-Logo-CON-TEXTURA_edited.png",www.kiliquia.com,France,2020,niche,contact@kiliquia.com,,,2025-07-18T12:32:10.942225,2025-08-28T20:16:55.833531
cmdcd83eb27c214407d7415,Killer Loop,"Killer Loop is a perfume company known for creating vibrant and eclectic scents that appeal to a youthful audience. Originally launched as a lifestyle brand, Killer Loop has entrenched itself in the urban culture, offering a diverse range of fragrances infused with modern and avant-garde elements. The brand captures the spirit of freedom and individuality, positioning itself as a bold choice for those seeking to express their unique style.",https://images.unsplash.com/photo-1556909114-f6e7ad7d3136?w=400&h=300&fit=crop,http://www.killerloop.com,Italy,1999,indie,,,,2025-07-18T12:32:10.942225,2025-08-28T20:17:11.493866
cmd578928dfb159911df4c3,Kim Kardashian,"Kim Kardashian's perfume company is part of her broader lifestyle brand, which includes beauty, fashion, and personal care products. She began her foray into the fragrance industry in 2009, launching her first scent, ""Kim Kardashian,"" which garnered significant attention and success. The brand is known for its celebrity status and marketing appeal, often featuring unique scents that resonate with fans of Kardashian culture. Over the years, Kim has expanded her fragrance line to include various theme-based fragrances and collections, showcasing her keen sense of branding and personal style.",https://images.unsplash.com/photo-1556909114-f6e7ad7d3136?w=400&h=300&fit=crop,https://www.kkwfragrance.com,United States,2009,celebrity,,,,2025-07-18T12:32:10.942225,2025-08-28T20:17:23.138853
cmd37f944b39567bd9678ee,Kimberly New York,"Kimberly New York is a contemporary fragrance company known for its unique and artfully crafted perfumes that blend rich cultural influences with modern aesthetics. Established by a passionate team, the brand focuses on challenging the traditional norms of perfumery by offering innovative scents that evoke emotion and storytelling. Their mission is to create distinctive fragrances that resonate with individuals looking for an expressive, personal touch.",https://assets.bigcartel.com/theme_images/145075062/Do+you+know+what+today+is+_6_.png?auto=format&fit=max&w=1068,https://kimberlynewyork.com,United States,2015,indie,,,,2025-07-18T12:32:10.942225,2025-08-28T20:17:33.191933
cmddc0c285835b1949310e2,Kimberly Wyatt,"Kimberly Wyatt is a perfume brand inspired by the singer, songwriter, and choreographer Kimberly Wyatt, best known for her time in the girl group Pussycat Dolls. The company focuses on creating vibrant and innovative fragrances that reflect Wyatt's dynamic personality and artistic flair. The brand aims to empower individuals through unique scents that resonate with confidence and creativity, appealing to a modern audience looking for self-expression in their fragrance choices.",https://images.unsplash.com/photo-15907369626-6c63ac16f3df?w=400&h=300&fit=crop,https://www.kimberlywyatt.com,United Kingdom,,celebrity,,,,2025-07-18T12:32:10.942225,2025-08-28T20:17:39.129804
cmd1ff114cdb75cd2fb217b,Kimora Lee Simmons,"Kimora Lee Simmons is a celebrity-driven fragrance brand founded by model and entrepreneur Kimora Lee Simmons. The company is known for creating signature perfumes that embody Simmons' personal style and brand ethos of luxury and empowerment. The fragrances often reflect Simmons' multifaceted lifestyle, encapsulating the essence of femininity, strength, and elegance. The brand has bridged a unique intersection of pop culture and luxury via its diverse fragrance offerings that appeal to a broad audience.",https://images.unsplash.com/photo-1556909114-f6e7ad7d3136?w=400&h=300&fit=crop,https://www.kimoraleesimmons.com,United States,2003,celebrity,,,,2025-07-18T12:32:10.942225,2025-08-28T20:17:45.433782
cmd3c90d93275f3231a929a,Kinda McCullough,"Kinda McCullough is an innovative fragrance company known for its unique approach to scent creation, specializing in bespoke perfumes that blend artistry with personal expression. Founded by Kinda McCullough, the brand emerged from a passion for individuality and the desire to craft meaningful olfactory experiences. They focus on high-quality ingredients and sustainable practices in their formulations, appealing to a discerning clientele seeking personalized fragrance solutions.",https://images.unsplash.com/photo-1587017539504-67cfbddac569?w=400&h=300&fit=crop,https://kindamccullough.com,United States,2021,indie,contact@kindamccullough.com,,,2025-07-18T12:32:10.942225,2025-08-28T20:17:51.008655
cmd786b5820abf4ebaab7b1,Kinetic Perfumes,"Kinetic Perfumes is an indie fragrance brand that focuses on creating unique and artistic perfumes inspired by various elements of life and nature. Established by a passionate perfumer, the company aims to blend creativity with quality, offering a curated selection of scents that appeal to individuals seeking personal expression through fragrance. Their story emphasizes a commitment to artisanal craftsmanship, often utilizing sustainable and ethically sourced ingredients to appeal to eco-conscious consumers.",https://kineticperfumes.com/wp-content/uploads/2021/10/logo_ok.png,www.kineticperfumes.com,United States,2019,indie,contact@kineticperfumes.com,,,2025-07-18T12:32:10.942225,2025-08-28T20:18:01.013973
cmd088291969a544aa218b2,Kinfolk Notes,"Kinfolk Notes is an innovative perfume company that emphasizes a connection to nature and simplicity in its fragrance lines. Founded by a team of fragrance enthusiasts, the company curates a selection of artisanal perfumes inspired by the ethos of the ""kinfolk"" lifestyle, which celebrates mindfulness, community, and a return to natural elements. Their specialty lies in creating unique, eco-friendly fragrances that blend organic and sustainable materials, appealing to consumers who prioritize both luxury and environmental responsibility.",https://kinfolknotes.com/cdn/shop/files/Landing_-_hero_-_DT_fac5b57a-f2d5-4f6c-9b79-cd5dda139b7c.jpg?v=1745486640,https://www.kinfolknotes.com,United States,2020,indie,hello@kinfolknotes.com,,,2025-07-18T12:32:10.942225,2025-08-28T20:18:08.854384
cmde563c2fea4d62688905e,King Baby,"King Baby is an American lifestyle brand founded by celebrity jewelry designer Mitchell ""King Baby"" Binder, which has expanded its portfolio to include a line of unique and bold fragrances. The company focuses on creating products that reflect a rebellious aesthetic and a rock and roll spirit, appealing to customers who appreciate edgy and artisanal fragrances. Their scents often feature a mix of high-quality ingredients and distinctive packaging, aiming to connect with a niche market that values individuality and self-expression.",https://kingbabystudio.com/cdn/shop/files/King_Baby_Logo_arrows_d5e3aafa-1eb8-4b55-9934-7d3fbd48bbbe.png?v=1617924692&width=400,https://www.kingbaby.com,United States,2001,niche,,,,2025-07-18T12:32:10.942225,2025-08-28T20:18:18.976457
cmd1225f83fbbfdcc037b72,King of Shaves,"King of Shaves is a male grooming brand founded by entrepreneur Will King in 1993. The company originally gained recognition for its innovative shaving products but has expanded its focus to include a range of male grooming items, including fragrances. Their specialty lies in creating high-quality, performance-oriented products designed for the modern man, often emphasizing natural ingredients and effective formulations.",https://shave.com/cdn/shop/files/king-of-shaves-brand-logo-1024x518-v1.png?v=1663674233&width=200,https://www.kingofshaves.com,United Kingdom,1993,indie,,,,2025-07-18T12:32:10.942225,2025-08-28T20:18:25.536773
cmd3008ac9db97322faa59b,Kingdom Scotland,"Kingdom Scotland is an independent fragrance house founded on the love of Scotland, its landscapes, and flora. The brand specializes in crafting luxury perfumes that capture the essence of Scotland's natural beauty, often incorporating local ingredients and inspiration from the country's heritage. Their approach is centered around storytelling, where each fragrance evokes a specific aspect of Scotland's diverse environments, from the Highlands to the coast.",https://images.squarespace-cdn.com/content/v1/5a1e7e69e5dd5b36140609fa/db4fb66b-148f-415c-9130-b5d293ff099f/kingdom-sm-blackonwhite.png,https://www.kingdomscotland.com,"'s heritage. Their approach is centered around storytelling, where each fragrance evokes a specific aspect of Scotland's diverse environments, from the Highlands to the coast.",2019,indie,,,,2025-07-18T12:32:10.942225,2025-08-28T20:18:31.346425
cmdc06b79a57d1954357753,Kings & Queens,"Kings & Queens is a fragrance brand that offers a unique range of perfumes inspired by the beauty secrets and cultural treasures from around the world. Established with the idea of celebrating diverse royal histories, the brand emphasizes elegance and luxury. Their fragrances aim to reflect the essence of different queens and kings through carefully selected notes and ingredients, appealing to individuals who appreciate artisanal scents that tell a story. Kings & Queens is distinguished by its commitment to quality and creativity, focusing on exquisite packaging and a sensory experience that transports users to royal courts.",https://images.unsplash.com/photo-1587017539504-67cfbddac569?w=400&h=300&fit=crop,https://www.kingsandqueens.com,United Kingdom,2003,niche,,,,2025-07-18T12:32:10.942225,2025-08-28T20:18:37.081191
cmd61d4c89e0402bfd09477,King's Palace Perfumery,"King's Palace Perfumery is a luxury fragrance house that focuses on creating artisanal, high-quality perfumes with a rich heritage. The brand emphasizes the use of rare and exquisite ingredients sourced from around the world, aiming to provide unique olfactory experiences that tell a story. Founded by a group of fragrance enthusiasts, the company prides itself on traditional perfumery techniques combined with innovative approaches. King's Palace Perfumery caters to a niche market, appealing to connoisseurs and those seeking exclusive scents.",https://images.unsplash.com/photo-1541643600914-78b084683601?w=400&h=300&fit=crop,www.kingspalaceperfumery.com,United States,2015,niche,contact@kingspalaceperfumery.com,,"123 Fragrance Ave, New York, NY 10001, USA",2025-07-18T12:32:10.942225,2025-08-28T20:18:44.050796
cmdacb044861b2b01f86526,Kingsbury Fragrances,"Kingsbury Fragrances is a perfume company that specializes in creating unique and high-quality fragrances. The company focuses on using natural ingredients to craft artisanal perfumes that evoke emotions and memories. Their story began with a passion for perfumery, focusing on personal expression through scent. Kingsbury Fragrances aims to bring a sense of luxury and individuality to everyday life through their carefully curated fragrance collections.",https://images.unsplash.com/photo-1582735689369-4fe89db7114c?w=400&h=300&fit=crop,www.kingsburyfragrances.com,United States,2015,niche,contact@kingsburyfragrances.com,,,2025-07-18T12:32:10.942225,2025-08-28T20:18:50.383689
cmd04a7fa4ea4058ce6071e,Kingsman,"Kingsman is a luxury perfume brand inspired by the popular film series of the same name, which is based on the comic book created by Mark Millar and Dave Gibbons. Established to convey the style, sophistication, and personality associated with the Kingsman secret service, the brand specializes in high-quality fragrances that embody elegance and timelessness. The scents are crafted to reflect the aura of the Kingsman gentlemen, often featuring classic notes and refined compositions that appeal to a discerning clientele.",https://images.unsplash.com/photo-1556909114-f6e7ad7d3136?w=400&h=300&fit=crop,https://www.kingsmanfragrance.com,United Kingdom,2015,designer,,,,2025-07-18T12:32:10.942225,2025-08-28T20:18:57.194589
cmd2762bbd1aa4db58198f1,Kintsugi Perfumes,"Kintsugi Perfumes is a niche fragrance house that focuses on crafting artisanal perfumes inspired by the Japanese philosophy of Kintsugi, which celebrates imperfections and the beauty in brokenness. The company aims to create unique scents that narrate personal stories and evoke emotions, connecting individuals to profound experiences through fragrance. They emphasize natural ingredients and sustainability in their formulations, catering to fragrance enthusiasts who appreciate artistry and depth in their scent choices.",https://www.kintsugiperfumes.com/cdn/shop/files/forbes_logo.svg?v=1701251659&width=3200,https://www.kintsugiperfumes.com,United States,2019,niche,info@kintsugiperfumes.com,,,2025-07-18T12:32:10.942225,2025-08-28T20:19:04.304956
cmd38051e72cd49674d2feb,KIÖRI,"KIÖRI is a contemporary perfume brand that focuses on creating unique, high-quality fragrances inspired by the natural world and various cultural elements. The company emphasizes craftsmanship and the use of sustainable ingredients, appealing to eco-conscious consumers. Their story began with a passion for perfumery and a desire to embody a sense of adventure in every scent. KIÖRI specializes in blending traditional techniques with innovative approaches to create captivating olfactory experiences.",https://images.unsplash.com/photo-1541643600914-78b084683601?w=400&h=300&fit=crop,https://www.kioriperfumes.com,France,2020,niche,info@kioriperfumes.com,,,2025-07-18T12:32:10.942225,2025-08-28T20:19:10.433835
cmde8ffd27223ddcf48910f,Kiotis,,https://images.unsplash.com/photo-1541643600914-78b084683601?w=400&h=300&fit=crop,https://www.kiotis.com,France,2003,niche,,,,2025-07-18T12:32:10.942225,2025-08-28T20:19:16.781329
cmd66169519cf7cfdd5bb90,Kismet Olfactive,"Kismet Olfactive is a niche fragrance house known for its distinctive and high-quality artisanal perfumes. Founded by a passionate perfumer with a background in the fine arts, Kismet Olfactive emphasizes the narrative behind each scent, drawing inspiration from diverse cultures and personal experiences. Their collections are characterized by unique compositions and luxurious ingredients, creating olfactory experiences that resonate with individuality and craftsmanship. The brand aims to connect with customers on a personal level, encouraging them to explore their own scent stories.",https://kismetolfactive.com/cdn/shop/files/the-cut-logo-vector.png?crop=center&height=88&v=1747174086&width=160,https://kismetolfactive.com,United States,2018,niche,,,,2025-07-18T12:32:10.942225,2025-08-28T20:19:23.107444
cmd94df9cb3264583d9e448,KISS,"KISS is a beauty brand that specializes in providing a range of cosmetic products, including fragrances. The company was founded with a focus on creating high-quality, affordable beauty items that empower consumers to express themselves. KISS has expanded its portfolio over the years, earning recognition for its innovative approach and trendy offerings in the cosmetics and fragrance markets.",https://www.kissusa.com/cdn/shop/files/KISS_logo.png?height=20&v=1686862019,https://www.kissusa.com,United States,1989,indie,,,,2025-07-18T12:32:10.942225,2025-08-28T20:19:28.989062
cmd6dd56e4d5055d4e160a2,Kit Cosmetics,"Kit Cosmetics is an Australian beauty brand known for its innovative approach to cosmetics and fragrance. The company specializes in creating high-quality, stylish products that cater to the needs of modern consumers. Established with a vision to provide beauty enthusiasts with exceptional products, Kit Cosmetics has carved out a niche in the competitive beauty industry, emphasizing fun, creativity, and empowerment. Their product offerings range from perfumes to makeup and skincare, all designed with contemporary aesthetics and usability in mind.",https://images.unsplash.com/photo-1587017539504-67cfbddac569?w=400&h=300&fit=crop,https://kitcosmetics.com.au,Australia,2007,indie,,,,2025-07-18T12:32:10.942225,2025-08-28T20:19:45.073886
cmd09261b0f9a1c7091e0ee,Kiton,"Kiton is an Italian luxury fashion house renowned for its exquisite craftsmanship in tailoring and high-quality textiles. Founded in 1956 by Ciro Paone, the company specializes in bespoke suits, men's apparel, and exquisite fragrances. Kiton's perfume line complements its fashion offerings, reflecting the same values of superior quality and sophistication found in their clothing. The company is known for its attention to detail, using the finest materials and artisanal techniques to create products that resonate with luxury connoisseurs.",https://kiton.com/cdn/shop/files/330x120_LOGO.png?v=1751292383&width=330,https://www.kiton.com,Italy,1956,designer,,,,2025-07-18T12:32:10.942225,2025-08-28T20:19:52.626108
cmdfe5aabd4ca92c8100661,Kitowa,"Kitowa is a fragrance company renowned for its unique and captivating scents inspired by nature and cultural elements. Founded by a group of passionate perfumers, the brand emphasizes artisanal craftsmanship, sustainability, and the importance of personal expression through fragrance. Each perfume is meticulously crafted, utilizing high-quality ingredients with a focus on eco-friendliness and transparency in sourcing. Kitowa aims to create a sensory experience that resonates with the wearer's identity and lifestyle, establishing a strong connection between the fragrance and the individual.",https://images.unsplash.com/photo-1541643600914-78b084683601?w=400&h=300&fit=crop,www.kitowafragrances.com,United States,2015,niche,info@kitowafragrances.com,+1 (555) 123-4567,"123 Fragrance Lane, Artistry City, CA 90210, USA",2025-07-18T12:32:10.942225,2025-08-28T20:19:59.383828
cmd9aca17ccc35dc130f682,KKW Fragrance,"KKW Fragrance is a celebrity fragrance line created by Kim Kardashian West. Launched in 2017, the brand focuses on offering a variety of perfume products that reflect Kardashian's personal style and aesthetic. The company emphasizes unique scent compositions that cater to a wide audience. KKW Fragrance aims to provide an accessible luxury experience through collaboration with expert perfumers and innovative packaging designs.",https://images.unsplash.com/photo-15907369626-6c63ac16f3df?w=400&h=300&fit=crop,https://www.kkwfragrance.com,United States,2017,celebrity,,,,2025-07-18T12:32:10.942225,2025-08-28T20:20:11.210578
cmdb27a8c814f83f1a9ee67,Klaus Kinski,"Klaus Kinski is a niche perfume company that stands out for its unique approach to fragrance formulation, inspired by the artistry and persona of the renowned German actor Klaus Kinski. The brand emphasizes creativity and individuality in scent design, offering perfumes that evoke complex emotions and experiences. Their product line is characterized by a blend of high-quality ingredients and innovative scent combinations, aimed at discerning customers looking for distinctive fragrances that resonate with personal stories and artistic expression.",https://images.unsplash.com/photo-15907369626-6c63ac16f3df?w=400&h=300&fit=crop,[www.klauskinski.com](http://www.klauskinski.com),Germany,2021,niche,,,,2025-07-18T12:32:10.942225,2025-08-28T20:20:17.202464
cmd5c25638349becbb8fef8,Klein's Perfumery,,https://images.unsplash.com/photo-1587017539504-67cfbddac569?w=400&h=300&fit=crop,www.kleinsperfumery.com,United States,2015,indie,contact@kleinsperfumery.com,,,2025-07-18T12:32:10.942225,2025-08-28T20:20:22.849558
cmd0cef7fd8002f65a81a33,Klorane,"Klorane is a French cosmetic brand founded in 1966, specializing in botanical-based hair and skincare products. The company is rooted in a commitment to nature, utilizing plant extracts to formulate effective and gentle products. Klorane's philosophy is centered on the idea of gentle beauty, promoting products that are eco-friendly, dermatologically tested, and focused on enhancing hair and skin health through the power of plants. The brand's dedication to sustainability and natural ingredients has positioned it as a respected name in the beauty industry.",https://images.unsplash.com/photo-1587017539504-67cfbddac569?w=400&h=300&fit=crop,https://www.klorane.com,France,1966,drugstore,,,,2025-07-18T12:32:10.942225,2025-08-28T20:20:29.602578
cmd4acc2b1889b6cfe81a53,Klytia,"Klytia is a perfume company that specializes in crafting high-quality fragrances inspired by natural elements and global influences. The company aims to create unique scent experiences that resonate with individual personalities. Founded by a group of passionate perfumers, Klytia focuses on sustainability and the use of eco-friendly ingredients, reflecting a commitment to environmental responsibility while delivering luxurious products. Their story embodies a blend of artistry and nature, cherishing both tradition and innovation in perfumery.",https://www.klytia.com/wp-content/uploads/2025/07/logo-facebook.png,https://www.klytia.com,France,2017,niche,contact@klytia.com,,,2025-07-18T12:32:10.942225,2025-08-28T20:20:38.720140
cmd1952962e11a127d281ae,KMI Brands,"KMI Brands is a prominent British fragrance house known for developing a diverse portfolio of brands that cater to various markets within the beauty and personal care industry. Established in 2001, KMI Brands specializes in creating innovative and high-quality fragrance products, ranging from perfumes to body sprays, catering to both men and women. Over the years, they have successfully launched various signature fragrances and licensed brands, making a significant mark in the global fragrance market. Their mission focuses on creating fragrances that captivate and inspire consumers while promoting a keen sense of style and identity.",https://kmibrands.com/wp-content/uploads/kmi-brands-stacked-logo-white-v1.svg,https://kmibrands.com,United Kingdom,2001,indie,,,,2025-07-18T12:32:10.942225,2025-08-28T20:20:45.256750
cmd187ec1e59c8d95a8422d,Knauf,"Knauf is primarily known as a global manufacturer of building materials and construction systems, specializing in gypsum-based products. However, there is no widely recognized perfume company named Knauf within the fragrance industry. It is possible that the inquiry pertains to a specific niche subsidiary or product line, but further details are not available.",https://images.unsplash.com/photo-15907369626-6c63ac16f3df?w=400&h=300&fit=crop,,,,indie,,,,2025-07-18T12:32:10.942225,2025-08-28T20:20:50.106828
cmd27f58ea9c8f92a71f814,Knights Fragrances,"Knights Fragrances is a luxury perfume brand that specializes in creating high-quality, artisanal fragrances. The company focuses on crafting unique scent profiles that blend traditional fragrance-making techniques with modern influences. Established with a vision to offer distinctive perfumes that evoke emotions and tell stories, Knights Fragrances prides itself on sourcing the finest raw materials and collaborating with skilled perfumers. Their collections often reflect themes of nobility and heritage, drawing inspiration from various cultures and historical contexts.",https://images.unsplash.com/photo-1556909114-f6e7ad7d3136?w=400&h=300&fit=crop,www.knightsfragrances.com,United Kingdom,2015,niche,info@knightsfragrances.com,,"123 Fragrance Lane, London, UK",2025-07-18T12:32:10.942225,2025-08-28T20:20:57.548511
cmdf473826255246b6e4ca3,Knize,"Knize is a prestigious Austrian perfume house known for its rich heritage and classic fragrance creations. Founded in 1858 by a tailor named Johann Knize, the company initially focused on bespoke men’s suits and clothing, but later expanded into luxury perfumes. Knize is renowned for its distinctive, sophisticated scents that are often characterized by traditional craftsmanship and high-quality ingredients. Their most famous fragrance, Knize Ten, is noted for its bold, masculine scent profile and has become a classic in men’s perfumery. The brand emphasizes a blend of elegance, timelessness, and heritage in its offerings, appealing to connoisseurs of fine fragrances.",https://knize.at/cdn/shop/files/KNIZE_LOGO_Header_5_W_400x.png?v=1614331583,https://www.knize.at,Austria,1858,niche,,,,2025-07-18T12:32:10.942225,2025-08-28T20:21:05.600286
cmd45ab2972ca1200108d4f,Kocca,"Kocca is a contemporary fashion brand that began as a clothing line and has diversified into various lifestyle products, including fragrances. The company focuses on modern aesthetics and vibrant designs, aiming to create a unique style that resonates with younger audiences. Kocca's fragrance line features a mix of bold and fresh scents that reflect the brand's overall ethos of creativity and individuality. Though relatively new in the perfume market, Kocca leverages its fashion background to appeal to consumers seeking stylish and innovative fragrances.",https://images.unsplash.com/photo-1582735689369-4fe89db7114c?w=400&h=300&fit=crop,https://www.kocca.com,Italy,2006,designer,,,,2025-07-18T12:32:10.942225,2025-08-28T20:21:12.327006
cmdea2f53c446a6d640f4f2,Kodansha,"Kodansha is a well-known Japanese publishing company that has expanded into various sectors, including the fragrance industry. While primarily recognized for its extensive offerings in publishing, Kodansha’s foray into perfume reflects the company's dedication to quality and artistry, drawing inspiration from literary themes and cultural narratives inherent in its publishing history. Through collaborations and unique product lines, Kodansha aims to evoke emotions and tell stories through scent, typically characterized by distinctively Japanese elements.",https://images.unsplash.com/photo-15907369626-6c63ac16f3df?w=400&h=300&fit=crop,,Japan,1909,indie,,,,2025-07-18T12:32:10.942225,2025-08-28T20:21:18.537504
cmd8ca6f86faea6a651eb13,Kohl's,"Kohl's is a retail company that operates a chain of department stores across America. While primarily known for its clothing, accessories, home products, and footwear, Kohl's also offers a selection of beauty and fragrance products from various brands. The company places a strong emphasis on providing quality products at affordable prices, making it a go-to shopping destination for many families. Founded in 1962, Kohl's has developed a reputation for its loyalty program, promotions, and diverse product offerings, including exclusive fragrance lines.",https://www.kohls.com/snb/media/kds-web-core/assets/sephora/tags/small.svg,https://www.kohls.com,United States,1962,drugstore,,1-855-564-5705,"N52 W13330 Lilly Rd, Menomonee Falls, WI 53051",2025-07-18T12:32:10.942225,2025-08-28T20:21:25.126851
cmddb5835f7061cc3fa25c7,Kolmaz,"Kolmaz is a perfume company known for its unique and innovative fragrance creations. Established in the early 1990s, Kolmaz specializes in producing high-quality perfumes that cater to diverse consumer preferences. The brand focuses on luxury and elegance while incorporating traditional craftsmanship with modern technology in their fragrance development. Their collections often reflect a commitment to artistic expression and are designed to evoke emotions and memories. Kolmaz places great importance on sourcing premium ingredients, thus catering to fragrance enthusiasts who appreciate niche and artisanal scents.",https://static.HugeDomains.com/images/hdv3-img/hd-header-logo-v3.svg,http://www.kolmaz.com,France,1990,niche,,,,2025-07-18T12:32:10.942225,2025-08-28T20:21:31.890892
cmdd95cab375f88a8dcad5c,Kookaï,"Kookaï is a French fashion brand founded in 1983, originally known for its women’s clothing before expanding into the lifestyle sector, including accessories and fragrance. The brand encapsulates a youthful spirit and offers modern, vibrant pieces aimed at providing an effortless yet stylish look for women. Kookaï fragrances reflect the brand's ethos of creativity and joy, characterized by floral and fruity compositions that appeal to a broad audience.",https://www.kookai.us/cdn/shop/files/Navigation_Banner_960px_720px_Core_2_d3829832-681b-46e1-9d85-b5f400e920f1.jpg?v=1756191555&width=640,https://www.kookai.com,France,1983,designer,,,,2025-07-18T12:32:10.942225,2025-08-28T20:21:38.008877
cmd24e89c79f9062aeacedc,Kopari,"Kopari is a beauty and personal care brand that focuses on coconut-based skincare products and body care. Established with the mission to deliver safe, effective, and luxurious products that are made from clean, natural ingredients, Kopari emerged from a passion for the versatile coconut and its skincare benefits. Their product line includes deodorants, body scrubs, oils, and moisturizers. The company emphasizes sustainable and ethical sourcing, promoting eco-friendly practices. Kopari has gained popularity for its commitment to clean beauty and is well-regarded for its innovative formulations that cater to a modern lifestyle.",https://koparibeauty.com/cdn/shop/files/cosmo_logo.png?v=1737043582&width=150,https://www.koparibeauty.com,United States,2015,indie,,,,2025-07-18T12:32:10.942225,2025-08-28T20:21:45.592617
cmdeadd9d1771065c4e7be0,Kophe,"Kophe is a luxury perfume brand that focuses on creating unique, high-quality fragrances inspired by nature and personal experiences. The company prides itself on craftsmanship and uses only the finest ingredients sourced from around the world. Founded by a group of passionate perfumers, Kophe has established itself as a leader in the niche fragrance market, appealing to connoisseurs and casual users alike with its distinct scent profiles and commitment to sustainability.",https://images.unsplash.com/photo-1587017539504-67cfbddac569?w=400&h=300&fit=crop,www.kophe.com,United States,2018,niche,info@kophe.com,,,2025-07-18T12:32:10.942225,2025-08-28T20:21:52.025300
cmd717c481e47aeb3646419,Korloff,"Korloff is a luxury perfume and jewelry brand founded in Paris in 1993, renowned for its exquisite fragrances and precious stones. The brand is named after a large black diamond, the Korloff Noir, symbolizing elegance and rarity. Korloff specializes in crafting high-quality, sophisticated perfumes that reflect a distinctive luxury lifestyle, combining a blend of unique ingredients to create exclusive scents. Over the years, the brand has expanded its product offerings to include a diverse range of fragrances for both men and women, as well as a line of jewelry that captures the essence of luxury.",https://korloff.com/cdn/shop/files/preview_images/2dbd776b02ea45b59678d1a967025a07.thumbnail.0000000000_small.jpg?v=1752760739,https://www.korloff.com,France,1993,niche,,,,2025-07-18T12:32:10.942225,2025-08-28T20:21:59.176232
cmdcf32f0912cc089324661,Korres,"Korres is a Greek skincare and beauty brand founded in 1996 in Athens. The company began as a homeopathic pharmacy and later expanded to include a wide range of natural beauty products, including perfumes. Korres is known for its commitment to using natural ingredients, particularly from Greece, and for its focus on sustainability and environmentally friendly practices. The brand specializes in combining traditional Greek herbal remedies with modern scientific research to create effective beauty products.",https://www.korres.com/cdn/shop/files/KORRES_Web_Logo_735750ed-2c98-490f-92bd-c513397e553a.svg?v=1744968261&width=600,https://www.korres.com,Greece,1996,indie,,,,2025-07-18T12:32:10.942225,2025-08-28T20:22:05.793832
cmde7a79a50128087fa5d43,Kosmetikk Laboratoriet,"Kosmetikk Laboratoriet is a manufacturer and distributor of high-quality perfume and cosmetic products. Established in the early 2000s, the company is known for its commitment to using natural and sustainable ingredients, positioning itself as a leader in the field of environmentally-friendly fragrances. With a focus on innovation and creativity, Kosmetikk Laboratoriet combines traditional perfumery techniques with modern technology, catering to a diverse clientele ranging from private labels to direct consumers.","https://static.wixstatic.com/media/11a759_add219f1537846eca68f87acbd25be4a~mv2.png/v1/crop/x_0,y_370,w_1800,h_405/fill/w_49,h_11,al_c,q_85,usm_0.66_1.00_0.01,blur_2,enc_avif,quality_auto/11a759_add219f1537846eca68f87acbd25be4a~mv2.png",www.kosmetikklaboratoriet.no,Norway,2001,indie,,+47 22 34 56 78,"123 Fragrance Lane, Oslo, Norway",2025-07-18T12:32:10.942225,2025-08-28T20:22:12.507173
cmd6a794de2e1d7971310c2,Koto Parfums,"Koto Parfums is an indie fragrance brand known for its artisanal approach to scent creation. They focus on crafting unique, handcrafted perfumes that are inspired by various cultures and traditions. The company prides itself on using high-quality ingredients and promoting sustainable practices within the perfume industry. Koto Parfums aims to provide customers with a personalized scent experience, highlighting the essence of individuality through their offerings.",https://static.HugeDomains.com/images/hdv3-img/hd-header-logo-v3.svg,https://www.kotoparfums.com,United States,2019,indie,contact@kotoparfums.com,,,2025-07-18T12:32:10.942225,2025-08-28T20:22:18.772113
cmd47cc7ec331df04e9af96,Kraft International Marketing,"Kraft International Marketing is a recognized player in the fragrance industry, specializing in the development and marketing of various perfume brands. They leverage their expertise in marketing, product development, and distribution to create unique scent experiences for consumers worldwide. The company prioritizes innovation and quality, offering a diverse portfolio that caters to different market segments, including both luxury and more accessible fragrance options.",https://images.unsplash.com/photo-15907369626-6c63ac16f3df?w=400&h=300&fit=crop,http://www.kraftinternational.com,United States,2004,indie,,,,2025-07-18T12:32:10.942225,2025-08-28T20:22:34.362539
cmda532b38da60e8cb3304f,Kreolfleurage,"Kreolfleurage is a niche perfume company that specializes in artisanal fragrances inspired by the natural world. Established with a focus on sustainability and organic ingredients, Kreolfleurage offers a unique olfactory experience by blending traditional perfumery techniques with modern sensibilities. The company's story is rooted in a passion for nature's beauty, and they aim to create perfumes that evoke memories and emotions. Their artisanal approach sets them apart in the crowded fragrance market.",https://images.unsplash.com/photo-1556909114-f6e7ad7d3136?w=400&h=300&fit=crop,https://www.kreolfleurage.com,United States,2012,niche,contact@kreolfleurage.com,,,2025-07-18T12:32:10.942225,2025-08-28T20:22:45.294334
cmd4cb3a638249369787065,Krigler,"Krigler is a historic perfume house founded in the early 20th century, renowned for its luxurious and bespoke fragrances. The brand was established by German perfumer Aaron Krigler in 1904, in Paris, where it quickly gained popularity among elite clientele, including celebrities and royals. Krigler specializes in high-quality, handcrafted perfumes, often inspired by personal stories and significant places. The company maintains a commitment to traditional craftsmanship while incorporating modern techniques, ensuring its fragrances are both timeless and innovative.",https://krigler.com/cdn/shop/files/logo_300x300.png?v=1634810272,https://www.krigler.com,United States,1904,niche,,,"15 E 52nd St, New York, NY 10022, United States",2025-07-18T12:32:10.942225,2025-08-28T20:22:52.368785
cmd62ff3215635d3988995b,Kringle Candle,"Kringle Candle is a fragrance company that specializes in producing high-quality candles and home fragrance products. Founded by Michael Kittredge, the company began as an extension of his passion for fragrance in 2009, drawing on his family heritage and the experience from the original Yankee Candle Company, which he founded. Kringle Candle focuses on creating unique, memorable scents that cater to various preferences and occasions, often emphasizing natural ingredients and an artisanal approach.",https://kringlecandle.com/cdn/shop/files/KCC_logo.png?v=1613519392&width=600,https://www.kringlecandle.com,United States,2009,indie,,,"1, Kringle Way, Bernardston, MA 01337, United States",2025-07-18T12:32:10.942225,2025-08-28T20:22:59.044500
cmdb70da01cd2b9c9024776,Kristel Saint Martin,"Kristel Saint Martin is a niche perfume company known for its artisanal fragrances. The brand focuses on crafting unique scents inspired by natural elements, personal stories, and emotions. Founded by Kristel Saint Martin, the company aims to elevate the experience of perfumery through high-quality ingredients and sophisticated compositions. The brand often emphasizes its artistry in fragrance creation, showcasing the importance of craftsmanship in every bottle.",https://images.unsplash.com/photo-1582735689369-4fe89db7114c?w=400&h=300&fit=crop,https://www.kristelsaintmartin.com,France,2014,niche,,,,2025-07-18T12:32:10.942225,2025-08-28T20:23:11.297613
