id,name,description,image,website,country,founded,type,email,phone,address,createdAt,updatedAt
cmdb6a9d609b931f6a661d2,MSC Skin Care + Home,MSC Skin Care + Home specializes in premium skincare and home fragrance products. The company focuses on using high-quality natural ingredients to create their formulations while promoting a holistic approach to beauty and wellness. They aim to enhance customers' well-being through effective skincare solutions and soothing home scents. MSC Skin Care + Home is known for its commitment to sustainability and ethical sourcing within the beauty industry.,https://images.unsplash.com/photo-1582735689369-4fe89db7114c?w=400&h=300&fit=crop,https://www.mscskincare.com,United States,,indie,,,,2025-07-18T12:32:10.942225,2025-08-29T08:55:31.980124
cmd54f1118ee7eb1f00b904,MSCHF,"MSCHF is an art collective and creative company known for its innovative and often controversial marketing projects that intersect art, culture, and consumer products. They gained significant attention for their unique approach to product development, including their distinct line of perfumes that challenge traditional notions of branding and consumerism. MSCHF aims to provoke thought and encourage conversations around the products they create, often blending humor and critique within their offerings.",https://images.unsplash.com/photo-1556909114-f6e7ad7d3136?w=400&h=300&fit=crop,https://mshcf.com,United States,2016,indie,,,,2025-07-18T12:32:10.942225,2025-08-29T08:55:38.179543
cmde5e8e63988ce4cbea20b,Mthrkind,,https://images.squarespace-cdn.com/content/v1/5ff390e73fe4fe33db933537/8deeda54-c2d2-4c62-800f-4e2f5c428104/site+name+logo.png?format=1500w,https://mthrkind.com,United States,2019,indie,,,,2025-07-18T12:32:10.942225,2025-08-29T08:55:45.959704
cmd05b3b212742e18e45509,MTV,"MTV is a celebrity-brand fragrance company that launched a range of perfumes inspired by the influences of pop culture and youth. The brand is associated with the music and entertainment industry, leveraging its vast exposure and audience reach to create fragrances that appeal to a young and vibrant consumer base. MTV's fragrances often reflect trends in music and lifestyle, making them a staple in the celebrity perfume segment.",https://www.mtv.com/svg/mtv.svg,https://www.mtv.com/,United States,2009,celebrity,,,,2025-07-18T12:32:10.942225,2025-08-29T08:55:55.613671
cmd2932d9e744c0f5203c21,Muelhens,"Muelhens is a historic perfume house known for its long-standing tradition in the fragrance industry. Originally founded in the early 18th century in Germany, Muelhens gained prominence with its iconic scent ""4711,"" which was created in 1792. The brand specializes in producing high-quality colognes and unique perfumes that embody elegance and sophistication, often showcasing a blend of traditional and modern fragrance techniques. With a rich heritage, Muelhens has established a reputation for crafting timeless fragrances that appeal to various consumer preferences.",https://images.unsplash.com/photo-1582735689369-4fe89db7114c?w=400&h=300&fit=crop,https://www.muelhens.com,Germany,1792,designer,,,,2025-07-18T12:32:10.942225,2025-08-29T08:56:02.100933
cmdfa5ce4adf4981f41beb1,Muhà,"Muhà is an independent perfume company that specializes in creating unique, artisanal fragrances. Founded by a passionate perfumer with a background in fine arts, Muhà brings a distinct approach to scent creation by combining traditional perfumery techniques with contemporary artistic concepts. Their story revolves around the philosophy of individuality and self-expression through fragrance, making each scent a representation of personal identity. The company emphasizes quality ingredients and craftsmanship, often producing limited edition collections that appeal to niche markets and fragrance connoisseurs.",https://images.unsplash.com/photo-1587017539504-67cfbddac569?w=400&h=300&fit=crop,https://www.muhaparfum.com,Italy,2018,niche,info@muhaparfum.com,,"Via Milano, 12, 20121 Milan, Italy",2025-07-18T12:32:10.942225,2025-08-29T08:56:08.031320
cmd6c396f000dba6dea8045,Muhammad Ali,"Muhammad Ali Fragrances is a perfume company that was inspired by the legendary boxer Muhammad Ali. The brand focuses on creating fragrances that embody the spirit, strength, and charisma of Ali, aiming to capture his legacy in scent form. The company specializes in celebrity-branded perfumes, offering a range of products that appeal to fans of Ali and fragrance enthusiasts alike.",https://images.unsplash.com/photo-1541643600914-78b084683601?w=400&h=300&fit=crop,,USA,,celebrity,,,,2025-07-18T12:32:10.942225,2025-08-29T08:56:14.002885
cmd6ca6992e53b367f5f5d1,Muji,"Muji is a Japanese retail company that specializes in a wide range of household and consumer goods, including clothing, stationery, and food products. Founded in 1980 under the name Mujirushi Ryohin, which translates to ""no brand quality goods,"" Muji is known for its minimalist design philosophy, sustainability practices, and high-quality products. In addition to its core offerings, Muji also produces a selection of essential oils and fragrances that reflect its commitment to simplicity and nature. The company's story began as a response to Japan's economic situation, focusing on providing budget-friendly yet high-quality alternatives to branded goods.",https://images.unsplash.com/photo-1541643600914-78b084683601?w=400&h=300&fit=crop,https://www.muji.com,Japan,1980,indie,,,,2025-07-18T12:32:10.942225,2025-08-29T08:56:30.446346
cmda7346bafd2baf22e17a0,Mulberry,"Mulberry is a British luxury brand known primarily for its leather goods, but the company has also ventured into the world of fragrances. Established in 1971, Mulberry is synonymous with craftsmanship and quality, drawing inspiration from English heritage and design. Their perfumes often carry the same ethos of elegance and sophistication found in their leather accessories, appealing to customers who appreciate high-end fashion and lifestyle products.",https://images.unsplash.com/photo-1556909114-f6e7ad7d3136?w=400&h=300&fit=crop,https://www.mulberry.com,United Kingdom,1971,designer,,,,2025-07-18T12:32:10.942225,2025-08-29T08:56:37.380370
cmd54b3c17893acdc7ac715,Murad,"Murad is a skincare company founded by Dr. Howard Murad, who is a dermatologist and a pioneer in the field of skincare. The company focuses on developing high-quality skincare products that combine science with holistic wellness principles. Murad is known for its commitment to skin health and its innovative approaches to addressing a variety of skin concerns, including aging, acne, and hydration. The brand emphasizes the importance of cellular rejuvenation and overall skin wellness, creating formulas that not only treat but also promote healthy skin.",https://www.murad.com/cdn/shop/files/m-logo-gray.svg?v=1718906130,https://www.murad.com,United States,1989,indie,,,"ing a variety of skin concerns, including aging, acne, and hydration. The brand emphasizes the importance of cellular rejuvenation and overall skin wellness, creating formulas that not only treat but also promote healthy skin.",2025-07-18T12:32:10.942225,2025-08-29T08:56:45.503615
cmd000dbb58d95d398e88d7,Murano,"Murano is a luxury perfume company known for its artisanal craftsmanship and unique fragrance creations. The brand focuses on blending tradition with modern artistry, offering an array of scents that are inspired by the heritage of Venetian glassmaking. Murano is committed to quality, using rare ingredients and sustainable practices in their production process, which enhances their exclusivity within the niche fragrance market.",https://images.unsplash.com/photo-1556909114-f6e7ad7d3136?w=400&h=300&fit=crop,https://www.muranoparfums.com,Italy,,niche,,,,2025-07-18T12:32:10.942225,2025-08-29T08:56:51.428108
cmd9163502c6a456ec3c710,Murdock,"Murdock is a British grooming brand that specializes in men's fragrances, skincare, and haircare products. Founded in 2006, the company aims to provide a luxurious experience in grooming while emphasizing a distinctly masculine aesthetic and approach. Murdock operates barbershops that offer not only grooming services but also a range of high-quality grooming products under their label. The brand is known for its craftsmanship, and its products often incorporate fine ingredients and classic scents, appealing to discerning customers looking for premium grooming solutions.",https://www.murdocklondon.com/cdn/shop/files/Murdock-Logo-Vector_Version_for_resising_600x.jpg?v=1668431129,https://www.murdocklondon.com,United Kingdom,2006,niche,,,,2025-07-18T12:32:10.942225,2025-08-29T08:56:58.504998
cmdf803bddcb0950108f57a,Murray & Lanman,"Murray & Lanman is a renowned fragrance company known for its production of alcoholic fragrances, particularly their signature product, Florida Water, which is often used in spiritual practices and personal care. Established in 1808, Murray & Lanman has a rich heritage in crafting scents that blend traditional recipes with modern sensibilities. The company specializes in creating fragrances that appeal to a wide array of customers, making them a beloved choice in the perfume industry. Their products are often associated with both cultural significance and refreshing aromas.",https://images.unsplash.com/photo-1556909114-f6e7ad7d3136?w=400&h=300&fit=crop,http://www.murraylanman.com,United States,1808,indie,,,,2025-07-18T12:32:10.942225,2025-08-29T08:57:04.860475
cmd1e7b46f85d07a5500bdc,Mury,"Mury is a contemporary perfume house that excels in crafting unique and niche fragrances that capture the essence of diverse inspirations. Established with a vision to blend art and science, Mury focuses on using rare ingredients and traditional perfumery techniques to create sophisticated scents. The company prides itself on its dedication to quality and creativity, appealing to fragrance connoisseurs seeking something distinct and luxurious. Over the years, Mury has cultivated a loyal customer base that appreciates its innovative approach and attention to detail in every bottle.",https://images.unsplash.com/photo-1556909114-f6e7ad7d3136?w=400&h=300&fit=crop,www.muryparfums.com,France,2015,niche,contact@muryparfums.com,,"12 Rue de la Parfumerie, Paris, 75001, France",2025-07-18T12:32:10.942225,2025-08-29T08:57:11.763073
cmdb2f964473dbe5d3b698b,Musc et Madame,"Musc et Madame is a niche perfume house that specializes in crafting unique and sophisticated fragrances, blending high-quality ingredients with artistic creativity. Founded by a passionate perfumer, the company emphasizes a personalized approach to scent creation that reflects the essence of femininity and elegance. With a focus on ‘musk’ as a central note, Musc et Madame aims to evoke deep emotions and memories through its signature fragrances, catering to those who appreciate the artistry of perfumery.",https://images.squarespace-cdn.com/content/v1/54cea16de4b01483a5c50c5f/1601871046446-Y9Z9UK8P8MN0ETZHOEYW/MUSC+Logo.png?format=1500w,https://www.muscetmadame.com,France,2015,niche,,,,2025-07-18T12:32:10.942225,2025-08-29T08:57:18.475313
cmd5b193c566224c7fdfa8b,Musgo Real,"Musgo Real is a traditional Portuguese perfume and grooming brand, celebrated for its high-quality products and rich heritage. Established in 1887, the company initially gained fame for its exquisite soaps, which were later expanded to include a range of fragrances and grooming essentials. The brand emphasizes craftsmanship, utilizing premium ingredients and classic scents that evoke a sense of nostalgia and luxury. Their specialty lies in blending modern and traditional methods to create unique, sophisticated aromas that appeal to both men and women.",https://images.unsplash.com/photo-1587017539504-67cfbddac569?w=400&h=300&fit=crop,https://www.musgoreal.com,Portugal,1887,niche,,,,2025-07-18T12:32:10.942225,2025-08-29T08:57:24.521578
cmdfd9a2c33cbdf34aab223,Musicology,"Musicology is a fragrance company that focuses on creating perfumes inspired by various musical genres and emotions. Their unique approach combines the art of perfumery with the essence of music, leading to innovative and evocative scents that resonate with consumers. The company's story revolves around the belief that music can inspire feelings and memories, much like fragrance can. Musicology specializes in crafting high-quality, artistic perfumes that aim to connect with individuals on a deeper, emotional level.",https://images.squarespace-cdn.com/content/v1/5b12de353c3a539ca9b479d3/1538855538698-4O58ZGW4H6FEMR5W09EN/musiodata-logo.png?format=1500w,https://www.musicology.com,United States,2020,indie,info@musicology.com,,,2025-07-18T12:32:10.942225,2025-08-29T08:57:31.293186
cmde4e7f8a6044485d44483,Mustang Fragrances,"Mustang Fragrances is a distinctive fragrance company known for creating a range of perfumes that embody the adventurous spirit and rugged elegance associated with the Mustang brand. The company specializes in crafting fragrances that evoke a sense of freedom and the open road, attracting both men and women. With a focus on quality and unique scent profiles, Mustang Fragrances strives to deliver products that resonate with the brand's iconic heritage, combining modern elements with classic inspirations.",https://images.unsplash.com/photo-1556909114-f6e7ad7d3136?w=400&h=300&fit=crop,https://www.mustangfragrances.com,United States,,designer,,,,2025-07-18T12:32:10.942225,2025-08-29T08:57:40.155982
cmda8824256036aa8c0fdd7,Mustang,"Mustang is a fragrance company that offers a range of perfumes inspired by the iconic Mustang car brand. They focus on creating scents that embody the spirit of adventure, freedom, and a dynamic lifestyle, often appealing to both men and women. Their products are designed to evoke a sense of nostalgia associated with the classic muscle car, ensuring that each fragrance resonates with fans of the automobile as well as fragrance enthusiasts.",https://images.unsplash.com/photo-1587017539504-67cfbddac569?w=400&h=300&fit=crop,,,,designer,,,,2025-07-18T12:32:10.942225,2025-08-29T08:57:46.575217
cmd06ffa32972c7118ea68c,Mutis Nueva Granada,"Mutis Nueva Granada is a Colombian perfume brand that focuses on capturing the essence of nature and culture through artisanal fragrance creation. Inspired by the lush biodiversity of Colombia, the company emphasizes sustainable sourcing of materials while crafting perfumes that reflect the country's unique aromatic heritage. Established by a team of passionate perfumers, Mutis Nueva Granada aims to bring traditional Colombian scents to a wider audience, celebrating both the rich history and the modern artistry of fragrance.",https://images.unsplash.com/photo-1587017539504-67cfbddac569?w=400&h=300&fit=crop,www.mutis.com.co,"'s unique aromatic heritage. Established by a team of passionate perfumers, Mutis Nueva Granada aims to bring traditional Colombian scents to a wider audience, celebrating both the rich history and the modern artistry of fragrance.",2017,niche,,,,2025-07-18T12:32:10.942225,2025-08-29T08:57:53.112154
cmd9b3128737ff8d930b9da,My Daughter Fragrances,"My Daughter Fragrances is a specialized perfume company that focuses on creating high-quality, emotionally resonant fragrances inspired by personal memories and connections. Founded by a mother and daughter team, the company emphasizes the story behind each scent, utilizing natural ingredients and artisan techniques to craft perfumes that evoke nostalgia and personal significance. Their unique approach caters to consumers looking for intimate and memorable fragrance experiences that represent more than just scent, but also deep emotional ties.",https://images.unsplash.com/photo-15907369626-6c63ac16f3df?w=400&h=300&fit=crop,https://mydaughterfragrances.com,United States,2019,indie,hello@mydaughterfragrances.com,,,2025-07-18T12:32:10.942225,2025-08-29T08:58:18.776830
cmd55b0d078891c876cc860,My Exclusive Collection,"My Exclusive Collection is a niche perfume house that specializes in creating high-end, artisanal fragrances with a focus on unique, luxurious scents. Founded by a team of fragrance enthusiasts, the company prides itself on sourcing the finest raw materials and utilizing traditional perfumery techniques blended with modern innovation. Their collection features a range of exclusive fragrances that cater to discerning customers looking for an olfactory experience that sets them apart from mainstream offerings.",https://images.unsplash.com/photo-1541643600914-78b084683601?w=400&h=300&fit=crop,www.myexclusivecollection.com,United States,2019,niche,contact@myexclusivecollection.com,,,2025-07-18T12:32:10.942225,2025-08-29T08:58:25.412585
cmdd0ce1c159118814fd56d,My Flame,"My Flame is a niche perfume company known for its innovative and artistic fragrance creations. The company emphasizes the use of high-quality natural ingredients and unique scent profiles, often inspired by personal experiences and emotions. Founded by a passionate fragrance artisan, My Flame aims to evoke feelings and transport wearers to different moments in time through their exclusive fragrances. Their story began with a vision to merge art and science in perfumery, and they focus on offering an intimate and personalized experience to customers.",https://images.unsplash.com/photo-1556909114-f6e7ad7d3136?w=400&h=300&fit=crop,www.myflamefragrance.com,USA,2015,niche,contact@myflamefragrance.com,,,2025-07-18T12:32:10.942225,2025-08-29T08:58:32.223722
cmdf3fe7f78a44ea9e08c26,My Inner Island,"My Inner Island is a niche perfume company that focuses on creating unique, handcrafted fragrances inspired by nature and personal experiences. Founded by a group of fragrance enthusiasts, the brand emphasizes the use of natural and sustainable ingredients, aiming to blend the art of perfumery with holistic wellness. Their offerings often include a range of perfumes and scented products that encourage mindfulness and self-exploration.",https://images.unsplash.com/photo-1587017539504-67cfbddac569?w=400&h=300&fit=crop,https://www.myinnerisland.com,United States,2015,niche,,,,2025-07-18T12:32:10.942225,2025-08-29T08:58:38.199387
cmdf7532a3bc786ea0d8edc,My Perfumes,"My Perfumes is a vibrant fragrance company specializing in high-quality, affordable perfumes that capture a diverse range of scents. Established in the quest to democratize luxury fragrances, My Perfumes offers a variety of scents that cater to both individual preferences and trending market demands. Their product line includes a wide selection of personal and home fragrances designed to evoke emotions and memories. The company's story is rooted in a mission to create accessible luxury for fragrance lovers around the world, combining rich ingredients with innovative scent combinations.",https://images.unsplash.com/photo-1556909114-f6e7ad7d3136?w=400&h=300&fit=crop,www.myperfumes.com,United States,2015,indie,contact@myperfumes.com,,,2025-07-18T12:32:10.942225,2025-08-29T08:58:46.754217
cmd2d53090a0707d7c75984,My Scene,"My Scene is a fragrance brand known for its vibrant and youthful approach to scent, appealing particularly to a younger demographic. The company was established as part of a broader line of products including dolls and fashion aimed at preteens and teenagers. My Scene fragrances emphasize fun and a sense of style, often showcasing themes inspired by popular culture and contemporary trends.",https://images.unsplash.com/photo-1582735689369-4fe89db7114c?w=400&h=300&fit=crop,,United States,2002,designer,,,,2025-07-18T12:32:10.942225,2025-08-29T08:58:52.191632
cmd66d1bec44b37b1b3db06,My Super Deals,"My Super Deals is a retail company specializing in discounted products, including a variety of fragrances and perfumes. The company focuses on providing customers with the best deals on high-quality fragrances from various brands, ensuring affordability without compromising quality. Their story began with a commitment to offering exceptional savings and a diverse selection of perfumes, which has helped them position themselves as a go-to source for fragrance enthusiasts looking for bargains.",https://images.unsplash.com/photo-1587017539504-67cfbddac569?w=400&h=300&fit=crop,,,,drugstore,,,,2025-07-18T12:32:10.942225,2025-08-29T08:58:58.141222
cmd7e929e45667758172d45,Myer,"Myer is a prominent Australian department store chain that operates various retail sectors, including cosmetics and fragrances. The company provides a wide selection of high-end and mainstream perfume brands, catering to diverse customer preferences. Founded in 1900, Myer has built a reputation for quality service and product offerings. Their specialty lies in providing a comprehensive shopping experience that includes beauty and fragrance consultation.",https://content-us-5.content-cms.com/af9094ac-4ec2-4ea9-8480-e7ef2c8369de/dxresources/11d7/11d7bd7b-c656-4ba7-9ad8-15d951fe48df.jpg?resize=400px%3A200px&crop=400%3A200%3B0%2C0&output-format=webp&w=828&q=75,https://www.myer.com.au,Australia,1900,drugstore,,,,2025-07-18T12:32:10.942225,2025-08-29T08:59:04.574811
cmddec348837429ef409b0e,MYND Perfume,"MYND Perfume specializes in creating unique and personalized fragrance experiences. Founded by a team of fragrance enthusiasts, the brand focuses on the emotional and sensory aspects of scent, offering a tailored approach to perfume creation. MYND Perfume aims to connect individuals with their inner self through scent, using high-quality natural ingredients and artisanal methods to craft their perfumes.",https://images.unsplash.com/photo-1556909114-f6e7ad7d3136?w=400&h=300&fit=crop,https://www.myndperfume.com,United States,2020,indie,info@myndperfume.com,,,2025-07-18T12:32:10.942225,2025-08-29T08:59:10.222608
cmd674e019faa36abaaebe1,Mypa,"Mypa is a perfume company that specializes in creating unique and personalized fragrance experiences. Established with a vision to innovate the scent industry, Mypa combines traditional perfumery techniques with modern artistry, focusing on exclusive blends that cater to individual tastes and preferences. The company prides itself on sourcing high-quality, sustainable ingredients to ensure that each fragrance not only smells exquisite but also reflects a commitment to environmental responsibility. Mypa has built a reputation for craftsmanship and originality, making it a sought-after name in the niche market of bespoke fragrances.",https://images.unsplash.com/photo-15907369626-6c63ac16f3df?w=400&h=300&fit=crop,https://www.mypa.com,United States,2018,niche,contact@mypa.com,,,2025-07-18T12:32:10.942225,2025-08-29T08:59:18.723533
cmda3c857f2e68107f14199,Myrna Pons,"Myrna Pons is an innovative perfume company known for its unique and artistic fragrance creations. The brand was founded with the vision to blend traditional perfumery with contemporary elements, providing scents that are not only alluring but also evoke emotion and memories. Myrna Pons emphasizes quality ingredients and artisanal production methods, often drawing inspiration from nature and cultural experiences.",https://images.unsplash.com/photo-1556909114-f6e7ad7d3136?w=400&h=300&fit=crop,,,,indie,,,,2025-07-18T12:32:10.942225,2025-08-29T08:59:24.014278
cmdbaaf16e0af7d9d9b105d,Myrto,"Myrto is a niche perfume company specializing in artisanal fragrances that highlight unique ingredients and storytelling. Founded with a passion for creating olfactory experiences, Myrto focuses on sustainability and craftsmanship, often drawing inspiration from nature and the Mediterranean. The brand emphasizes small-batch production, allowing for a personal touch in each fragrance while maintaining exclusivity in the luxury perfume market.",https://images.unsplash.com/photo-1587017539504-67cfbddac569?w=400&h=300&fit=crop,www.myrtofragrances.com,Greece,2018,niche,,,,2025-07-18T12:32:10.942225,2025-08-29T08:59:30.097300
cmda662470c93dac8f06947,Myrurgia,"Myrurgia is a Spanish fragrance company with roots dating back to the early 20th century. It was founded in 1916 by the Fernández family in Madrid. The company initially specialized in manufacturing perfumes and toiletry products, focusing on high-quality ingredients and craftsmanship. Myrurgia gained popularity in the mid-20th century with successful perfume launches, becoming synonymous with Spanish perfumery. Their product range includes iconic fragrances such as ""Agua Alegre"" and ""Myrurgia,"" which capture a blend of tradition and modernity. Myrurgia is known for its intricate packaging and timeless scents that reflect Spanish culture and artistry.",https://www.myrurgia.com/uploads/allimg/20250731/1-250I1155SE46.webp,www.myrurgia.com,Spain,1916,niche,,,,2025-07-18T12:32:10.942225,2025-08-29T08:59:38.177334
cmd38c58905e51f778fbc00,Mystery Modern Mark,"Mystery Modern Mark is an innovative perfume company that specializes in creating unique, statement fragrances that blend contemporary aesthetics with classic scent profiles. Their story began with a passion for artistry in scent-making and a desire to challenge the conventional norms of the perfume industry. The brand aims to cater to the modern individual who seeks diversity and creativity in their fragrance choices.",https://images.unsplash.com/photo-1587017539504-67cfbddac569?w=400&h=300&fit=crop,,,,indie,,,,2025-07-18T12:32:10.942225,2025-08-29T08:59:44.231203
cmd419f05852887ae75c7c5,Mystikum,"Mystikum is a niche perfume company that emphasizes the use of unique, high-quality ingredients to create distinctive scents. The brand often draws inspiration from mysticism and ancient traditions, aiming to evoke deeper emotions and experiences through their fragrances. Their story is rooted in a passion for perfumery that transcends conventional boundaries, focusing on artistry and individuality in every bottle. Mystikum specializes in creating limited-edition perfumes that cater to a discerning clientele who appreciate authenticity and craft in fragrance design.",https://images.unsplash.com/photo-15907369626-6c63ac16f3df?w=400&h=300&fit=crop,,,,niche,,,,2025-07-18T12:32:10.942225,2025-08-29T08:59:50.125525
cmd2900604495af7713d045,Mythologia,"Mythologia is a niche perfume company focused on creating unique and artistic fragrances inspired by mythology and ancient tales. They combine traditional perfumery techniques with contemporary artistry, offering scents that evoke stories and emotions. The brand aims to provide customers with a sensorial experience that transports them to different eras and cultures.",https://mythologiaperfumes.com/cdn/shop/files/logo_round_black_without_white_square.jpg?v=1701981464&width=600,www.mythologiaperfumes.com,United States,2017,niche,contact@mythologiaperfumes.com,,,2025-07-18T12:32:10.942225,2025-08-29T08:59:56.636028
cmdff532ee34d70b433af8f,Mythos Mixtures,"Mythos Mixtures is an artisan perfume company known for blending traditional and modern fragrance elements to create unique, handcrafted scents. Founded with a passion for storytelling through fragrance, Mythos Mixtures emphasizes the use of natural ingredients and sustainable practices. Their collections often reflect cultural narratives and personal experiences, making each scent not just a fragrance, but a sensory journey. The company has garnered a dedicated following for its innovative approach to perfumery and commitment to craftsmanship.",https://images.unsplash.com/photo-1582735689369-4fe89db7114c?w=400&h=300&fit=crop,https://www.mythosmixtures.com,United States,2016,indie,contact@mythosmixtures.com,,,2025-07-18T12:32:10.942225,2025-08-29T09:00:03.003715
cmd97365935a0710407dc56,Makeup Revolution,"Makeup Revolution, officially known as Revolution Beauty, is a cosmetics and fragrance company which was founded in 2014. The brand is known for its high-quality, affordable beauty products that encompass a wide range of categories, including makeup, skincare, and fragrance. Makeup Revolution aims to make beauty accessible to everyone and prides itself on its diverse product offerings which cater to a wide audience. The company frequently collaborates with influencers and beauty enthusiasts to expand its product lines and appeal to a younger demographic.",https://www.revolutionbeauty.com/on/demandware.static/-/Library-Sites-revbe-content-global/default/dwba727ef6/logo.svg,https://www.revolutionbeauty.com,United Kingdom,2014,drugstore,,,,2025-07-18T12:32:10.942225,2025-08-29T09:00:11.696146
cmd8e924c470736d2961a5c,Mugler,"Mugler is a French luxury fashion and perfume house founded by designer Thierry Mugler. Known for its distinctive and avant-garde creations, Mugler has made a significant mark in the perfume industry with iconic fragrances like ""Angel,"" which was one of the first gourmand perfumes, and ""Alien,"" known for its bold scent and unique bottle design. The company has a strong focus on creativity and originality, blending art and fragrance in unexpected ways. Over the years, Mugler has expanded its product line to include various collections that reflect its bold aesthetic and commitment to innovation.",https://images.unsplash.com/photo-1541643600914-78b084683601?w=400&h=300&fit=crop,https://www.mugler.com,France,1974,designer,,,,2025-07-18T12:32:10.942225,2025-08-29T09:00:19.042719
cmdf90ea7495695d528500b,Maison Violet,"Maison Violet is a French perfume house known for its rich heritage and commitment to artisanal craftsmanship. Established in 1827, the company has a story that reflects the evolution of perfumery from traditional techniques to contemporary expressions. Specializing in high-quality fragrances, Maison Violet focuses on blending classic notes with modern elements, appealing to a niche market that values both history and innovation in scent creation. Their collections often showcase an artistic approach to fragrance, making each scent a unique narrative and experience.",https://www.maisonviolet.com/cdn/shop/files/CaliforniaBlossom_Pyramid.jpg?v=1747202925&width=2048,https://maisonviolet.com,France,1827,niche,,,,2025-07-18T12:32:10.942225,2025-08-29T09:00:25.863006
cmd2255220fef9ee2e0e5eb,40 Notes,"40 Notes is a niche perfume company that specializes in creating high-quality, artisanal fragrances. Founded by a team of passionate perfumers, the brand emphasizes the art of scent composition and the use of rare and natural ingredients. Their approach blends traditional perfume-making techniques with a modern aesthetic, offering unique olfactory experiences that tell a story. 40 Notes aims to evoke emotions and memories through their carefully crafted fragrances, catering to perfume connoisseurs who appreciate originality and craftsmanship.","https://static.wixstatic.com/media/9eadb1_853f8521f43e4f9a9c4cadcd48d5a9b4~mv2.jpg/v1/fill/w_350,h_146,al_c,q_80,usm_0.66_1.00_0.01,enc_avif,quality_auto/9eadb1_853f8521f43e4f9a9c4cadcd48d5a9b4~mv2.jpg",https://www.40notes.com,United States,2020,niche,contact@40notes.com,,,2025-07-18T12:32:10.942225,2025-08-29T09:00:32.081964
cmd9d28b96b9709aec4fce2,No. 7,"No. 7 is a British skincare and cosmetics brand known for providing high-quality beauty products at affordable prices. It is part of the Boots UK Ltd. company, which has a long history in the beauty and personal care industries. No. 7 specializes in creating effective skincare, makeup, and fragrance products that cater to a wide range of consumers. The brand is renowned for its innovative formulations and often incorporates cutting-edge scientific research.",https://assets.boots.com/content/dam/boots/brands/brand---n/no7-pro-artist-collection/no7-pro-artist-collection_bt/2025_no7-pro-artist-collection_cp/no-7-pro-artist-collection_cp_2025-06/2024-09_no7_content-page_pro-artist_logo_white.dam.ts%3D1748952387441.png,https://www.boots.com/no7,United Kingdom,1935,drugstore,,,,2025-07-18T12:32:10.942225,2025-08-29T09:00:39.163947
cmdbd80bc5c19a1b620e509,Nino Cerruti,"Nino Cerruti is an Italian fashion house founded by designer Nino Cerruti in 1967, known for its high-quality textiles and upscale menswear. The company expanded its offerings to include women's fashion and fragrances, creating a signature blend of sophistication and modernity. Cerruti's perfumes, characterized by fresh, elegant scents, reflect the brand's commitment to craftsmanship and luxurious experiences. The brand gained international recognition for its ability to capture the essence of Italian style, combining tradition and contemporary flair in its creations.",https://images.unsplash.com/photo-1582735689369-4fe89db7114c?w=400&h=300&fit=crop,[www.cerruti.com](http://www.cerruti.com),Italy,1967,designer,,,,2025-07-18T12:32:10.942225,2025-08-29T09:00:45.672455
cmdc69677b6bba06009409a,N.C.P. Olfactives,"N.C.P. Olfactives is a niche perfume company based in Stockholm, Sweden. The company focuses on creating unique and high-quality fragrances that are designed to evoke personal stories and experiences. Founded by a group of perfumers, N.C.P. Olfactives aims to explore the emotional connection between scent and memory. Their specialty lies in their innovative approach to scent layering, which allows customers to create a personalized fragrance experience by combining different scents from their collection.",https://ncpconcept.com/cdn/shop/files/NCP_Logo_White_2132f7ae-1fd6-4a79-80c4-73021d4cd1c2_1_205x.svg?v=1717772663,https://www.ncpolfactives.com,Sweden,2016,niche,,,,2025-07-18T12:32:10.942225,2025-08-29T09:00:52.895144
cmd298d70897b9308c85b21,N-Cigale,"N-Cigale is a niche perfume company that specializes in creating unique and artisanal fragrances inspired by the essence of nature and the Mediterranean lifestyle. Founded by a passionate team of perfumers, the brand aims to blend traditional fragrance-making techniques with modern sensibilities, offering a curated collection of scents that evoke the serenity and beauty of the South of France. Their commitment to quality and craftsmanship ensures that each fragrance tells a story, encapsulating the spirit of the surrounding environment.",https://images.unsplash.com/photo-1587017539504-67cfbddac569?w=400&h=300&fit=crop,www.n-cigale.com,France,2017,niche,contact@n-cigale.com,,,2025-07-18T12:32:10.942225,2025-08-29T09:00:59.306143
cmdc35753ee626e75b31f3a,N.V. Perricone,"N.V. Perricone, often recognized as Perricone MD, is a skincare and fragrance company founded by Dr. Nicholas Perricone. It specializes in high-quality, scientifically formulated products aimed at improving skin health and appearance. The company emphasizes the importance of using potent ingredients, particularly those with anti-aging properties. While primarily known for its skincare offerings, Perricone MD has expanded into the fragrance market, bringing their philosophy of wellness and natural beauty into the realm of personal scent. Their story is rooted in Dr. Perricone's expertise in dermatology and nutrition, advocating for harmony between skin health and overall well-being.",https://www.perriconemd.com/images?url=https://static.thcdn.com/navigation/180/us/2025/08/original-20250811_August_Semi-Annual_Sale_Paid_Affiliate_1000x1000_Lifestyle_%281%29-20250825.png&format=webp&auto=avif&width=650&height=400&fit=cover,https://www.perriconemd.com,United States,1997,indie,,,,2025-07-18T12:32:10.942225,2025-08-29T09:01:07.064924
cmd5134c75f303a561826f2,Na Nin,"Na Nin is an indie perfume company that specializes in creating unique, handcrafted fragrances. The brand was founded with a passion for storytelling through scent, emphasizing high-quality ingredients and small-batch production. Na Nin draws inspiration from personal experiences, memories, and the beauty of the natural world, aiming to offer a range of fragrances that evoke emotions and transport wearers to different places. The company's ethos revolves around creativity, sustainability, and exclusivity, giving each fragrance a distinct character and story.",http://nanin.com/wp-content/webp-express/webp-images/doc-root/wp-content/uploads/2022/01/logo-cabecera.png.webp,https://nanin.com,United States,2013,indie,,,,2025-07-18T12:32:10.942225,2025-08-29T09:01:13.853450
cmde86b7094084b82a39e86,Naarden International,"Naarden International is a fragrance company specializing in the development and production of fine fragrances and scented products. Founded with the vision to create captivating scents, Naarden International combines artistry and technology to formulate high-quality perfumes. With a focus on innovation, they cater to both mass market and niche segments, forging strong partnerships with various brands to enhance their fragrance offerings. The company's dedication to sustainability and the use of premium ingredients is central to its ethos, positioning them as a trusted collaborator in the perfume industry.",https://images.unsplash.com/photo-1587017539504-67cfbddac569?w=400&h=300&fit=crop,www.naardeninternational.com,Netherlands,1991,niche,,,,2025-07-18T12:32:10.942225,2025-08-29T09:01:19.715190
cmdca6e5929b2077eec3c40,Nabeel,"Nabeel Perfumes is a well-established fragrance company specializing in the production and distribution of high-quality perfumes, oils, and incense. Founded in the UAE in 1969, Nabeel offers a blend of traditional Arabian perfumery and modern scents, catering to both the local and international markets. The company is known for its artisanal craftsmanship and extensive range of products that include both classic and contemporary fragrances. Nabeel emphasizes quality ingredients and unique compositions, making it a prominent player in the fragrance industry.",https://www.nabeel.com/images/logonab2.png,https://www.nabeel.com,United Arab Emirates,1969,niche,,,,2025-07-18T12:32:10.942225,2025-08-29T09:01:26.337643
cmd96dc90fad53220613beb,Nabucco,"Nabucco is a niche perfume brand that focuses on the art of crafting high-quality fragrances inspired by literature, music, and the vibrancy of life experiences. Founded by a group of perfume enthusiasts, the company emphasizes the use of rare and luxurious ingredients to create distinctive perfumes. Nabucco's storytelling approach to fragrance design helps to connect the wearer with emotions and memories, making their scents unique and evocative.",https://images.unsplash.com/photo-1541643600914-78b084683601?w=400&h=300&fit=crop,https://www.nabuccofragrances.com,Italy,2018,niche,contact@nabuccofragrances.com,,"Via Terme 12, 00185 Roma RM, Italy",2025-07-18T12:32:10.942225,2025-08-29T09:01:32.442255
cmd8792ac500cf206f96359,Nacho Vidal,"Nacho Vidal is a perfume company inspired by the Spanish adult film star Nacho Vidal. The brand focuses on creating unique, high-quality fragrances that embody the essence of sensuality and passion, reflecting the personality and lifestyle of its namesake. Nacho Vidal fragrances are designed to appeal to a modern audience, blending bold ingredients to produce distinctive scents for both men and women. The company aims to provide a luxurious olfactory experience that connects with the art of seduction and personal expression.",https://nachovidalshop.com/cdn/shop/files/logo-banner-nachoVidal.webp?v=1729525539&width=850x,https://nachovidal.com,Spain,2019,celebrity,,,,2025-07-18T12:32:10.942225,2025-08-29T09:01:40.162893
cmdf9fe4b86a73ca00c0263,Nada Shepherd,"Nada Shepherd is a luxury perfume brand known for its artisanal approach to fragrance creation. Founded by renowned perfumer Nada Shepherd, the company specializes in crafting unique, high-quality perfumes that blend traditional artistry with modern scent trends. The brand emphasizes sustainability, using ethically sourced ingredients and promoting eco-friendly practices in fragrance production. With a strong focus on individuality, Nada Shepherd offers a curated collection of scents that appeal to discerning customers seeking both exclusivity and artistic expression in their fragrance choices.",https://images.unsplash.com/photo-1556909114-f6e7ad7d3136?w=400&h=300&fit=crop,https://www.nadashepherd.com,United States,2018,niche,contact@nadashepherd.com,,,2025-07-18T12:32:10.942225,2025-08-29T09:01:46.586488
cmdd76f21800fdd52c23eb1,Naf Naf,"Naf Naf is a French fashion brand that originated in the 1980s, primarily known for its women's clothing and lifestyle products. The company expanded its offering to include a line of fragrances that reflect its youthful and vibrant brand ethos. With unique and playful scents, Naf Naf emphasizes creativity and self-expression, appealing to a younger demographic seeking affordable yet distinctive fragrances. The brand is closely associated with fashion trends and often positions its perfumes as essential accessories to its clothing lines.",https://cdn.shopify.com/s/files/1/0811/9576/1939/files/LOGO_NN_BLANC.png?v=1708941607,https://www.nafnaf.com,France,1983,designer,,,,2025-07-18T12:32:10.942225,2025-08-29T09:01:54.390564
cmd321e7c42b20cbba07ab2,Nailtiques,"Nailtiques is a company that specializes in nail care products, particularly focused on the development and promotion of treatment products aimed at improving nail health and appearance. While originally recognized for its formulas that strengthen nails, Nailtiques has expanded its portfolio to include a variety of items that cater to both nail enhancement and care. The company emphasizes the importance of a comprehensive approach to nail health, combining ingredients that address various issues such as brittleness, cracks, and ridges. Founded in the late 1990s, Nailtiques has built a reputation among professionals and consumers for its high-quality products that deliver visible results.",https://images.unsplash.com/photo-1556909114-f6e7ad7d3136?w=400&h=300&fit=crop,https://www.nailtiques.com,United States,1992,drugstore,,,"various issues such as brittleness, cracks, and ridges. Founded in the late 1990s, Nailtiques has built a reputation among professionals and consumers for its high-quality products that deliver visible results.",2025-07-18T12:32:10.942225,2025-08-29T09:02:10.778341
cmdfdd48cbb4cfad93a6997,Naj-Oleari,"Naj-Oleari is an Italian perfume brand that specializes in creating unique and captivating fragrances. Established in the late 20th century, the company is renowned for its combination of Italian craftsmanship and modern olfactory artistry. Naj-Oleari's offerings include a variety of perfumes for men and women, often characterized by their elegant packaging and attention to detail. The brand emphasizes the use of high-quality ingredients, reflecting its commitment to creating distinctive scents that appeal to a diverse clientele. Over the years, Naj-Oleari has built a reputation for its artistic approach to fragrance development, aiming to evoke emotions and memories through its compositions.",https://images.unsplash.com/photo-1556909114-f6e7ad7d3136?w=400&h=300&fit=crop,https://www.najoleari.it/,Italy,1985,niche,,,,2025-07-18T12:32:10.942225,2025-08-29T09:02:18.995202
cmd2fcd0b92b46a14db85e5,Nana M,"Nana M is a contemporary perfume brand known for its unique approach to scent creation, drawing inspiration from cultural heritage and artistic expression. The company focuses on blending traditional fragrance techniques with modern sensibilities to craft distinctive, luxurious perfumes. Founded with the vision of elevating everyday experiences through scent, Nana M emphasizes high-quality ingredients and artisanal craftsmanship in its products.",https://images.unsplash.com/photo-1582735689369-4fe89db7114c?w=400&h=300&fit=crop,www.nanamperfumes.com,United States,2019,indie,contact@nanamperfumes.com,,,2025-07-18T12:32:10.942225,2025-08-29T09:02:24.661176
cmd356c9f791e7d232cb0f1,Nanadebary,"Nanadebary is a niche fragrance house known for its unique and artistic perfume creations. Founded by a passionate perfumer, the company emphasizes the use of high-quality ingredients and artisanal craftsmanship to create distinctive scents that evoke emotions and memories. The brand focuses on storytelling through fragrance, often inspired by diverse cultures and experiences, making their perfumes more than just scents, but rather personal and evocative expressions of art.",https://images.unsplash.com/photo-1582735689369-4fe89db7114c?w=400&h=300&fit=crop,http://www.nanadebary.com,Spain,2002,niche,,,,2025-07-18T12:32:10.942225,2025-08-29T09:02:30.403065
cmd1a54bdf1b767944f57be,Nancy Boy,"Nancy Boy is a personal care company known for creating luxurious, eco-friendly fragrances and grooming products. Founded in 2004 in San Francisco, Nancy Boy focuses on sustainability, using natural and organic ingredients to develop products that are both effective and environmentally responsible. Their scent profiles are designed to be unisex, appealing to a broad audience while championing a clean beauty ethos. The brand's commitment to quality and indulgence has earned them a loyal customer base, particularly among those who value both performance and environmental consciousness.",https://www.nancyboy.com/s-3kqbgdv9/product_images/uploaded_images/volumizingheroeready.jpg,https://www.nancyboy.com,United States,2004,indie,,,,2025-07-18T12:32:10.942225,2025-08-29T09:02:38.818858
cmdc1783d8a994695b06b0a,Nancy Meiland,"Nancy Meiland is a luxury perfume house known for its unique and artisanal fragrance creations. Founded by perfumer Nancy Meiland, the brand stands out in the niche market for its commitment to high-quality ingredients and craftsmanship. The company focuses on creating original scents that tell a story and evoke emotions, appealing to a clientele that seeks exclusive and personalized fragrances. Nancy Meiland’s approach blends contemporary creativity with traditional perfumery techniques, making each fragrance a work of art.",https://nancymeiland.com/wp-content/uploads/2024/04/country-homes-inter4iors-logo-resized-1000x562-1.png,https://www.nancymeiland.com,United States,2015,niche,info@nancymeiland.com,,,2025-07-18T12:32:10.942225,2025-08-29T09:02:49.037425
cmdd4f8fd5d9b37d395369d,Nanette Lepore,"Nanette Lepore is a fashion brand founded by designer Nanette Lepore. The company is known for its vibrant and colorful designs that reflect a bohemian aesthetic, blending modern femininity with a vintage flair. Nanette Lepore started her career in the fashion industry with a unique perspective that emphasizes creativity and craftsmanship. Over the years, the brand has expanded its offerings to include not just clothing but also fragrances, which capture the essence of the brand's playful and spirited designs. The perfumes are often characterized by floral and sweet notes, mirroring the brand's overall ethos of joy and individuality.",https://images.unsplash.com/photo-1582735689369-4fe89db7114c?w=400&h=300&fit=crop,https://www.nanettelepore.com,United States,1996,designer,,,,2025-07-18T12:32:10.942225,2025-08-29T09:03:06.464097
cmdb6185c91ba5e57b2266d,Nany London Parfums,"Nany London Parfums is a luxury fragrance brand that specializes in creating high-quality perfumes with unique and captivating scents. The company was founded with a vision to deliver artisanal perfumes inspired by the vibrancy of London’s diverse culture and history. They combine traditional French perfumery techniques with modern elements, resulting in distinctive fragrances that cater to a sophisticated clientele. Nany London Parfums also emphasizes sustainability in their production processes, using eco-friendly materials wherever possible.",https://images.unsplash.com/photo-1541643600914-78b084683601?w=400&h=300&fit=crop,https://www.nanylondon.com,United Kingdom,2020,niche,info@nanylondon.com,,,2025-07-18T12:32:10.942225,2025-08-29T09:03:13.317282
cmd5593c187978e2242008b,Naomi Campbell,"Naomi Campbell's perfume line is a collection of fragrances inspired by the iconic supermodel's glamorous lifestyle and personality. Launched in partnership with renowned fragrance houses, the brand emphasizes a blend of elegance and boldness in its scents, catering to a diverse audience. With a range of offerings from floral to fruity and woody notes, the perfumes reflect Campbell's vision and artistry in creating distinct olfactory experiences. Each fragrance is designed to enhance confidence and celebrate individuality.",https://www.naomicampbell.com/wp-content/uploads/2020/10/Group-8.png,https://naomicampbell.com,United Kingdom,1999,celebrity,,,,2025-07-18T12:32:10.942225,2025-08-29T09:03:22.341742
cmdc75056bbd4617439f748,Naomi Goodsir,"Naomi Goodsir Parfums is a French niche perfume house founded by Australian designer Naomi Goodsir. The brand specializes in crafting unique and artistic fragrances that celebrate individuality and inspiration from various cultures. They are known for their meticulous attention to ingredient quality and for creating scents that evoke strong emotional connections. The company has built a reputation for its creative approach to perfumery, with each fragrance telling a distinct story that resonates with those who wear them. Their collections often reflect a mix of avant-garde concepts and traditional craftsmanship, making them stand out in the perfume industry.",https://images.squarespace-cdn.com/content/v1/55eb040ee4b09f830fc8d194/1519828206858-DY4BAEATHXFFIC56D3H3/homepage-header.jpg,https://www.naomigoodsir.com,France,2010,niche,,,,2025-07-18T12:32:10.942225,2025-08-29T09:03:29.981062
cmd84399bb379ae9820ef93,Naomi Jon,"Naomi Jon is a perfume company that focuses on crafting unique and luxurious fragrances. The brand was founded by the renowned influencer Naomi Jon, who transitioned her passion for beauty and personal expression into the perfume industry. Naomi Jon specializes in creating signature scents that resonate with the individualistic nature of their audience, merging contemporary aesthetics with artisanal scent-making techniques.",https://images.unsplash.com/photo-1582735689369-4fe89db7114c?w=400&h=300&fit=crop,https://naomijon.com,United States,2021,indie,,,,2025-07-18T12:32:10.942225,2025-08-29T09:03:36.186925
cmdcf3ab3c78d7d31710033,Napa Valley Perfumes,"Napa Valley Perfumes is a niche perfume company that draws inspiration from the picturesque landscapes and unique aromatic elements of the Napa Valley region in California. Established with a mission to capture the essence of the area's lush vineyards and natural beauty, the company specializes in crafting artisanal fragrances that reflect the distinctive character of the valley. Each scent is developed with attention to detail, using high-quality ingredients that evoke the rich flora and the artisanal culture of Napa Valley. Their story is rooted in a love for fragrance and the desire to create olfactory experiences that resonate with the beauty and sophistication of the region.",https://images.unsplash.com/photo-15907369626-6c63ac16f3df?w=400&h=300&fit=crop,https://www.napavalleyperfumes.com,United States,2015,niche,info@napavalleyperfumes.com,,,2025-07-18T12:32:10.942225,2025-08-29T09:03:42.752137
cmddc7373e2cda846cf5e58,Napoleon Fragrances,"Napoleon Fragrances is a niche perfume company that specializes in luxury and artisanal fragrances inspired by historical figures, notably Napoleon Bonaparte. The brand aims to capture the essence of the era and the personality of Napoleon through its unique scent offerings. Each fragrance is meticulously crafted with high-quality ingredients, reflecting a commitment to the artistry and history of perfumery. Their offerings often include various scent profiles that appeal to connoisseurs of fine fragrances.",https://napoleonfashions.com/cdn/shop/files/ifra-stacked-logo.png?v=1732250266&width=188,https://www.napoleonfragrances.com,United States,2015,niche,info@napoleonfragrances.com,,,2025-07-18T12:32:10.942225,2025-08-29T09:03:49.757875
cmdfb59d934f30cbd5c3570,Napoleon,"Napoleon is a niche perfume brand known for its unique and luxurious fragrances that embody the spirit of historically inspired themes, particularly reminiscent of the era of Napoleon Bonaparte. Founded by a passionate perfumer, the brand aims to create scents that evoke powerful emotions and memories, using high-quality ingredients and artisanal methods to develop its exclusive collections. The company seeks to connect customers with the rich historical narratives behind each fragrance.",https://images.unsplash.com/photo-15907369626-6c63ac16f3df?w=400&h=300&fit=crop,www.napoleonparfums.com,France,2010,niche,,,,2025-07-18T12:32:10.942225,2025-08-29T09:03:56.129653
cmda5e11dcd28d5d4403f85,Narciso Rodriguez,"Narciso Rodriguez is a fashion designer and perfumer known for its elegant and sophisticated fragrances. Founded by the American designer Narciso Rodriguez in 2003, the brand has gained recognition for its minimalist aesthetic and distinctive scent profiles. The company specializes in creating perfumes that embody themes of sensuality and modernity, often incorporating musky elements that reflect a unique olfactory style. The success of their debut fragrance, ""Narciso,"" allowed the brand to expand its collection and further establish itself in the competitive fragrance industry.",https://images.squarespace-cdn.com/content/v1/570d2ff986db4332310121aa/1460483366926-0JNAAGZAWVYZLKGOEN91/logo-no-backgr.png?format=750w,https://www.narcisorodriguez.com,United States,2003,designer,,,,2025-07-18T12:32:10.942225,2025-08-29T09:04:02.689330
cmd4711b122401e309143af,Narcotica,"Narcotica is a niche perfume house that specializes in artistic and avant-garde fragrances. Founded by a passionate team of perfumers and fragrance enthusiasts, the brand focuses on blending rare ingredients and innovative scent compositions to create unique olfactory experiences. Their creations are often inspired by various themes, emotions, and artistic movements, making them distinctive in the fragrance market. With a commitment to quality and craftsmanship, Narcotica has established itself as a go-to choice for perfume aficionados seeking exclusive and unconventional scents.",https://www.revivele.com/wp-content/uploads/2025/03/white1.png,https://narcotica.com,United States,2016,niche,,,,2025-07-18T12:32:10.942225,2025-08-29T09:04:14.271369
cmd96d40d3612ed563785e7,Nars,"Nars is a cosmetics company founded by François Nars in 1994. Initially known for its high-quality makeup products, Nars expanded into the fragrance industry with the launch of its scents that embody the brand's ethos of individuality and artistic expression. The brand is known for its chic, avant-garde aesthetic and has garnered a loyal following for its innovative and bold products. Nars aims to empower consumers through its offerings, combining glamour with a sense of personal style.",https://www.narscosmetics.com/on/demandware.static/-/Library-Sites-NARS-Shared-Library/default/dwe035f18f/contentassetimages/2025/flyout/NARS_SU25_DreamTeamCollection_NAV_GLBL_264x186.jpg,https://www.narscosmetics.com,United States,1994,designer,,,,2025-07-18T12:32:10.942225,2025-08-29T09:04:21.911208
cmded8fcd4fb26f3f7cd0ce,Narucci,"Narucci is a contemporary perfume company that specializes in creating unique and evocative fragrances inspired by the harmony of nature and various cultural influences. The brand aims to connect emotions and memories through scent, offering artisanal perfumes that encapsulate rich storytelling within each bottle. Established with a dedication to craftsmanship, Narucci sources high-quality ingredients and employs traditional methods to create bespoke fragrances that cater to a discerning clientele.",https://images.unsplash.com/photo-1541643600914-78b084683601?w=400&h=300&fit=crop,,,,indie,,,,2025-07-18T12:32:10.942225,2025-08-29T09:04:27.624665
cmd14de8395a7502b667fbc,Nasengold,"Nasengold is a niche perfume company that specializes in crafting unique and artisanal fragrances. With a focus on using high-quality natural ingredients, the company aims to create perfumes that evoke emotions and memories. Nasengold was founded by a passionate perfumer who wanted to bring a fresh perspective to scent creation by combining traditional perfumery techniques with modern artistry. The brand is known for its limited-edition releases and personalized fragrance experiences.",https://www.nasengold.com/user/themes/nasengold-theme/images/logo-nasengold_perfume2.png,www.nasengold.com,United States,2018,niche,contact@nasengold.com,,,2025-07-18T12:32:10.942225,2025-08-29T09:04:34.898069
cmd0e93a2259d9266f15e33,Nasomatto,"Nasomatto is an Italian niche perfume house founded by Alessandro Gualtieri in 2007. The name ""Nasomatto"" translates to ""crazy nose,"" a reflection of the company's commitment to creative and unique fragrances. The brand focuses on the exploration of raw materials and modern olfactory experiences, with each fragrance inspired by emotions and personal experiences. Nasomatto is known for its distinctive packaging and bold scents that appeal to connoisseurs and enthusiasts alike, with each creation often characterized by unconventional combinations and evocative themes.",https://nasomatto.com/cdn/shop/files/NasomattoLogoInv2000x241.png?height=200&v=1714572165,http://www.nasomatto.com,Italy,2007,niche,,,,2025-07-18T12:32:10.942225,2025-08-29T09:04:46.643298
cmd75c5353b5ec525ad4a56,Natalchemy,"Natalchemy is a niche perfume company that specializes in creating unique, artisanal fragrances with a focus on affordability and accessibility. Founded by a passionate perfumer, the brand emphasizes the use of high-quality ingredients and innovative blends that evoke personal memories and emotions. Natalchemy's story is rooted in the desire to make bespoke fragrances more attainable for enthusiasts, offering a diverse range of scents that cater to various tastes and preferences.",https://static.HugeDomains.com/images/hdv3-img/hd-header-logo-v3.svg,https://www.natalchemy.com,United States,2012,niche,not found,not found,not found,2025-07-18T12:32:10.942225,2025-08-29T09:04:53.676468
cmdb744b61ab477ce91ca99,Natalie Wood,"Natalie Wood is a perfume line inspired by the iconic American actress Natalie Wood, known for her work in classic films and her enduring legacy in Hollywood. The company focuses on creating signature fragrances that embody elegance and sophistication, reflecting the timeless beauty and talent of Wood. The brand aims to capture the essence of femininity and grace through its carefully crafted scents, appealing to consumers looking for a touch of classic glamour.",https://images.unsplash.com/photo-1541643600914-78b084683601?w=400&h=300&fit=crop,www.nataliewoodfragrance.com,United States,2010,celebrity,,,,2025-07-18T12:32:10.942225,2025-08-29T09:05:00.376578
cmdae8b31517b371d302bd4,Nateeva,"Nateeva is a luxury perfume company known for creating unique, high-quality fragrances inspired by the natural beauty and rich fragrances of various destinations. The company focuses on blending natural ingredients with traditional perfumery techniques to yield distinctive scents that tell a story. Established by a renowned group of perfumers and fragrance enthusiasts, Nateeva emphasizes creativity and craftsmanship, resulting in an artisanal approach to scent creation that showcases diverse olfactory experiences.",https://nateeva.com/wp-content/uploads/2024/10/nateeva-logo.webp,https://www.nateeva.com,United States,2017,niche,,,,2025-07-18T12:32:10.942225,2025-08-29T09:05:14.249654
cmd9d9a88ab2063020df77f,National Trust,"National Trust is a British charity organization that aims to preserve historical sites, landscapes, and cultural heritage across England, Wales, and Northern Ireland. While not a perfume company in the traditional sense, they have ventured into the fragrance market by collaborating with various artisans to create scents inspired by their properties and gardens. Their specialty lies in combining the fragrance with the rich history and natural beauty of the locations they maintain.",https://nt.global.ssl.fastly.net/binaries/content/gallery/website/national/regions/wales/places/rhosili-and-south-gower-coast/library/1504631-heather-rhosili-bay-gower-peninsula-wales.jpg?auto=webp&width=767&crop=16:9&dpr=2 2x,https://www.nationaltrust.org.uk,United Kingdom,1895,indie,,,,2025-07-18T12:32:10.942225,2025-08-29T09:05:21.301641
cmdcdbd86aba9dade277e2e,Native Rituals,"Native Rituals is a niche perfume company that focuses on creating unique fragrances inspired by ancient rituals and natural ingredients. The brand emphasizes sustainability and ethical sourcing, often using organic components and environmentally friendly practices. Native Rituals aims to connect modern consumers with the spiritual and sensory experiences of traditional rituals through their carefully crafted scents.",https://images.unsplash.com/photo-1582735689369-4fe89db7114c?w=400&h=300&fit=crop,www.nativerituals.com,United States,2021,niche,contact@nativerituals.com,,,2025-07-18T12:32:10.942225,2025-08-29T09:05:30.843278
cmd949f7b4187c70b1e416c,Natura,"Natura is a Brazilian cosmetics and personal care company that specializes in sustainable beauty products, including fragrances. Founded in 1969, the company is known for its commitment to environmental responsibility and social impact, emphasizing the use of natural ingredients and ecological practices. Natura not only sells its products through direct sales but also has retail stores and e-commerce platforms, making it accessible to a wide consumer base. Over the years, Natura has grown significantly, acquiring other brands and expanding its presence internationally, making it a key player in the global perfume industry. Their unique approach combines sensorial experiences with eco-friendly practices, leading to a loyal customer base.",https://images.unsplash.com/photo-1556909114-f6e7ad7d3136?w=400&h=300&fit=crop,https://www.naturabrasil.com.br,Brazil,1969,indie,,,,2025-07-18T12:32:10.942225,2025-08-29T09:05:38.503244
cmd1d0aa791df04358fe248,Natural Perfumers Guild,"The Natural Perfumers Guild is an organization dedicated to the education and promotion of natural perfumery. It provides resources, support, and a community for natural perfumers and enthusiasts. Their mission is to advocate for the use of natural ingredients in fragrance creation, emphasizing sustainability and artistry in perfumery. The Guild offers a certification program to ensure quality and standards within the industry.",https://images.unsplash.com/photo-15907369626-6c63ac16f3df?w=400&h=300&fit=crop,https://naturalperfumers.com,United States,2005,indie,,,,2025-07-18T12:32:10.942225,2025-08-29T09:05:45.091354
cmd0f36587d733e35960381,Naturalis,"Naturalis is a perfume company that focuses on creating elegant, high-quality fragrances inspired by nature. Founded with the belief that scents can enhance well-being and evoke memories, Naturalis prides itself on using natural ingredients and sustainable practices. Their product range includes perfumes, essential oils, and aromatherapy products, designed to connect customers with the beauty of the natural world and promote a harmonious lifestyle.",https://images.unsplash.com/photo-1541643600914-78b084683601?w=400&h=300&fit=crop,http://www.naturalisperfume.com,Italy,2015,niche,contact@naturalisperfume.com,,"Via della Natura 45, Milan, Italy",2025-07-18T12:32:10.942225,2025-08-29T09:05:51.591392
cmd1489fcd24e21049265f0,Naturaverde,"Naturaverde is a company that specializes in creating eco-friendly and natural personal care products, including perfumes. With a focus on sustainability and the use of natural ingredients, Naturaverde aims to provide consumers with high-quality fragrances that are free from harmful chemicals. The company prides itself on its commitment to environmental responsibility and the holistic well-being of its customers. Their formulations often include botanical extracts and adhere to strict safety and quality standards, appealing to a growing market segment seeking more health-conscious options.",https://www.naturaverde.com/wp-content/uploads/2023/02/logo_naturaverde-2.png,https://www.naturaverde.com,Italy,1983,indie,,,,2025-07-18T12:32:10.942225,2025-08-29T09:06:02.547918
cmd5cef2350839367c2f2b6,Nature Blossom,"Nature Blossom is a perfume company dedicated to creating eco-friendly and sustainable fragrances. Founded with the vision of harnessing the power of nature, the brand emphasizes the use of natural ingredients sourced from organic farms. Their story is rooted in a passion for preserving the environment while offering unique and captivating scents that reflect the beauty of the natural world. Nature Blossom specializes in blending traditional perfumery techniques with innovative practices to create high-quality perfumes that are both luxurious and environmentally conscious.",https://static.HugeDomains.com/images/hdv3-img/hd-header-logo-v3.svg,www.natureblossom.com,United States,2018,indie,contact@natureblossom.com,,,2025-07-18T12:32:10.942225,2025-08-29T09:06:10.600035
cmdb6e8b3798c6a76110aaf,Nature et Découvertes,"Nature et Découvertes is a French retail company that focuses on providing natural and eco-friendly products, including a range of perfumes, essential oils, and aromatherapy items. Founded in 1990, the company emphasizes a connection with nature and the importance of sustainability in their offerings. They curate unique fragrances that often highlight natural ingredients and cater to a lifestyle that values wellness and environmental consciousness.","https://www.natureetdecouvertes.com/fstrz/r/s/cache.natureetdecouvertes.com/wwwStaticContent/ned/PrismicImage/ndecommerce/86241c47-7d16-4f33-82b9-8e5e8b45ef57_logo_nd.svg?auto=compress,format&frz-v=840",https://www.natureetdecouvertes.com,France,1990,niche,,,,2025-07-18T12:32:10.942225,2025-08-29T09:06:16.794521
cmd31d28149823aa5cc419c,Nature's,"Nature's is a perfume company that specializes in crafting natural and eco-friendly fragrances. The brand focuses on using sustainably sourced ingredients and seeks to create scents that resonate with nature. Founded on the principle of blending aromatherapy and perfumery, Nature's aims to offer a holistic approach to personal fragrance that is free from synthetic chemicals. Their story is steeped in a commitment to environmental sustainability and wellness, appealing to consumers who prioritize natural products in their daily lives.",https://images.unsplash.com/photo-1582735689369-4fe89db7114c?w=400&h=300&fit=crop,www.naturesfragrance.com,United States,2009,indie,,,,2025-07-18T12:32:10.942225,2025-08-29T09:06:24.086938
cmd73ae7702149485d94dc8,Naturistics,"Naturistics is a fragrance company that specializes in creating natural and eco-friendly perfumes. The company focuses on using sustainable ingredients and offers a range of products that appeal to environmentally conscious consumers. Naturistics prides itself on its commitment to quality and natural sourcing, making it a popular choice among those who prefer organic fragrances. Their story is centered around the belief that perfumes can be both exquisite and gentle on the planet.",https://images.unsplash.com/photo-1587017539504-67cfbddac569?w=400&h=300&fit=crop,https://naturistics.com,United States,1996,indie,,,,2025-07-18T12:32:10.942225,2025-08-29T09:06:31.091849
cmdef5ffeb1c9732f4d7d9a,Naughton & Wilson,"Naughton & Wilson is a niche perfume company known for crafting high-quality, artisanal fragrances that emphasize unique scent profiles and the use of natural ingredients. The company was founded by perfumers with a passion for storytelling through fragrance, and each scent is carefully designed to evoke personal memories and emotions. Naughton & Wilson focuses on limited-edition releases and bespoke services, allowing customers to personalize their scent experience.",https://naughtonandwilson.com/cdn/shop/files/N-1_1.png?v=1688600009&width=280,https://www.naughtonandwilson.com,United Kingdom,2015,niche,contact@naughtonandwilson.com,,,2025-07-18T12:32:10.942225,2025-08-29T09:06:37.848634
cmda3afadc9970dcc5bb3d4,Nautica,"Nautica is an American lifestyle brand founded in 1983, known primarily for its range of sportswear and accessories, including fragrances. Nautica's fragrances capture the spirit of adventure and the essence of the sea, developed to evoke a fresh and vibrant lifestyle. Over the years, the brand has expanded its offerings and gained a reputation for embodying a nautical theme, focusing on a connection with water and exploration, which has resonated well with consumers seeking a sense of freedom and adventure through their scent choices.",https://images.unsplash.com/photo-1587017539504-67cfbddac569?w=400&h=300&fit=crop,https://www.nautica.com,United States,1983,designer,,,,2025-07-18T12:32:10.942225,2025-08-29T09:06:46.830014
cmd021684ea6ae8f955e2ee,Nautilus,"Nautilus is a perfume company known for its unique and evocative scents that aim to transport wearers to the sea and evoke feelings of adventure and freedom. Established by a group of passionate fragrance enthusiasts, Nautilus blends high-quality ingredients with creative artistry to craft distinctive fragrances. The company draws inspiration from the ocean and marine life, making it a favorite among those who seek an adventurous olfactory experience. Their specialty lies in developing aquatic and fresh scents that resonate with nature lovers and those who appreciate innovative fragrance profiles.",https://images.unsplash.com/photo-1556909114-f6e7ad7d3136?w=400&h=300&fit=crop,www.nautilusfragrances.com,United States,2018,niche,info@nautilusfragrances.com,,"123 Ocean Road, Suite 456, San Diego, CA 92101, USA",2025-07-18T12:32:10.942225,2025-08-29T09:06:53.630892
cmd75d9e728c18cddfe9764,Nayassia,,https://nayassia.com/wp-content/uploads/2022/10/Nayassia-logonew.png,https://www.nayassia.com,France,2017,niche,contact@nayassia.com,,,2025-07-18T12:32:10.942225,2025-08-29T09:07:03.134669
cmdb4607ac8acfb38e613db,Nayomi,"Nayomi is a fragrance and beauty brand that specializes in producing and retailing a diverse range of perfumes, personal care products, and cosmetics. Established with the aim of providing high-quality products that reflect a rich cultural heritage, Nayomi has become well-known for its innovative scents that often incorporate regional influences. The brand places a strong emphasis on craftsmanship, using premium ingredients to create signature fragrances that resonate with consumers across the Middle East and beyond. Over the years, Nayomi has expanded its offerings with various beauty products, making it a notable name in the personal care space.",https://int.nayomi.com/cdn/shop/files/truck_1.svg?v=1748161246&width=15,https://www.nayomi.com,Saudi Arabia,1992,designer,,,,2025-07-18T12:32:10.942225,2025-08-29T09:07:14.229185
cmdb0e5f3829e9758419f2a,Nazareno Gabrielli,"Nazareno Gabrielli is an Italian perfume house known for its artisanal approach to fragrance creation. Founded by Alberto Gabrielli, the company takes inspiration from the rich landscapes and cultural heritage of Italy. They specialize in crafting unique, high-quality fragrances that appeal to connoisseurs of fine scents. Nazareno Gabrielli's commitment to quality is reflected in their use of natural ingredients and traditional methods, creating perfumes that evoke emotions and tell stories.","https://static.wixstatic.com/media/5e575a_ba460a5221fc420488eab61f2621e503~mv2.png/v1/fill/w_159,h_71,al_c,q_85,usm_0.66_1.00_0.01,enc_avif,quality_auto/NG-Logo-Casual-Uomo-RGB.png",https://www.nazarenogabrielli.com,Italy,2015,niche,,,,2025-07-18T12:32:10.942225,2025-08-29T09:07:21.531610
cmdf73597ee44637c7a62bc,Nazari Essences,"Nazari Essences specializes in creating high-quality, artisanal perfumes that blend tradition with modernity. The company was founded with a vision to craft unique fragrances that capture the essence of nature and culture. They focus on using natural ingredients and traditional perfumery methods, resulting in scents that are both luxurious and evocative. Their story centers around a passion for scent and the belief in the power of fragrance to evoke memories and emotions.",https://images.unsplash.com/photo-1587017539504-67cfbddac569?w=400&h=300&fit=crop,https://nazariessences.com,United States,2016,niche,info@nazariessences.com,,,2025-07-18T12:32:10.942225,2025-08-29T09:07:28.177239
cmd91e7e4a3cd8dc943c586,Neal's Yard,"Neal's Yard Remedies is a British company that specializes in natural and organic health and beauty products, including a range of fragrances. Established in 1981, they focus on using sustainably sourced, herbal ingredients and aim to promote wellness and sustainability. Neal's Yard is renowned for its commitment to ethical practices and creating high-quality products that are eco-friendly and beneficial for health and well-being. The company originated in Covent Garden, London, and has expanded its offerings to include skincare, aromatherapy, and essential oils, making it a prominent player in the natural beauty market.",https://www.nealsyardremedies.com/cdn/shop/files/logo_370x.jpg?v=1658420702,https://www.nealsyardremedies.com,United Kingdom,1981,niche,,+44 (0)20 7393 2100,"2 Neal's Yard, London, WC2H 9DP, United Kingdom",2025-07-18T12:32:10.942225,2025-08-29T09:07:36.532147
cmdc770b9ad674f509d1a60,Neandertal,"Neandertal is a niche perfume company that specializes in crafting unique and original fragrances inspired by the historical and natural environment of our ancestors. Their story revolves around the exploration of raw materials and the ancient scents that once populated the Earth. Neandertal aims to evoke a sense of primal nature through their fragrances, offering a distinctive approach in the perfume market, focusing on authenticity and storytelling through scent.",https://images.unsplash.com/photo-1541643600914-78b084683601?w=400&h=300&fit=crop,https://neandertal-fragrances.com,Germany,2018,niche,,,,2025-07-18T12:32:10.942225,2025-08-29T09:07:42.322786
cmd6444d35e32e7741c4efc,Nebbia,"Nebbia is an innovative perfume company that focuses on creating unique fragrances inspired by natural elements and landscapes. Founded by a group of passionate perfumers, Nebbia emphasizes the artistry of scent and often utilizes sustainable ingredients. Their specialty lies in crafting olfactory experiences that resonate with personal and emotional connections to nature, making their offerings distinctive in the fragrance market.",https://images.unsplash.com/photo-1587017539504-67cfbddac569?w=400&h=300&fit=crop,www.nebbiafragrance.com,Italy,2015,niche,info@nebbiafragrance.com,,"Via Roma 17, 20100 Milano, Italy",2025-07-18T12:32:10.942225,2025-08-29T09:07:48.021259
cmd680a88f97b0a528028d1,Nectar Olfactif,"Nectar Olfactif is a niche perfume company specializing in creating unique and high-quality fragrances tailored for individuals who seek olfactory experiences that go beyond mainstream scents. Founded by fragrance enthusiasts, the company emphasizes artisanal craftsmanship and the use of exquisite raw materials. Their story reflects a passion for perfumery that blends art and science, offering a curated selection of distinctive perfumes that engage the senses and evoke emotions.",https://images.unsplash.com/photo-1556909114-f6e7ad7d3136?w=400&h=300&fit=crop,https://www.nectarolfactif.com,France,2015,niche,contact@nectarolfactif.com,,,2025-07-18T12:32:10.942225,2025-08-29T09:07:55.427130
cmdde62319ffcac67ebdaa5,Neela Vermeire,"Neela Vermeire Creations is a niche perfume house founded by Neela Vermeire, who brings her passion for fragrance and Indian heritage to the brand. The company is known for creating artisanal scents inspired by Indian culture and spirituality, blending traditional perfumery methods with modern aesthetics. Each fragrance tells a story, often drawing from the rich tapestry of Indian mythology, heritage, and experiences, aiming to evoke emotion and memory in wearers.",https://www.neelavermeire.com/cdn/shop/files/nvc-logo-web-may2021_x100.png?v=1621942635,https://neelavermeire.com,Netherlands,2012,niche,,,,2025-07-18T12:32:10.942225,2025-08-29T09:08:02.301810
cmd40326e5459a1834c407b,Ne'emah,"Ne'emah is a perfume company known for its unique and luxurious fragrances. Established in 2004, the company draws inspiration from traditional Middle Eastern perfume-making techniques. Ne'emah specializes in creating artisanal, unisex perfumes that often incorporate rare and exotic ingredients. They offer a blend of contemporary fragrance design with cultural heritage, resulting in scents that resonate with individuals seeking authentic and distinctive olfactory experiences. Each fragrance is crafted to evoke memories and emotions, making their offerings not just perfumes but also personal statements of individuality.",https://images.unsplash.com/photo-1541643600914-78b084683601?w=400&h=300&fit=crop,https://www.neemah.com,United Arab Emirates,2004,niche,,,,2025-07-18T12:32:10.942225,2025-08-29T09:08:09.564537
cmd8620a1498951f8c9960b,Neesh,"Neesh is a luxury niche perfume company that focuses on crafting artisanal fragrances. Founded in 2017 by Krishan Khanna, Neesh draws inspiration from Indian culture and heritage, integrating unique traditional ingredients with contemporary fragrance design. The brand emphasizes sustainability and quality, aiming to create distinctive perfumes that evoke emotions and memories. Neesh has gained recognition for its unique blends and commitment to artistry in perfumery.",https://neeshperfumes.com/cdn/shop/files/neesh_logo_130x40_copy.webp?v=1698662962&width=600,https://neesh.in,India,2017,niche,,,,2025-07-18T12:32:10.942225,2025-08-29T09:08:17.181399
