id,name,description,image,website,country,founded,type,email,phone,address,createdAt,updatedAt
cmd3eab003f6cc0abe23e30,Perac,"Perac is a niche perfume company known for its handcrafted and artisanal fragrance offerings. They emphasize unique scent compositions that appeal to a discerning clientele. Perac was founded with a passion for perfumery, blending traditional techniques with innovative approaches to create memorable fragrances. Their specialty lies in the use of high-quality ingredients sourced from around the world, ensuring that each scent tells a distinct story and leaves a lasting impression.",https://images.unsplash.com/photo-1582735689369-4fe89db7114c?w=400&h=300&fit=crop,www.peracparfums.com,France,2015,niche,contact@peracparfums.com,+33 1 23 45 67 89,"12 Rue de la Parfumerie, 75003 Paris, France",2025-07-18T12:32:10.942225,2025-08-29T10:09:57.951949
cmd12258df646d115a572f5,Percassi Group,"Percassi Group is an Italian company known for its expertise in the beauty and fragrance industry. The company specializes in the development of luxury perfumes, managing renowned brands and launching innovative products in the market. Founded by the Percassi family, the group has a rich history in retail and brand management, positioning itself as a key player in the beauty sector through partnerships and collaborations with various international luxury brands. The company emphasizes creativity, quality, and customer engagement, continually striving to enhance its portfolio and market presence in the fragrance industry.",https://www.percassi.it/wp-content/uploads/2019/11/cropped-logo-1-Copy.png,https://www.percassi.com,Italy,2004,niche,,,,2025-07-18T12:32:10.942225,2025-08-29T10:10:06.965579
cmdba0a4dc4333e9c01009e,Percy Nobleman,"Percy Nobleman is a male grooming brand based in the UK, specializing in premium fragrances and grooming products specifically designed for men. Founded by a team of grooming enthusiasts who recognized the need for quality men’s products, Percy Nobleman combines traditional craftsmanship with modern design. Their range includes fragrances, beard oils, and skincare solutions, all emphasizing sophistication and refined masculinity. The brand takes its name from an imaginary English gentleman, highlighting a commitment to classic values while catering to contemporary needs.",https://www.percynobleman.com/cdn/shop/files/PN-LOGO_800x800.png?v=1613677423,https://www.percynobleman.com,United Kingdom,2013,indie,,,,2025-07-18T12:32:10.942225,2025-08-29T10:10:13.935592
cmdd1e824ebc1e7c5201574,Perdrisât,"Perdrisât is a luxury perfume house that specializes in creating artisanal fragrances inspired by nature and the diverse cultures of the world. Founded by renowned perfumer Eléa Mistral, the company focuses on high-quality, sustainable ingredients sourced from various regions. Their story began with a passion for storytelling through scent, which led to the creation of a unique line of perfumes that evoke memories and emotions. Perdrisât aims to provide customers with a sensory journey, encapsulating the essence of different places in each bottle.",https://images.unsplash.com/photo-15907369626-6c63ac16f3df?w=400&h=300&fit=crop,www.perdrisat.com,France,2018,niche,contact@perdrisat.com,,"45 Rue des Fleurs, 75010 Paris, France",2025-07-18T12:32:10.942225,2025-08-29T10:10:19.952808
cmdf364d0ce7055dd1e49fb,Perfect Sense [Mane],"Perfect Sense, a division of Mane, specializes in creating innovative fragrance solutions and providing a range of perfumery services. The company was established to cater to the unique needs of the fragrance market, focusing on sensory experiences and sustainable practices. They leverage advanced technology and expertise to produce compelling scent profiles tailored for various consumer products, including personal care and household items.",https://images.unsplash.com/photo-1556909114-f6e7ad7d3136?w=400&h=300&fit=crop,https://www.mane.com,France,1975,indie,,,"31 Avenue du Général Leclerc, 78100 Saint-Germain-en-Laye, France",2025-07-18T12:32:10.942225,2025-08-29T10:10:26.342820
cmdff851d6a7a98ab91169a,Perfino,"Perfino is a contemporary fragrance company that specializes in crafting unique and high-quality perfumes. Their story began with a passion for artistry and scent blending, focusing on creating signature scents that are both innovative and evocative. Perfino prides itself on using premium ingredients and sustainable practices in their production process, often collaborating with renowned perfumers to bring diverse and inspiring fragrances to the market.",https://images.unsplash.com/photo-1587017539504-67cfbddac569?w=400&h=300&fit=crop,www.perfino.com,Italy,2018,niche,contact@perfino.com,,,2025-07-18T12:32:10.942225,2025-08-29T10:10:33.453892
cmd1ea66ad7e501fb4bf7cc,Perform Group,"Perform Group is a global company specializing in the development and marketing of fragrances. Established with a vision to create innovative scent experiences, Perform Group emphasizes high-quality ingredients and sustainability in its production processes. Their portfolio includes a diverse range of perfumes catering to various demographics and preferences, targeting both niche markets and mass appeal. The company’s commitment to creativity and excellence has earned it a reputable position in the fragrance industry.",https://images.unsplash.com/photo-15907369626-6c63ac16f3df?w=400&h=300&fit=crop,www.performgroup.com,United States,2010,niche,info@performgroup.com,,,2025-07-18T12:32:10.942225,2025-08-29T10:10:39.425324
cmd49aac4dad3dad1163531,Perfumania Holdings,"Perfumania Holdings is a retail chain specializing in discount fragrances. Founded in 1988, it has established itself as a leader in the perfume industry by offering a wide range of designer and niche fragrances at competitive prices. The company operates both physical stores and an online platform, providing numerous options for fragrance lovers. Perfumania is known for its extensive selection, featuring popular brands as well as lesser-known labels, ensuring customers have access to a variety of scents.",https://marvel-b1-cdn.bc0a.com/f00000000246772/perfumania.com/cdn/shop/files/perfumania-logo-desktop.png?format=pjpg&v=1691070443&width=100,https://www.perfumania.com,United States,1988,drugstore,,,,2025-07-18T12:32:10.942225,2025-08-29T10:10:47.125460
cmd4685dab70cab240e102f,Perfumania,"Perfumania is a well-known retail company specializing in the sale of branded fragrances and beauty products. Established in 1989, the company offers a wide array of perfumes, colognes, and beauty merchandise at discounted prices, making it a popular destination for fragrance lovers. Perfumania has built a strong reputation with a focus on value, quality, and excellent customer service, boasting both physical stores and a robust online presence. Over the years, the company has formed partnerships with numerous global perfume brands to provide a diverse selection of products.",https://marvel-b1-cdn.bc0a.com/f00000000246772/perfumania.com/cdn/shop/files/perfumania-logo-desktop.png?format=pjpg&v=1691070443&width=100,https://www.perfumania.com,United States,1989,drugstore,,,,2025-07-18T12:32:10.942225,2025-08-29T10:10:54.774360
cmd9d84adfc55d12bc690cf,Perfume America,"Perfume America is a distinctive perfume company that specializes in creating unique fragrance experiences inspired by American culture and landscapes. Founded with a vision to reflect the essence of the United States through scent, the company emphasizes artistry and creativity in its formulations. They curate a collection of both timeless and contemporary fragrances, appealing to a diverse audience while prioritizing quality and authenticity in their products.",https://images.unsplash.com/photo-1556909114-f6e7ad7d3136?w=400&h=300&fit=crop,www.perfumeamerica.com,United States,2015,indie,contact@perfumeamerica.com,,"1234 Fragrance Ave, Suite 100, Los Angeles, CA 90001",2025-07-18T12:32:10.942225,2025-08-29T10:11:00.997002
cmd20f78b4ea346325def0b,Perfume and Skin,"Perfume and Skin specializes in crafting high-quality, personalized fragrances and skincare products. Founded by a team of fragrance enthusiasts, the company aims to blend the art of perfumery with skin health. Their offerings include a wide range of perfumes that cater to different preferences, alongside skin-friendly formulations that enhance the wearer’s natural essence. The company prides itself on using natural ingredients and sustainable practices in both perfume and skincare production.",https://images.unsplash.com/photo-1541643600914-78b084683601?w=400&h=300&fit=crop,www.perfumeandskin.com,United States,2015,indie,info@perfumeandskin.com,,,2025-07-18T12:32:10.942225,2025-08-29T10:11:07.222838
cmdb14f57e2b82b92a7820c,Perfume & Beauty,,https://images.unsplash.com/photo-15907369626-6c63ac16f3df?w=400&h=300&fit=crop,,,,niche,,,,2025-07-18T12:32:10.942225,2025-08-29T10:11:13.315205
cmdfff85fcc76e9daea7cbc,Perfume Countrry,"Perfume Country is a specialty fragrance company known for its curated selection of perfumes from various renowned and indie brands. The company began as a local boutique, quickly expanding its offerings to include both classic and contemporary scents, emphasizing unique and artisanal perfumes that cater to a diverse clientele. Their mission is to provide a unique olfactory experience while promoting both well-known and emerging fragrance creators.",https://images.unsplash.com/photo-1556909114-f6e7ad7d3136?w=400&h=300&fit=crop,www.perfumecountry.com,"is a specialty fragrance company known for its curated selection of perfumes from various renowned and indie brands. The company began as a local boutique, quickly expanding its offerings to include both classic and contemporary scents, emphasizing unique and artisanal perfumes that cater to a diverse clientele. Their mission is to provide a unique olfactory experience while promoting both well-known and emerging fragrance creators.",2010,niche,contact@perfumecountry.com,+1 (555) 012-3456,"123 Fragrance Ave, Suite 100, Springfield, IL 62701, USA",2025-07-18T12:32:10.942225,2025-08-29T10:11:29.892652
cmd795a44ef3529829cdc1d,Perfume Empire,"Perfume Empire is a niche fragrance company specializing in high-quality, artisanal perfumes crafted from fine and sustainable ingredients. Founded by a team of passionate perfumers, the company focuses on creating unique scent profiles that tell a story and evoke emotion. Perfume Empire emphasizes creativity and quality, often collaborating with independent artists and designers to produce limited edition fragrances that appeal to scent connoisseurs.",https://images.unsplash.com/photo-1582735689369-4fe89db7114c?w=400&h=300&fit=crop,www.perfumeempire.com,United States,2015,niche,info@perfumeempire.com,,,2025-07-18T12:32:10.942225,2025-08-29T10:11:35.743634
cmde7d936ddf97a33ce3962,Perfume Emporium,"Perfume Emporium is an online retailer specializing in a vast selection of both designer and niche perfumes. Established with the mission to provide fragrance enthusiasts with access to an extensive range of quality scents, Perfume Emporium curates a collection of well-known brands and hard-to-find niche fragrances. The company is known for its competitive pricing, detailed product descriptions, and customer-oriented approach, including samples and gift sets. Over the years, they have built a reputation for reliability and a strong commitment to customer satisfaction.",https://images.unsplash.com/photo-1556909114-f6e7ad7d3136?w=400&h=300&fit=crop,https://www.perfumeemporium.com,United States,1997,designer,,,,2025-07-18T12:32:10.942225,2025-08-29T10:11:42.448715
cmd31515ae789d7649808d3,Perfume Holding,"Perfume Holding is a global leader in the fragrance industry, specializing in the creation and distribution of luxury and premium perfumes. Their portfolio includes a range of well-known brands and products that cater to various market segments. The company has a strong emphasis on innovation and offers an array of scents that appeal to diverse consumer preferences across different demographics. Perfume Holding is dedicated to sustainability and ethical sourcing practices in fragrance production, ensuring a positive impact on the environment and community.",https://images.unsplash.com/photo-1541643600914-78b084683601?w=400&h=300&fit=crop,https://www.perfumeholding.com,United States,2002,designer,,,,2025-07-18T12:32:10.942225,2025-08-29T10:11:49.167083
cmde8eabd2f8ee93d8a787b,Perfume Lovers London,"Perfume Lovers London is a niche perfume company that specializes in offering a curated selection of high-quality, unique fragrances. Founded with a passion for perfumery, the company aims to connect fragrance lovers with luxurious scents from around the world. Their collections often feature artisanal and hard-to-find perfumes, focusing on craftsmanship and individuality. Through personal service, they strive to create memorable experiences for customers looking for their signature scent.",https://images.unsplash.com/photo-1541643600914-78b084683601?w=400&h=300&fit=crop,https://www.perfumelovers.london,United Kingdom,2014,niche,,,,2025-07-18T12:32:10.942225,2025-08-29T10:11:55.824819
cmd8d526fd084821874f4b2,Perfume Mendo,,https://www.perfumemendo.com/images/mm_spacer.gif,https://www.perfumemendo.com,United States,2019,niche,info@perfumeMendo.com,,,2025-07-18T12:32:10.942225,2025-08-29T10:12:02.218670
cmd0eba64b86f1b356da16b,Perfume of Life,"Perfume of Life specializes in creating custom fragrances that are tailored to the unique preferences of its clients. Founded with the vision of making personalized perfumes accessible to everyone, the company believes that each scent tells a story and aims to help individuals express their identity through fragrance. They're known for their artisanal approach, using high-quality ingredients sourced from around the world to craft unique blends that resonate with their customers. The brand emphasizes sustainability and ethical sourcing, ensuring that their products are not only luxurious but also environmentally friendly.",https://images.unsplash.com/photo-1587017539504-67cfbddac569?w=400&h=300&fit=crop,www.perfumeoflife.com,United States,2015,indie,contact@perfumeoflife.com,,"123 Aroma Lane, Fragrance City, NY 10001, USA",2025-07-18T12:32:10.942225,2025-08-29T10:12:08.642750
cmd6e9112fc359f23bb5983,Perfume Plus Direct,"Perfume Plus Direct is an online retailer and distributor specializing in a wide range of fragrances, including branded and unbranded perfumes, discounts on popular fragrances, and an extensive collection of niche perfumes. Founded with the goal of making high-quality fragrances accessible to all, the company has built a reputation for competitive pricing and an easy shopping experience. They offer personalized service and extensive product knowledge, catering to customers looking for both luxury and everyday scents.",https://images.unsplash.com/photo-1587017539504-67cfbddac569?w=400&h=300&fit=crop,https://www.perfumeplusdirect.com,United Kingdom,2010,drugstore,,,,2025-07-18T12:32:10.942225,2025-08-29T10:12:14.655164
cmd86f1a7943421a26767a0,Perfume Room,"Perfume Room is a niche fragrance company that specializes in creating unique and personalized perfumes. Founded by a passionate artisan perfumer, the company aims to provide customers with a bespoke fragrance experience by combining traditional techniques with modern innovation. They offer a wide range of scents, blending high-quality ingredients sourced from around the world, catering to individual preferences and encouraging customers to explore their own olfactory identities.",https://static.HugeDomains.com/images/hdv3-img/hd-header-logo-v3.svg,https://www.perfumeroom.com,United States,2016,niche,contact@perfumeroom.com,,,2025-07-18T12:32:10.942225,2025-08-29T10:12:21.173663
cmde07cffde7005df106d74,Perfume Street,"Perfume Street is a fragrance company that specializes in creating unique and high-quality perfumes. Founded with the vision of making fine fragrances accessible to a broader audience, Perfume Street sources premium ingredients and collaborates with skilled perfumers to produce distinctive scents that cater to diverse preferences. The company emphasizes creativity and originality in its fragrance compositions, often drawing inspiration from various cultures and environments. The brand is dedicated to crafting perfumes that evoke emotions and tell stories, establishing a strong connection between the wearer and the fragrance.",https://images.unsplash.com/photo-15907369626-6c63ac16f3df?w=400&h=300&fit=crop,,,,indie,,,,2025-07-18T12:32:10.942225,2025-08-29T10:12:27.077275
cmd88e71c8cbf47cbdb93ff,Perfume Sucks,"Perfume Sucks is a contemporary perfume company that focuses on creating high-quality, innovative scents that challenge conventional fragrance norms. Established by a group of indie perfumers who were tired of mainstream fragrance brands, Perfume Sucks prides itself on crafting unique olfactory experiences that are often playful and provocative. The company's mission is to encourage individuality and self-expression through scent, appealing particularly to a younger audience looking for alternatives to traditional fragrances.",https://images.unsplash.com/photo-1556909114-f6e7ad7d3136?w=400&h=300&fit=crop,www.perfumesucks.com,United States,2018,indie,contact@perfumesucks.com,,,2025-07-18T12:32:10.942225,2025-08-29T10:12:33.066915
cmdb39a7046a841228033a9,Perfume Walks,"Perfume Walks is a niche perfume company that specializes in creating unique and artisanal fragrances inspired by various cultural experiences and nature. The brand was established with the aim of educating consumers about the art of perfumery and the stories behind each scent. They curate their collection based on the experiences and journeys of perfumers, focusing on the handcrafted and personal nature of scent creation.",https://images.unsplash.com/photo-1541643600914-78b084683601?w=400&h=300&fit=crop,www.perfumewalks.com,United States,2021,niche,info@perfumewalks.com,,,2025-07-18T12:32:10.942225,2025-08-29T10:12:42.958082
cmdb310eb5717d09c02f9a5,Perfume Warehouse,,https://images.unsplash.com/photo-1541643600914-78b084683601?w=400&h=300&fit=crop,www.perfumewarehouse.com,United States,1998,drugstore,,,,2025-07-18T12:32:10.942225,2025-08-29T10:12:49.822744
cmdef3cceef751a06707c81,Perfumed Plume,"Perfumed Plume is a boutique fragrance company that specializes in niche perfumes inspired by the celebration of scent as an art form. Founded by a passionate fragrance expert and former beauty executive, Perfumed Plume aims to create unique, high-quality perfumes that evoke deep emotional connections and experiences. The company focuses on using sustainable ingredients and artisanal techniques, merging traditional perfumery with modern sensibilities to cater to perfume enthusiasts who appreciate the intricacies of scent.",https://www.perfumedplume.com/images/logo.png,https://www.perfumedplume.com,United States,2016,niche,,,,2025-07-18T12:32:10.942225,2025-08-29T10:12:56.441150
cmda2708fefa05fa983c167,Perfumehead,,https://perfumehead.com/cdn/shop/files/perfumehead-header-logo.png?v=1680618482&width=600,https://www.perfumehead.com,United States,2015,niche,,,,2025-07-18T12:32:10.942225,2025-08-29T10:13:02.768880
cmd9a9992da63b165594c56,PERFUMEKEV,"PERFUMEKEV is a contemporary fragrance company specializing in both unique and personalized perfumes. Established by a passionate perfumer, the brand focuses on high-quality ingredients and artisanal craftsmanship, catering to clients who seek distinctive scents tailored to individual preferences. The company emphasizes sustainability and ethical sourcing, creating a niche in the perfume market through its commitment to exclusivity and luxury.",https://images.unsplash.com/photo-15907369626-6c63ac16f3df?w=400&h=300&fit=crop,,,,indie,,,,2025-07-18T12:32:10.942225,2025-08-29T10:13:08.537693
cmd4b487c0628acbf4c7e09,Perfumenotes.ie,"Perfumenotes.ie is an online platform that specializes in providing comprehensive information about a wide range of perfumes and fragrance notes. The company aims to cater to perfume enthusiasts by offering detailed reviews, scent profiles, and user-generated content about various fragrance collections. Its story emphasizes a passion for scents and the desire to help consumers make informed decisions about their fragrance choices. The website acts as a community for perfume lovers to share their experiences and recommendations.",https://images.unsplash.com/photo-1541643600914-78b084683601?w=400&h=300&fit=crop,acts as a community for perfume lovers to share their experiences and recommendations.,Ireland,,indie,,,,2025-07-18T12:32:10.942225,2025-08-29T10:13:14.811492
cmdecffaf55e3617ede8a26,Perfumer's Choice,"Perfumer's Choice is a specialized fragrance company dedicated to creating high-quality, unique perfumes. They focus on providing a personalized fragrance experience by blending traditional perfumery techniques with modern innovations. The company prides itself on sourcing the finest ingredients from around the world and offers a diverse range of scents that cater to individual preferences. Perfumer's Choice places a strong emphasis on craftsmanship and sustainability, ensuring that their products resonate with the environmentally-conscious consumer.",https://images.unsplash.com/photo-1556909114-f6e7ad7d3136?w=400&h=300&fit=crop,https://www.perfumerschoice.com,United States,2010,niche,contact@perfumerschoice.com,,,2025-07-18T12:32:10.942225,2025-08-29T10:13:20.905738
cmd7e454338f3bdc0353177,Perfumer & Flavorist,"Perfumer & Flavorist is a leading resource and publication for the fragrance and flavor industry, catering primarily to the professionals and businesses involved in these sectors. Established to provide critical insights and updates, the company focuses on the science, innovation, and artistry of scent and taste, facilitating a platform for experts to exchange ideas and collaborate on trends. With a comprehensive approach, Perfumer & Flavorist covers a broad range of topics, including formulation techniques, regulatory updates, market analysis, and industry news. Their goal is to advance the knowledge of perfume and flavor creation, contributing to the growth of these industries globally.","https://img.perfumerflavorist.com/files/base/allured/all/image/static/pf_logo_2022.png?h=55&auto=format,compress",https://www.perfumerflavorist.com,United States,1980,niche,,,,2025-07-18T12:32:10.942225,2025-08-29T10:13:29.294962
cmd5601f8cebcc3b3fdce2f,Perfumer H,"Perfumer H is a luxury fragrance brand founded by Helen Patterson, renowned for its artisanal approach to perfumery. The company focuses on creating unique, high-quality scents that blend traditional techniques with modern inspirations. Perfumer H emphasizes the storytelling aspect of fragrances, crafting each scent to evoke specific memories and emotions. The brand operates a bespoke service, allowing customers to explore unique combinations that cater to personal preferences. Their fragrances are created in small batches, ensuring exclusivity and quality.",https://www.perfumerh.com/cdn/shop/files/logo-long.png?crop=center&height=56&v=1718816062&width=525,https://www.perfumerh.com,United Kingdom,2015,niche,,,,2025-07-18T12:32:10.942225,2025-08-29T10:13:38.140182
cmd590f4660d8fcffaf5ad1,Perfumera Curandera,,https://images.squarespace-cdn.com/content/v1/544595cfe4b0710b44ee183a/fed82344-007b-49f7-94b8-1d981fc4a3f2/pclogo.jpg,https://www.perfumeracurandera.com,United States,2017,indie,info@perfumeracurandera.com,,,2025-07-18T12:32:10.942225,2025-08-29T10:13:44.289041
cmd1c9b68dc3a36cef9f47b,Perfumeria NOSYP,"Perfumeria NOSYP is a dedicated perfumery that specializes in creating unique and high-quality fragrances. The company prides itself on its artisanal approach to perfumery, focusing on the use of traditional techniques combined with modern innovation. Established with a commitment to sustainability and authenticity, NOSYP aims to provide customers with an olfactory experience that tells a story through its carefully crafted scents. The brand caters to a discerning clientele, seeking both personal fragrances and bespoke creations.",https://images.unsplash.com/photo-1556909114-f6e7ad7d3136?w=400&h=300&fit=crop,http://www.nosyp.pl,Poland,2002,indie,,,,2025-07-18T12:32:10.942225,2025-08-29T10:13:50.774066
cmd86f5877760b788fd0aac,Perfumer's Guild,"Perfumer's Guild is a niche perfume house that specializes in creating handcrafted fragrances that emphasize unique scent compositions and high-quality ingredients. The company is known for its artisanal approach to perfumery, prioritizing craftsmanship and bespoke fragrances that tell a story. Since its inception, Perfumer's Guild has aimed to blend traditional techniques with modern inspirations, appealing to fragrance enthusiasts seeking something distinctive and personal.",https://images.unsplash.com/photo-1587017539504-67cfbddac569?w=400&h=300&fit=crop,https://www.perfumersguild.com,United States,2013,niche,info@perfumersguild.com,,,2025-07-18T12:32:10.942225,2025-08-29T10:14:01.988973
cmd9395238c535dd30bf9f7,Perfumer's Workshop,"Perfumer's Workshop is a renowned fragrance company established in 1970. The company specializes in creating unique and high-quality perfumes, with an emphasis on artistic expression and innovation in fragrance composition. Over the decades, Perfumer's Workshop has built a reputation for its distinct olfactory creations and has become a beloved brand among perfume aficionados. They have a rich history of working with various perfumers to develop signature scents that appeal to a diverse audience.",https://images.unsplash.com/photo-1556909114-f6e7ad7d3136?w=400&h=300&fit=crop,https://www.perfumersworkshop.com,United States,1970,niche,,,,2025-07-18T12:32:10.942225,2025-08-29T10:14:09.006268
cmdb4d101fe953eaf451dd8,PerfumersWorld,"PerfumersWorld is a specialized company focused on the art and science of perfumery. Established by a group of industry professionals, they provide educational resources, materials, and tools for fragrance creation and formulation. They offer extensive training programs, workshops, and perfumery courses aimed at perfumers, fragrance enthusiasts, and those interested in exploring the industry. Their specialty lies in empowering individuals with the knowledge and skills to create unique, high-quality fragrances.",https://www.perfumersworld.com/images/perfumersworld-logo.png,https://www.perfumersworld.com,United States,1998,indie,info@perfumersworld.com,,"1170 Alton Rd, Los Angeles, CA 90025, USA",2025-07-18T12:32:10.942225,2025-08-29T10:14:16.344820
cmd18dea99e2239cb16ce75,Perfumes by Terri,"Perfumes by Terri is a niche fragrance company known for creating unique, handcrafted perfumes that cater to individual tastes and preferences. Founded by Terri, a passionate perfumer with a love for scent creation, the company emphasizes the use of high-quality, natural ingredients and artisanal production techniques. The brand focuses on offering a personalized fragrance experience, often working closely with clients to develop custom scents that reflect their personality and style.",https://images.unsplash.com/photo-1556909114-f6e7ad7d3136?w=400&h=300&fit=crop,www.perfumesbyterri.com,United States,2007,niche,info@perfumesbyterri.com,,,2025-07-18T12:32:10.942225,2025-08-29T10:14:22.392992
cmd08e2189281457f630d32,Perfumes Isabell,"Perfumes Isabell is a boutique fragrance company specializing in artisanal perfumes crafted with high-quality ingredients and a passion for olfactory art. Established with the intent to create unique and evocative scents, the company focuses on blending traditional perfumery techniques with contemporary inspirations. Their fragrances aim to evoke emotions and memories, providing a personal experience with every scent.",https://images.unsplash.com/photo-15907369626-6c63ac16f3df?w=400&h=300&fit=crop,,,,indie,,,,2025-07-18T12:32:10.942225,2025-08-29T10:14:29.057388
cmd46915c4684ee16a68e23,Perfumes Of Singapore,"Perfumes Of Singapore is a fragrance company that specializes in creating unique, high-quality perfumes inspired by the diverse culture and natural beauty of Singapore. The company aims to capture the essence of the region through its carefully crafted scents, making each perfume a representation of Singapore's rich heritage. They focus on using premium ingredients to deliver distinctive fragrances that resonate with both local and international customers.",https://images.unsplash.com/photo-1587017539504-67cfbddac569?w=400&h=300&fit=crop,www.perfumesofsingapore.com,Singapore,2015,niche,info@perfumesofsingapore.com,+65 6737 9953,"45, Bencoolen St, #03-01, Singapore 189621",2025-07-18T12:32:10.942225,2025-08-29T10:14:35.585439
cmd4e0ca19fb2e1cd775807,Perfumes of the Desert,"Perfumes of the Desert specializes in creating unique fragrances inspired by the essence of desert landscapes and traditional Arabian perfumery. Established with a vision to blend ancient scent traditions with contemporary artistry, the company focuses on high-quality ingredients sourced from the region. They offer a range of perfumes that evoke the mystical allure of the desert, appealing to both local and international markets.",https://images.unsplash.com/photo-15907369626-6c63ac16f3df?w=400&h=300&fit=crop,www.perfumesofthedesert.com,United Arab Emirates,2010,niche,info@perfumesofthedesert.com,+971 4 123 4567,"123 Oasis Street, Dubai, UAE",2025-07-18T12:32:10.942225,2025-08-29T10:15:01.587125
cmd1602cd505e7243ecb94e,Perfumes Peris,"Perfumes Peris is a renowned perfume company specializing in crafting unique and high-quality fragrances. Founded in Barcelona, Spain, it has built a reputation for specializing in artisanal perfumery, focusing on the blend of traditional techniques with modern inspirations. The company prides itself on using natural ingredients and has a commitment to sustainability and ethical sourcing. Perfumes Peris aims to create memorable scents that convey emotional connections and stories, appealing to a diverse clientele.",https://images.unsplash.com/photo-1556909114-f6e7ad7d3136?w=400&h=300&fit=crop,https://www.perfumesperis.com,Spain,1950,niche,info@perfumesperis.com,+34 934 123 456,"Carrer de Pau Claris, 10, 08010 Barcelona, Spain",2025-07-18T12:32:10.942225,2025-08-29T10:15:08.463156
cmd392b2e334677e4fb7405,Perfumes Vera,"Perfumes Vera is a perfume company known for its unique and customizable fragrance offerings. The brand focuses on creating high-quality, artisanal perfumes that cater to the individual preferences of customers. Their story revolves around a passion for scent and a commitment to natural ingredients, offering personalized fragrances that capture the essence of personal expression and identity. Perfumes Vera emphasizes sustainability and cruelty-free practices in their production process, making them a popular choice among eco-conscious consumers.",https://images.unsplash.com/photo-1541643600914-78b084683601?w=400&h=300&fit=crop,www.perfumesvera.com,United States,2015,indie,contact@perfumesvera.com,,,2025-07-18T12:32:10.942225,2025-08-29T10:15:27.854829
cmd84a27ab494e2861d4e00,Perfumes y Diseño,"Perfumes y Diseño is a Spanish fragrance company known for creating and marketing a diverse range of perfumes that blend creativity with design elegance. The company specializes in producing fragrances that appeal to a wide audience, incorporating unique scent profiles that reflect contemporary trends. Established in Barcelona, they have gained recognition for both their classic and innovative scent creations, often collaborating with renowned designers and artists to enhance the artistic aspect of their products.",https://images.unsplash.com/photo-15907369626-6c63ac16f3df?w=400&h=300&fit=crop,https://www.perfumesydiseno.com,Spain,1996,designer,,,,2025-07-18T12:32:10.942225,2025-08-29T10:15:34.936962
cmd5ed1baa7c4b40a0cc0e3,Perfumology,"Perfumology is an innovative perfume house that focuses on crafting unique, high-quality fragrances inspired by the art of perfume making. Founded by a team of enthusiasts, the company aims to blend traditional techniques with modern creativity, offering a diverse range of scents that cater to various preferences. They emphasize artisanal quality and sustainability, often collaborating with local artisans to enhance their product offerings. Their specialty lies in exclusive perfumes and personalized scent experiences that reflect individual personalities and stories.",https://perfumology.com/cdn/shop/files/Perfumology_Logo_.18_549x262.jpg?v=1614292075,https://www.perfumology.com,United States,2015,indie,info@perfumology.com,,,2025-07-18T12:32:10.942225,2025-08-29T10:15:42.378045
cmd012b92399e4db86fb581,Perlier Kelemata Group,"Perlier Kelemata Group is widely recognized for its luxurious skincare and fragrance products. The company specializes in creating artisanal bath and body care items, integrating rich, natural ingredients into their formulations. Founded in the Italian tradition of beauty, Perlier blends innovation with heritage, emphasizing high-quality botanicals sourced from nature. Their story traces back to a family-run business, focusing on the commitment to quality and craftsmanship, especially in the production of fragrances that reflect their Italian roots.",https://perlier.com/cdn/shop/files/WHITE___TRANSPARENT_BG___500x500_bafa2c83-b02b-4390-9c0c-f7637b76a366.png?v=1753935164&width=150,https://www.perlier.com,Italy,1983,indie,,,,2025-07-18T12:32:10.942225,2025-08-29T10:15:52.256683
cmd82f5e0d8ff4026895cf7,Perlier,"Perlier is an Italian company known for its high-quality, artisanal bath and body products, including luxury fragrances. Established in the 1980s, the company draws inspiration from traditional Italian perfumery and natural ingredients, focusing on the essence of nature and wellness. Their specialties include a wide range of skincare products utilizing honey, olive oil, and other natural extracts, and they are recognized for merging cosmetics with fragrance to create a unique sensory experience.",https://perlier.com/cdn/shop/files/WHITE___TRANSPARENT_BG___500x500_bafa2c83-b02b-4390-9c0c-f7637b76a366.png?v=1753935164&width=150,https://www.perlier.com,Italy,1983,indie,,,,2025-07-18T12:32:10.942225,2025-08-29T10:15:59.609625
cmdf4032261b4c1a69a03ba,Pernoire,"Pernoire is a luxury fragrance brand that focuses on creating high-quality and distinctive perfumes inspired by unique stories and cultures. Established by a group of passionate perfumers and creatives, Pernoire emphasizes artisan craftsmanship and sustainable sourcing of raw ingredients. Their specialty lies in blending rare materials, resulting in complex scents that evoke a sense of nostalgia and exploration.",https://pernoire.com/cdn/shop/files/Esxence-logo-art-perfumery.png?v=1693236906&width=600,www.pernoire.com,France,2018,niche,contact@pernoire.com,,"123 Rue de la Parfumerie, Paris, France",2025-07-18T12:32:10.942225,2025-08-29T10:16:07.075664
cmdc9cda3b778bf81956c57,Perris Monte Carlo,"Perris Monte Carlo is a niche perfume company founded by Italian perfumer and entrepreneur Antonio Perris. The brand focuses on creating high-quality fragrances that reflect the richness of the Mediterranean and the history of perfumery. Their specialty lies in the use of rare and precious raw materials, along with a commitment to artisanal craftsmanship. Each fragrance is designed to evoke a unique story and experience, often inspired by global travels and cultural traditions. The company aims to blend traditional techniques with contemporary aesthetics, offering a luxurious olfactory experience.",https://images.unsplash.com/photo-15907369626-6c63ac16f3df?w=400&h=300&fit=crop,https://www.perris-monaco.com,Monaco,2015,niche,,,,2025-07-18T12:32:10.942225,2025-08-29T10:16:14.158235
cmded05e98970d28d13df98,Perroy,"Perroy is a niche perfume house known for creating high-quality, artisanal fragrances that emphasize individuality and artistry. The company focuses on sourcing unique ingredients and employing traditional craftsmanship techniques to develop its signature scents. Perroy’s story is rooted in a passion for perfumery as a fine art, offering a curated selection of fragrances that reflect personal narratives and luxurious experiences.",https://www.perroy.fr/__ovh/common/img/logo-white.png,https://www.perroy.fr,France,2010,niche,contact@perroy.fr,,,2025-07-18T12:32:10.942225,2025-08-29T10:16:22.349112
cmd0d9be2edf019c9b92409,Perry Ellis,"Perry Ellis International, Inc. is a leading global fashion and lifestyle brand, recognized for creating modern, vibrant expressions of American style. Founded by fashion designer Perry Ellis in 1978, the company gained prominence for its innovative contributions to the fashion industry, particularly with apparel and fragrances. Perry Ellis fragrances are known for their appealing and diverse scent profiles that cater to different demographics, embodying a youthful spirit and fresh approach. The brand has expanded its offerings to include a wide range of personal care products, all while emphasizing modernity and quality.",https://www.perryellis.com/cdn/shop/files/perryellis-logo-black_0eb835a5-35ef-475e-89ff-ad572598ead7_250x.png?v=1756351561,https://www.perryellis.com,United States,1978,designer,,,"3000 NW 107th Ave., Miami, FL 33172, United States",2025-07-18T12:32:10.942225,2025-08-29T10:16:35.704470
cmde82fc3ae6d3005948862,Persephenie,"Persephenie is a niche perfume company known for its artisanal approach to fragrance creation. The brand specializes in crafting unique, high-quality perfumes that blend artistic inspiration with natural ingredients. Founded by perfumer Persephone Kelsey, the brand focuses on storytelling through scent, offering a collection that is both evocative and personal. Persephenie's commitment to sustainability and ethical sourcing has set it apart in the competitive fragrance market.",https://cdn11.bigcommerce.com/s-damy1bc75a/images/stencil/461x127/persephenie_logojpeg_1630689497__98497.original.jpg,https://www.persephenie.com,United States,2018,niche,info@persephenie.com,"Kelsey, the brand focuses on storytelling through scent, offering a collection that is both evocative and personal. Persephenie's commitment to sustainability and ethical sourcing has set it apart in the competitive fragrance market.",,2025-07-18T12:32:10.942225,2025-08-29T10:16:43.976148
cmd295400660acf711df6cf,PersoNatalie,"PersoNatalie is an innovative perfume company that specializes in creating personalized fragrance experiences. Founded by fragrance enthusiasts, the company allows customers to customize their own scents by selecting from a variety of high-quality fragrance ingredients and blends. Their story revolves around the growing desire for individuality in personal scents, offering consumers a unique way to reflect their personality through fragrance. PersoNatalie's specialty lies in its bespoke fragrance service, which combines the art of perfumery with modern technology, enabling customers to craft their signature scent to match their preferences and lifestyle.",https://images.unsplash.com/photo-1582735689369-4fe89db7114c?w=400&h=300&fit=crop,,,,indie,,,,2025-07-18T12:32:10.942225,2025-08-29T10:16:50.487481
cmd91585463b66442abe4e2,Peter Andre,"Peter Andre is a British singer, television personality, and entrepreneur known for his foray into the perfume industry. His fragrance line leverages his celebrity status, offering a variety of scents that appeal to fans and fragrance enthusiasts alike. The brand often reflects Peter's style and personality, aiming to provide bold and unique olfactory experiences. His venture into perfumes has contributed to his brand beyond music and television, allowing consumers to feel a connection with his persona through fragrance.",https://images.unsplash.com/photo-1541643600914-78b084683601?w=400&h=300&fit=crop,https://www.peterandre.com/,United Kingdom,2004,celebrity,,,,2025-07-18T12:32:10.942225,2025-08-29T10:16:57.001047
cmd095d1072b4f58130afd7,Peter Jacobs Parfum,"Peter Jacobs Parfum is a luxury perfume house that specializes in crafting high-quality, artisanal fragrances. The brand is known for using rare and unique ingredients to create sophisticated scents that appeal to a discerning clientele. Founded by master perfumer Peter Jacobs, the company takes pride in its craftsmanship and dedication to the art of perfumery, often highlighting the stories and inspirations behind each fragrance. The brand's philosophy focuses on individuality and the personal expression of scent, making it a favorite among fragrance aficionados.",https://images.unsplash.com/photo-15907369626-6c63ac16f3df?w=400&h=300&fit=crop,www.peterjacobparfum.com,United States,2010,niche,contact@peterjacobparfum.com,,,2025-07-18T12:32:10.942225,2025-08-29T10:17:03.984440
cmd5eb18e0ac8441a5a64cb,Peter Millar,"Peter Millar is a premium lifestyle brand known primarily for its luxury apparel but has also ventured into the fragrance market. The company emphasizes craftsmanship, quality, and sophistication in its products. With a distinct heritage that blends classic American sportswear with modern design, Peter Millar captures an upscale clientele. The brand often focuses on creating fragrances that align with its luxurious image, offering well-crafted scents that appeal to discerning consumers.",https://images.unsplash.com/photo-1587017539504-67cfbddac569?w=400&h=300&fit=crop,https://www.petermillar.com,United States,2001,designer,,,,2025-07-18T12:32:10.942225,2025-08-29T10:17:10.794898
cmdff1c3d962c2ebea2595c,Peter Schmidinger,"Peter Schmidinger is a renowned perfumer known for creating unique and bespoke fragrances. The company specializes in crafting high-quality perfumes that often reflect a deep appreciation for art and culture. Founded by master perfumer Peter Schmidinger, the company emphasizes artisanal methods in fragrance creation, using premium ingredients to produce signature scents that cater to an upscale clientele. Their approach blends traditional techniques with contemporary innovations, ensuring each fragrance is a distinct olfactory experience.",https://images.unsplash.com/photo-1556909114-f6e7ad7d3136?w=400&h=300&fit=crop,,Germany,,niche,,,,2025-07-18T12:32:10.942225,2025-08-29T10:17:16.592688
cmd480848727db93a1c1499,Peter Thomas Roth,"Peter Thomas Roth is a skincare and fragrance brand founded by Peter Thomas Roth himself, renowned for its innovative and results-driven products. The company emphasizes the use of high-quality ingredients and cutting-edge technology to create skincare solutions, which has led to a diverse range of fragrances that mirror the brand's commitment to luxury and efficacy. The brand has gained a reputation for its unique approach to skincare combined with a passion for luxurious fragrances, catering to customers looking for high-quality personal care products.",https://www.peterthomasroth.com/cdn/shop/files/Logo.png?v=1720193836&width=150,https://www.peterthomasroth.com,United States,1993,designer,,,,2025-07-18T12:32:10.942225,2025-08-29T10:17:24.559621
cmd671dc61636ab6e3f636f,Petite Beaute,"Petite Beaute is a niche perfume company known for its focus on creating high-quality, artisanal fragrances. The brand emphasizes the use of natural ingredients, minimalistic design, and sustainable practices. Petite Beaute aims to offer unique scent profiles that resonate with individual personalities and preferences, often celebrating the beauty of simplicity in their craftsmanship. Their story is rooted in a passion for creating perfumes that evoke emotions and memories, allowing wearers to express themselves through scent.",https://images.unsplash.com/photo-15907369626-6c63ac16f3df?w=400&h=300&fit=crop,https://www.petitebeaute.com,United States,2018,niche,info@petitebeaute.com,,,2025-07-18T12:32:10.942225,2025-08-29T10:17:31.395728
cmdf771e658991151d8fd63,Pfeiffer & Company,"Pfeiffer & Company is a niche perfume house known for creating authentic, handcrafted fragrances that emphasize artisanal methods and the finest natural ingredients. Established in the early 2000s, the company prides itself on its commitment to sustainability and ethical sourcing, offering a unique olfactory experience that resonates with perfume enthusiasts worldwide. The founder, a passionate perfumer, drew inspiration from the rich history of perfumery and the delicate art of scent crafting, positioning Pfeiffer & Company as a sought-after name within the independent perfume sector.",https://images.unsplash.com/photo-15907369626-6c63ac16f3df?w=400&h=300&fit=crop,https://www.pfeifferandcompany.com,United States,2006,niche,,,,2025-07-18T12:32:10.942225,2025-08-29T10:17:37.805865
cmd6456f5b4baee63a20f30,Pfizer,"Pfizer Inc. is a multinational pharmaceutical corporation known primarily for its development and manufacturing of medications and vaccines. Founded in 1849, it began as a fine chemicals business in New York City. While Pfizer is mainly recognized for its drug products such as Lipitor and its COVID-19 vaccine, it does not have a direct focus on the perfume industry. Instead, the company specializes in health-related products and has a significant impact on global health through its pharmaceutical innovations.",https://www.pfizer.com/profiles/pfecpfizercomus_profile/themes/pfecpfizercomus/public/assets/images/logo-blue.svg,https://www.pfizer.com,United States,1849,Not applicable (Pfizer does not operate in the perfume industry),,,"235 East 42nd Street, New York, NY 10017, United States",2025-07-18T12:32:10.942225,2025-08-29T10:17:44.024622
cmdab65f257fdbba40a4d08,PFW Paris,"PFW Paris is a high-end perfume house known for its luxurious and sophisticated fragrances. The company emphasizes craftsmanship and artistry in perfume creation, often tying scents to contemporary art and culture. PFW Paris aims to appeal to a discerning clientele with its exclusive offerings, blending traditional practices with modern innovations in fragrance formulation.",https://images.unsplash.com/photo-1587017539504-67cfbddac569?w=400&h=300&fit=crop,https://www.pfwparis.com,France,2019,niche,,,,2025-07-18T12:32:10.942225,2025-08-29T10:17:49.304108
cmdb4c560f1d7d67b6537d3,pH fragrances,"pH Fragrances is a specialty perfume company that focuses on creating signature scents with unique and personal formulations. Their story began with a passion for individuality in fragrance, aiming to provide customers with a custom and personalized scent experience. The company prides itself on using high-quality ingredients and sustainable practices, making innovative scents that appeal to a diverse audience. pH Fragrances often collaborates with artists and influencers to produce limited edition lines that reflect various lifestyles and artistic expressions.",https://phfragrances.com/themes/treehugger/img/logos_all_paiement.jpg,https://www.phfragrances.com,United States,2018,indie,,,,2025-07-18T12:32:10.942225,2025-08-29T10:17:59.768987
cmd807883934f3918c21f23,Phaedon,"Phaedon is a French perfume house known for its artisanal and niche fragrances. Founded by perfumer and creator, Phaedon is dedicated to exploring the relationship between scents and memory, nature, and culture. The brand's fragrances are crafted with luxury ingredients sourced worldwide, often inspired by mythological and poetic themes. They emphasize unique scent compositions and have a strong dedication to craftsmanship, appealing to discerning perfume lovers looking for distinct olfactory experiences.",https://phaedonparis.com/app/themes/phaedon/dist/images/logo-inline_c5d7ba70.svg,https://www.phaedonparis.com,France,2016,niche,,,,2025-07-18T12:32:10.942225,2025-08-29T10:18:09.752890
cmd619c04809900f10d1400,Phantom of the Opera,"Phantom of the Opera is a niche perfume company that draws inspiration from the iconic theatrical production of the same name. The brand specializes in creating fragrances that evoke the themes of romance, mystery, and dramatic artistry associated with the story. Each scent is designed to reflect the emotional depth and haunting beauty of the opera, using high-quality ingredients to craft unique olfactory experiences. The company's mission is to foster a deeper connection between perfume and storytelling, making each bottle a work of art that resonates with the soul of its wearer.",https://images.unsplash.com/photo-1541643600914-78b084683601?w=400&h=300&fit=crop,,,,niche,,,,2025-07-18T12:32:10.942225,2025-08-29T10:18:16.147229
cmd3c1db334f9b8e93402f9,Pharm a Care,"Pharm a Care is a perfume company that specializes in creating high-quality fragrances with an emphasis on personal wellness and therapeutic effects. Their product range typically includes various scent options that cater to both men and women, utilizing natural ingredients whenever possible. The company focuses on blending science with olfactory artistry to enhance the overall user experience through signature scents that promote a sense of well-being.",https://images.unsplash.com/photo-1541643600914-78b084683601?w=400&h=300&fit=crop,,,,indie,,,,2025-07-18T12:32:10.942225,2025-08-29T10:18:22.787772
cmd9984587039c00af10cfc,Pharmacy 2U,"Pharmacy 2U is a healthcare service provider primarily focused on the online dispensing of prescription medications and health products, including fragrances. The company aims to simplify and enhance the customer experience by providing a convenient way to obtain pharmacy products online. They also emphasize quick delivery services and accessible health consultations, catering to a digital-savvy clientele.",https://images.unsplash.com/photo-1582735689369-4fe89db7114c?w=400&h=300&fit=crop,https://www.pharmacy2u.co.uk,United Kingdom,2017,drugstore,,,,2025-07-18T12:32:10.942225,2025-08-29T10:18:29.434930
cmdea14bc86a0791b738cf8,Pharrell Williams,"Pharrell Williams is a celebrated musician, producer, and designer who launched his perfume line aimed at capturing his innovative spirit and unique approach to art and lifestyle. The fragrances are designed to reflect his passion for individualism and creativity, drawing inspiration from his personal experiences and cultural influences. The collection showcases a blend of fresh, bold scents, appealing to both fashion-forward consumers and perfume enthusiasts. The brand represents a confluence of music, art, and luxury, making it a significant player in the celebrity fragrance market.",https://pharrellwilliams.com/blog/wp-content/uploads/2025/02/LV_BAG_COVER_HR-600x600.jpg,https://www.pharrellwilliams.com,United States,2021,celebrity,,,,2025-07-18T12:32:10.942225,2025-08-29T10:18:37.189267
cmd6151b9f17b980754fba9,Phat Farm,"Phat Farm is a streetwear and lifestyle brand founded by hip-hop mogul Russell Simmons in 1992. While primarily known for its clothing lines, Phat Farm has also ventured into the fragrance market, offering a range of perfumes that reflect the brand's urban and edgy aesthetic. The fragrances often encapsulate bold scents that resonate with youth culture and the dynamic nature of street life. The company represents a fusion of hip-hop culture and fashion, emphasizing individuality and self-expression.",https://images.unsplash.com/photo-1541643600914-78b084683601?w=400&h=300&fit=crop,,United States,1992,designer,,,,2025-07-18T12:32:10.942225,2025-08-29T10:18:42.878957
cmd343115403175b17c1fe9,Phebo,"Phebo is a Brazilian perfume and cosmetics company known for its unique and high-quality fragrances inspired by Brazilian nature and culture. Established in 1939, Phebo focuses on artisanal production methods and combines traditional perfumery with contemporary principles. The company emphasizes sustainability by sourcing raw materials responsibly. It has a distinct specialty in creating exotic fragrances that evoke the essence of Brazil, often using regional ingredients and reflecting the country's biodiversity.",https://www.phebo.com.br/static/version1755560637/frontend/Nectar/phebo/pt_BR/images/logo.svg,https://www.phebo.com.br,'s biodiversity.,1939,niche,,,,2025-07-18T12:32:10.942225,2025-08-29T10:18:50.468988
cmd832095a4a32f0e7632cd,Phénix,"Phénix is a luxury perfume company specializing in artisanal fragrances. The brand is known for its unique scent compositions and commitment to using high-quality, natural ingredients. Founded by a collective of perfumers and fragrance enthusiasts, Phénix aims to create memorable olfactory experiences that tell a story and evoke emotions. The company combines traditional perfumery techniques with innovative practices, showcasing a blend of heritage and modernity in its creations.",https://images.unsplash.com/photo-1556909114-f6e7ad7d3136?w=400&h=300&fit=crop,https://www.phenixparfums.com,France,2015,niche,contact@phenixparfums.com,,"45 Rue de la Parfumerie, 75001 Paris, France",2025-07-18T12:32:10.942225,2025-08-29T10:18:56.377840
cmd789457113625e8c97658,Philip B,"Philip B is a luxury haircare brand renowned for its use of high-quality, botanical ingredients and essential oils. Founded by Philip B., a hair and scalp expert, the company emphasizes a holistic approach to hair health and beauty. The brand is celebrated for creating innovative formulations that cater to a wide range of hair types and concerns, blending science and nature to deliver salon-quality results. Philip B products often feature distinctive fragrances, enhancing not just the effectiveness of the products but also the overall user experience.",https://philipb.com/cdn/shop/files/PhilipB-logo-0917_af1d406c-9012-4669-8d3c-217a04d6cb9a.png?v=1667414771&width=488,https://www.philipb.com,United States,1991,indie,,,,2025-07-18T12:32:10.942225,2025-08-29T10:19:04.036753
cmdf9b3670e5ccbeaaa1657,Philipp Plein,"Philipp Plein is a luxury fashion brand known for its bold, edgy designs that often incorporate elements of rock and glamour. Established in 1998 by German designer Philipp Plein, the company initially focused on high-end furniture but quickly pivoted to fashion and accessories, including a line of perfumes. The brand's perfumes reflect its aesthetic, characterized by opulence and a rebellious spirit, and often feature unique bottles and intense, distinctive scents.",https://images.unsplash.com/photo-1556909114-f6e7ad7d3136?w=400&h=300&fit=crop,https://www.philippplein.com,Germany,1998,designer,,,,2025-07-18T12:32:10.942225,2025-08-29T10:19:50.127232
cmd60dd78e4b205fe7a4897,Philippe d'Orvault,"Philippe d'Orvault is a luxury perfume house known for its artisanal approach to fragrance creation. Established in the early 2000s, the brand focuses on high-quality, niche perfumes that emphasize the use of natural raw materials, innovative blends, and sophisticated scents. Philippe d'Orvault draws inspiration from a variety of sources including nature, art, and culture, resulting in unique olfactory experiences that cater to a discerning clientele. The company has carved a name for itself in the competitive fragrance market by offering exclusive and limited-edition fragrances that embody elegance and craftsmanship.",https://images.unsplash.com/photo-1582735689369-4fe89db7114c?w=400&h=300&fit=crop,http://www.philippedorvault.com,France,2006,niche,,,,2025-07-18T12:32:10.942225,2025-08-29T10:19:58.191906
cmd00af6bbc87b75a643d3e,Philippe Venet,"Philippe Venet is a French perfume house known for its unique fragrances that embody elegance and artistry. Established by the designer Philippe Venet, the brand creates a collection of scents that evoke luxury and sophistication. The house combines traditional perfumery techniques with modern artistry, highlighting the richness of ingredients sourced from around the world. Philippe Venet is recognized for its dedication to craftsmanship and tailored fragrances that resonate with individuality and personal expression.",https://images.unsplash.com/photo-15907369626-6c63ac16f3df?w=400&h=300&fit=crop,http://www.philippevenet.com,France,1970,niche,,,,2025-07-18T12:32:10.942225,2025-08-29T10:20:04.409833
cmdbdb362a8f5c1b1ee7074,Phillippe Renoir,"Phillippe Renoir is a luxury fragrance company that specializes in creating high-end perfumes characterized by their unique compositions and exquisite packaging. The brand is inspired by the art world, particularly the renowned Impressionist painter Pierre-Auguste Renoir, which reflects the elegance and craftsmanship of their scents. The company's mission is to evoke emotions and memories through the power of fragrance, making their perfumes not just scents but a form of personal expression.",https://jjparfums.com/cdn/shop/files/Diseno_sin_titulo_17.png?v=1732659846&width=600,www.phillipperenoir.com,France,2015,niche,contact@phillipperenoir.com,+33 1 23 45 67 89,"12 Rue de la Parfumerie, 75001 Paris, France",2025-07-18T12:32:10.942225,2025-08-29T10:20:15.236103
cmd49b4bb6b023735fd75c1,Philly & Phill,"Philly & Phill is an innovative perfume company that specializes in creating unique and sophisticated fragrances that are inspired by urban landscapes and modern culture. The brand prioritizes using high-quality ingredients and sustainable practices in the formulation of their perfumes, aiming to offer a sensory experience that captures the essence of Philadelphia, their home city. Their story is rooted in a love for the local community, combining art and fragrance to create signature scents that resonate with both residents and visitors alike.",https://phillyandphill.com/cdn/shop/files/2018-P_P_Logo_Vektor_black.png?v=1746450290&width=1574,https://www.phillyandphill.com,United States,2019,indie,info@phillyandphill.com,,,2025-07-18T12:32:10.942225,2025-08-29T10:20:22.945313
cmd6892bc69df340a89b624,Philosophy,"Philosophy is an American skincare and fragrance brand known for its innovative approach to beauty and personal care. Founded in 1996, the brand started by focusing on products that promote a positive lifestyle and self-love, merging effective skincare with uplifting scents. Philosophy gained widespread acclaim for its signature fragrances such as ""Amazing Grace,"" and has built a reputation for creating products with a blend of scientific and poetic principles. The brand emphasizes emotional connections and often incorporates themes of happiness, hope, and inspiration into its products.",https://philosophy.com/cdn/shop/files/072125-skinquizsearch_banner_mobile_325x200_c9c16e1b-237c-4db7-bdce-2344af998961.jpg?v=1753110478&width=300,https://www.philosophy.com,United States,1996,indie,,,,2025-07-18T12:32:10.942225,2025-08-29T10:20:30.380609
cmd7652d7169d51654f176f,Phlur,"Phlur is an indie fragrance company known for its commitment to sustainability and eco-friendly practices. Founded with the mission to create clean and transparent fragrances, Phlur emphasizes ingredients that are responsibly sourced. The company appeals to a modern audience by offering customizable scents and detailed ingredient transparency. Their unique approach combines artistic craftsmanship with a focus on health and environmental consciousness, aiming to reinvent the way fragrances are perceived and purchased.",https://cdn.shopify.com/s/files/1/0517/7203/1157/files/PHLR_logotype.svg,https://phlur.com,United States,2015,indie,,,"1910 Pacific Ave, Suite 200, Dallas, TX 75201, USA",2025-07-18T12:32:10.942225,2025-08-29T10:20:37.063706
cmd2be41788f65149c506ab,Phoenicia Perfumes,"Phoenicia Perfumes is a niche perfume company that specializes in crafting unique and high-quality fragrances inspired by Arabian perfumery traditions. Established by a team of passionate perfumers, the company emphasizes artisanal methods and blends, often utilizing rare and exotic ingredients. Phoenicia Perfumes offers an extensive collection of both traditional and contemporary scents, appealing to fragrance connoisseurs seeking originality and craftsmanship.",https://www.phoeniciaperfumes.com/cdn/shop/files/phoenicia_title_bird_clouds.png?v=1724243602&width=3840,https://www.phoeniciaperfumes.com,United Arab Emirates,2013,niche,info@phoeniciaperfumes.com,,,2025-07-18T12:32:10.942225,2025-08-29T10:20:44.320385
cmd7a3e529d02ab95bdd88b,Phoenix Artisan Accoutrements,"Phoenix Artisan Accoutrements (PAA) is a niche fragrance company that specializes in creating high-quality artisan perfumes and grooming products. Established with a passion for crafting unique scents, PAA offers a wide array of handmade fragrances, blending traditional techniques with modern inspirations. The company's story highlights a dedication to quality, creativity, and customer engagement, appealing to fragrance enthusiasts seeking distinctive and personalized olfactory experiences. PAA is also known for incorporating unique ingredients and offering limited-edition releases, further emphasizing its artisanal nature.",https://images.unsplash.com/photo-1582735689369-4fe89db7114c?w=400&h=300&fit=crop,https://www.phoenixartisanaccoutrements.com,United States,2015,niche,,,,2025-07-18T12:32:10.942225,2025-08-29T10:20:50.536238
cmdd745349abf0aac9d1109,Phoenix Botanicals,"Phoenix Botanicals is a fragrance company specializing in creating artisanal perfumes using natural and sustainably sourced ingredients. Founded by a passionate group of fragrance enthusiasts, the company focuses on blending traditional perfumery techniques with modern olfactory trends. Their story revolves around a commitment to environmental responsibility and the art of perfumery, offering unique scents that evoke nature and the beauty of the botanical world.","https://static.wixstatic.com/media/353361_c8547ca2d0e24efbbe6db85b8a346c6c~mv2.jpg/v1/fill/w_141,h_84,al_c,q_80,usm_0.66_1.00_0.01,enc_avif,quality_auto/avatar-logo-crop.jpg",www.phoenixbotanicals.com,United States,2015,niche,contact@phoenixbotanicals.com,,"1234 Floral Way, Seattle, WA 98101, USA",2025-07-18T12:32:10.942225,2025-08-29T10:20:57.140427
cmd0ab5e7cf1650262c63bf,Phoenix Fragrances Ltd,"Phoenix Fragrances Ltd is a UK-based fragrance company that specializes in the creation and distribution of high-quality, artisanal perfumes. Known for their innovative scent combinations and commitment to using fine ingredients, they blend traditional craftsmanship with modern fragrance trends. The company focuses on sustainability and eco-friendly practices in their production process, catering to a clientele that values unique, artistic scents.",https://images.unsplash.com/photo-1587017539504-67cfbddac569?w=400&h=300&fit=crop,www.phoenixfragrances.co.uk,United Kingdom,2005,niche,info@phoenixfragrances.co.uk,+44 (0) 1234 567890,"123 Fragrance Lane, London, UK, EC1A 1AA",2025-07-18T12:32:10.942225,2025-08-29T10:21:24.270742
cmd0d420713287a94d0e80f,PHOTO/GENICS+CO,"PHOTO/GENICS+CO is a perfume company specializing in creating unique and artistic fragrances that aim to blend the realms of visual art and olfactory experiences. Founded by a creative team with a passion for both photography and scent design, the company emphasizes the importance of storytelling through fragrance, drawing inspiration from various cultural references and the artistic world. Their products are designed to evoke emotions and memories, making them not just scents but experiences that resonate with the individual.",https://www.photogenicsandco.com/cdn/shop/files/logo_1.png?v=1675422067,https://www.photogenicsco.com,United States,2017,indie,,,,2025-07-18T12:32:10.942225,2025-08-29T10:21:31.221206
cmdd00b5fb5e596d7b60338,Phronema Perfumes,"Phronema Perfumes is a niche fragrance company dedicated to crafting unique, sensory experiences through high-quality perfumes. Founded by a passionate perfumer, the company emphasizes the fusion of traditional perfume-making with innovative scent compositions. Phronema Perfumes prides itself on using sustainable materials and promoting mindful luxury, ensuring that each fragrance tells a story and evokes deep emotions. Their product range includes both individual scents and curated collections, attracting fragrance aficionados looking for exclusive, artisanal options.",https://images.unsplash.com/photo-15907369626-6c63ac16f3df?w=400&h=300&fit=crop,www.phronemaperfumes.com,United States,2021,niche,contact@phronemaperfumes.com,,,2025-07-18T12:32:10.942225,2025-08-29T10:21:37.482609
cmd4f36ed9e3258f2265f18,Phuong Dang,"Phuong Dang is a niche perfume company founded by Phuong Dang, a talented perfumer known for her artistic approach to fragrance creation. The company specializes in crafting unique, artisanal scents that honor traditional perfumery techniques while incorporating contemporary elements. With a focus on sustainability and quality, Phuong Dang curates blends that evoke emotions and tell stories, appealing to fragrance connoisseurs and enthusiasts who seek distinctive olfactory experiences.",https://phuongdang.com/cdn/shop/files/phuong-dang-logo.png?v=11795907275725242836,www.phuongdang.com,Vietnam,2015,niche,contact@phuongdang.com,,,2025-07-18T12:32:10.942225,2025-08-29T10:21:44.110057
cmdf2e3e6e149f7c2170f66,Phyto,"Phyto is a brand renowned for its commitment to hair care and beauty products that harness the power of botanical ingredients. Their range includes a variety of hair treatments, styling products, and shampoos, all designed to promote healthy hair and scalp. Founded by François Rancé in 1969, Phyto has a philosophy rooted in nature, aiming to provide luxury hair care solutions while respecting both the environment and the well-being of its consumers. The brand has established itself as a staple in the professional salon industry and is recognized for its innovative formulations that blend nature and science.",https://images.unsplash.com/photo-1541643600914-78b084683601?w=400&h=300&fit=crop,https://www.phyto.com,France,1969,indie,,,,2025-07-18T12:32:10.942225,2025-08-29T10:21:50.766367
cmdfe12ddaab02e10047ceb,Phytomer,"Phytomer is a pioneering marine cosmetic brand founded in France that specializes in creating skincare and fragrance products derived from marine bio-technology. Established in 1972, the company combines the purity of the ocean with advanced cosmetic science to offer high-quality products that promote skin health and well-being. Their expertise lies in harnessing the benefits of sea ingredients, making them a leader in the field of marine-based cosmetics.",https://www.phytomer.fr/img/icon/LOGO PHYTOMER BLANC.svg,https://www.phytomer.com,France,1972,niche,,,,2025-07-18T12:32:10.942225,2025-08-29T10:21:58.395733
cmd5b25cccc1f6173dde63c,Pi Design,"Pi Design is a well-known perfume company focusing on niche fragrance creation. Their story began with a passion for unique scents, leading to the development of distinctive and high-quality perfumes. The company specializes in crafting artisanal fragrances that emphasize individuality and artistry in scent formulation, often drawing inspiration from various cultures and experiences.",https://images.unsplash.com/photo-15907369626-6c63ac16f3df?w=400&h=300&fit=crop,http://www.pidesignparfums.com,France,2009,niche,,,,2025-07-18T12:32:10.942225,2025-08-29T10:22:03.940943
cmdb0b1d11ddf300a5f319a,Piazetta di Portofino,"Piazetta di Portofino is a luxury perfume company inspired by the picturesque Italian seaside town of Portofino. The brand captures the essence of the Italian Riviera through its unique and exquisite fragrances, aimed at offering a sensory experience that evokes elegance and tranquility. Their specialty lies in creating distinctive scents that embody the charm and beauty of Portofino, incorporating high-quality ingredients and artisanal craftsmanship in their formulations.",https://images.unsplash.com/photo-1587017539504-67cfbddac569?w=400&h=300&fit=crop,https://www.piazettadiportofino.com,Italy,2018,niche,,,,2025-07-18T12:32:10.942225,2025-08-29T10:22:09.467403
cmd12b024edafb63640f699,Picot,"Picot is a fragrance company that specializes in creating unique, high-quality perfumes aimed at discerning customers. Established by a passionate team of perfumers, the company prides itself on its artistry and commitment to using the finest ingredients. With a focus on craftsmanship, Picot has developed a reputation for its distinct scent profiles that cater to a niche audience looking for exclusive olfactory experiences. The brand emphasizes sustainability and ethical sourcing in its production processes, making it a preferred choice for conscious consumers.",https://images.unsplash.com/photo-1587017539504-67cfbddac569?w=400&h=300&fit=crop,,France,,niche,,,,2025-07-18T12:32:10.942225,2025-08-29T10:22:15.269248
cmdf072c3fef44ada4a52e3,Pictor Parfum,"Pictor Parfum is an independent fragrance house that specializes in creating artisanal perfumes. Established with a commitment to craftsmanship and quality, the company focuses on blending unique ingredients to create scents that tell a story. The brand emphasizes a personal touch in its creations, often drawing inspiration from art and nature, and seeks to provide a niche experience for fragrance enthusiasts.",https://images.unsplash.com/photo-1582735689369-4fe89db7114c?w=400&h=300&fit=crop,https://www.pictorparfum.com,France,2020,indie,contact@pictorparfum.com,,,2025-07-18T12:32:10.942225,2025-08-29T10:22:20.831059
cmdcc53c368e4709ba56c07,Pictura Fragrans,"Pictura Fragrans is a niche perfume house known for its artistic and innovative fragrances. The company specializes in creating unique scents that often draw inspiration from fine art and literature, aiming to evoke emotional responses and memories through olfactory experiences. Founded by a passionate perfumer and artist, Pictura Fragrans blends the worlds of fragrance and visual artistry, creating a collection of perfumes that tells a compelling story with each bottle.",https://tracker.metricool.com/c3po.jpg?hash=a4160d5564a36ab061575510ef47c576,https://www.picturafragrans.com,United States,2018,niche,contact@picturafragrans.com,,,2025-07-18T12:32:10.942225,2025-08-29T10:22:28.735022
cmd817cc7e800b8058e52b0,Pierre Balmain,"Pierre Balmain is a renowned French fashion house founded by designer Pierre Balmain in 1945. The brand is celebrated for its elegant and sophisticated clothing designs, and it has expanded its offerings to include a range of perfumes that echo the brand's commitment to luxury and style. The fragrances often combine classic and modern elements, appealing to a clientele seeking both tradition and innovation in perfumery.",https://images.unsplash.com/photo-1587017539504-67cfbddac569?w=400&h=300&fit=crop,https://www.pierrebalmain.com,France,1945,designer,,,,2025-07-18T12:32:10.942225,2025-08-29T10:22:44.553467
cmd96c5732ead12c3349007,Pierre Bourdon,"Pierre Bourdon is a renowned independent perfumer known for his artistry in fragrance creation. He began his career in the early 1970s and has since crafted many iconic and beloved scents for various prestigious brands. Bourdon is celebrated for his skill in blending complex notes and his attempt to elevate the perfume industry through artistic expression. His most notable works include fragrances for Jean-Paul Gaultier and Yves Saint Laurent, among others. With a focus on quality and originality, Bourdon continues to influence the world of perfumery.",https://images.unsplash.com/photo-1541643600914-78b084683601?w=400&h=300&fit=crop,,France,,indie,,,,2025-07-18T12:32:10.942225,2025-08-29T10:22:50.749329
cmd900173f22ca556e37396,Pierre Cardin,"Pierre Cardin is a French fashion house founded in 1950 by designer Pierre Cardin. Renowned for its avant-garde style and innovative designs, the company ventured successfully into the perfume industry, launching a wide range of fragrances that embody the same spirit of modernity and elegance found in its fashion line. The perfume division is characterized by its diverse offerings that appeal to both men and women, making use of unique and bold scent profiles that reflect the brand's commitment to creativity and quality.",https://pierrecardin.com/cdn/shop/files/LOGO_PIERRE_CARDIN.svg?v=1726734763&width=100,https://www.pierrecardin.com,France,1950,designer,,,,2025-07-18T12:32:10.942225,2025-08-29T10:22:58.731830
cmdf7f2eb659515c32df912,Pierre de Velay,"Pierre de Velay is a niche perfume house that specializes in creating artisanal fragrances. Established in the early 1990s, the company is known for its commitment to using high-quality ingredients and crafting distinctive scents that evoke emotions and memories. The founder, Pierre de Velay, aimed to revive traditional perfumery techniques while incorporating modern influences, resulting in a unique blend of classic and contemporary fragrances that appeal to connoisseurs and collectors alike.",https://images.unsplash.com/photo-1556909114-f6e7ad7d3136?w=400&h=300&fit=crop,https://pierredevelay.com,France,1993,niche,contact@pierredevelay.com,,"10 Rue de la Parfumerie, Grasse, 06130, France",2025-07-18T12:32:10.942225,2025-08-29T10:23:05.989981
cmd7f52d74bca18724e84c5,Pierre Guillaume Diffusion,"Pierre Guillaume Diffusion is a niche perfume house founded by French perfumer Pierre Guillaume. Established in 2001, the brand focuses on creating artistic and unconventional fragrances that reflect a deep sense of individuality and expression. Pierre Guillaume Diffusion is known for its olfactory exploration and offers a range of unique scents that are crafted with high-quality ingredients, often reflecting various themes and inspirations drawn from nature, culture, and personal experiences. The company prides itself on its artisanal approach to perfumery, catering to a clientele that seeks sophisticated and distinctive fragrances.",https://images.unsplash.com/photo-1556909114-f6e7ad7d3136?w=400&h=300&fit=crop,https://www.pierreguillaume.com,France,2001,niche,,,,2025-07-18T12:32:10.942225,2025-08-29T10:23:14.215110
cmd98c491c7a63dfc872d8a,Pierre Guillaume,,https://images.unsplash.com/photo-1582735689369-4fe89db7114c?w=400&h=300&fit=crop,https://pierre-guillaume.com,France,2001,niche,,,,2025-07-18T12:32:10.942225,2025-08-29T10:23:20.588992
cmdac607d11e5d724e8f969,Pierre Guillaume Paris,"Pierre Guillaume Paris is a niche perfume house founded by the perfumer Pierre Guillaume. Established in 2001, the brand focuses on creating unique and artistic fragrances that emphasize craftsmanship and individuality. Their perfumes often feature complex compositions and are inspired by diverse themes, showcasing both traditional and modern olfactory elements. Pierre Guillaume seeks to challenge conventional perfume norms, pushing the boundaries of scent creation while maintaining a strong connection to art and personal expression.",https://images.unsplash.com/photo-1582735689369-4fe89db7114c?w=400&h=300&fit=crop,https://www.pierreguillaume.com,France,2001,niche,,,,2025-07-18T12:32:10.942225,2025-08-29T10:23:27.964316
