id,name,description,image,website,country,founded,type,email,phone,address,createdAt,updatedAt
cmd990625d1610093f386a4,Crabtree & Evelyn,"Crabtree & Evelyn is a global fragrance and skincare brand that specializes in crafting luxurious products inspired by nature. Founded in 1972, the company initially started as a small retailer of English soaps and botanical beauty products, emphasizing the use of natural ingredients. Over the years, Crabtree & Evelyn has expanded its offerings to include a wide range of body lotions, home fragrances, and scented gifts, all reflecting a commitment to quality, creativity, and sustainability. The brand is known for its elegant packaging and classic scents that evoke a sense of nostalgia and heritage, combining traditional craftsmanship with contemporary trends.",https://www.crabtree-evelyn.com/cdn/shop/files/Wk9-hp-dt_23773bfd-ea6b-43b3-8c75-ac961a656de5_2000x.jpg?v=1645611777,https://www.crabtree-evelyn.com,United States,1972,niche,,,,2025-07-18T12:32:10.942225,2025-08-28T13:12:13.085161
cmd28d6ab75940e18074766,Cradle Holdings,"Cradle Holdings is a perfume company that specializes in creating high-quality, unique fragrances. Established with a passion for perfumery, they focus on blending innovative scent combinations while incorporating luxurious and sustainable ingredients. The company has a commitment to artistry and craftsmanship, aiming to tell a story through each fragrance they produce. Over the years, Cradle Holdings has developed a reputation for their distinct olfactory palettes, appealing to discerning customers who appreciate niche fragrances.",https://images.unsplash.com/photo-1582735689369-4fe89db7114c?w=400&h=300&fit=crop,www.cradleholdings.com,United States,2015,niche,contact@cradleholdings.com,,,2025-07-18T12:32:10.942225,2025-08-28T13:12:19.345406
cmd541ef0de74df96d0415a,Crane,"Crane is a boutique perfume company known for its artisanal approach to fragrance creation. Established by a passionate team, the brand focuses on crafting high-quality, unique scents that draw inspiration from a variety of cultural influences and natural elements. Their commitment to sustainability and the use of natural ingredients sets them apart in the competitive perfume industry. The company often collaborates with local artisans to create custom packaging and limited-edition offerings, providing a personalized touch to their fragrance lineup.",https://images.unsplash.com/photo-1582735689369-4fe89db7114c?w=400&h=300&fit=crop,https://www.craneparfums.com,United States,2017,niche,info@craneparfums.com,,"1234 Scent St, Aroma City, CA 90210, United States",2025-07-18T12:32:10.942225,2025-08-28T13:12:25.693882
cmdf3f0c5bb8933b88fe3ce,Crazylibellule & The Poppies,"Crazylibellule & The Poppies is a French niche perfume company founded in 2005. The brand focuses on creating whimsical and artistic fragrances that embody a playful spirit and a bohemian lifestyle. Their products are characterized by unique and eclectic designs, often utilizing a storytelling approach that invites customers to explore the emotions and inspirations behind each scent. Crazylibellule & The Poppies emphasizes the use of high-quality ingredients and artisanal craftsmanship, making them a notable name in the niche perfume sector.",https://images.unsplash.com/photo-1556909114-f6e7ad7d3136?w=400&h=300&fit=crop,https://www.crazylibellule.com,France,2005,niche,,,,2025-07-18T12:32:10.942225,2025-08-28T13:12:33.375149
cmd2ff82baa377c972f619c,Createur 5 D’Emotions,"Createur 5 D’Emotions specializes in crafting unique and personalized fragrances that evoke emotions and memories. Founded by a passionate artisan perfumer, the company emphasizes the artistry of perfume-making, blending traditional techniques with innovative inspirations drawn from nature and individual experiences. Their offerings aim to connect the wearer to their inner feelings through scent, promoting a deep sensory experience with each fragrance.",https://images.unsplash.com/photo-1587017539504-67cfbddac569?w=400&h=300&fit=crop,https://www.createur5demotions.com,France,2017,niche,contact@createur5demotions.com,,,2025-07-18T12:32:10.942225,2025-08-28T13:12:39.725605
cmd85db5ca2da38cb6977a3,Créateurs Cosmétiques,"Créateurs Cosmétiques is a French perfume company that specializes in creating unique and artisanal fragrances. Founded by a group of talented perfumers, the company aims to blend creativity with high-quality ingredients to craft scents that evoke emotions and memories. Their focus is on promoting niche and sophisticated perfumes that cater to a discerning clientele, making every product a work of art in its own right.",https://images.unsplash.com/photo-1556909114-f6e7ad7d3136?w=400&h=300&fit=crop,https://www.createurscosmetiques.com,France,2003,niche,,,,2025-07-18T12:32:10.942225,2025-08-28T13:12:45.585045
cmd89d2b15dd4e1f583d135,Creation Lamis,"Creation Lamis is a fragrance house known for creating high-quality perfumes that cater to a diverse audience. Established with a passion for blending traditional perfume-making techniques with contemporary design, the company specializes in producing a wide range of scents for both men and women. Their portfolio includes a variety of fragrances that emphasize creativity and originality at competitive prices. The company has gained recognition in the market for its ability to deliver elegant and long-lasting perfumes, appealing to both everyday consumers and fragrance enthusiasts.",https://images.unsplash.com/photo-1582735689369-4fe89db7114c?w=400&h=300&fit=crop,https://www.creationlamis.com,France,2003,indie,,,,2025-07-18T12:32:10.942225,2025-08-28T13:12:52.353962
cmd6753718fad7bc992cae9,Creation Mathias,"Creation Mathias is an independent perfume company known for its artisanal and personalized fragrance creations. The company prides itself on blending high-quality ingredients to craft unique scents that reflect individuality and artistic expression. Founded by a passionate perfumer, Creation Mathias aims to challenge conventional fragrance norms and emphasizes sustainable practices within its production processes. Their specialty lies in creating bespoke perfumes and limited-edition collections, attracting a clientele that values exclusivity and craftsmanship.",https://images.unsplash.com/photo-1582735689369-4fe89db7114c?w=400&h=300&fit=crop,https://creationmathias.com,France,2020,indie,contact@creationmathias.com,,"15 Rue des Fragrances, Grasse, France",2025-07-18T12:32:10.942225,2025-08-28T13:12:58.994312
cmde5ada014e4297fc5764a,Creations Aromatiques,"Creations Aromatiques is a niche perfume company known for its unique and artisanal fragrance creations. The company emphasizes high-quality ingredients blended to create distinctive scent profiles that cater to a sophisticated clientele. Their story begins with a passion for olfactory artistry, combining traditional perfume-making techniques with innovative approaches to fragrance design.",https://images.unsplash.com/photo-1556909114-f6e7ad7d3136?w=400&h=300&fit=crop,http://www.creationsaromatiques.com,United States,1993,niche,,,,2025-07-18T12:32:10.942225,2025-08-28T13:13:05.203067
cmd1fa08577faaaee6d258f,Creative Brands,"Creative Brands is a company specialized in the development and marketing of personal fragrances and body care products. Founded with the ambition to innovate within the perfume industry, Creative Brands focuses on creating unique scents that appeal to a broad range of consumers. The company prides itself on using high-quality ingredients and collaborating with renowned perfumers to craft fragrances that reflect current trends and consumer preferences. Over the years, Creative Brands has established a reputation for its creative approach and commitment to sustainability in sourcing and production practices.",https://images.unsplash.com/photo-1582735689369-4fe89db7114c?w=400&h=300&fit=crop,www.creativebrandsofficial.com,United States,2002,indie,contact@creativebrandsofficial.com,,,2025-07-18T12:32:10.942225,2025-08-28T13:13:11.686442
cmdb5e48f5cff2ee7aee4fc,Creative Co-Op,"Creative Co-Op is a lifestyle brand that focuses on designing and manufacturing a wide range of home decor, accessories, and gifts, including a selection of fragrances and scented products. Established with a passion for creativity and quality, the company emphasizes unique and artisanal craftsmanship in its offerings. Although primarily known for home decor, their scented products reflect their commitment to style and aesthetic appeal, providing a sensory experience that complements their other product lines.",https://www.creativecoop.com/491e3d/contentassets/708b308d45bb4784b183a5ff8cee28e9/ccoi-logo.png,https://www.creativecoop.com,United States,2005,indie,,,,2025-07-18T12:32:10.942225,2025-08-28T13:13:19.315524
cmd3ae5b5923573c5543669,Creative Colours,"Creative Colours is an innovative perfume company that specializes in creating unique fragrances designed to evoke emotions and memories. Founded with a vision to express individuality through scent, the company emphasizes the use of high-quality ingredients and artistic craftsmanship in fragrance development. Their story began with a passion for colors and how they translate into olfactory experiences, resulting in a diverse array of scents that cater to various preferences and occasions.",https://images.unsplash.com/photo-1541643600914-78b084683601?w=400&h=300&fit=crop,www.creativecolours.com,United States,2015,indie,contact@creativecolours.com,,,2025-07-18T12:32:10.942225,2025-08-28T13:13:25.847150
cmd753ec19beaa50d9dec1d,CFF,"CFF is a company known for its innovative and artistic approach to fragrance creation. Established with a passion for olfactory storytelling, CFF specializes in crafting unique scent profiles that resonate with individuality. The company’s story is rooted in a desire to transform everyday moments into memorable experiences through the art of perfume. They focus on high-quality ingredients and sustainable sourcing to create captivating fragrances that appeal to modern consumers seeking authenticity and craftsmanship.",https://images.unsplash.com/photo-1582735689369-4fe89db7114c?w=400&h=300&fit=crop,,,,indie,,,,2025-07-18T12:32:10.942225,2025-08-28T13:13:31.851776
cmdf00eb1d5ff7f8f747740,Creative Flavours & Fragrances,"Creative Flavours & Fragrances specializes in the creation and distribution of custom fragrances and flavor profiles for various sectors, including cosmetics, personal care, and household products. The company is known for its innovative approach to scent development, blending science with art to produce unique, tailored fragrances. Their story began with a vision to revolutionize the fragrance industry by focusing on customer-specific needs rather than off-the-shelf solutions. They are committed to sustainability and use high-quality, ethically sourced ingredients in their products.",https://images.unsplash.com/photo-1587017539504-67cfbddac569?w=400&h=300&fit=crop,https://creativefragrances.com,United States,2010,indie,info@creativefragrances.com,,"123 Scent Avenue, Fragrance City, CA 90001, USA",2025-07-18T12:32:10.942225,2025-08-28T13:13:40.236495
cmd8211c8a7ca5a715988a5,Creative Scentualization,"Creative Scentualization is a perfume company that specializes in creating personalized and custom fragrances. Founded by a group of fragrance enthusiasts and experts, the company focuses on designing unique scents that reflect individual personalities and preferences. They are known for using high-quality ingredients and for their artisanal approach to perfumery, ensuring that each creation is an expression of creativity and luxury. The brand aims to provide a sensory experience that goes beyond just wearing perfume, inviting customers to connect with their scent identities.",https://images.unsplash.com/photo-15907369626-6c63ac16f3df?w=400&h=300&fit=crop,https://www.creativescentualization.com,United States,,niche,,,,2025-07-18T12:32:10.942225,2025-08-28T13:13:46.699821
cmd73172f15c923fe4a858f,Creed,"Creed is a luxury perfume house founded in 1760, known for its artisanal craftsmanship and use of the finest raw materials. The brand has a rich heritage, originally established as a tailor and fragrance maker for the British aristocracy. Over the years, Creed has become renowned for its exclusive scents, which often include unique combinations of natural ingredients. The company specializes in crafting bespoke fragrances and has created iconic scents such as Aventus and Green Irish Tweed, which have garnered a loyal following worldwide. Creed prides itself on its family-owned operations and dedication to maintaining traditional perfumery techniques while innovating with new scents.",https://creed.com/cdn/shop/files/Creed_Logo2024_1180x.png?v=1696267695,https://www.creed.com,France,1760,niche,,,"20 Rue de la Paix, 75002 Paris, France",2025-07-18T12:32:10.942225,2025-08-28T13:16:51.900545
cmdccc050d72c1ee7d7c70a,Cremieux,"Cremieux is a luxury fashion brand known for its sophisticated apparel and accessories, which includes a selection of high-quality fragrances. Founded in Paris, the company reflects the elegance and style of the city with a focus on craftsmanship and premium materials. The brand combines classic influences with modern aesthetics, creating a distinct identity in the luxury market. Cremieux's fragrances are designed to enhance the lifestyle of its discerning clientele, embodying the essence of French elegance and sophistication.",https://www.cremieux.fr/cdn/shop/files/Logo_Title_Navy_4x_97ac7a87-577d-4c8f-8ef6-90514af0364c_1.png?v=1756238345&width=1528,https://www.cremieux.fr,France,1976,designer,,,,2025-07-18T12:32:10.942225,2025-08-28T13:16:59.600489
cmdcf76f0af3668b2709d1c,Cremo,"Cremo is a personal care brand that specializes in grooming products for men, including fragrances, shaving supplies, and skincare. Founded on the principle of providing grooming essentials with premium quality, Cremo aims to elevate men's grooming experiences through well-crafted products. The company focuses on creating unique scents and formulas that appeal to the modern man, tapping into a heritage of classic fragrance craftsmanship combined with contemporary innovation.",https://cremocompany.com/cdn/shop/files/crown_trans_bg_175x.png?v=1740503897,https://cremocompany.com,United States,2005,drugstore,,,"3055 N. 1st Avenue, Suite 110, Tucson, AZ 85719",2025-07-18T12:32:10.942225,2025-08-28T13:17:07.070493
cmd865357c7398da614c43c,Criminal Elements,"Criminal Elements is an emerging perfume company known for its unique and bold fragrance offerings that evoke a sense of adventure and rebellion. Founded with the mission to challenge traditional fragrance norms, the company has carved out a niche in the market by blending eclectic ingredients that cater to those who seek distinct and unconventional scents. The brand emphasizes creativity and self-expression, appealing to a youthful demographic that values individuality in personal fragrances.",https://images.unsplash.com/photo-1582735689369-4fe89db7114c?w=400&h=300&fit=crop,http://www.criminalelements.com,United States,2018,indie,contact@criminalelements.com,,,2025-07-18T12:32:10.942225,2025-08-28T13:17:13.758687
cmd60e0ff49050dc1bbfd9a,Cristalleries De Saint-Louis,"Cristalleries De Saint-Louis is a renowned manufacturer and designer of luxury crystal glassware, established in 1586, making it one of the oldest crystal manufacturers in France. Known for its intricate craftsmanship, the company uses traditional techniques combined with modern designs. While primarily focused on glass production, the brand is also recognized for its exquisite perfume bottles that are often used by high-end fragrance companies. The crystal products are characterized by their brilliance, detail, and elegance, making them a status symbol in luxury markets.",https://www.saint-louis.com/static/version1756366047/frontend/Cslmag/default/default/images/logos/logo-white.svg,https://www.saint-louis.com,France,1586,designer,,,"2 Rue de la Manufacture, 57620 Saint-Louis-lès-Bitche, France",2025-07-18T12:32:10.942225,2025-08-28T13:17:21.983400
cmdc3095a3a4250e9ae9d9e,Cristian Cavagna,"Cristian Cavagna is a luxury fragrance company that specializes in creating high-quality, artisanal perfumes. Founded by the Italian perfumer Cristian Cavagna, the brand is known for its unique scent compositions that often draw inspiration from nature and personal experiences. The company aims to evoke emotions and memories through the art of fragrance, focusing on the use of premium ingredients and traditional craftsmanship in perfume creation.",https://cristiancavagna.com/wp-content/uploads/2022/10/Cristian-Cavagna-LOGO-e1666640179705.png,https://www.cristiancavagna.com,Italy,2011,niche,,,,2025-07-18T12:32:10.942225,2025-08-28T13:17:34.192646
cmdb0324ec67566223236c8,Cristiano Fissore,"Cristiano Fissore is a boutique perfume company that specializes in creating unique, artisanal fragrances. Founded by the perfumer Cristiano Fissore, the brand emphasizes quality ingredients and craftsmanship, utilizing traditional methods to produce scents that are both innovative and evocative. The company focuses on a narrative approach to perfumery, crafting each fragrance with a story that reflects its inspiration, allowing customers to explore emotions and memories through scent.",https://images.unsplash.com/photo-1541643600914-78b084683601?w=400&h=300&fit=crop,,,,niche,,,,2025-07-18T12:32:10.942225,2025-08-28T13:17:40.415966
cmddc8a1d388bffea9c45fa,Cristiano Ronaldo,"Cristiano Ronaldo Perfumes is a fragrance line developed by the famed Portuguese footballer Cristiano Ronaldo. Launched in 2012, the brand focuses on creating a collection of signature scents that reflect Ronaldo's style and personality. The perfumes are marketed towards fans of the athlete and fragrance enthusiasts alike, offering various eau de toilette and eau de parfum options that embody luxury and sophistication. The brand emphasizes the connection between sports, lifestyle, and fashion through their products, targeting both male and female consumers.",https://images.unsplash.com/photo-1541643600914-78b084683601?w=400&h=300&fit=crop,https://cristianoronaldo.com/fragrances,Portugal,2012,celebrity,,,,2025-07-18T12:32:10.942225,2025-08-28T13:17:46.931090
cmde5aa93dd6fd16ef8e32a,Cristine Arbel,"Cristine Arbel is a fragrance company founded by perfumer Cristine Arbel, specializing in creating unique and sophisticated scents that blend creativity with quality. The brand focuses on craftsmanship and ingredients to deliver luxurious perfumes that tell stories through their olfactory compositions. With a philosophy rooted in artistry, Cristine Arbel aims to provide a memorable scent experience that resonates with individuality and elegance.",https://images.unsplash.com/photo-1541643600914-78b084683601?w=400&h=300&fit=crop,https://www.cristinearbel.com,France,2017,niche,,,,2025-07-18T12:32:10.942225,2025-08-28T13:17:53.126977
cmd8891abeb3bb116cd7ee6,"Crosfield, Watson and Gossage Ltd","Crosfield, Watson and Gossage Ltd is a perfume company known for its rich history in the fragrance industry, specializing in the manufacture and distribution of high-quality perfumes and colognes. The company has a reputation for crafting unique and innovative scents, often tailored to meet the specific desires of their clientele. With a commitment to quality and craftsmanship, they serve both retail and wholesale markets, and over the years have developed a diverse portfolio of fragrances.",https://images.unsplash.com/photo-1541643600914-78b084683601?w=400&h=300&fit=crop,,United Kingdom,1874,niche,,,,2025-07-18T12:32:10.942225,2025-08-28T13:17:59.357728
cmdf5b3a30090aac15787bb,Crosfield,"Crosfield is a perfume company known for its high-quality fragrances, focusing on unique, artisanal creations. The brand prides itself on using traditional methods combined with contemporary artistry to craft scents that evoke emotion and memory. With a commitment to sustainability and ethical sourcing, Crosfield aims to provide consumers with luxurious fragrances that also conscious of their environmental impact.",https://images.unsplash.com/photo-1587017539504-67cfbddac569?w=400&h=300&fit=crop,,,,niche,,,,2025-07-18T12:32:10.942225,2025-08-28T13:18:05.026536
cmdf31f2a60473c281397a5,Crow & Pebble,"Crow & Pebble is a niche perfume company that specializes in creating handcrafted, artisanal fragrances. The brand emphasizes natural ingredients and sustainable practices, focusing on the art of perfumery with a strong commitment to authenticity and individuality. Founded by a team of fragrance enthusiasts, Crow & Pebble aims to offer unique olfactory experiences that reflect personal stories and memories. Their collections are often inspired by nature and the environment, making them stand out in the competitive perfume market.",https://crowandpebble.com/cdn/shop/files/Crow-Pebble-Centre_a1299f92-79b9-4b81-a5e9-4082eef44272.png?v=1613762793&width=600,https://www.crowandpebble.com,United States,2018,niche,hello@crowandpebble.com,,,2025-07-18T12:32:10.942225,2025-08-28T13:18:13.461092
cmd2f12cbdfb67d13b89190,Crown Perfumery,"Crown Perfumery is a historic perfume house with a lineage dating back to the 19th century. Known for its luxurious fragrances, the company specializes in creating high-quality, handcrafted perfumes that reflect both tradition and innovation. Crown Perfumery originally gained prominence for its use of the finest ingredients and has a reputation for producing unique scents that cater to a discerning clientele. The brand emphasizes artistry and craftsmanship in fragrance creation, often drawing inspiration from its British heritage.",https://images.unsplash.com/photo-1582735689369-4fe89db7114c?w=400&h=300&fit=crop,https://www.crownperfumery.com,United Kingdom,1865,niche,,,,2025-07-18T12:32:10.942225,2025-08-28T13:18:20.637471
cmddbb863b91410582f3d4b,Cuarzo The Circle,"Cuarzo The Circle is a specialized perfume company that creates unique and handmade fragrances, focusing on the essence of nature and sustainability. Its story began with a passion for artisanal perfumery, emphasizing the use of high-quality natural ingredients. The company prides itself on crafting scents that evoke emotions and tell stories, appealing to a niche market that values individuality and artistry in perfumes.",https://images.unsplash.com/photo-1582735689369-4fe89db7114c?w=400&h=300&fit=crop,https://cuarzo.com,Mexico,2021,niche,contact@cuarzo.com,,,2025-07-18T12:32:10.942225,2025-08-28T13:18:27.722499
cmd47392ff811c39b78f93d,Cuba Paris,"Cuba Paris is a fragrance company known for its unique and exotic perfume offerings. Founded with a vision to create distinct scents that evoke the spirit of Cuba, the brand combines traditional perfume-making techniques with contemporary inspirations. Their perfume lines often feature tropical and floral notes, inspired by the island's rich culture and natural beauty. Cuba Paris specializes in affordable luxury, providing quality fragrances that appeal to a diverse audience.",https://images.unsplash.com/photo-1556909114-f6e7ad7d3136?w=400&h=300&fit=crop,http://www.cubaparis.com,France,2004,indie,,,,2025-07-18T12:32:10.942225,2025-08-28T13:18:34.397746
cmd1cc2c0dc4c7d16ab1417,Cult 51,"Cult 51 is a luxury skincare brand that combines advanced formulations with the highest quality ingredients to create effective products that enhance the skin's health and appearance. Founded by a group of beauty enthusiasts who sought to develop a brand that transcends traditional beauty ideals, Cult 51 specializes in creating results-driven skincare products that cater to diverse skin types and concerns. The brand's philosophy is rooted in the science of aging, offering a bespoke experience that focuses on delivering visible results. Over the years, Cult 51 has grown a loyal customer base and established itself as a key player in the skincare segment of the cosmetic industry.",https://cult51.com/cdn/shop/files/Cult51LogoScraped_280x.png?v=1662422405,https://www.cult51.co.uk,United Kingdom,2013,indie,,,,2025-07-18T12:32:10.942225,2025-08-28T13:18:42.910436
cmd0eafb73c2a782df49fb3,Cult Gaia,"Cult Gaia is a contemporary fashion and lifestyle brand that initially gained recognition for its unique handbags and accessories. The company has since expanded its product line to include fragrances, embodying the brand’s aesthetic, which emphasizes earthy, natural elements, and bohemian influences. Founded by Jasper Garvida in 2012, Cult Gaia tells a story of effortless elegance and artful design, attracting a loyal customer base seeking to celebrate individuality through high-quality, creative products.",https://cultgaia.com/cdn/shop/files/19340006.png?v=1755570770&width=2000,https://www.cultgaia.com,United States,2012,indie,,,,2025-07-18T12:32:10.942225,2025-08-28T13:18:50.937531
cmd392b2a43d41c68e5984a,Cult of Kaori,"Cult of Kaori is a niche perfume company specializing in artisanal and handcrafted fragrances. The brand focuses on the philosophy of blending natural, high-quality ingredients to create unique scent experiences reflecting the essence of Japanese culture and aesthetics. Their story is rooted in a deep appreciation for nature and craftsmanship, often inspired by traditional Japanese customs and motifs. Cult of Kaori aims to provide consumers with a luxurious olfactory experience that resonates with individuality and personal expression.",https://cdn.prod.website-files.com/64d4ffa1cda645d47db05a77/655ceef6f906c87a99da4f80_cok_logo_wordmark_blk.png,https://cultofkaori.com,Japan,2015,niche,,,,2025-07-18T12:32:10.942225,2025-08-28T13:18:57.937965
cmd12090a63f7a4dc24660c,Cult of Scent,"Cult of Scent is a niche perfume company that focuses on crafting unique, high-quality fragrances inspired by diverse cultural themes and natural elements. Founded by a team of perfume enthusiasts, the company emphasizes artisanal production methods and the use of fine ingredients sourced from around the world. Their story is marked by a passion for scent exploration, and they aim to offer customers an olfactory experience that transcends the ordinary, often drawing on historical and geographical influences in their fragrance lines.",https://static.HugeDomains.com/images/hdv3-img/hd-header-logo-v3.svg,https://www.cultofscent.com,United States,2018,niche,contact@cultofscent.com,,,2025-07-18T12:32:10.942225,2025-08-28T13:19:05.039621
cmd078316e66b189f1896d4,Culti Milano,"Culti Milano is an Italian company renowned for its high-quality home fragrances and diffusers. Founded by Alessandro Agrati in 1990, the brand emphasizes the creation of atmospheric scents that enhance the environment and evoke emotional responses. Culti Milano's products reflect a commitment to craftsmanship and design, blending elegance with functionality. They specialize in diffusers, candles, and home fragrance sprays, using a unique blend of essential oils and sophisticated compositions to transform living spaces into aromatic experiences. The company is also noted for its sleek and luxurious packaging, making their offerings a popular choice for home decor enthusiasts.",https://images.unsplash.com/photo-15907369626-6c63ac16f3df?w=400&h=300&fit=crop,https://www.cultimilano.com,Italy,1990,niche,,,,2025-07-18T12:32:10.942225,2025-08-28T13:19:13.779701
cmdc681d0be858e0e86c0c0,Cultus Artem,"Cultus Artem is a luxury niche perfume company known for its artisanal approach to fragrance creation. Founded with an emphasis on storytelling and personal experiences, Cultus Artem focuses on crafting unique scents that reflect various emotions and moments in life. The brand is recognized for its high-quality ingredients, innovative olfactory compositions, and the use of nature as inspiration for its fragrances, appealing to connoisseurs of unique and sophisticated perfumes.",https://cultusartem.com/cdn/shop/files/wallpaper-logo_2048x2048.jpg?v=1738067995,https://cultusartem.com,United States,2015,niche,,,,2025-07-18T12:32:10.942225,2025-08-28T13:19:20.555401
cmd3bc020bda0065bd985ac,Cupid,"Cupid is a fragrance company specializing in creating affordable yet high-quality perfumes. The company aims to evoke emotions and enhance personal style through its diverse range of scents. Cupid focuses on providing unique and accessible fragrances that appeal to a broad audience, making it an inviting choice for everyday wear. The company's story revolves around the belief that everyone deserves to feel special and confident through the power of scent.",https://images.unsplash.com/photo-1556909114-f6e7ad7d3136?w=400&h=300&fit=crop,,,,indie,,,,2025-07-18T12:32:10.942225,2025-08-28T13:19:26.409410
cmd1d621636b9e19ee60375,Cupids,"Cupids is a perfume company that specializes in creating romantic and enchanting fragrances. Founded with the vision of capturing the essence of love and desire, Cupids offers a range of perfumes that evoke emotions and create memorable experiences. Their story is rooted in the belief that scent can influence feelings and moods, making their fragrances more than just a product, but an experience. The brand focuses on high-quality ingredients and artistic compositions, often drawing inspiration from romance and mythology.",https://images.unsplash.com/photo-1582735689369-4fe89db7114c?w=400&h=300&fit=crop,https://www.cupidsfragrance.com,United States,2015,indie,contact@cupidsfragrance.com,,,2025-07-18T12:32:10.942225,2025-08-28T13:19:34.015365
cmd326d04447463710d35c0,Curinoir,"Curinoir is a niche perfume company that specializes in creating unique and evocative fragrances. Founded by a group of fragrance enthusiasts, the brand focuses on blending high-quality natural ingredients with innovative scent profiles, aiming to evoke emotions and memories through olfactory art. Their story is rooted in a passion for artisanal craftsmanship and a desire to provide customers with personalized scent experiences. Curinoir emphasizes sustainability in its practices, using eco-friendly packaging and sourcing materials responsibly.",https://images.unsplash.com/photo-15907369626-6c63ac16f3df?w=400&h=300&fit=crop,www.curinoir.com,United States,2018,niche,contact@curinoir.com,,,2025-07-18T12:32:10.942225,2025-08-28T13:19:41.047537
cmd837a6f04186d4822442d,Curionoir,"Curionoir is a niche perfume company specializing in creating unique, fragrance-forward products that focus on storytelling and emotional connections through scent. Their fragrances often feature unconventional ingredient combinations, inspired by art and culture, aiming to evoke specific memories or experiences. Curionoir places a strong emphasis on craftsmanship and individuality, catering to a clientele that values exclusivity and artistic expression in perfumery.",https://www.curionoir.com/cdn/shop/t/5/assets/lilith-doll-sketch.png?v=112978371791717205131620722232,https://www.curionoir.com,United States,2017,niche,,,,2025-07-18T12:32:10.942225,2025-08-28T13:19:47.573666
cmd93335f462d3bd16878e9,Curly Scents,"Curly Scents is a niche perfume company that specializes in creating unique and artisanal fragrances. The brand is known for its dedication to quality and craftsmanship, carefully selecting ingredients to craft scents that cater to personal styles and preferences. Curly Scents' story began with a passion for exploring the olfactory world, leading to a collection that reflects individuality and creativity in perfumery.",https://images.unsplash.com/photo-1541643600914-78b084683601?w=400&h=300&fit=crop,https://www.curlyscents.com,United States,,niche,,,,2025-07-18T12:32:10.942225,2025-08-28T13:19:53.420518
cmdd3448958825b604fdbdd,Curve [Claiborne],"Curve is a fragrance line created by Liz Claiborne Inc., a noteworthy American fashion brand. Launched in 1996, Curve is best known for its vibrant and energetic scents that appeal to both men and women. The brand aims to encapsulate a sense of adventure and spontaneity, often targeting a youthful audience. The Curve fragrances have become iconic in the perfume industry, recognized for their catchy names and colorful packaging, reflecting a modern and laid-back lifestyle, while being accessible to a broad consumer base.",https://images.unsplash.com/photo-1541643600914-78b084683601?w=400&h=300&fit=crop,https://www.lizclaiborne.com,United States,1996,designer,,,,2025-07-18T12:32:10.942225,2025-08-28T13:20:00.595883
cmd80b9d77d5f15a5659fcc,Curventa,"Curventa is a niche perfume house known for its handcrafted fragrances that emphasize quality and unique olfactory compositions. The company was founded by a team of experienced perfumers and creatives who sought to bring a fresh approach to the fragrance market, focusing on personal narratives and emotional connections through scent. Curventa emphasizes artistry in perfumery and often draws inspiration from nature and cultural influences to create its signature blends.",https://images.squarespace-cdn.com/content/v1/5b47237175f9ee48f6375b68/1531388824174-QELTDCELRRFBLZOOLK8T/logo.png,www.curventa.com,United States,2018,niche,info@curventa.com,,,2025-07-18T12:32:10.942225,2025-08-28T13:20:10.293904
cmdcc70912ac6ef546238ae,Cussons,"Cussons is a British personal care company known for its diverse range of products, including skincare, body care, and fragrances. Established in 1828, the brand has a rich heritage and is renowned for creating quality products that cater to everyday consumer needs. Their perfume line includes well-regarded fragrances such as ""Imperial Leather,"" and they often focus on blending tradition with modern consumer preferences to deliver appealing scents. The company's journey reflects constant innovation and adaptation to market trends, showcasing their commitment to quality and consumer satisfaction.",https://images.unsplash.com/photo-1556909114-f6e7ad7d3136?w=400&h=300&fit=crop,https://www.cussons.com,United Kingdom,1828,drugstore,,,,2025-07-18T12:32:10.942225,2025-08-28T13:20:27.440373
cmde51fe370e1cafcf1bacc,Custo Barcelona,"Custo Barcelona is a fashion company founded by designers Custo Dalmau and David Dalmau in 1980. Initially known for its vibrant and colorful clothing designs, the brand has expanded its offerings to include a line of fragrances. Their perfumes embody the same creativity, passion for color, and distinctively artistic concepts that are characteristic of their fashion collections. Custo Barcelona aims to create unique and recognizable scents that reflect the brand's essence of eclectic luxury, often influenced by contemporary art and culture.",https://images.unsplash.com/photo-1541643600914-78b084683601?w=400&h=300&fit=crop,[www.custobarcelona.com](http://www.custobarcelona.com),Spain,1980,designer,,,,2025-07-18T12:32:10.942225,2025-08-28T13:20:34.253059
cmd04758dd52ae08d65fcdb,Cyklar,"Cyklar is a niche perfume company that specializes in creating unique and artisanal fragrances inspired by nature and personal experiences. Founded by a passionate perfumer, the company focuses on using high-quality natural ingredients to craft scents that resonate on an emotional level. Their story emphasizes a commitment to sustainability and creativity, offering a curated collection of fragrances that reflect individuality and artistic expression.",https://images.unsplash.com/photo-1556909114-f6e7ad7d3136?w=400&h=300&fit=crop,,,,niche,,,,2025-07-18T12:32:10.942225,2025-08-28T13:20:40.050388
cmd5b034e83943b49020aec,Cynthia Rowley,"Cynthia Rowley is a renowned American fashion designer known for her eclectic and artistic approach to fashion and lifestyle branding. Established originally as a fashion label, the company has diversified into various segments, including a line of fragrances that encapsulate the whimsical and vibrant essence of her design philosophy. The brand focuses on combining playful elements with elegance, positioning itself at the intersection of high fashion and unique personal expression.",https://cynthiarowley.com/cdn/shop/files/logo.png?v=1613160559,https://www.cynthiarowley.com,United States,1988,designer,,,,2025-07-18T12:32:10.942225,2025-08-28T13:20:47.493611
cmd29cab242cd77d20879d5,Cyrus,"Cyrus is a niche perfume company that specializes in creating unique, artisanal fragrances. Founded by a passionate perfumer with a vision to evoke emotions through scent, Cyrus focuses on high-quality ingredients and handcrafted processes. The brand emphasizes individuality and personal expression through exclusive perfume offerings that are designed to cater to discerning clientele looking for something distinct and memorable.",https://images.unsplash.com/photo-1587017539504-67cfbddac569?w=400&h=300&fit=crop,www.cyrusfragrances.com,USA,2015,niche,info@cyrusfragrances.com,,"123 Scent Street, Fragrance City, CA 90210, USA",2025-07-18T12:32:10.942225,2025-08-28T13:20:54.191867
cmd80b36d30e64d06fac6e2,Cyzone,"Cyzone is a brand that primarily focuses on cosmetics, and it is well-known for its range of fragrances, targeting a youthful demographic, especially young women. It operates under a direct sales model, allowing representatives to market their products directly to consumers. The brand promotes a vibrant and trendy lifestyle and is popular in various Latin American countries, appealing to consumers through its innovative and accessible products.",https://images.unsplash.com/photo-1556909114-f6e7ad7d3136?w=400&h=300&fit=crop,http://www.cyzone.com,Peru,2006,indie,,,,2025-07-18T12:32:10.942225,2025-08-28T13:21:10.864214
cmd1d8d8889d22488f987d0,Czar,Czar is a niche perfume company that specializes in creating unique and high-quality fragrances. The company prides itself on using premium ingredients and craftsmanship to develop scents that reflect individuality and sophistication. Their story is rooted in a passion for perfumery and an aspiration to provide a personalized experience for fragrance lovers. Czar aims to stand out in the competitive perfume market with its bespoke offerings and limited-edition collections.,https://images.unsplash.com/photo-15907369626-6c63ac16f3df?w=400&h=300&fit=crop,www.czarfinefragrance.com,United States,2010,niche,contact@czarfinefragrance.com,,,2025-07-18T12:32:10.942225,2025-08-28T13:21:17.914481
cmda4e40d853c73f7e163c8,Czech & Speake,"Czech & Speake is a luxury British fragrance company founded in 1978, renowned for its artisanal approach to perfume making. The brand initially started as a purveyor of fine men’s grooming products, including shaving accessories, before expanding into the world of fragrances. Czech & Speake offers a curated line of elegant and sophisticated scents, with a unique emphasis on quality ingredients and craftsmanship. The company draws inspiration from the elegance and heritage of British culture, often reflecting traditional elements in their perfume offerings. Their collections are characterized by complex compositions that appeal to a discerning clientele.",https://www.czechandspeake.com/images/CS-logo.svg ,https://www.czechandspeake.com,United Kingdom,1978,niche,,,,2025-07-18T12:32:10.942225,2025-08-28T13:21:24.999730
cmd3223ce076e9a591321e4,Christian Audigier,"Christian Audigier is a French-American fashion designer and entrepreneur known for his bold designs and vibrant style, which heavily influenced pop culture in the 2000s. The company specializes in a mix of fashion and fragrance, providing products that embody the edgy and luxurious spirit of the brand. Audigier gained fame as the designer behind brands like Ed Hardy, and the Christian Audigier perfume line extends this aesthetic into the scent realm, offering a range of fragrances that reflect the brand's unique identity.",https://images.unsplash.com/photo-1582735689369-4fe89db7114c?w=400&h=300&fit=crop,http://www.christianaudigier.com,United States,2008,designer,,,,2025-07-18T12:32:10.942225,2025-08-28T13:21:32.177446
cmd4984cd872c3ddf0e6003,Costes,"Costes is a niche fragrance brand that emerged from the spirit of the famous Hôtel Costes located in Paris, France. The hotel is a hub of luxury and sophistication, known for its distinct ambiance and stylish clientele. The Costes line was developed to capture the essence of this experience, offering an olfactory journey that reflects both the environment and the lifestyle associated with the hotel. The fragrances are crafted with high-quality ingredients and are designed to evoke the feeling one gets when stepping into the Hôtel Costes, blending elegance and intimacy in each scent.",https://images.unsplash.com/photo-1541643600914-78b084683601?w=400&h=300&fit=crop,https://www.costes.fr,France,1999,niche,,,"Hôtel Costes, 239-241 Rue Saint-Honoré, 75001 Paris, France",2025-07-18T12:32:10.942225,2025-08-28T13:21:40.663879
cmd14424d1167a231160c8a,Chalayan,,https://images.unsplash.com/photo-1556909114-f6e7ad7d3136?w=400&h=300&fit=crop,[https://chalayan.com](https://chalayan.com),United Kingdom,2003,niche,,,,2025-07-18T12:32:10.942225,2025-08-28T13:21:46.790865
cmd3c3819601ae3c46725c4,Contradictions in ILK,"Contradictions in ILK is an indie perfume company that specializes in creating unique and artistic scents inspired by the complexities of human emotions and experiences. Founded by the creative duo Rona and Aaron, the brand focuses on crafting high-quality fragrances that are unconventional yet accessible, often exploring themes that challenge traditional notions of beauty and fragrance. The company strives to merge art and perfumery, resulting in collections that tell stories and evoke memories through scent.",https://images.unsplash.com/photo-1587017539504-67cfbddac569?w=400&h=300&fit=crop,https://contradictionsilk.com,United States,2018,indie,info@contradictionsilk.com,,,2025-07-18T12:32:10.942225,2025-08-28T13:21:53.860113
cmd9631018c9b745c6ab5b6,Clubman Pinaud,"Clubman Pinaud is a well-known personal care brand that specializes in men's grooming products, particularly aftershaves, colognes, and other scented body care items. The brand has a storied history dating back to 1810, originally founded by the French perfumer Edouard Pinaud in Paris. Clubman Pinaud is particularly recognized in barber shops and for its classic grooming products that evoke a sense of nostalgia while delivering quality results. Their products are designed to cater to traditional and modern grooming needs, making them a staple in men's grooming routines.",https://clubman.com/cdn/shop/files/logo-1_5f605723-25d0-4f7d-adba-974d3618c7be.png?v=1741135576&width=300,https://www.clubman.com,United States,1810,drugstore,,,,2025-07-18T12:32:10.942225,2025-08-28T13:22:01.835138
cmd47071ee17786f68a0ad5,David Beckham,"David Beckham is a fragrance line inspired by the world-renowned British professional footballer and cultural icon, David Beckham. The brand was launched in collaboration with leading fragrance manufacturers and has become well-known for its distinctive scents that capture Beckham's personality and style. Since its initial launch, the company has expanded its range of fragrances for both men and women, focusing on appealing to a wide audience while capturing the essence of Beckham's personal brand. The fragrances are designed to evoke confidence and modernity, often featuring fresh and lively scent profiles.",https://image.mux.com/Kx00TziPpSGFlQCv1pkQkwe01gTVkRxgMv/thumbnail.jpg?time=0&width=400,https://davidbeckham.com,United Kingdom,2011,celebrity,,,,2025-07-18T12:32:10.942225,2025-08-28T13:22:09.532931
cmd07bc6ad64c9f735f2e07,Dior,"Dior, officially known as Christian Dior SE, is a French luxury fashion house founded in 1946 by designer Christian Dior. It is renowned for its high-end fashion, accessories, and fragrances, establishing itself as a pioneer in the luxury fashion industry. Dior's perfume line is characterized by its sophisticated and often floral compositions, with iconic fragrances such as J'adore, Miss Dior, and Sauvage standing as benchmarks of elegance and luxury. The brand emphasizes creativity and innovation, continuously releasing new perfumes that blend traditional craftsmanship with modern sensibilities.",https://images.unsplash.com/photo-1582735689369-4fe89db7114c?w=400&h=300&fit=crop,https://www.dior.com,France,1946,designer,,,"30 Avenue Montaigne, 75008 Paris, France",2025-07-18T12:32:10.942225,2025-08-28T13:22:16.334859
cmd77420708455323980207,D&M,,https://images.unsplash.com/photo-1556909114-f6e7ad7d3136?w=400&h=300&fit=crop,www.dmfragrances.com,United States,2012,niche,info@dmfragrances.com,,,2025-07-18T12:32:10.942225,2025-08-28T13:22:23.869950
cmda36a724d60443b327b5a,d'Annam,"d'Annam is a luxury perfume house based in Vietnam, known for its artisanal approach to fragrance creation. The company focuses on blending traditional Vietnamese elements with modern perfumery techniques, offering a unique range of scents that reflect the rich cultural heritage of the region. Founded by a team of passionate artisans and perfume creators, d'Annam aims to promote the beauty of Vietnamese botanicals and craftsmanship in the global fragrance market, often emphasizing sustainable practices and the story behind each fragrance.",https://images.unsplash.com/photo-1541643600914-78b084683601?w=400&h=300&fit=crop,https://www.dannam.com,Vietnam,2015,niche,,,,2025-07-18T12:32:10.942225,2025-08-28T13:22:31.092145
cmd530c6fc28280e8829554,D.C. Comics,"D.C. Comics is a global entertainment company primarily known for its comic book publications, which have led to a vast array of merchandise, including perfume lines inspired by its iconic characters and franchises. Established in 1934, the company has evolved its narrative depth, offering products that often capture the essence of its superheroes and villains, and appealing to a diverse audience through unique and character-driven scents.",https://images.unsplash.com/photo-15907369626-6c63ac16f3df?w=400&h=300&fit=crop,[https://www.dc.com](https://www.dc.com),United States,1934,niche,,,,2025-07-18T12:32:10.942225,2025-08-28T13:22:37.085586
cmd453a20b0423e0d9981db,D:fi,"D:fi is a global hair and fragrance brand known for its innovative and stylish products. Established with a vision of providing high-quality grooming items, D:fi began by focusing on hair care, later expanding into the fragrance sector. Their products often reflect the latest trends in style and cultural influences, catering to a youthful and contemporary demographic.","https://img1.wsimg.com/isteam/ip/821bda10-85e9-45cc-beb5-764e4a39267f/DFI%20logo%20and%20words%20transparent.png/:/rs=h:158,cg:true,m/qt=q:95",https://www.dfi.com.au,Australia,2004,indie,,,,2025-07-18T12:32:10.942225,2025-08-28T13:22:43.720781
cmda928d63e45c969f8dd29,D. Grayi,"D. Grayi is a contemporary perfume company known for its innovative fragrance creations that blend traditional perfumery techniques with modern inspirations. Founded by a passionate team of fragrance enthusiasts, the company focuses on high-quality ingredients and sustainable practices, crafting unique scents that appeal to discerning consumers. Their specialty lies in the art of storytelling through perfume, where each fragrance tells a narrative inspired by personal experiences, nature, and art. D. Grayi aims to provide a sensory experience that transcends the ordinary, elevating the everyday ritual of fragrance application.",https://lv1.studio/cdn/shop/files/logo3b.png?v=1754368432&width=280,www.dgrayi.com,United States,2018,niche,contact@dgrayi.com,,,2025-07-18T12:32:10.942225,2025-08-28T13:22:52.220700
cmd4acb3f9dc7952c43b5c5,D.L. Roelen,"D.L. Roelen is a specialized fragrance company known for its innovative scent creations and a deep commitment to quality. The company operates primarily in the niche perfume market, catering to a discerning clientele that seeks unique and artisanal perfumes. Founded by perfumer D.L. Roelen, the brand emphasizes craftsmanship and the use of high-quality raw materials to create signature aromas. Their story is rooted in a passion for olfactory artistry, striving to evoke emotions and memories through carefully curated scents.",https://store.roelenperfume.com/cdn/shop/files/Roelen-logo.png?v=1669377151&width=400,https://www.dlroelen.com,Netherlands,2017,niche,info@dlroelen.com,,,2025-07-18T12:32:10.942225,2025-08-28T13:23:02.578478
cmd00a102a1c4d9aeeadcab,D'Otto,"D'Otto is a niche perfume house specializing in creating high-quality, handcrafted fragrances that draw inspiration from nature and the art of perfumery. Founded by fragrance aficionados who wanted to blend artisanal craftsmanship with unique scent profiles, D'Otto emphasizes the use of rare and natural ingredients in its compositions. Their story reflects a commitment to sustainability, creativity, and olfactory artistry, resulting in signature scents that evoke emotions and memories.",https://dottofragrances.com/cdn/shop/files/D_OTTO_LOGO_Def_oro3D_BLK.png?v=1660228573&width=500,https://www.dottofragrances.com,United States,2016,niche,contact@dottofragrances.com,,"123 Fragrance Lane, Scent City, CA 90210",2025-07-18T12:32:10.942225,2025-08-28T13:23:10.726961
cmdb5cdaf3d1c7ca6dfff36,D.R. Harris & co.,"D.R. Harris & Co. is a traditional British perfumery and apothecary that specializes in high-quality fragrances, grooming products, and skincare. Founded in 1790, the company has a rich heritage in crafting luxury items, ensuring the use of only the finest ingredients. Their products are known for their classic formulations and are often associated with British royalty and prestigious establishments. D.R. Harris & Co. prides itself on its commitment to quality and craftsmanship, producing an array of scents that are both timeless and elegant.",https://www.drharris.co.uk/wp-content/uploads/2025/02/logo_05.webp,https://www.drharris.co.uk,United Kingdom,1790,niche,,+44 (0)20 7355 1777,"22-24 St. James's Street, London SW1A 1HA, United Kingdom",2025-07-18T12:32:10.942225,2025-08-28T13:23:20.575279
cmdf4bb308549918471b959,D.S. & Durga,"D.S. & Durga is an independent perfume company founded by David Seth Moltz and Kavi Ahuja in 2007. The brand focuses on creating niche fragrances that draw inspiration from art, music, and culture, combining storytelling with scent. Each fragrance is crafted with artistic intent, using high-quality ingredients to evoke emotional responses and transport the wearer to different experiences. D.S. & Durga prides itself on its artisanal approach to perfumery, often producing small batches of scents that reflect various narratives and inspirations.",https://images.unsplash.com/photo-1582735689369-4fe89db7114c?w=400&h=300&fit=crop,[https://www.dsdurga.com](https://www.dsdurga.com),United States,2007,niche,,,,2025-07-18T12:32:10.942225,2025-08-28T13:23:27.372735
cmd528fcea5bb97af7ed079,D & W Gibbs,"D & W Gibbs is a fragrance development and manufacturing company specializing in creating bespoke perfumes and scent solutions for various clients. Established in the early 20th century, they have built a reputation for high-quality formulations and a commitment to innovative scent design. Their expertise spans across personal fragrances, home scents, and commercial scent installations, catering to both high-end and niche markets.",https://images.unsplash.com/photo-1556909114-f6e7ad7d3136?w=400&h=300&fit=crop,http://www.dw-gibbs.co.uk,United Kingdom,1922,niche,,,,2025-07-18T12:32:10.942225,2025-08-28T13:23:33.397310
cmd7f712e10690d53097a89,Dadadandy,"Dadadandy is a niche perfume brand known for its unique and artistic approach to fragrance creation. The company emphasizes a blend of creativity, storytelling, and quality, producing scents that reflect various themes and emotions. They focus on crafting high-quality, artistic fragrances, often with limited distribution, making them exclusive for enthusiasts and collectors.",https://images.unsplash.com/photo-1556909114-f6e7ad7d3136?w=400&h=300&fit=crop,https://www.dadadandy.com,United States,2021,niche,hello@dadadandy.com,,,2025-07-18T12:32:10.942225,2025-08-28T13:23:40.378410
cmd4f0bfa14a9b92d8c4c5e,Daddy Yankee,"Daddy Yankee is primarily recognized as a reggaeton music artist and cultural icon, but he has also ventured into the fragrance business, launching a line of perfumes that aim to capture his vibrant personality and appeal to his fan base. The company embraces the essence of Latin culture, attracting fans of both music and fragrances. Their products often reflect themes from Daddy Yankee’s music, making them unique in the celebrity fragrance market.",https://daddyyankee.com/wp-content/uploads/2025/03/logo_DY.svg,https://daddyyankee.com,United States,2018,celebrity,,,,2025-07-18T12:32:10.942225,2025-08-28T13:23:46.931480
cmddf611f75f040c5d71502,Daisy Fuentes Beauty,"Daisy Fuentes Beauty is a beauty and fragrance brand inspired by the renowned celebrity Daisy Fuentes. The company offers a range of products including perfume, cosmetics, and personal care items. The brand aims to appeal to consumers looking for products that reflect a stylish and confident outlook. Daisy Fuentes, who is known for her work in television and modeling, launched the brand to provide beauty solutions that empower individuals to express themselves.",https://images.unsplash.com/photo-1556909114-f6e7ad7d3136?w=400&h=300&fit=crop,https://daisyfuentesbeauty.com,United States,2011,celebrity,,,,2025-07-18T12:32:10.942225,2025-08-28T13:23:54.053224
cmd6b0a9f3fbc50d9e52e42,Daks,"Daks is a British luxury fashion brand founded in 1894, known for its classic tailoring and sophisticated menswear. The brand has expanded its offerings to include accessories, clothing, and fragrances, distinguished by its signature check patterns and quality craftsmanship. Daks entered the perfume industry to further enhance its lifestyle brand, creating fragrances that embody the elegance and style of the Daks identity.",https://daks.com/cdn/shop/files/DAKS-Logo-with-King-warrant_MONO_Simplified_Final_250x.jpg?v=1750672633,https://www.daks.com,United Kingdom,1894,designer,,,,2025-07-18T12:32:10.942225,2025-08-28T13:24:01.543990
cmd50cc96a4a2a7c3ae0524,Dalegerard,"Dalegerard is a perfume company that specializes in creating unique and luxurious fragrance blends. The brand is known for its artisanal approach, using high-quality ingredients to craft scents that tell a story and evoke emotions. Dalegerard's journey began with a passion for olfactory art, and it has since carved a niche in the perfume market by focusing on personalized fragrances and bespoke services. Their commitment to quality and individuality reflects in their product offerings, which appeal to discerning consumers seeking an exclusive fragrance experience.",https://images.unsplash.com/photo-1556909114-f6e7ad7d3136?w=400&h=300&fit=crop,,,,indie,,,,2025-07-18T12:32:10.942225,2025-08-28T13:24:08.870383
cmd07d1ab58a191e538fea6,Dallas,"Dallas is a perfume company that focuses on creating unique fragrances that resonate with the essence of modern living and the spirit of the city. The brand draws inspiration from the cultural dynamics of Dallas, Texas, and seeks to capture its vibrant energy in its carefully crafted scents. With a commitment to quality and creativity, Dallas has established a niche in a competitive market with offerings that appeal to an urban and modern audience.",https://images.unsplash.com/photo-1587017539504-67cfbddac569?w=400&h=300&fit=crop,www.dallasfragrances.com,United States,2017,niche,contact@dallasfragrances.com,,,2025-07-18T12:32:10.942225,2025-08-28T13:24:15.637614
cmd72d582b4bb9b8632ec29,Dalston Darlings Women's Institute,"Dalston Darlings Women's Institute is a unique perfume brand that combines the essence of community-led initiatives with high-quality fragrance creation. Founded by a group of women in East London, it is inspired by the cultural diversity and creativity of the Dalston area. Their specialty lies in handcrafted perfumes that reflect the vibrancy of local life and traditions, often incorporating sustainable practices and local ingredients in their formulations. The brand strives to empower women and supports various charitable causes through their sales.",https://images.unsplash.com/photo-1582735689369-4fe89db7114c?w=400&h=300&fit=crop,www.dalstondarlings.com,United Kingdom,2020,indie,hello@dalstondarlings.com,,,2025-07-18T12:32:10.942225,2025-08-28T13:24:23.397360
cmdbe7d252b644fbe9d95ee,Dalvey of Scotland,"Dalvey of Scotland is a luxury lifestyle brand that specializes in creating high-quality men's grooming products, including fragrances. The company is known for its heritage and craftsmanship, with a focus on traditional Scottish design and materials. Founded by the Dalvey family, the brand emphasizes elegance and sophistication, while also bringing elements of Scottish culture into its product offerings. Dalvey’s fragrances are designed to evoke the essence of Scotland, celebrating its natural beauty and landscapes through unique scent profiles.",https://www.dalvey.com/media/banners/default/22-Apr-Mobile-Banner.jpg,https://www.dalvey.com,Scotland,1897,niche,,,,2025-07-18T12:32:10.942225,2025-08-28T13:24:29.846493
cmd7630581e76382c5989a6,Daly Beauty,"Daly Beauty is a modern perfume company focused on creating unique and expressive fragrances that cater to a diverse audience. The brand is known for its artisanal approach, often blending traditional perfume-making techniques with contemporary inspirations. Daly Beauty aims to empower individuals to express their personal style through scent, curating collections that range from warm and inviting to fresh and vibrant. Their story revolves around a commitment to quality, creativity, and sustainability, ensuring each fragrance is crafted with care and consideration for both the consumer and the environment.",https://static.HugeDomains.com/images/hdv3-img/hd-header-logo-v3.svg,www.dalybeauty.com,United States,2021,indie,info@dalybeauty.com,,,2025-07-18T12:32:10.942225,2025-08-28T13:24:37.050017
cmd2700032d9577a58f5739,Damascar,"Damascar is a niche perfume company that specializes in creating high-quality, artisanal fragrances inspired by traditional perfumery techniques. Founded by a passionate group of fragrance enthusiasts, the brand is deeply rooted in the exploration of exotic ingredients and unique scent compositions, often drawing from cultural and historical influences. Damascar aims to deliver an immersive olfactory experience that evokes emotion and tells a story, setting itself apart in the competitive perfume landscape with an emphasis on craftsmanship and individuality.",https://images.unsplash.com/photo-1556909114-f6e7ad7d3136?w=400&h=300&fit=crop,https://www.damascar.com,United States,2015,niche,contact@damascar.com,,,2025-07-18T12:32:10.942225,2025-08-28T13:24:46.677123
cmda2c7a8d358cc50df9670,Damask Haus,"Damask Haus is a luxury perfume company that specializes in creating niche fragrances inspired by the rich history of perfume-making and unique olfactory experiences. Founded by a team of passionate perfumers, Damask Haus strives to blend traditional methods with modern interpretations to produce exquisite and sophisticated scents. Their story is rooted in a commitment to artisanal craftsmanship, ensuring that each fragrance tells a story and evokes emotions related to the art of fragrance.",https://damaskhaus.com/cdn/shop/files/1000021976_300x300.jpg?v=1736919475,www.damaskhaus.com,United States,2019,niche,info@damaskhaus.com,,,2025-07-18T12:32:10.942225,2025-08-28T13:24:54.797102
cmd2aa53df68c353e465a5b,Dame Perfumery,"Dame Perfumery is an independent niche fragrance house that focuses on crafting high-quality, artisanal perfumes. Founded by Chris and Kristina B. in 2015, the company's mission is to create unique, evocative scents that tell a story and resonate with personal memories. They emphasize artistry, craftsmanship, and the use of fine, rare ingredients. Their offerings include a range of unisex fragrances, highlighting a commitment to sustainability and ethical sourcing practices.",https://dameperfumery.com/cdn/shop/files/DP_House_Fountain_Logo_Master_4x6_TEAL_400x.png?v=1707926934,https://dameperfumery.com,United States,2015,niche,,,,2025-07-18T12:32:10.942225,2025-08-28T13:25:02.165545
cmd454236c1f3322f81b8a5,Damien Bash,"Damien Bash is a niche perfume company known for its unique and artisanal fragrance creations. Established by perfumer Damien Bash, the brand focuses on crafting high-quality, distinctive scents that embody a blend of creativity and sophistication. The story of Damien Bash began with a passion for fragrance and an objective to push the boundaries of traditional perfumery. The company specializes in small-batch productions, utilizing rare and high-quality ingredients, and aims to create olfactory experiences that resonate on a personal level with its clientele.",https://www.damienbash.com/images/damien-bash-logo.png,www.damienbash.com,France,2015,niche,contact@damienbash.com,,,2025-07-18T12:32:10.942225,2025-08-28T13:25:09.736948
cmdf03f144c3756d532f9b6,Damien Escobar,"Damien Escobar is a luxury perfume brand that focuses on creating unique and high-quality fragrances inspired by the modern urban lifestyle. Founded by celebrity violinist Damien Escobar, the brand aims to merge art and fragrance, offering a curated selection that highlights sophistication and individuality in the world of scents. Escobar's passion for music and art influences the composition of each fragrance, creating an experience that resonates with the senses.",https://dameesco.com/wp-content/uploads/2024/12/DE_GEMINI-TOUR_SQUARE-TOUR.PNG.jpg,https://damienescobar.com,United States,2021,indie,,,,2025-07-18T12:32:10.942225,2025-08-28T13:25:21.139714
cmd27b1680873b3fa2164a6,Dana Classics,"Dana Classics is a renowned perfume company known for creating a variety of fragrances that appeal to a wide audience. Established as a significant player in the fragrance industry, Dana Classics has carved its niche by producing both classic scents and contemporary offerings. The company is recognized for its commitment to quality and its ability to provide affordable luxury in the fragrance market. Dana Classics has a rich history of blending traditional perfumery techniques with innovative ideas, and is particularly celebrated for iconic fragrances that have stood the test of time.",https://danaclassics.com/cdn/shop/files/Dana-Primary-Logo_2_R_17d6af23-4250-4313-b0cc-be687d2ed730_800x.png?v=1614760519,https://www.danaclassics.com,United States,1932,drugstore,,,,2025-07-18T12:32:10.942225,2025-08-28T13:25:29.256366
cmd7a13343c034be80d28c7,Dana,"Dana is a renowned perfume company known for its diverse range of fragrances since its inception. Founded in 1932, the company has built a legacy of creating perfumes that appeal to a broad audience. Dana offers a variety of products that encompass classic scents alongside modern interpretations, making them accessible and popular in the drugstore perfume market. With their expertise in blending unique and compelling notes, Dana has become a favored choice for consumers seeking quality fragrances at affordable prices.",https://images.unsplash.com/photo-1587017539504-67cfbddac569?w=400&h=300&fit=crop,https://www.danaperfumes.com,United States,1932,drugstore,,,,2025-07-18T12:32:10.942225,2025-08-28T13:25:37.397942
cmd5c0552243ed01c41edc1,Dangerous Fragrances,"Dangerous Fragrances is a bold and innovative perfume company known for its unique and provocative scents. Founded by a team of fragrance enthusiasts, the company aims to challenge traditional fragrance norms by offering daring and edgy formulations that evoke strong emotions and personal expressions. Their specialty lies in crafting niche fragrances that cater to individualistic tastes, often inspired by unconventional themes and artistic concepts. They believe in the power of scent to transform moods and perceptions, creating a signature collection that pushes the boundaries of olfactory experiences.",https://images.unsplash.com/photo-15907369626-6c63ac16f3df?w=400&h=300&fit=crop,www.dangerousfragrances.com,United States,2016,niche,contact@dangerousfragrances.com,,"1234 Scent Lane, Fragrance City, CA 90000, USA",2025-07-18T12:32:10.942225,2025-08-28T13:25:43.935654
cmdf36026cce5392a8a0fea,Danica Aromatics,"Danica Aromatics is an artisanal perfume company known for its hand-crafted fragrances that emphasize natural ingredients and creative blends. Founded by perfumer Danica, the brand aims to create scents that evoke emotion and reflect personal stories. Their specialty lies in unique, small-batch creations that cater to fragrance enthusiasts looking for uncommon and higher quality options.",https://images.unsplash.com/photo-1582735689369-4fe89db7114c?w=400&h=300&fit=crop,www.danicaaromatics.com,United States,2015,niche,contact@danicaaromatics.com,,,2025-07-18T12:32:10.942225,2025-08-28T13:25:50.683877
cmd6fc0315d26db099b0ccb,Danica Patrick,"Danica Patrick is a celebrity fragrance line launched by the former professional racing driver, Danica Patrick. The brand aims to embody Patrick's persona, which combines strength, resilience, and femininity. The perfumes are designed to resonate with fans of Patrick and those seeking fragrances that reflect a modern, empowered ethos. From its inception, the brand seeks to offer perfumes that are both accessible and appealing, drawing parallels between Patrick's racing career and her entrepreneurial spirit.",https://www.danicapatrick.com/img/youtube-logo.png,https://www.danicapatrick.com,United States,2015,celebrity,,,,2025-07-18T12:32:10.942225,2025-08-28T13:25:57.018760
cmd1706d6cfbc1887ee3355,Daniel Banks,"Daniel Banks is a fragrance company that specializes in crafting unique and high-quality perfumes. Established with a vision to combine artistry with olfactory experiences, the brand draws inspiration from nature and cultural influences. Their story is rooted in a passion for scent and the desire to create distinctive olfactory signatures that resonate with individuals. Daniel Banks focuses on both traditional perfumery methods and modern techniques to create perfumes that stand out in the saturated fragrance market.",https://images.unsplash.com/photo-1556909114-f6e7ad7d3136?w=400&h=300&fit=crop,www.danielbanks.com,United States,2010,niche,contact@danielbanks.com,,,2025-07-18T12:32:10.942225,2025-08-28T13:26:03.616426
cmd466161296bd9029b7527,Daniel Barros,"Daniel Barros is a contemporary perfume brand that emphasizes the creation of unique and sophisticated fragrances. Rooted in the artistry of scent, the company focuses on the intersection of culture and craftsmanship, using high-quality ingredients to deliver distinctive olfactory experiences. The brand draws inspiration from diverse sources, creating scents that reflect emotions, memories, and personal stories. The vision of Daniel Barros is to create fragrances that resonate on a deeper level with wearers, fostering a connection through the power of scent.",https://images.unsplash.com/photo-1541643600914-78b084683601?w=400&h=300&fit=crop,www.danielbarros.com,Portugal,2015,niche,,,,2025-07-18T12:32:10.942225,2025-08-28T13:26:10.490154
cmd8d1b4954a6cb22b82162,Daniel de Fasson,,https://images.unsplash.com/photo-1582735689369-4fe89db7114c?w=400&h=300&fit=crop,https://www.danieldefasson.com,United States,2018,niche,,,,2025-07-18T12:32:10.942225,2025-08-28T13:26:26.546488
cmd9c3360c5b7c7be9afafb,Daniel Harlant,"Daniel Harlant is a niche perfume company that specializes in crafting unique, artisanal fragrances. The brand is known for its attention to detail, high-quality ingredients, and a commitment to creating scents that evoke emotion and experiences. Founded by perfumer Daniel Harlant, the company has developed a reputation for exclusivity and creativity, targeting fragrance connoisseurs who appreciate distinct and sophisticated scents. Their collections often draw inspiration from nature, culture, and personal stories, making each fragrance a work of art.",https://images.unsplash.com/photo-1556909114-f6e7ad7d3136?w=400&h=300&fit=crop,www.danielharlant.com,France,2015,niche,contact@danielharlant.com,,"25 Rue de la Parfumerie, 75001 Paris, France",2025-07-18T12:32:10.942225,2025-08-28T13:26:34.534688
cmd35ca69b196517508ef97,Daniel Hechter,"Daniel Hechter is a French fashion brand that was founded in 1962 by the designer Daniel Hechter. The brand is known for its ready-to-wear collections and has successfully ventured into the fragrance market. Drawing inspiration from the Parisian lifestyle, Daniel Hechter fragrances embody sophistication and elegance, appealing to a wide audience. The company's specialty lies in creating fragrances that reflect the essence of timeless fashion combined with contemporary trends.",https://images.unsplash.com/photo-1587017539504-67cfbddac569?w=400&h=300&fit=crop,[www.danielhechter.com](http://www.danielhechter.com),France,1962,designer,,,,2025-07-18T12:32:10.942225,2025-08-28T13:26:40.565805
cmd61dfcc58d49e69ab3dbb,Daniel Josier,"Daniel Josier is a niche fragrance house known for creating unique and sophisticated perfumes. Founded by perfumer Daniel Josier, the company emphasizes artisanal craftsmanship, focusing on blending high-quality natural ingredients with innovative scent compositions. The brand prides itself on offering a distinctive olfactory experience tailored to individual preferences. Its story is rooted in a passion for scent and a desire to create perfumes that resonate with modern sensibilities while remaining true to classic perfumery traditions.",https://danieljosier.com/wp-content/uploads/2024/04/logodanieljosier_2.png,https://danieljosier.com,Spain,2015,niche,,,,2025-07-18T12:32:10.942225,2025-08-28T13:26:51.177648
cmdaf3921a16e63362b545a,Daniel Jouvance,"Daniel Jouvance is a French perfume company that specializes in creating high-quality fragrances and beauty products inspired by the principles of nature. Established in 1995, it focuses on using natural ingredients and sustainable practices in its formulations. The brand is known for its commitment to the well-being of its customers and the environment. Daniel Jouvance offers a range of cosmetics and perfumes that highlight the unique properties of various marine and botanical extracts, reflecting a strong connection to the coastal regions of France.",https://www.danieljouvance.com/assets/ricaud.v3/images/ui/placeholder.png,https://www.danieljouvance.com,France,1995,niche,,,,2025-07-18T12:32:10.942225,2025-08-28T13:27:02.370689
cmda3f0499ee1de248bcb16,Daniela Katzenberger,"Daniela Katzenberger is a German television personality, singer, and entrepreneur who launched her own line of fragrance products. Known for her vibrant personality and strong media presence, she has created perfumes that resonate with her brand identity while catering to her fans' desires for accessible luxury. The fragrances often reflect her personal style and appeal to a youthful, fun-loving demographic.",https://images.unsplash.com/photo-1556909114-f6e7ad7d3136?w=400&h=300&fit=crop,https://www.danielakatzenberger.de/,Germany,2016,celebrity,,,,2025-07-18T12:32:10.942225,2025-08-28T13:27:12.405305
cmdcbbf9445f286e7bccfbc,Danielle Steel,"Danielle Steel is an American author known primarily for her romance novels. Alongside her literary career, she has launched a fragrance line that reflects her personal style and ethos. The perfumes are designed to embody elegance and femininity, often inspired by the themes found in her novels. Steel’s fragrances aim to appeal to women who appreciate sophistication and the art of storytelling through scent.",https://www.daniellesteel.com/wp-content/themes/danielle-steel/images/Twitter_logo.png,www.daniellesteel.com,United States,1992,celebrity,,,,2025-07-18T12:32:10.942225,2025-08-28T13:27:18.945909
cmde1c04ee933f140ce7417,Danika Patrick,,https://danicapatrick.com/img/youtube-logo.png,https://danicapatrick.com,United States,2010,celebrity,,,,2025-07-18T12:32:10.942225,2025-08-28T13:27:25.398596
cmd5d91a06c1ea3428d57d2,Danny Seo,"Danny Seo is a sustainable lifestyle brand that offers a line of eco-friendly perfumes, crafted with natural ingredients. Founded by environmental advocate Danny Seo, the brand emphasizes cruelty-free practices and uses environmentally responsible materials in its packaging. The ethos of the company is deeply rooted in sustainability and wellness, aiming to create products that align with a green lifestyle while delivering high-quality fragrances.",https://715.aa0.myftpupload.com/wp-content/themes/naturally/images/naturally-logo.png,https://www.dannyseo.com,United States,2018,indie,,,,2025-07-18T12:32:10.942225,2025-08-28T13:27:32.252591
cmde2b41cbeff952853213b,Dans un Jardin,"Dans un Jardin is a French perfume company that specializes in creating high-quality, nature-inspired fragrances. Founded on a philosophy of blending art with the essence of nature, the brand places a strong emphasis on using natural ingredients and environmentally friendly practices. Their products often reflect the beauty of botanical elements and are known for their authenticity and craftsmanship. Dans un Jardin has built a reputation for innovative scent compositions, catering to discerning customers who appreciate artisanal perfumery.",https://www.dansunjardin.com/cdn/shop/files/DUJ-Logo_dark_220x.png?v=1681914402,https://www.dansunjardin.com,France,1988,niche,,,,2025-07-18T12:32:10.942225,2025-08-28T13:27:39.516496
cmd860e89909d565802677a,Dante,"Dante is a contemporary perfume house known for its innovative approach to fragrance creation, often blending traditional perfumery with modern influences. Founded by a passionate team of fragrance developers, the brand focuses on crafting unique scent experiences that resonate with individual emotions and stories. Their collections are often characterized by rich narratives and high-quality ingredients, appealing to both niche fragrance enthusiasts and the broader market.",https://images.unsplash.com/photo-1582735689369-4fe89db7114c?w=400&h=300&fit=crop,,,,indie,,,,2025-07-18T12:32:10.942225,2025-08-28T13:27:45.303047
