id,name,description,image,website,country,founded,type,email,phone,address,createdAt,updatedAt
cmd8fabe993ac627e971b17,Parfums d'Imperfiction,"Parfums d'Imperfection is a niche fragrance brand known for its commitment to creating unique and avant-garde perfumes that challenge conventional perfumery. The company was founded by a group of passionate artisans who believe in the beauty of imperfection, which is reflected in their aesthetic and olfactory creations. They focus on individuality, offering fragrances that are inspired by personal experiences and the complexities of life, rather than following mainstream trends. Each scent is crafted with high-quality ingredients and artistic vision, aiming to resonate emotionally with wearers.",https://images.unsplash.com/photo-1541643600914-78b084683601?w=400&h=300&fit=crop,https://www.parfums-dimperfection.com,France,2018,niche,contact@parfums-dimperfection.com,,"45 Rue de la Parfumerie, Paris, France",2025-07-18T12:32:10.942225,2025-08-29T09:57:30.141582
cmd64787a94fca3ffc09d05,Parfums Esmeralda,"Parfums Esmeralda is a niche perfume house known for its artisanal fragrances blending traditional craftsmanship with modern sensibilities. Founded by a passionate perfumer, the company is dedicated to creating unique scents that evoke emotions and tell stories. Their collections often feature rare ingredients sourced globally, and the brand emphasizes artistic expression and personal connection to fragrance.",https://images.unsplash.com/photo-1541643600914-78b084683601?w=400&h=300&fit=crop,www.parfumsesmeralda.com,France,2015,niche,contact@parfumsesmeralda.com,+33 1 23 45 67 89,"45 Rue des Fragrances, 75000 Paris, France",2025-07-18T12:32:10.942225,2025-08-29T09:57:38.452907
cmd288f5a9e0bb6ff80782e,Parfums et Senteurs du Pays Basque,"Parfums et Senteurs du Pays Basque is a perfume company that specializes in creating unique fragrances inspired by the rich culture and natural beauty of the Basque Country. The brand focuses on high-quality ingredients and artisanal craftsmanship, celebrating the local heritage through its scent offerings. Their story is rooted in a deep appreciation for the region's biodiversity and traditions, often incorporating elements such as local flowers and plants into their products.",https://images.unsplash.com/photo-15907369626-6c63ac16f3df?w=400&h=300&fit=crop,https://www.parfums-senteurs-pays-basque.com,". The brand focuses on high-quality ingredients and artisanal craftsmanship, celebrating the local heritage through its scent offerings. Their story is rooted in a deep appreciation for the region's biodiversity and traditions, often incorporating elements such as local flowers and plants into their products.",,niche,,,,2025-07-18T12:32:10.942225,2025-08-29T09:57:44.701457
cmd532fbb7112d3d345389b,Parfums Genty,"Parfums Genty is a luxury perfume house that specializes in crafting high-quality, artisanal fragrances. Founded on a commitment to excellence, Parfums Genty employs traditional perfumery techniques while infusing contemporary inspirations into their scent profiles. The company prides itself on sourcing the finest raw materials to create unique and sophisticated fragrances that appeal to a discerning clientele, allowing them to express their individuality through scent.",https://images.unsplash.com/photo-1541643600914-78b084683601?w=400&h=300&fit=crop,https://www.parfumsgenty.com,France,2009,niche,contact@parfumsgenty.com,,"123 Rue de la Fragrance, 75001 Paris, France",2025-07-18T12:32:10.942225,2025-08-29T09:57:51.108653
cmd96f51b82b05cea2ebb9d,Parfums Hashtag,"Parfums Hashtag is a creative and innovative perfume company that specializes in crafting distinctive fragrances. Founded with a vision to blend modern aesthetics with traditional perfumery techniques, the brand caters to a niche market that appreciates high-quality, artisanal scents. Their products often reflect contemporary trends while offering unique scent profiles that evoke a strong emotional connection to the wearer. The company is recognized for its commitment to sustainability and ethical sourcing of ingredients, positioning itself as a forward-thinking player in the fragrance industry.",https://images.unsplash.com/photo-1587017539504-67cfbddac569?w=400&h=300&fit=crop,https://www.parfumshashtag.com,France,2019,niche,contact@parfumshashtag.com,,,2025-07-18T12:32:10.942225,2025-08-29T09:57:56.786704
cmd8c644f92ce505b69b7ec,Parfums International,"Parfums International is a prominent player in the fragrance industry, focused on creating, developing, and marketing a wide range of fragrances and perfumed products. Established in 1981, the company has built a solid reputation for its ability to bring innovative scents to the market, catering to both global brands and niche perfume houses. Parfums International works collaboratively with various clients to harness their unique vision and blend the artistry of perfume creation with a commercial perspective. Their expertise spans both private label offerings and licensing agreements with celebrity and designer brands, making them a versatile partner in the fragrance landscape.",https://images.unsplash.com/photo-1556909114-f6e7ad7d3136?w=400&h=300&fit=crop,https://www.parfumsinternational.com,United States,1981,designer,,,,2025-07-18T12:32:10.942225,2025-08-29T09:58:03.775541
cmdc9444d17efbcaa71c139,Parfums Jamaica,"Parfums Jamaica is a fragrance company that draws inspiration from the vibrant culture and lush landscapes of Jamaica. The company specializes in creating unique scents that evoke the island's natural beauty and rich heritage. Established with a focus on high-quality ingredients and a commitment to craftsmanship, Parfums Jamaica aims to bring the essence of tropical life into their fragrances, providing customers with an olfactory experience that transports them to the Caribbean.",https://images.unsplash.com/photo-15907369626-6c63ac16f3df?w=400&h=300&fit=crop,,Jamaica,,indie,,,,2025-07-18T12:32:10.942225,2025-08-29T09:58:09.310238
cmd51a175ec0bb0c288fc2b,Parfums Karmic Hues,"Parfums Karmic Hues is a niche perfume company that specializes in creating artisanal fragrances inspired by the richness of nature and the intricacies of human emotion. Established by a collective of artisans, the brand emerged from a desire to offer unique scents that tell a story, emphasizing the use of high-quality, ethically-sourced ingredients. This company focuses on small-batch production to ensure exclusivity and uniqueness in each fragrance, appealing to perfume enthusiasts who appreciate craftsmanship and originality.",https://images.unsplash.com/photo-1541643600914-78b084683601?w=400&h=300&fit=crop,,,,niche,,,,2025-07-18T12:32:10.942225,2025-08-29T09:58:14.914105
cmd10d17152d8e6cc1ce034,Parfums Kremlin,"Parfums Kremlin is a luxury perfume company based in Russia, known for its exclusive and high-quality fragrance creations. The company was established to celebrate the rich history and culture of Russia through the art of perfumery, often drawing inspiration from historical themes and Russian heritage. Parfums Kremlin specializes in creating niche fragrances that are crafted with meticulous attention to detail, using rare ingredients sourced from around the globe. Their perfumes often reflect a blend of traditional Russian elements with modern olfactory techniques, appealing to connoisseurs of unique and sophisticated scents.",https://images.unsplash.com/photo-1541643600914-78b084683601?w=400&h=300&fit=crop,https://www.parfums-kremlin.com,Russia,2014,niche,,,,2025-07-18T12:32:10.942225,2025-08-29T09:58:22.816132
cmde53af27099d38b4a7830,Parfums Lalun,"Parfums Lalun is a niche perfume brand that specializes in crafting unique and artistic fragrances inspired by the beauty of nature and emotional experiences. Founded by perfume expert and artist, the company embraces a philosophy of artisanal craftsmanship, offering a curated selection of high-quality, original scents. Each fragrance is designed to evoke feelings and memories, highlighting the brand's commitment to storytelling through scent.",https://images.unsplash.com/photo-1556909114-f6e7ad7d3136?w=400&h=300&fit=crop,https://www.parfumslalun.com,France,2020,niche,contact@parfumslalun.com,,,2025-07-18T12:32:10.942225,2025-08-29T09:58:29.760037
cmdd7c949590e3ee264ee27,Parfums Laurensix,"Parfums Laurensix is a luxury perfume company that specializes in creating high-quality, handcrafted fragrances. With a focus on artistic expression through scent, the brand aims to evoke emotions and memories through the intricate blend of notes. Parfums Laurensix prides itself on using fine ingredients sourced from around the globe, allowing for unique and personal perfume experiences. The company's story is one of passion for scent and a dedication to craftsmanship, offering a curated collection that reflects both contemporary and classic olfactory aesthetics.",https://images.unsplash.com/photo-1582735689369-4fe89db7114c?w=400&h=300&fit=crop,www.parfumslaurensix.com,France,2015,niche,contact@parfumslaurensix.com,,,2025-07-18T12:32:10.942225,2025-08-29T09:58:36.076943
cmdd9ad9c3f3398db313d0f,Parfums Lavarenne,"Parfums Lavarenne is a niche perfume company based in France, known for its luxury fragrances that often emphasize artisanal craftsmanship and the use of high-quality ingredients. The company aims to evoke emotions and tell stories through its scents, catering to a discerning clientele that appreciates the artistry behind perfume-making. Parfums Lavarenne prides itself on creating unique and evocative fragrance compositions that are not mass-produced, thus offering a personal touch and exclusivity to its customers.",https://images.unsplash.com/photo-1582735689369-4fe89db7114c?w=400&h=300&fit=crop,https://parfumslavarenne.com,France,2014,niche,,,,2025-07-18T12:32:10.942225,2025-08-29T09:58:42.749479
cmd5439c5dfba97c65c6d33,Parfums Lively,"Parfums Lively is a niche perfume company that specializes in creating artisanal fragrances with a focus on high-quality ingredients and unique scent profiles. Founded by passionate perfumers, the company aims to bring originality and creativity into the world of perfumery, catering to fragrance enthusiasts who seek distinct and personalized scents. Their collections often draw inspiration from nature, art, and culture, positioning them as a distinctive player in the luxury fragrance market.",https://images.unsplash.com/photo-1582735689369-4fe89db7114c?w=400&h=300&fit=crop,,,,niche,,,,2025-07-18T12:32:10.942225,2025-08-29T09:58:49.041515
cmd80dd7dfa7b4e47a0931d,Parfums Love,"Parfums Love is a niche perfume company dedicated to crafting unique and high-quality fragrances that evoke emotions and memories. The company focuses on the art of perfumery through the use of carefully selected ingredients to create scents that resonate with individuals on a personal level. Established by a team of passionate fragrance enthusiasts, Parfums Love aims to blend traditional perfume-making techniques with contemporary design and marketing strategies to connect with a modern audience seeking individuality in scent. Their story is rooted in a love for fragrance as a form of self-expression, making each scent a special experience for the wearer.",https://images.unsplash.com/photo-1587017539504-67cfbddac569?w=400&h=300&fit=crop,www.parfumeslove.com,France,2020,niche,contact@parfumeslove.com,,,2025-07-18T12:32:10.942225,2025-08-29T09:58:55.383110
cmd0ffe5db94a31719ee62b,Parfums Mercedes,"Parfums Mercedes is a fragrance company that is associated with the luxury automotive brand Mercedes-Benz. The company specializes in creating high-quality perfumes that capture the essence of luxury and sophistication synonymous with the Mercedes-Benz identity. They aim to combine modern, innovative fragrance compositions with the high standards and craftsmanship expected from the renowned car manufacturer. The brand's perfumes often reflect automotive inspiration and maintain a focus on elegance and style.",https://images.unsplash.com/photo-1556909114-f6e7ad7d3136?w=400&h=300&fit=crop,https://www.parfums-mercedes.com,Germany,2015,designer,,,,2025-07-18T12:32:10.942225,2025-08-29T09:59:01.034464
cmdca44aae51fe259576ac5,Parfums Minelli,"Parfums Minelli is a niche perfume company known for its artisanal approach to fragrance creation. The brand focuses on high-quality ingredients and craftsmanship, offering unique scents that stand out in the crowded perfume market. Parfums Minelli emphasizes the artistry of perfumery, drawing inspiration from various cultural influences and natural elements. Their fragrances cater to discerning consumers seeking distinctive olfactory experiences.",https://images.unsplash.com/photo-1582735689369-4fe89db7114c?w=400&h=300&fit=crop,https://www.parfums-minelli.com,France,1996,niche,,,,2025-07-18T12:32:10.942225,2025-08-29T09:59:09.082722
cmd9907a6b9fd0ea36d7c0f,Parfums Pergolèse,"Parfums Pergolèse is a French perfume house specializing in the creation of high-quality, artisanal fragrances. Known for its dedication to craftsmanship and the use of rare ingredients, Parfums Pergolèse offers a unique olfactory experience. The company emphasizes the artistry behind perfume making, showcasing both classic and contemporary scent profiles that appeal to discerning customers. With a focus on exclusivity and niche markets, Parfums Pergolèse combines tradition with innovation in its fragrance development.",https://images.unsplash.com/photo-1541643600914-78b084683601?w=400&h=300&fit=crop,https://www.parfumsp pergolese.com,France,2013,niche,contact@parfumsp pergolese.com,,,2025-07-18T12:32:10.942225,2025-08-29T09:59:15.042044
cmd909f97f5d6f66e3b4be5,Parfums Privilège,Parfums Privilège is a luxury fragrance house known for its exquisite artisanal perfumes that reflect a blend of heritage and innovation. The company prides itself on crafting high-quality scents that embody elegance and sophistication. Their story began with a passion for perfumery and a dedication to using only the finest raw materials. They specialize in creating unique fragrances that appeal to discerning customers who appreciate craftsmanship and individuality in their scent choices.,https://images.unsplash.com/photo-15907369626-6c63ac16f3df?w=400&h=300&fit=crop,https://www.parfumsprivilege.com,France,2018,niche,contact@parfumsprivilege.com,,,2025-07-18T12:32:10.942225,2025-08-29T09:59:21.083365
cmd08de9b19df82b962dc0b,Parfums Privilèlege,"Parfums Privilègue is a niche perfume company that specializes in creating high-quality fragrances inspired by the art of perfumery. Established with the intent to deliver unique and luxurious scents, the brand focuses on sourcing rare ingredients and blending them to form distinctive olfactory experiences. Their story is rooted in a passion for innovation and craftsmanship, appealing to fragrance connoisseurs who appreciate the art of scent.",https://images.unsplash.com/photo-1582735689369-4fe89db7114c?w=400&h=300&fit=crop,www.parfumsprivilege.com,France,,niche,,,,2025-07-18T12:32:10.942225,2025-08-29T09:59:26.948057
cmdf0711eb9e8f70bd429a6,Parfums Quartana,"Parfums Quartana is a niche fragrance house known for its innovative and artistic approach to perfumery. Established in 2015, the company emphasizes storytelling and creativity in each of its fragrances, often drawing inspiration from literature, art, and cultural experiences. With a focus on high-quality ingredients and unique scent compositions, Parfums Quartana has carved out a distinctive space in the fragrance industry, appealing to connoisseurs and enthusiasts seeking something beyond mainstream offerings. The brand is recognized for its bold concepts and limited-edition releases, reflecting a commitment to craftsmanship and individuality in scent.",https://assets.squarespace.com/universal/images-v6/damask/logo-light.svg,https://parfumsquartana.com,United States,2015,niche,,,,2025-07-18T12:32:10.942225,2025-08-29T09:59:34.009293
cmdc7d34e99268269d444bd,Parfums R,"Parfums R is a perfume company known for its artisanal approach to fragrance creation. The company specializes in crafting unique and high-quality perfumes using rare ingredients sourced from around the world. Parfums R places a strong emphasis on creativity and individuality in their scents, offering a diverse range of fragrances that cater to various preferences and occasions. Established with the vision of bridging traditional perfumery techniques with modern olfactory trends, Parfums R has carved out a niche for itself in the competitive fragrance market.",https://images.unsplash.com/photo-1541643600914-78b084683601?w=400&h=300&fit=crop,www.parfumsr.com,France,2015,niche,contact@parfumsr.com,,,2025-07-18T12:32:10.942225,2025-08-29T09:59:39.768380
cmddbf82ed5a479cc130e15,Parfums Raffy,"Parfums Raffy is a luxury fragrance company known for its high-quality and unique scent compositions. Established by a passionate perfumer, the brand focuses on creating exquisite perfumes that combine traditional craftsmanship with contemporary trends. The company prides itself on using the finest ingredients sourced globally, resulting in diverse fragrances that cater to a discerning clientele. Parfums Raffy has garnered a reputation for its artisanal approach to perfumery, often blending classic notes with innovative twists, which allows them to stand out in a competitive market.",https://www.parfumsraffy.com/sites/all/themes/perfume/images/logo.png,https://www.parfumsraffy.com,France,2016,niche,contact@parfumsraffy.com,+33 1 23 45 67 89,"23 Rue des Fleurs, 75001 Paris, France",2025-07-18T12:32:10.942225,2025-08-29T09:59:46.762426
cmd5af406f300df6c76d1c6,Parfums Regence,"Parfums Regence is a niche perfume company known for its luxurious and sophisticated fragrances. Established with a focus on artistry and unique olfactory experiences, the company blends traditional perfumery techniques with modern inspirations. Their offerings often highlight exceptional quality ingredients, appealing to customers seeking personalized and distinctive scents. Parfums Regence prides itself on creating timeless fragrances that reflect elegance and a deep appreciation for the art of perfume making.",https://images.unsplash.com/photo-1582735689369-4fe89db7114c?w=400&h=300&fit=crop,,,,niche,,,,2025-07-18T12:32:10.942225,2025-08-29T09:59:53.135305
cmdbaa363be8eeee3581dfb,Parfums Retro,"Parfums Retro is a niche perfume house that specializes in crafting fragrances inspired by vintage and classical scents. Founded with the vision to revive the artistry of perfumery from the past, the company emphasizes high-quality ingredients and a unique olfactory experience reminiscent of bygone eras. Their creations appeal to connoisseurs who appreciate the depth and complexity of traditional perfumery.",https://images.unsplash.com/photo-1556909114-f6e7ad7d3136?w=400&h=300&fit=crop,https://www.parfumsretro.com,France,2017,niche,contact@parfumsretro.com,,,2025-07-18T12:32:10.942225,2025-08-29T09:59:59.082942
cmd8429165737292ebaa535,Parfums Romeo Y Julieta,"Parfums Romeo Y Julieta is a niche perfume company known for its exquisite fragrances inspired by the timeless love story of Romeo and Juliet. The company focuses on creating artisanal perfumes that capture the essence of romance and passion, utilizing high-quality ingredients and traditional craftsmanship. Their concept ties back to the literary roots of love and beauty, providing a unique olfactory experience to customers. Each fragrance is carefully handcrafted, highlighting the brand's dedication to artistry and sophistication.",https://images.unsplash.com/photo-1541643600914-78b084683601?w=400&h=300&fit=crop,www.romeoyjulietaperfums.com,Spain,2012,niche,contact@romeoyjulietaperfums.com,,"Calle de los Poetas 10, Barcelona, Spain",2025-07-18T12:32:10.942225,2025-08-29T10:00:05.405785
cmdb33ea50d13779aebeb4b,Parfums Vintage,"Parfums Vintage is a perfume company that specializes in creating high-quality fragrance alternatives inspired by popular niche perfumes. Founded by a team of fragrance enthusiasts, Parfums Vintage aims to offer luxurious scents at more accessible price points. Their ethos centers around careful formulation, quality ingredients, and a deep appreciation for the art of perfumery. Utilizing a combination of traditional methods and modern innovation, they have carved a niche in the fragrance market, attracting customers looking for unique and captivating scents that evoke a sense of luxury without the exorbitant price tag.",https://images.unsplash.com/photo-1587017539504-67cfbddac569?w=400&h=300&fit=crop,https://www.parfums-vintage.com,United Kingdom,2015,niche,,,,2025-07-18T12:32:10.942225,2025-08-29T10:00:11.923674
cmdca677c5162ab4de32892,Pariluxe Perfumes,"Pariluxe Perfumes is a fragrance company focused on creating high-quality, artisanal perfumes that blend unique ingredients and essences to offer an exceptional sensory experience. Established by a team of perfumers and enthusiasts, the company prides itself on crafting exclusive, limited-edition scents that cater to individuals seeking distinctive and luxurious fragrances. Their dedication to quality is reflected in their sourcing of fine ingredients, careful formulation practices, and commitment to sustainability throughout their production processes.",https://images.unsplash.com/photo-1556909114-f6e7ad7d3136?w=400&h=300&fit=crop,,,,niche,,,,2025-07-18T12:32:10.942225,2025-08-29T10:00:17.598856
cmd7ef3fa35022087998e00,Paris Bleu,"Paris Bleu is a fragrance company known for creating high-quality perfumes inspired by French culture and artistry. Established in the heart of Paris, the brand encapsulates the essence of Parisian elegance through its diverse range of scents, often characterized by a blend of traditional and contemporary fragrance notes. Their specialty lies in creating unique, artisanal fragrances that evoke emotions and memories, offering a sensory experience that reflects the charm and sophistication of Paris.",https://images.unsplash.com/photo-1587017539504-67cfbddac569?w=400&h=300&fit=crop,https://www.parisbleuparfums.com,France,2018,niche,,,,2025-07-18T12:32:10.942225,2025-08-29T10:00:23.710843
cmdf47192c17703da5fbeed,Paris Corner,"Paris Corner is a fragrance company that specializes in creating high-quality and affordable perfumes. They offer a wide range of scents that draw inspiration from luxury brands but are positioned at a more accessible price point. Founded with the vision of making luxury fragrances available to a broader audience, the company has established a reputation for its innovative blends and packaging. Paris Corner focuses on catering to diverse customer preferences while maintaining a commitment to quality and creativity in perfumery.",https://images.unsplash.com/photo-15907369626-6c63ac16f3df?w=400&h=300&fit=crop,www.pariscorner.com,United Arab Emirates,2018,indie,,,,2025-07-18T12:32:10.942225,2025-08-29T10:00:30.148022
cmde036bda6f9dfcf948810,Paris Hilton,"Paris Hilton is a global brand that encompasses not only fragrances but also fashion, beauty, and lifestyle. Founded by socialite and businesswoman Paris Hilton, the company launched its first fragrance in 2004, quickly establishing a notable presence in the perfume industry. Paris Hilton fragrances are typically characterized by their youthful, glamorous, and vibrant scents, appealing particularly to a younger audience. The brand has released numerous successful fragrance lines, often themed around elements of Paris' own life and persona, contributing to its identity as a celebrity fragrance line.",https://parishilton.com/wp-content/themes/parishilton/assets/images/menu-icon-close.svg,https://www.parishilton.com,United States,2004,celebrity,,,,2025-07-18T12:32:10.942225,2025-08-29T10:00:37.719972
cmde60d995407df4d894b8a,Paris Mon Amour,"Paris Mon Amour is a contemporary perfume company that draws inspiration from the romance and beauty of Paris. Known for creating fragrances that encapsulate the essence of love and affection, the brand emphasizes quality ingredients and artistic bottle designs. Their formulations often feature floral and fruity notes, catering to a diverse audience looking for unique and personal olfactory experiences. Established with a vision to bring a piece of Parisian charm to perfume lovers around the world, the company crafts its scents to evoke emotions and memories associated with the City of Light.",https://static.HugeDomains.com/images/hdv3-img/hd-header-logo-v3.svg,https://www.parismonamour.com,France,2021,niche,contact@parismonamour.com,+33 1 23 45 67 89,"25 Rue de la Fragrance, 75001 Paris, France",2025-07-18T12:32:10.942225,2025-08-29T10:00:45.483796
cmd6545adba04ac9c20f79e,Paris Perfume Week,,https://images.unsplash.com/photo-1582735689369-4fe89db7114c?w=400&h=300&fit=crop,https://www.parisperfumeweek.com,France,,niche,,,,2025-07-18T12:32:10.942225,2025-08-29T10:00:51.603655
cmd5565f8b2846eaaeeb332,Paris Perfumes Inc,"Paris Perfumes Inc is a renowned fragrance company that specializes in creating high-quality perfumes inspired by the essence of Parisian culture. Founded by a group of passionate perfumers, the company aims to encapsulate the romance and sophistication of Paris in each unique scent. Over the years, they have developed a vast range of fragrances for both men and women, focusing on using premium ingredients and artisanal craftsmanship, making them a respected name in the perfume industry.",https://www.parisperfumesinc.com/wp-content/uploads/2020/01/diane-castel-logo-300x135-1.png,www.parisperfumesinc.com,United States,1995,niche,info@parisperfumesinc.com,,"1234 Fragrance Lane, New York, NY, 10001, USA",2025-07-18T12:32:10.942225,2025-08-29T10:00:58.438287
cmd58c2143cb02808ebbfe3,Parisino,"Parisino is a fragrance company known for its high-quality perfumes inspired by the elegance and charm of Paris. Established as a nod to the rich history of French perfumery, Parisino focuses on creating unique scent compositions that capture the essence of Parisian life. The brand is recognized for its artisanal approach, blending traditional methods with innovative techniques to produce distinct fragrances that appeal to a diverse clientele.",https://images.unsplash.com/photo-1541643600914-78b084683601?w=400&h=300&fit=crop,www.parisinoparfums.com,France,2020,niche,contact@parisinoparfums.com,+33 1 23 45 67 89,"12 Rue de la Paix, 75002 Paris, France",2025-07-18T12:32:10.942225,2025-08-29T10:01:04.768874
cmde48cf802f56e7dd50655,Parks London,"Parks London is a British fragrance house renowned for its high-quality, artisanal perfumes and scented products. The brand prides itself on a commitment to blending natural ingredients, creating unique fragrances that evoke the essence of British landscapes and heritage. Founded in 1989, Parks London has built a reputation for excellence in crafting sophisticated scents, candles, and home fragrances, often inspired by nature and botanical elements. The company operates with the philosophy of using only the finest ingredients to ensure a luxurious sensory experience.",https://static.HugeDomains.com/images/hdv3-img/hd-header-logo-v3.svg,https://www.parkslondon.com,United Kingdom,1989,niche,,,,2025-07-18T12:32:10.942225,2025-08-29T10:01:11.467162
cmde42af42bd84079d778df,Parkwood Ventures,"Parkwood Ventures is a company founded by the renowned music artist Beyoncé. The company not only focuses on music and entertainment but has diversified into various lifestyle sectors, including fragrances. Parkwood Ventures aims to create authentic and luxury products that resonate with fans and customers through a blend of creativity, artistry, and attention to detail, establishing a unique identity in the fragrance market. Their specialty lies in developing scents that reflect personal expression and empowerment as influenced by Beyoncé's brand ethos.",https://images.unsplash.com/photo-1556909114-f6e7ad7d3136?w=400&h=300&fit=crop,www.parkwood-entertainment.com,United States,2010,niche,,,,2025-07-18T12:32:10.942225,2025-08-29T10:01:17.461371
cmd1557360b0869191516d4,Parle Moi de Parfum,"Parle Moi de Parfum is a French niche perfume house founded by the artisan perfumer, Amandine Clerc-Marie, who specializes in creating unique fragrances inspired by personal memories and storytelling. The brand emphasizes the emotional connection to scents, seeking to transport wearers to different times and places through olfactory experiences. Their collections often feature high-quality ingredients and are crafted in small batches, ensuring exclusivity and a luxury experience for customers.",https://parlemoideparfum.com/wp-content/uploads/2016/10/parle-moi-deparfum-logo-2.png,https://www.parlemoideparfum.com,France,2017,niche,,,,2025-07-18T12:32:10.942225,2025-08-29T10:01:30.497264
cmda4802cc288f813b53262,Parli,"Parli is a perfume company known for its commitment to craftsmanship and quality in fragrance production. They focus on creating unique, artisanal perfumes that blend traditional techniques with modern concepts. Parli originated from a passion for olfactory art and seeks to connect consumers with the culture of perfumery, emphasizing sustainability and the use of natural ingredients. Their story began with a small team of passionate perfumers who wanted to revive the essence of niche fragrances and offer consumers something different in the saturated market.",https://images.unsplash.com/photo-1587017539504-67cfbddac569?w=400&h=300&fit=crop,www.parliparfums.com,Italy,2008,niche,contact@parliparfums.com,,"Via Roma 12, Milano, Italy",2025-07-18T12:32:10.942225,2025-08-29T10:01:37.100818
cmd4d23074f892214ae268b,Parlux,"Parlux Fragrances, Inc. is an established American fragrance company known for creating, marketing, and distributing a diverse portfolio of branded fragrances. Founded in 1970, the company has carved a niche in the celebrity fragrance market, specializing in partnerships with various celebrities to develop signature perfumes that resonate with their fans. Notably, the company has successfully launched lines for iconic figures such as Rihanna, Mariah Carey, and Katy Perry, highlighting its expertise in capturing the essence of its collaborators through scent.",https://images.unsplash.com/photo-1556909114-f6e7ad7d3136?w=400&h=300&fit=crop,https://www.parlux.com,United States,1970,celebrity,,,,2025-07-18T12:32:10.942225,2025-08-29T10:01:43.527462
cmddbbb30090e0c06b6b504,Parour Prestige,"Parour Prestige is a niche perfume company known for its artisanal approach to fragrance creation. Founded with a passion for luxury scents, the company emphasizes the use of high-quality, natural ingredients to craft unique and sophisticated perfumes. Parour Prestige focuses on providing a distinct olfactory experience, often drawing inspiration from various cultures and traditions in perfumery. The brand is dedicated to sustainability and ethical sourcing, making it a standout in the competitive fragrance market.",https://images.unsplash.com/photo-1541643600914-78b084683601?w=400&h=300&fit=crop,www.parourprestige.com,United States,2015,niche,contact@parourprestige.com,,,2025-07-18T12:32:10.942225,2025-08-29T10:01:50.124044
cmdfc187647be7844dccf07,Parour,"Parour is a luxury niche perfume company known for its artisanal approach to fragrance creation. Founded by a team of passionate scent creators, the company emphasizes quality, craftsmanship, and unique olfactory experiences. With a focus on using natural ingredients and sustainable practices, Parour aims to bring individuality and sophistication to the fragrance market, appealing to discerning customers seeking exclusive scents. Their story reflects a dedication to the art of perfumery, drawing inspiration from various cultures and personal narratives.",https://images.unsplash.com/photo-15907369626-6c63ac16f3df?w=400&h=300&fit=crop,www.parour.com,United States,2015,niche,contact@parour.com,,,2025-07-18T12:32:10.942225,2025-08-29T10:01:56.216958
cmd8b9472e695f26b35f8f6,Parquet,"Parquet is a niche perfume company known for its artisanal approach to fragrance creation, focusing on unique and sophisticated scents that embody conceptual storytelling. Established by a team of perfumers and artists, Parquet's story revolves around the art of expression through fragrance, merging high-quality ingredients with innovative design. The brand prides itself on sustainability and ethical sourcing, reflecting a deep commitment to the environment and the communities involved in the fragrance production process.",https://images.unsplash.com/photo-1582735689369-4fe89db7114c?w=400&h=300&fit=crop,https://www.parquetfragrance.com,United States,2020,niche,contact@parquetfragrance.com,,,2025-07-18T12:32:10.942225,2025-08-29T10:02:02.530730
cmda9008f9e66bb3e1b166a,Parterre,"Parterre is an exquisite niche perfume company that specializes in creating artisanal fragrances inspired by nature and global cultures. The brand emphasizes sustainable practices and the use of high-quality ingredients to formulate unique scents that tell stories and evoke emotions. With a profound respect for the art of perfumery, Parterre’s creations reflect a dedication to craftsmanship and a passion for storytelling through scent.",https://images.unsplash.com/photo-1587017539504-67cfbddac569?w=400&h=300&fit=crop,https://www.parterrefragrances.com,United States,2019,niche,,,,2025-07-18T12:32:10.942225,2025-08-29T10:02:08.866559
cmd0a6ee7e655ec0408f12a,Particle,"Particle is a niche perfume company that specializes in crafting unique and artistic fragrances. Founded by a team of passionate perfumers, Particle aims to challenge conventional perfume-making by utilizing innovative techniques and high-quality ingredients. Their mission is to inspire individuals to express their identity through scent, offering a range of unisex perfumes that cater to diverse tastes and preferences.",https://images.unsplash.com/photo-1587017539504-67cfbddac569?w=400&h=300&fit=crop,https://www.particleperfumery.com,United States,2018,niche,,,,2025-07-18T12:32:10.942225,2025-08-29T10:02:14.288857
cmd9c20bcffbe3720f78723,Parum,,https://images.unsplash.com/photo-1587017539504-67cfbddac569?w=400&h=300&fit=crop,www.parumfragrances.com,France,2015,niche,contact@parumfragrances.com,+33 1 45 67 89 00,,2025-07-18T12:32:10.942225,2025-08-29T10:02:20.508582
cmd29db6f8a6a3c01b3698d,Pascal Morabito,"Pascal Morabito is a French fragrance house renowned for its luxurious perfumes and well-crafted objects. Founded by the designer Pascal Morabito, the company focuses on fragrances that blend quality craftsmanship with distinctive scents that appeal to a sophisticated clientele. With a commitment to elegance and modernity, Pascal Morabito has developed a unique position in the niche fragrance market, creating both feminine and masculine scents that reflect the essence of luxury living.",https://images.squarespace-cdn.com/content/v1/545b3c25e4b09756ea1869ad/1415325863943-EOG98UYXTKPP7HGZO9V0/PASCAL+MORABITO+LOGO.png?format=1500w,https://www.pascalmorabito.com,France,1986,niche,,,,2025-07-18T12:32:10.942225,2025-08-29T10:02:27.064672
cmd2e2fd3093db8e54fe746,Pascall,"Pascall is a niche perfume company known for its artisanal approach to fragrance creation. Established with a vision to evoke emotions and memories through unique scent compositions, Pascall emphasizes high-quality ingredients and storytelling through each of its offerings. The brand's story is rooted in a deep appreciation for the art of perfumery and aims to connect with individuals on a sensory level, making each fragrance a personal experience for the wearer.",https://images.unsplash.com/photo-1556909114-f6e7ad7d3136?w=400&h=300&fit=crop,,,,niche,,,,2025-07-18T12:32:10.942225,2025-08-29T10:02:32.584160
cmd9f2ef568598b14f42cd2,Pashana,"Pashana is a niche perfume company known for its high-quality fragrances that emphasize natural ingredients and traditional craftsmanship. Founded in 1970, Pashana has garnered a loyal following by focusing on creating unique scent experiences that connect the consumer to nature. The brand initially started by specializing in bespoke perfumes, and has since expanded its range while maintaining a commitment to artistry and the personal touch in scent creation.",https://images.unsplash.com/photo-15907369626-6c63ac16f3df?w=400&h=300&fit=crop,www.pashana.co.uk,United Kingdom,1970,niche,,,,2025-07-18T12:32:10.942225,2025-08-29T10:02:38.621893
cmda9ab2b53eb6f149a5f5a,Passport,"Passport is a niche perfume company known for its unique and artistic fragrance collections, often drawing inspiration from various cultures and regions around the world. Founded by a group of fragrance enthusiasts, the brand aims to transport wearers to different places through scent. Their story began with a passion for travel and exploration, which is reflected in the diverse notes and themes of their perfumes. Each fragrance is crafted with high-quality ingredients, highlighting the artistry involved in perfumery. Passport specializes in creating limited-edition perfumes that cater to individuals seeking distinct and memorable scents.",https://passportfragrances.com/cdn/shop/files/passportfragrancese_3177b2aa-fe91-4349-9cde-25d913c08537.jpg?v=1755791119&width=1372,www.passportfragrances.com,United States,2019,niche,info@passportfragrances.com,,"123 Fragrance Ave, Suite 100, Anytown, NY 10001",2025-07-18T12:32:10.942225,2025-08-29T10:02:46.809785
cmd4249a9e207ca21207962,Pasteline,"Pasteline is a niche perfume house known for its artisanal approach to fragrance creation. Established with a passion for unique blends, the company focuses on high-quality ingredients and craftsmanship, emphasizing storytelling through scent. Their fragrances are often inspired by cultural heritage and personal narratives, appealing to a discerning clientele looking for distinctive olfactory experiences.",https://images.unsplash.com/photo-1541643600914-78b084683601?w=400&h=300&fit=crop,www.pastelineperfumes.com,Italy,2018,niche,contact@pastelineperfumes.com,,"Via della Dolcezza 15, Rome, Italy",2025-07-18T12:32:10.942225,2025-08-29T10:02:52.650606
cmd13981601c44453abc28b,Patch NYC,"Patch NYC is a collaborative design studio founded in 2000 by friend duo David M. Danzig and John E. B. Derian, known for their eclectic and artistic approach to home goods and personal care products, including fragrances. They specialize in creating niche perfumes that blend high-quality ingredients with artistic elements, often drawing inspiration from the natural world and an array of cultural references. Patch NYC is recognized for its distinct packaging and creative olfactory compositions, making their fragrances as much a fashion statement as a personal choice.",https://patchnyc.com/cdn/shop/files/LOGO_just_type_400px_08a56b23-ea88-475f-8bcb-e9a05ea9de1d_800x.jpeg?v=1614296779,http://www.patchnyc.com,United States,2000,niche,,,,2025-07-18T12:32:10.942225,2025-08-29T10:03:00.855656
cmd1b800e9cc9ad41c65ed3,Patek Maison,"Patek Maison is a perfume house specializing in the creation of luxury fragrances that embody elegance and sophistication. Founded with a mission to blend traditional craftsmanship with innovative olfactory artistry, Patek Maison caters to an exclusive clientele seeking unique and high-quality scents. The brand emphasizes artisanal methods and high-grade ingredients, aiming to provide an elevated sensory experience. Their story is one of a passion for perfumery, drawing inspiration from fine arts and cultures around the globe, resulting in a diverse portfolio of signature fragrances.",https://patekmaison.com/cdn/shop/files/Capture_cb98e020-01fe-448f-a290-ea68d9c90099_160xq_160x.jpg?v=1704982824,www.patekmaison.com,France,2015,niche,contact@patekmaison.com,+33 1 23 45 67 89,"12 Rue de la Parfumerie, 75001 Paris, France",2025-07-18T12:32:10.942225,2025-08-29T10:03:08.643516
cmd271ba8010ff194cf4e1e,Patriarch Partners,"Patriarch Partners is a private equity firm that specializes in investing in consumer brands, including those in the fragrance sector. The company is known for providing strategic guidance and operational support to help brands grow and excel in highly competitive markets. Through its investments, Patriarch Partners aims to enhance brand equity, streamline operations, and drive innovation in product development, including fragrances that resonate with evolving consumer preferences.",https://www.patriarchpartners.com/wp-content/uploads/2016/06/Logo-2-1.png,http://www.patriarchpartners.com,United States,2000,indie,,,,2025-07-18T12:32:10.942225,2025-08-29T10:03:18.703143
cmdcd4609dbf90325e04a0c,Patrichs,"Patrichs is a luxury perfume company known for its artisanal approach to fragrance creation. Established with a passion for fine perfumery, the company emphasizes the use of high-quality, natural ingredients to craft unique and evocative scents. Their story began with a single vision to create fragrances that tell a story and evoke emotions. Patrichs specializes in bespoke and limited-edition perfumes, appealing to connoisseurs who appreciate luxury and individuality.",https://images.unsplash.com/photo-1541643600914-78b084683601?w=400&h=300&fit=crop,www.patrichs.com,France,2015,niche,contact@patrichs.com,,"45 Rue de la Parfumerie, Paris, France",2025-07-18T12:32:10.942225,2025-08-29T10:03:26.319730
cmdcbb0500763cdf9cb5cbc,Patricia Kaas,"Patricia Kaas is a French singer and actress who has ventured into the perfume industry, launching her own fragrance line that reflects her artistic persona. The brand captures the essence of elegance and femininity, embodying the qualities associated with her music and public image. The fragrances typically appeal to a sophisticated audience, merging the worlds of fashion and fragrance through unique scent compositions.",https://images.unsplash.com/photo-1556909114-f6e7ad7d3136?w=400&h=300&fit=crop,,France,1998,celebrity,,,,2025-07-18T12:32:10.942225,2025-08-29T10:03:32.560976
cmdf24e6d0f5d1b91ddf6ae,Patrician House,"Patrician House is a bespoke perfume company known for creating unique, high-quality fragrances that embody luxury and sophistication. The brand focuses on crafting artisanal perfumes that reflect the essence of classic elegance and contemporary style. Patrician House prides itself on using only the finest ingredients sourced globally, ensuring that each fragrance is a work of art designed to evoke a distinct emotional response. The company’s story hinges on a passion for perfumery and a commitment to individuality, appealing to consumers who appreciate exclusive scent profiles.",https://images.unsplash.com/photo-1582735689369-4fe89db7114c?w=400&h=300&fit=crop,https://www.patricianhouse.com,United States,2016,niche,info@patricianhouse.com,,,2025-07-18T12:32:10.942225,2025-08-29T10:03:49.317178
cmda088ac1943044f11682f,Patrick Cox,"Patrick Cox is a British luxury fashion brand known for its eclectic styles and innovative designs, particularly in the footwear and accessories sector. Established in 1985 by the designer Patrick Cox, the brand quickly gained recognition for its quirky yet sophisticated aesthetic. The company ventured into the fragrance industry, offering a range of scents that embody the same playful spirit as its fashion lines. Patrick Cox scents often feature unique combinations of notes, making them desirable to a niche audience looking for distinctive olfactory experiences.",https://images.unsplash.com/photo-15907369626-6c63ac16f3df?w=400&h=300&fit=crop,,United Kingdom,1985,niche,,,,2025-07-18T12:32:10.942225,2025-08-29T10:03:55.450879
cmd8add9754f84a456fd200,Patrick Dempsey,"Patrick Dempsey is a celebrity fragrance brand founded by actor Patrick Dempsey, best known for his role in the television series ""Grey's Anatomy."" The company focuses on creating perfumes that reflect the essence of Dempsey's personality and experiences. The brand aims to offer sophisticated yet approachable scents that resonate with fans and fragrance enthusiasts alike. Their products emphasize quality and elegance, often inspired by Dempsey's life and travels.",https://images.unsplash.com/photo-1556909114-f6e7ad7d3136?w=400&h=300&fit=crop,https://www.patrickdempseyfragrance.com,United States,2019,celebrity,,,,2025-07-18T12:32:10.942225,2025-08-29T10:04:02.020590
cmd9bd2ba9c056114d0e730,Patrizia Pepe,"Patrizia Pepe is an Italian fashion brand founded in 1993, known for its contemporary clothing, accessories, and fragrances. The company takes pride in its bold and innovative designs that cater to a modern, stylish audience. Patrizia Pepe has established a unique identity that combines elegance, femininity, and a touch of rock 'n' roll. The brand also emphasizes sustainability in its production processes, appealing to the environmentally conscious consumer.",https://www.patriziapepe.com/on/demandware.static/Sites-patriziapepe_US-Site/-/default/dwff37b5ea/images/logo.svg,https://www.patriziapepe.com,Italy,1993,designer,,,,2025-07-18T12:32:10.942225,2025-08-29T10:04:09.984134
cmd61108d7192f86c361dfb,Patti LaBelle,"Patti LaBelle is a renowned American singer, actress, and entrepreneur who has ventured into the perfume industry with her signature line of fragrances. Known for her powerful vocal talent and energetic performances, LaBelle expanded her brand into personal care products, including perfumes that embody sophistication and elegance. The fragrance line often reflects her persona, offering diverse scents designed to resonate with the vibrant, confident spirit of her fans.",https://images.unsplash.com/photo-1541643600914-78b084683601?w=400&h=300&fit=crop,[www.pattilabelle.com](http://www.pattilabelle.com),United States,2004,celebrity,,,,2025-07-18T12:32:10.942225,2025-08-29T10:04:16.030975
cmdaaba8b4261ef96eaf833,Patyka,"Patyka is a luxury perfume and skincare brand based in France known for its commitment to organic and natural ingredients. Established in 2002, the brand emphasizes eco-friendliness and sustainability in its products. Patyka's fragrances are crafted with a harmonious blend of elegance and exceptional quality, drawing inspiration from the art of perfumery while adhering to strict organic standards. Their unique offerings include a range of perfumes as well as body care and skincare products that reflect a philosophy of beauty without compromise.",https://patyka.com/cdn/shop/files/a6c861fc-c3d1-48a5-9aff-3e1413d8cb35.jpg?v=1754918934&width=1000,https://www.patyka.com,France,2002,niche,,,,2025-07-18T12:32:10.942225,2025-08-29T10:04:24.583532
cmd7ab381a4a82433109be6,Paul & Joe,"Paul & Joe is a French fashion brand founded by designer Sophie Mechaly in 1995. The brand is known for its playful approach to femininity and has expanded its offerings to include a range of products such as clothing, cosmetics, and fragrances. The perfume collection features elegant and whimsical scents that reflect the brand's chic and modern aesthetic, often incorporating floral and fruity notes. Paul & Joe aims to embody a joyful and vibrant lifestyle through its unique fragrance offerings, appealing to a diverse audience seeking both luxury and playfulness in their perfume choices.",https://paulandjoe.com/cdn/shop/files/P_J.svg?v=1749217475&width=155,https://www.paulandjoe.com,France,1995,designer,,,,2025-07-18T12:32:10.942225,2025-08-29T10:04:32.438601
cmddb8732f34aa4c4a3531f,Paul Boyer,"Paul Boyer is a niche perfume house known for its artisanal approach to fragrance creation. Founded by perfumer Paul Boyer, the company specializes in crafting high-quality, unique scents that reflect meticulous attention to detail and a passion for the art of perfumery. The brand emphasizes the use of rare botanical ingredients and traditional methods, aiming to create sophisticated fragrances that resonate with personal stories and emotions. With a focus on individuality and exclusivity, Paul Boyer has garnered a following among fragrance aficionados who appreciate luxury scents that stand apart from mass-market offerings.",https://images.unsplash.com/photo-1587017539504-67cfbddac569?w=400&h=300&fit=crop,www.paulboyerparfums.com,France,2010,niche,contact@paulboyerparfums.com,,"12 Rue des Fleurs, 75001 Paris, France",2025-07-18T12:32:10.942225,2025-08-29T10:04:39.005614
cmd98aa0d998dc0a9851402,Paul Djirkali,"Paul Djirkali is a niche perfume company known for its exclusive and artisanal fragrances. Founded by perfumer Paul Djirkali, the brand focuses on high-quality ingredients and handcrafted perfume-making techniques. The company has garnered attention for its unique scents, which often blend traditional methods with modern artistry. Each fragrance tells a story and reflects the personal vision of its founder, appealing to consumers who seek individual expression through scent.",https://images.unsplash.com/photo-1587017539504-67cfbddac569?w=400&h=300&fit=crop,www.pauldjirkali.com,France,2015,niche,,,,2025-07-18T12:32:10.942225,2025-08-29T10:04:45.645321
cmd80868b0440ef2124c243,Paul Emilien,"Paul Emilien is a niche perfume company known for its exquisite, handcrafted fragrances. Founded by perfumer Paul Emilien, the brand is dedicated to creating unique scent profiles that reflect the artistry and individuality of the wearer. Their perfume offerings often incorporate high-quality, rare ingredients sourced from around the world, making each fragrance a true olfactory experience. The company has carved a distinct identity in the luxury segment of the fragrance market by focusing on limited edition releases and exclusive collections, thereby appealing to connoisseurs of fine perfumes.",https://images.unsplash.com/photo-1587017539504-67cfbddac569?w=400&h=300&fit=crop,https://www.paulemilien.com,France,2011,niche,contact@paulemilien.com,,,2025-07-18T12:32:10.942225,2025-08-29T10:04:52.543014
cmd836d2e2e0c2a7f7d129e,Paul Fredrick,"Paul Fredrick is a retailer specializing in men's apparel, known for providing high-quality menswear including dress shirts, suits, and accessories. While primarily recognized for their clothing line, they also offer a selection of men’s fragrances that complement their fashion offerings, aligning with their brand ethos of style and sophistication. Established with a commitment to exceptional quality and service, the brand has built a loyal customer base through its catalog-based sales model and online presence.",https://www.paulfredrick.com/cdn/shop/files/Primary_Style_7d4ced63-4173-4702-8c69-4ac795a3edee_300x300.svg?v=1747662538,https://www.paulfredrick.com,United States,1986,designer,,,,2025-07-18T12:32:10.942225,2025-08-29T10:04:59.791714
cmdec690b46b1c85025241d,Paul-Loup Sulitzer,"Paul-Loup Sulitzer is a perfume company that specializes in creating niche fragrances. Founded by Paul-Loup Sulitzer, a French entrepreneur and novelist, the brand merges literary artistry with perfumery, creating scents that tell stories and evoke emotions. They are known for their unique and avant-garde fragrance compositions that cater to a discerning audience looking for exclusive, artistic scents.",https://images.unsplash.com/photo-1587017539504-67cfbddac569?w=400&h=300&fit=crop,,France,1990,niche,,,,2025-07-18T12:32:10.942225,2025-08-29T10:05:05.381430
cmda183180f3f2e1b0f7084,Paul Schütze,"Paul Schütze is a unique and innovative perfume company based in Australia that emphasizes the artistic expression of scent. Founded by Paul Schütze, a renowned artist and perfumer, the brand is known for its experimental approach and commitment to high-quality, natural ingredients. Their fragrances are inspired by various forms of art, culture, and personal experiences, creating a distinct and evocative olfactory experience. The brand prides itself on being a creative platform that often collaborates with artists to enhance the storytelling aspect of each fragrance.",https://images.unsplash.com/photo-1582735689369-4fe89db7114c?w=400&h=300&fit=crop,https://www.paulschutze.com,Australia,2012,niche,,,,2025-07-18T12:32:10.942225,2025-08-29T10:05:12.683962
cmdaa3b7fc30439c7e091e5,Paul Sebastian,"Paul Sebastian is a fragrance company best known for its unique and distinctive scents. Established by the eponymous designer Paul Sebastian, the brand has a heritage rooted in fine perfumery and has produced a variety of successful fragrances since its inception. The company specializes in creating products that blend classic and contemporary elements, catering to diverse customer tastes and preferences. It remains recognized for its elegant packaging and high-quality ingredients, offering fragrances for both men and women that are popular in the market.",https://images.unsplash.com/photo-1556909114-f6e7ad7d3136?w=400&h=300&fit=crop,www.paulsebastian.com,United States,1979,designer,,,,2025-07-18T12:32:10.942225,2025-08-29T10:05:19.326850
cmd485ffc64f6499c34c49d,Paul Smith,"Paul Smith is a British luxury brand known primarily for its men's and women's fashion, but it also has a successful portfolio of fragrances. Founded by designer Paul Smith in 1970, the company has expanded its offerings to include high-quality perfumes that reflect the brand's distinctive style, characterized by a mix of classic and contemporary influences, vibrant colors, and unique prints. The brand's fragrances often embody elegance and an innovative spirit, appealing to a sophisticated audience.",https://assets.paulsmith.com/paul-smith-storyblok/Svg/flags/US.svg,https://www.paulsmith.com,United Kingdom,1970,designer,,,,2025-07-18T12:32:10.942225,2025-08-29T10:05:27.041914
cmd8fd6c7614387c0ded153,Paul Stuart,"Paul Stuart is a prominent American clothing retailer known for its sophisticated menswear and womenswear, which includes a line of high-quality fragrances. Established in 1938, the brand focuses on timeless designs and luxury craftsmanship. Their perfume line reflects the same dedication to quality and style, offering unique scents that complement their fashion lines and cater to discerning customers.",https://www.paulstuart.com/on/demandware.static/-/Library-Sites-PaulStuartSharedLibrary/default/dwf51e46df/Homepage/HomepageSpring23/PS-Man-on-Fence_new-BLACK-3.png,https://www.paulstuart.com,United States,1938,designer,,,"40 East 57th Street, New York, NY 10022, United States",2025-07-18T12:32:10.942225,2025-08-29T10:05:33.821815
cmd1c0ef677ecd61fb4b375,Paula Abdul,"Paula Abdul is a renowned American singer, dancer, choreographer, and television personality who has expanded her creative talents into the fragrance industry. Her perfume line reflects her vibrant personality and dedication to artistry, drawing inspiration from her career in entertainment. The brand focuses on creating scents that capture confidence and allure, often appealing to a broad audience while promoting a sense of empowerment.",https://images.unsplash.com/photo-1541643600914-78b084683601?w=400&h=300&fit=crop,,United States,2009,celebrity,,,,2025-07-18T12:32:10.942225,2025-08-29T10:05:40.177170
cmde2aca00596df20e5be90,Paula Cahen d'Anvers,"Paula Cahen d'Anvers is an Argentine perfume brand that reflects a blend of local culture and international trends. The company focuses on creating unique, high-quality fragrances that embody elegance and sophistication. Founded by Paula Cahen d'Anvers, the brand has developed a reputation for its artisan approach to fragrance-making, employing rich ingredients and innovative techniques. Their story began with a passion for scents and a desire to craft perfumes that resonate with individual identities and emotions.",https://images.computer.com/gallery/2024/10/04/188_1728009038660.webp,http://www.paulacahendanvers.com,Argentina,2000,niche,,,,2025-07-18T12:32:10.942225,2025-08-29T10:05:47.351925
cmd68ff1c015879a97d71f3,Paula Dorf,"Paula Dorf is a cosmetics brand primarily known for its high-quality makeup products and fragrances. Founded by makeup artist Paula Dorf in the early 1990s, the company focuses on creating innovative products that enhance natural beauty. Their fragrances are designed to complement their makeup line, emphasizing a holistic approach to beauty. The company aims to empower individuals by providing tools to enhance their personal style and confidence.",https://images.unsplash.com/photo-1556909114-f6e7ad7d3136?w=400&h=300&fit=crop,https://www.pauladorf.com,United States,1990,indie,,,,2025-07-18T12:32:10.942225,2025-08-29T10:05:54.082913
cmdb964dbbe1f53d143215a,Paulina Rubio,"Paulina Rubio is a fragrance brand created by the famous Mexican pop singer and actress Paulina Rubio. Since entering the perfume market, the company has focused on launching a range of fragrances that embody the vibrant and glamorous essence of Rubio's persona. Paulina Rubio’s fragrances often reflect her Latin heritage and contemporary style, appealing to her fanbase and broader audiences. The brand aims to connect emotionally with consumers through bold and alluring scents, often accompanied by eye-catching bottle designs that mirror Rubio's artistic flair.",https://images.unsplash.com/photo-1582735689369-4fe89db7114c?w=400&h=300&fit=crop,https://www.paulinarubio.com/,United States,2004,celebrity,,,,2025-07-18T12:32:10.942225,2025-08-29T10:06:11.038350
cmd89a04fe8a9bdbb2435e7,Pauline Trigère,"Pauline Trigère was a French fashion designer known for her sophisticated and elegant designs, which also extended into the fragrance market. Trigère was celebrated for her tailoring and innovative designs that appealed to a fashion-forward audience. The company provided a range of luxury products, including perfumes that were characterized by their unique and refined scents. The brand embodies a blend of classic craftsmanship and modern elegance.",https://images.unsplash.com/photo-1582735689369-4fe89db7114c?w=400&h=300&fit=crop,,United States,1950,designer,,,,2025-07-18T12:32:10.942225,2025-08-29T10:06:17.753258
cmd568c489243c57b940fb2,Paul's Boutique,"Paul's Boutique is a dynamic brand known for its vibrant and eclectic designs that blend contemporary fashion with a playful twist. Originally established as a handbag company, the brand expanded its offerings to include a fragrance line that captures the essence of modern street style with unique scents that appeal to a youthful demographic. Their fragrances are characterized by bold packaging and playful scents, inspired by the vibrant culture of urban life.",https://images.unsplash.com/photo-1556909114-f6e7ad7d3136?w=400&h=300&fit=crop,https://www.paulsboutique.com,United Kingdom,2000,indie,,,,2025-07-18T12:32:10.942225,2025-08-29T10:06:23.828774
cmdf803175c400873f8451c,PAW Patrol,"PAW Patrol is a popular children's franchise created by Spin Master, centered around a group of animated puppies who work together on rescue missions. The franchise has expanded to various merchandise, including bath and body products, toys, clothing, and fragrances. The PAW Patrol line of perfumes targets young audiences and is themed around the show's characters, promoting imaginative play and excitement among children.",https://cdn.prod.website-files.com/63f8ef5c5a8680f76905bcd2/64a279d46eca503f9389625d_main-logo.svg,https://www.pawpatrol.com,Canada,2013,celebrity,,,,2025-07-18T12:32:10.942225,2025-08-29T10:06:30.223778
cmd45a43435877bfebb7566,Payan,"Payan is a French perfume house known for its unique and artistic approach to fragrance design. Founded by perfumer and creator Payan, the company emphasizes the use of high-quality raw materials sourced from around the globe. Payan specializes in crafting niche perfumes that are both bold and intricate, often inspired by nature and cultural experiences. Their offerings evoke profound emotions and aim to tell stories through scent, capturing the essence of different elements and moments in life.",https://images.unsplash.com/photo-15907369626-6c63ac16f3df?w=400&h=300&fit=crop,https://payanparfums.com,France,2020,niche,contact@payanparfums.com,,,2025-07-18T12:32:10.942225,2025-08-29T10:06:36.731682
cmdd27a27a64c2f764f8683,Payot,"Payot is a French skincare brand founded by Nadia Payot in 1920, famed for its pioneering approach to beauty that integrates holistic wellness and luxurious fragrances. The brand specializes in a range of skincare and fragrances inspired by the principles of health, beauty, and well-being. Payot has established itself as a leader in combining the science of skin care with the art of perfume making, focusing on the creation of products that enhance beauty through self-care and therapeutic rituals.",https://www.payot.com/cdn/shop/files/logo_payot_svg.png?v=1751987422&width=600,https://www.payot.com,France,1920,designer,,,,2025-07-18T12:32:10.942225,2025-08-29T10:06:42.930756
cmd6d83773ef57674e11007,PDC Brands,"PDC Brands is a leading global company specializing in the creation and distribution of a diverse range of fragrances and personal care products. The company incorporates innovation and creativity into their product development, focusing on both consumer needs and current market trends. Established with a vision to provide quality and affordable scents, PDC Brands has cultivated numerous partnerships and collaborations with popular names in the lifestyle and entertainment sectors, thereby deftly blending fragrance with lifestyle branding.",https://images.unsplash.com/photo-1582735689369-4fe89db7114c?w=400&h=300&fit=crop,https://www.pdcbrands.com,United States,1980,drugstore,,,"5760 Fleet St, Carson City, NV 89706, United States",2025-07-18T12:32:10.942225,2025-08-29T10:06:59.707964
cmd632d7254912b07c2957f,Peach Plié,"Peach Plié is a niche perfume company that specializes in creating unique, artisanal fragrances. The brand focuses on craftsmanship and the use of high-quality ingredients to develop scents that evoke emotions and memories. With an emphasis on the creative process, Peach Plié aims to provide customers with personalized and memorable olfactory experiences. The company's story revolves around the founder's passion for perfumery and the art of scent-making, with an inspired ethos that elevates the everyday experience of fragrance.",https://peachplie.com/cdn/shop/files/65DE7686-C87D-4851-AA09-40A1052A5555.jpg?v=1753608238&width=533,www.peachplie.com,United States,2020,niche,contact@peachplie.com,,,2025-07-18T12:32:10.942225,2025-08-29T10:07:08.092665
cmde4b9f989df3f9899e6af,Pearfat Parfum,"Pearfat Parfum is a niche fragrance house known for creating unique and artisan perfumes that blend traditional olfactory techniques with contemporary interpretations. Founded with a passion for scent and storytelling, Pearfat's specialty lies in crafting fragrances that are both evocative and personal, seeking to resonate with individual experiences and memories. The company emphasizes quality ingredients and sustainable practices, aiming to connect wearers with the art of perfumery.",https://images.unsplash.com/photo-15907369626-6c63ac16f3df?w=400&h=300&fit=crop,,,,niche,,,,2025-07-18T12:32:10.942225,2025-08-29T10:07:14.281408
cmd141d32a7bcd1f0491e62,Pearl,"Pearl is a fragrance company that specializes in creating high-quality perfumes with a focus on unique scent compositions. Established with a vision to bring luxury fragrances to the mainstream market, Pearl offers a range of products that appeal to both men and women. The brand prides itself on sourcing fine ingredients and employing skilled perfumers to craft their signature scents, positioning itself as a reputable name in the perfume industry through an emphasis on craftsmanship and elegance.",https://images.unsplash.com/photo-1582735689369-4fe89db7114c?w=400&h=300&fit=crop,,,,indie,,,,2025-07-18T12:32:10.942225,2025-08-29T10:07:20.885635
cmd23f487d59529c3009cea,Pearlescent Parfums,"Pearlescent Parfums is a niche fragrance house that focuses on creating bespoke, high-quality perfumes crafted with a unique blend of rare and luxurious ingredients. The company emphasizes storytelling through scent, offering personalized fragrance experiences that resonate deeply with individual clients. Founded by a team of passionate perfumers, Pearlescent Parfums aims to celebrate the art of perfumery by combining traditional methods with innovative concepts, allowing for expressive and artistically driven fragrances that appeal to a discerning clientele.",https://gallagherfragrances.com/cdn/shop/files/20250716_170556_1.jpg?v=1752941808&width=3840,www.pearlescentparfums.com,United States,2018,niche,contact@pearlescentparfums.com,,,2025-07-18T12:32:10.942225,2025-08-29T10:07:28.333277
cmd483be9be2b7e8cf3783c,Peccato Originale,"Peccato Originale is a perfume company that specializes in creating artisanal fragrances inspired by Italian culture and fashion. The brand emphasizes traditional craftsmanship and fine ingredients to create unique, high-quality scents. It was co-founded with the vision of merging modern perfumery techniques with classic Italian themes, aiming to deliver exclusive and evocative fragrances that resonate with the essence of Italy.",https://images.unsplash.com/photo-1556909114-f6e7ad7d3136?w=400&h=300&fit=crop,http://www.peccato-originale.com,Italy,2011,niche,,,,2025-07-18T12:32:10.942225,2025-08-29T10:07:34.942899
cmd35c71fceaf2d53a027e6,Pecksniff's,"Pecksniff's is a British fragrance and skincare brand known for its high-quality products that celebrate traditional English aromatic blends. Founded by the perfumer and entrepreneur P. M. Pecksniff, the company was established with a vision to create luxurious and evocative scents. Their specialty lies in crafting a diverse range of perfumes, body care, and home fragrance products that embody timeless elegance and sophistication. The brand draws inspiration from nature and the British countryside, incorporating natural ingredients to appeal to a discerning clientele.","https://static.wixstatic.com/media/410f4a_f1c4edbf67ae4a479175765e3bf9bca1~mv2.png/v1/fill/w_185,h_75,al_c,q_85,enc_avif,quality_auto/Pecksniffslogo2.png",https://www.pecksniffs.com,"side, incorporating natural ingredients to appeal to a discerning clientele.",1990,indie,,,,2025-07-18T12:32:10.942225,2025-08-29T10:07:45.739379
cmd9d839f9346bf65288978,Pedro del Hierro,"Pedro del Hierro is a Spanish fashion and lifestyle brand founded by designer Pedro del Hierro in the 1970s. Originally renowned for its sophisticated clothing lines, the brand has expanded into fragrances that reflect its ethos of elegance and modernity. The perfumes often encapsulate a blend of classic and contemporary notes, aiming to evoke a sense of luxury and style synonymous with the brand's fashion offerings.",https://www.pedrodelhierro.com/on/demandware.static/Sites-PDH-Site/-/default/dw91ae0b00/img/logo-header.svg,https://www.pedrodelhierro.com,Spain,1974,designer,,,"Calle José Ortega y Gasset, 27, Madrid, Spain",2025-07-18T12:32:10.942225,2025-08-29T10:07:54.124549
cmd489c69ee94dffdc231dd,Peek Cosmetics,"Peek Cosmetics is a rising cosmetics and fragrance brand known for its unique blends and commitment to quality. The company emphasizes the use of natural ingredients and sustainable practices in their products. They focus on creating fragrances that resonate with individual personalities and emotions, enhancing the beauty experience. Peek Cosmetics also advocates for cruelty-free practices and supports eco-friendly packaging. The brand story is rooted in the desire to empower individuals through high-quality, artisanal beauty products.",https://images.unsplash.com/photo-1556909114-f6e7ad7d3136?w=400&h=300&fit=crop,www.peekcosmetics.com,United States,2018,indie,contact@peekcosmetics.com,,,2025-07-18T12:32:10.942225,2025-08-29T10:08:00.569260
cmd0ceef665d85fa7f58de8,Pekji,"Pekji is a niche perfume company known for its innovative and artisanal fragrances that blend traditional perfumery with modern interpretations. The brand focuses on using high-quality raw materials sourced from around the world, aiming to create unique scent experiences for connoisseurs and casual wearers alike. Pekji has garnered attention for its commitment to sustainability and eco-friendly practices in the perfume-making process. Established by a group of aromatic enthusiasts, the company has built a reputation for curating distinctive and memorable fragrances.",https://pekji.com/wp-content/uploads/2021/05/PEKJI-LOGO-WHITE-300x137.png,www.pekji.com,United States,2019,niche,contact@pekji.com,,,2025-07-18T12:32:10.942225,2025-08-29T10:08:10.139644
cmd827aac09470a912cdc0b,Pell Wall Perfumes,"Pell Wall Perfumes is an independent British perfume house founded by Simon John in 2005. The company is known for its artisanal approach to fragrance, creating small-batch, high-quality perfumes that often reflect individual creativity and personal stories. Pell Wall specializes in unique scent compositions, utilizing both traditional perfumery techniques and innovative ingredients. Their offerings often include both traditional and eccentric scent profiles, aiming to appeal to a diverse clientele looking for distinctive fragrances.",https://pellwall.com/cdn/shop/files/logo-blk.png?v=1651918190&width=120,https://www.pellwall.com,United Kingdom,2005,indie,,,,2025-07-18T12:32:10.942225,2025-08-29T10:08:16.907393
cmddb5aaa5040018581ad5b,Penhaligon's,"Penhaligon's is a renowned British perfume house founded in 1870 by William Penhaligon, initially starting as a barber shop in London. Over the years, it gained a reputation for its exquisite fragrances inspired by the rich history and culture of British society. The brand is known for its luxury perfumes that often feature unusual and artisanal ingredients, encapsulating a blend of tradition and modern sensibility. Each scent is crafted with a narrative in mind, focusing on storytelling that connects the wearer to the essence of the fragrance. Penhaligon's is celebrated for its distinctive bottle designs and the personalization offered in its products, including bespoke services.",https://images.unsplash.com/photo-15907369626-6c63ac16f3df?w=400&h=300&fit=crop,https://www.penhaligons.com,United Kingdom,1870,niche,,,"63-64 Jermyn Street, London, SW1Y 6LX, United Kingdom",2025-07-18T12:32:10.942225,2025-08-29T10:08:29.263219
cmd1fcbd6ec9a0f708b0ea6,Penny Black,"Penny Black is a niche perfume company that specializes in creating unique and handcrafted fragrances inspired by the history and art of perfume-making. The brand emphasizes artistry and individuality in their scent compositions, often drawing from literary and historical references. Their offerings include a range of perfumes that appeal to connoisseurs seeking distinctive olfactory experiences.",https://images.unsplash.com/photo-1582735689369-4fe89db7114c?w=400&h=300&fit=crop,https://www.pennyblack.com,United Kingdom,,niche,,,,2025-07-18T12:32:10.942225,2025-08-29T10:08:45.595721
cmd179da490e3a545ce8f38,Pentalogies Parfums,"Pentalogies Parfums is a niche fragrance company known for its artistic and unique scent compositions. Founded by a team of passionate perfumers, the company aims to reinterpret the essence of modern olfactory experiences by combining traditional perfumery techniques with innovative approaches. Pentalogies Parfums reflects a commitment to quality and creativity, offering exclusive fragrances that appeal to discerning customers looking for individuality in their scent choices. Their collections often emphasize storytelling through fragrance, drawing inspiration from various cultures, philosophies, and art forms.",https://images.unsplash.com/photo-1582735689369-4fe89db7114c?w=400&h=300&fit=crop,https://pentalogiesparfums.com,France,2021,niche,contact@pentalogiesparfums.com,,,2025-07-18T12:32:10.942225,2025-08-29T10:08:55.701112
cmda4e6a30e6d1311e71f05,Penthouse,"Penthouse is a luxury lifestyle brand known for its premium products, including a line of fragrances. Originally derived from the adult entertainment magazine that gained popularity in the 1960s, Penthouse has expanded its brand into various lifestyle categories, including perfumes. The company's fragrances often encapsulate themes of confidence, sensuality, and allure, targeting customers who appreciate an extravagant lifestyle. They have successfully created a niche within the perfume industry by leveraging the brand's established reputation, offering sophisticated and bold scents that resonate with its upscale consumer base.",https://i0.wp.com/penthouse.com/wp-content/uploads/sites/9/2021/10/logo.png?fit=260%2C51&ssl=1,https://www.penthouse.com,United States,1965,designer,,,,2025-07-18T12:32:10.942225,2025-08-29T10:09:03.546686
cmd55424036b6bff573e233,Pento Cosmetic Holding,"Pento Cosmetic Holding is a perfume and cosmetic company that specializes in creating high-quality perfumes, skincare, and beauty products. The company emphasizes innovation in fragrance creation and utilizes both traditional and modern techniques to craft its products. Through a commitment to sustainability and quality, Pento Cosmetic Holding aims to cater to the discerning customer while maintaining a focus on eco-friendly practices throughout its operations.",https://images.unsplash.com/photo-1582735689369-4fe89db7114c?w=400&h=300&fit=crop,www.pentocosmetic.com,United States,2005,niche,info@pentocosmetic.com,,"1234 Fragrance Ave, Suite 100, Los Angeles, CA 90001, USA",2025-07-18T12:32:10.942225,2025-08-29T10:09:11.899454
cmd6d77e8dac700c08cf85b,People of the Labyrinths,"People of the Labyrinths is a niche perfume house based in the Netherlands, known for crafting unique and artistic fragrances that reflect an eclectic and avant-garde spirit. The brand was founded by the Dutch duo of designer and perfume creator, adding an artistic touch to the traditional perfume industry. Their offerings often embrace unusual ingredients and storytelling elements, making each scent a distinctive olfactory experience that connects deeply with customers.",https://images.unsplash.com/photo-1541643600914-78b084683601?w=400&h=300&fit=crop,https://www.peopleofthelabyrinths.com,Netherlands,1996,niche,,,,2025-07-18T12:32:10.942225,2025-08-29T10:09:19.044685
cmdf61719c8f021dc398afa,Peosym,"Peosym is an emerging perfume company that focuses on creating unique, high-quality fragrances inspired by natural ingredients and cultural themes. Founded by a team of passionate perfumers, the brand aims to deliver a sensory experience that resonates with individuality and artistry, combining traditional techniques with modern innovation. Their specialty lies in crafting limited-edition scents that evoke emotions and memories, making each fragrance a personal story for its wearer.",https://peosym.com.au/cdn/shop/files/LOGO_100x.jpg?v=1685320126,www.peosym.com,United States,2021,niche,contact@peosym.com,,,2025-07-18T12:32:10.942225,2025-08-29T10:09:26.178600
cmd63009c3819e73cc125ae,Pepe Jeans,"Pepe Jeans is a global fashion brand known primarily for its denim products. Founded in 1973, the company has expanded to offer a diverse range of clothing, accessories, and fragrances. The brand is recognized for its youthful and casual style, often reflecting contemporary trends. In the fragrance sector, Pepe Jeans has developed a line of perfumes that embody the spirit of its fashion collections, catering to a trendy and fashionable audience. Each fragrance is designed to resonate with the ethos of the brand, often characterized by vibrant and bold scents that appeal to various demographics.",https://images.unsplash.com/photo-1556909114-f6e7ad7d3136?w=400&h=300&fit=crop,https://www.pepejeans.com,United Kingdom,1973,designer,,,,2025-07-18T12:32:10.942225,2025-08-29T10:09:33.956275
cmd4bec2804d396d224fada,Per-fekt,"Per-fekt is a fragrance and cosmetics company that specializes in creating high-quality beauty products with a focus on enhancing the natural beauty of the skin. The company is known for its innovative formulations that blend skincare and fragrance, providing a unique olfactory experience. Per-fekt has established a reputation for its commitment to using premium ingredients and developing products that cater to a diverse audience, striving to bring out the best in every individual.",https://images.unsplash.com/photo-1587017539504-67cfbddac569?w=400&h=300&fit=crop,https://www.per-fekt.com,United States,2006,indie,,,,2025-07-18T12:32:10.942225,2025-08-29T10:09:40.864030
