id,name,description,image,website,country,founded,type,email,phone,address,createdAt,updatedAt
cmde583e576d81b5e1d9f51,Amelia Perfumes,"Amelia Perfumes is a niche fragrance company that focuses on crafting unique and high-quality perfumes. With a passion for artistic expression through scent, they create exclusive fragrances that reflect individual personalities and emotions. The company prides itself on using natural ingredients and artisanal techniques to deliver bespoke scents. Their story is rooted in a commitment to sustainability and creativity, appealing to fragrance enthusiasts who seek authenticity in their perfume choices.",https://images.unsplash.com/photo-1587017539504-67cfbddac569?w=400&h=300&fit=crop,,,,niche,,,,2025-07-18T12:32:10.942225,2025-08-28T09:06:46.560437
cmddf1a2ebec044e377f604,America Products Company,"America Products Company specializes in the manufacture and distribution of fragrance products, including perfumes, personal care items, and home fragrances. The company has a commitment to quality and innovation, emphasizing a diverse range of scents tailored to meet the demands of different markets. Their story is rooted in a passion for scent and a dedication to creating unique olfactory experiences for consumers.",https://images.unsplash.com/photo-1582735689369-4fe89db7114c?w=400&h=300&fit=crop,,United States,,indie,,,,2025-07-18T12:32:10.942225,2025-08-28T09:06:52.673137
cmd045763e1e77fb60fcde5,American Beauty Perfumers,"American Beauty Perfumers is a fragrance company focused on creating unique and artistic scents that celebrate the essence of beauty and creativity. With a passion for artisanal craftsmanship, they blend traditional techniques with modern innovation to produce high-quality perfumes. The company's story is rooted in a desire to encapsulate the vibrant spirit of American culture through exquisite fragrances, appealing to consumers looking for distinct and expressive scents.",https://images.unsplash.com/photo-1541643600914-78b084683601?w=400&h=300&fit=crop,www.americanbeautyperfumers.com,United States,2015,indie,info@americanbeautyperfumers.com,,,2025-07-18T12:32:10.942225,2025-08-28T09:06:59.486488
cmdb827843807561dfdd873,American Beauty,"American Beauty is a fragrance brand that emphasizes charm and elegance, often capturing the essence of nostalgic Americana. Known for its wide range of products, the company combines classic and contemporary fragrance elements, making it appealing to a diverse audience. Their perfumes often evoke feelings of romance and beauty, resonating with those who seek to express their personality through scent. With a commitment to quality, American Beauty often infuses their products with natural ingredients and is associated with positive branding focused on self-expression.",https://backend.americanbeauty.com/american-beauty/wp-content/uploads/sites/9/2019/02/American-Beauty-Logo-01.png,https://www.americanbeauty.com,United States,,drugstore,,,,2025-07-18T12:32:10.942225,2025-08-28T09:07:07.667781
cmdc4f3a911a385bc47e0d9,American Coastal,"American Coastal is a perfume company that creates fragrances inspired by the beach, ocean, and coastal lifestyle. They focus on capturing the essence of seaside living through their unique and evocative scent profiles. The brand emphasizes quality ingredients and aims to evoke nostalgic memories of summer days, warmth, and relaxation by the water. Their specialty lies in producing artisanal fragrances that resonate with a sense of place and natural beauty.",https://images.unsplash.com/photo-15907369626-6c63ac16f3df?w=400&h=300&fit=crop,https://www.americancoastal.com,United States,2016,indie,,,,2025-07-18T12:32:10.942225,2025-08-28T09:07:14.084512
cmdd0011a95fc74c8d8c5e0,American Crew,"American Crew is a well-known brand in the grooming industry, primarily focusing on men's hair care and styling products, as well as fragrances. Founded in 1994 by hairstylist David Raccuglia, the company has become a leader in the men's grooming market by offering a range of products that cater to the specific needs of men. Their specialty lies in creating high-quality, salon-level products that promote healthy hair care and styling while embodying a masculine and sophisticated aesthetic. American Crew is also known for advocating men's grooming standards and providing education within the barbershop community.",https://www.americancrew.com/cdn/shop/files/icons8-instagram.svg?v=1696264452&width=20,https://www.americancrew.com,United States,1994,drugstore,,,,2025-07-18T12:32:10.942225,2025-08-28T09:07:21.649374
cmd893ec3abac378aa2522e,American Cyanamid,"American Cyanamid was a diversified American company involved in the manufacture of agricultural chemicals, pharmaceuticals, and consumer products, including perfumes and personal care items. It was primarily known for its contributions to scientific advancements in various industrial sectors and had a strong footprint in the chemicals market. However, its focus on perfume and personal care products was not as prominent and was overshadowed by its larger pharmaceutical and agricultural operations. The company eventually became part of Warner-Lambert and later Pfizer after mergers and acquisitions.",https://images.unsplash.com/photo-1587017539504-67cfbddac569?w=400&h=300&fit=crop,,United States,1907,drugstore,,,,2025-07-18T12:32:10.942225,2025-08-28T09:07:27.689453
cmded841890004441a8bcfc,American Designer Fragrances,"American Designer Fragrances is a company that specializes in creating high-quality fragrances, focusing on American culture and lifestyle. The company aims to blend contemporary trends with classic scents, catering to a diverse audience that appreciates individuality and style in their fragrance choices. Their offerings emphasize unique and bold scents inspired by American experiences, making them a prominent player in the fragrance industry.",https://images.unsplash.com/photo-15907369626-6c63ac16f3df?w=400&h=300&fit=crop,,United States,,designer,,,,2025-07-18T12:32:10.942225,2025-08-28T09:07:33.980091
cmd5fb91c59c397071dda7c,American Druggist Syndicate,"The American Druggist Syndicate is a historical company known for its involvement in the pharmaceutical and fragrance industries, primarily functioning as a wholesale distributor of perfumery and cosmetic products in the early 20th century. The company focused on providing various products to pharmacists and retailers, which included perfumes and other personal care items. While the exact details of their story and specialty have evolved over the years, their legacy remains tied to the early commercialization of fragrances in America.",https://images.unsplash.com/photo-1587017539504-67cfbddac569?w=400&h=300&fit=crop,,United States,1875,drugstore,,,,2025-07-18T12:32:10.942225,2025-08-28T09:07:40.743015
cmd2422ab88be8e30786c9b,American Eagle,"American Eagle Outfitters, Inc. is an American retail company specializing in casual wear and accessories, primarily targeting young adults. Established in 1977, American Eagle has expanded beyond clothing and has a dedicated line of fragrances, which are often marketed in conjunction with their apparel. Their scent offerings are designed to resonate with the brands’ youthful and adventurous spirit, featuring fresh and vibrant notes that appeal to their demographic.",https://www.ae.com/assets/ae/logos/Footer-logos.svg,https://www.ae.com,United States,1977,designer,,,,2025-07-18T12:32:10.942225,2025-08-28T09:07:47.550353
cmd35e720d200dc5759b651,American Idol,"American Idol is a franchise focusing primarily on talent search and entertainment, known predominantly for its singing competition television show. The American Idol brand has expanded into various merchandising opportunities, including a line of celebrity-branded perfumes that capture the essence of music and glamour associated with the show's contestants. These fragrances are often inspired by the personas of various personalities that have gained fame through the show.",https://images.unsplash.com/photo-15907369626-6c63ac16f3df?w=400&h=300&fit=crop,,United States,2002,celebrity,,,,2025-07-18T12:32:10.942225,2025-08-28T09:07:53.609540
cmdba7ec091b572831a8934,American International Beauty Group,"American International Beauty Group (AIBG) is a dynamic player in the beauty and fragrance industry, specializing in the development, marketing, and distribution of perfumes and personal care products. Established in 1983, AIBG is recognized for its innovative approach in creating diverse fragrance lines that appeal to a broad consumer base. The company's commitment to quality and creativity has positioned it as a reputable force in both domestic and international markets, with an emphasis on delivering value-driven products that cater to contemporary beauty trends.",http://www.aibg.com/gotw.gif,http://www.aibg.com,United States,1983,drugstore,,,,2025-07-18T12:32:10.942225,2025-08-28T09:08:02.807066
cmd4d403bdc8dd891535d72,American Perfumer,"American Perfumer is an indie fragrance company that represents a collective of American artisan perfumers. The brand focuses on promoting the craft of fine fragrance-making in the U.S. by showcasing a variety of unique and high-quality perfumes made by independent artisans. Their story centers around the celebration of creativity, individuality, and the revival of the traditional art of perfumery in America, offering consumers a diverse range of scents that reflect the culture and heritage of the country. They source ingredients ethically and emphasize sustainability in their production processes.",https://images.unsplash.com/photo-1556909114-f6e7ad7d3136?w=400&h=300&fit=crop,https://www.americanperfumer.com,. They source ingredients ethically and emphasize sustainability in their production processes.,2019,indie,,,,2025-07-18T12:32:10.942225,2025-08-28T09:08:10.113635
cmd3c2cfb9171fe3a374549,American Society of Perfumers,"The American Society of Perfumers (ASP) is a nonprofit organization that unites fragrance professionals, including manufacturers, suppliers, and fragrance enthusiasts. Established to promote the art and science of perfumery, ASP provides educational resources and networking opportunities for its members. The organization plays a crucial role in advocating for the fragrance industry and supporting research initiatives, while also fostering a community for sharing knowledge and innovation within the perfume sector.","https://static.wixstatic.com/media/12d78b_40e9d9f788b046a2a634c56555959ff4~mv2.png/v1/fill/w_49,h_17,al_c,q_85,usm_0.66_1.00_0.01,blur_2,enc_avif,quality_auto/ASP%20logo%20with%20text%20OL%2072dpi_edited_edited.png",https://www.perfumers.org,United States,1946,niche,,,,2025-07-18T12:32:10.942225,2025-08-28T09:08:18.446040
cmdbe9bab438bca8957a3b2,American Toilet Goods,"American Toilet Goods is a fragrance company known for creating unique and innovative fragrances that blend traditional perfumery with modern concepts. Established with a focus on high-quality ingredients and artistic expression, their story began with a vision to redefine the perception of personal scents. With a range of products including perfumes, body sprays, and home fragrances, they cater to a diverse clientele and emphasize ethical sourcing and sustainable practices in their production.",https://images.unsplash.com/photo-1556909114-f6e7ad7d3136?w=400&h=300&fit=crop,http://www.americantoiletgoods.com,United States,2015,indie,contact@americantoiletgoods.com,,,2025-07-18T12:32:10.942225,2025-08-28T09:08:24.688059
cmda4b661f1e33522daba4e,America's Next Top Model,"America's Next Top Model (ANTM) is primarily known as a reality television series that showcases aspiring models competing in various challenges to earn the title of ""America's Next Top Model."" The show has launched several successful modeling careers, and while it does not operate as a perfume company in the traditional sense, it has collaborated with beauty and fashion brands, including the release of signature fragrances tied to the models and the franchise. The brand has focused on promoting self-expression and individuality within the fashion and beauty industry.",https://images.unsplash.com/photo-1541643600914-78b084683601?w=400&h=300&fit=crop,,United States,2003,celebrity,,,,2025-07-18T12:32:10.942225,2025-08-28T09:08:31.132353
cmd4808db10605f84ebcc06,Amerigo Vespucci,"Amerigo Vespucci is a niche perfume company that specializes in creating luxurious fragrances inspired by the storied travels and explorations of the Italian explorer Amerigo Vespucci. Founded with a vision to capture the essence of exploration and adventure in their scents, the company curates a selection of unique perfumes that blend traditional craftsmanship with contemporary olfactory artistry. Each fragrance tells a story, evoking the landscapes and cultures Vespucci encountered on his journeys.",https://images.unsplash.com/photo-1587017539504-67cfbddac569?w=400&h=300&fit=crop,,,,niche,,,,2025-07-18T12:32:10.942225,2025-08-28T09:08:37.728100
cmde60a511830a9e9d49526,Amerikai Porczellen Pouder Rexzvemy Tarsaag,"Amerikai Porczellen Pouder Rexzvemy Tarsaag is a unique perfume company that blends traditional craftsmanship with modern olfactory trends. Established with a mission to create exquisite fragrances inspired by the rich history of porcelain artistry, the company specializes in creating luxurious scents that evoke a sense of elegance and sophistication. Their products often reflect cultural influences, utilizing high-quality and ethically sourced ingredients to produce signature fragrances that resonate with both local and international markets.",https://images.unsplash.com/photo-1582735689369-4fe89db7114c?w=400&h=300&fit=crop,,,,niche,,,,2025-07-18T12:32:10.942225,2025-08-28T09:08:43.964713
cmdcc27c6744fa4ca858a59,Ameriscent,"Ameriscent is a fragrance company that focuses on creating high-quality scents inspired by American landscapes and culture. Founded by a group of fragrance enthusiasts, the brand aims to evoke emotions and memories through its unique olfactory blends. Specializing in artisanal perfumes, they pride themselves on using natural ingredients and sustainable practices in their production process.",https://images.squarespace-cdn.com/content/v1/5ec51d789978f860b1947822/a78e4ff3-9f17-48ac-88e3-cfba30a7cb35/Wax+Warm+Ups+-+Logo.png?format=1500w,www.ameriscent.com,United States,2015,indie,contact@ameriscent.com,,,2025-07-18T12:32:10.942225,2025-08-28T09:08:54.259173
cmd702a9e311be0e2fce47a,AMG Parfums,"AMG Parfums is an artisanal perfume house that specializes in creating unique, high-quality fragrances. Founded with a passion for olfactory artistry, the company combines traditional perfumery techniques with modern inspirations to craft distinctive scents that appeal to a diverse clientele. The brand emphasizes individuality and craftsmanship, using carefully selected raw materials to ensure each perfume tells a story and evokes emotions. Their collection ranges from elegant florals to bold orientals, catering to various tastes and preferences.",https://images.unsplash.com/photo-1541643600914-78b084683601?w=400&h=300&fit=crop,https://www.amgparfums.com,France,2013,niche,,,,2025-07-18T12:32:10.942225,2025-08-28T09:09:01.528182
cmd420d355ccf9a2cc20516,Amiel,"Amiel is a prestigious French perfume company that specializes in luxury fragrances. With a rich heritage in perfumery dating back to its origins, the company is known for its dedication to craftsmanship and high-quality ingredients. Amiel creates distinctive and artistic scents that appeal to individual tastes, often characterized by their unique compositions and elegant packaging. The company prides itself on blending traditional perfumery techniques with modern innovation, offering a diverse range of fragrances that resonate with discerning clients around the world.",https://images.unsplash.com/photo-1556909114-f6e7ad7d3136?w=400&h=300&fit=crop,https://www.amielparfums.com,France,1948,niche,contact@amielparfums.com,+33 1 23 45 67 89,"15 Rue de la Parfumerie, Grasse, 06130, France",2025-07-18T12:32:10.942225,2025-08-28T09:09:09.278377
cmd7f178feb537ce009e44c,Amin Kader,,https://aminkader.com/cdn/shop/files/logo-amin-kader-noir.svg?v=1728395064&width=160,www.aminkader.com,France,2015,niche,contact@aminkader.com,,,2025-07-18T12:32:10.942225,2025-08-28T09:09:17.291405
cmd43bea2e870667355e4d0,Amiot,"Amiot is a niche perfume house known for its luxurious and exclusive fragrances. Founded by master perfumer Jean-Pierre Amiot, the brand emphasizes artisanal techniques and high-quality ingredients to create unique scents that cater to sophisticated consumers. The company is recognized for its dedication to craftsmanship and creativity, offering limited edition perfumes that highlight the artistry behind fragrance creation.",https://images.unsplash.com/photo-15907369626-6c63ac16f3df?w=400&h=300&fit=crop,https://www.amiotparfums.com,France,2004,niche,,,,2025-07-18T12:32:10.942225,2025-08-28T09:09:24.312165
cmd4ca8c7d32cc7ed5ddbbb,Amiquet,"Amiquet is a niche perfume company that specializes in the creation of unique and artisanal fragrances. The brand emphasizes the use of high-quality ingredients and a personal touch in their scent compositions, which enables them to cater to a discerning clientele looking for distinctive perfumes. Amiquet often draws inspiration from diverse cultural elements and natural landscapes, resulting in a collection that tells a story through scent. Their commitment to craftsmanship and creativity distinguishes them in the crowded fragrance market.",https://images.unsplash.com/photo-1587017539504-67cfbddac569?w=400&h=300&fit=crop,www.amiquetparfums.com,France,2015,niche,contact@amiquetparfums.com,,"45 Rue de la Parfumerie, Paris, France",2025-07-18T12:32:10.942225,2025-08-28T09:09:31.944729
cmd8a04749413155c129d56,Amir Oud,"Amir Oud is a luxury fragrance house that specializes in creating high-quality, artisanal perfumes inspired by traditional Middle Eastern scents, particularly oud and other natural ingredients. The brand focuses on authenticity and craftsmanship, offering a luxurious experience through its expertly blended fragrances. Established with a deep appreciation for the olfactory heritage of the region, Amir Oud aims to bridge the gap between classic and modern perfumery, providing unique scents that embody the essence of Arab culture.",https://amiroud.com/media/logo/stores/1/250px-LOGO-2020-AMIROUD.png,https://www.amiroud.com,United Arab Emirates,2015,niche,,,,2025-07-18T12:32:10.942225,2025-08-28T09:09:39.162923
cmdccd765250149c2c46a0b,Amitabh Bachchan,"Amitabh Bachchan's perfume line is a venture into the fragrance industry by one of India's most beloved actors and cultural icons. The perfume collection reflects his personality and legacy, aiming to offer a luxurious scent experience inspired by his journey in cinema and life. The company specializes in creating fragrances that embody elegance, sophistication, and the essence of Bollywood, appealing to fans and fragrance enthusiasts alike.",https://images.unsplash.com/photo-1582735689369-4fe89db7114c?w=400&h=300&fit=crop,https://amitabhbachchan.com,India,2020,celebrity,,,,2025-07-18T12:32:10.942225,2025-08-28T09:09:45.919301
cmd7a1e79688b093a8f8b7d,Amordad,"Amordad is a niche perfume company known for its unique and artisanal fragrances that often draw inspiration from nature, culture, and personal experiences. Established with a passion for olfactory art, Amordad focuses on creating high-quality perfumes with an emphasis on natural ingredients and traditional crafting methods. The brand has carved a niche for itself by offering personalized scent experiences, allowing customers to connect deeply with their products through bespoke fragrances that resonate with their identity and lifestyle.",https://images.unsplash.com/photo-1587017539504-67cfbddac569?w=400&h=300&fit=crop,http://amordadperfumes.com,Iran,2018,niche,,,,2025-07-18T12:32:10.942225,2025-08-28T09:09:52.583959
cmd94470c03acbd27ab3c52,Amoros,"Amoros is a renowned perfume company known for its exquisite fragrances that blend traditional craftsmanship with modern creativity. Established with a focus on high-quality ingredients and intricate scent compositions, Amoros has built a reputation for producing unique and sophisticated perfumes. The company pays homage to the art of perfumery, often drawing inspiration from cultural and historical themes, making each scent a storytelling experience.",https://images.unsplash.com/photo-1587017539504-67cfbddac569?w=400&h=300&fit=crop,http://www.amoros.com,Spain,1986,niche,,,,2025-07-18T12:32:10.942225,2025-08-28T09:09:59.219065
cmd7417ab58cbf19296ffed,Amorskin,"Amorskin is a fragrance company that focuses on creating unique and sophisticated scent experiences designed for modern consumers. Founded with the belief that fragrance should be an expression of individuality and emotion, Amorskin specializes in high-quality, artisanal perfumes crafted from the finest ingredients. Their product line often highlights sustainable sourcing and innovative scent blends, reflecting both luxury and accessibility for their clientele. The brand aims to connect with customers on a personal level, making each fragrance a part of their own story.",https://images.unsplash.com/photo-1556909114-f6e7ad7d3136?w=400&h=300&fit=crop,https://www.amorskin.com,United States,2020,indie,info@amorskin.com,,,2025-07-18T12:32:10.942225,2025-08-28T09:10:06.972027
cmdfa94a5f00d3251ffe747,Amorvero,"Amorvero is a niche perfume company known for its high-quality, handcrafted fragrances that draw inspiration from the art of perfumery. Established with a vision to create unique scents, the brand focuses on using natural ingredients and traditional techniques, ensuring each fragrance is a work of art. They emphasize personal storytelling through scent, allowing customers to express their individuality.",https://amorvero.com/cdn/shop/files/Amorvero_Skincare_logo_270dcd25-4fb2-4c2e-800d-b5ff1a088b19_x85.png?v=1613701935,https://www.amorvero.com,Italy,2014,niche,info@amorvero.com,,,2025-07-18T12:32:10.942225,2025-08-28T09:10:16.155563
cmd9e7f9039affdeb45d856,Amouage,"Amouage is an ultra-luxury perfume house founded in Oman in 1983. It is renowned for blending traditional Middle Eastern perfumery with modern techniques to create unique, complex fragrances. The company was established with the goal of preserving the artistry of perfume making that is rich in the region's heritage. Amouage specializes in high-quality, opulent scent compositions that often feature exotic ingredients and are presented in beautifully crafted bottles. Their fragrances appeal to connoisseurs and collectors who appreciate the unique storytelling and artistry behind each scent.",https://amouage.com/cdn/shop/files/LOGO_2_2_1.svg?v=1700649625&width=600,https://www.amouage.com,Oman,1983,niche,,,,2025-07-18T12:32:10.942225,2025-08-28T09:10:24.083276
cmdfd158c9cb72e47bbf201,Amouroud,"Amouroud is a niche perfume house specializing in crafting sophisticated and luxurious fragrances. Established with the philosophy of bringing together the best raw materials from around the world, Amouroud creates scents that are both unique and artfully composed. The brand is known for its luxurious ingredients and the ability to evoke emotions through fragrance. They aim to cater to those with a refined taste who appreciate the artistry behind each scent, making each creation a piece of wearable art.",https://amouroud.com/cdn/shop/files/Amouroud_Parfums_Logo_No_Background_10_in_x_10_in-01_copy_400x.png?v=1714068781,https://www.amouroud.com,United States,2017,niche,,,,2025-07-18T12:32:10.942225,2025-08-28T09:10:33.066770
cmd155077f34c5298a9c4f2,Amphigory,"Amphigory is a niche perfume company known for its artistic and avant-garde fragrance creations. The brand positions itself at the crossroads of art and perfumery, often drawing inspiration from literary themes and cultural phenomena. They pride themselves on crafting unique and immersive scent experiences, which challenge traditional fragrance norms. Through a combination of high-quality ingredients and innovative storytelling, Amphigory aims to transport wearers into different realms and narratives with each scent.",https://www.amphigory.com/amphigory-header-2015-sm.jpg,https://www.amphigory.com,United States,2018,niche,info@amphigory.com,,,2025-07-18T12:32:10.942225,2025-08-28T09:10:40.125931
cmd02e5690226b3217878f2,Amphora Exotica,"Amphora Exotica is a niche fragrance house that specializes in creating unique and artisanal perfumes, drawing inspiration from exotic locations, rare ingredients, and the art of ancient perfumery. The company prides itself on crafting scents that evoke memories and narratives that transport users to different realms. Their story is deeply rooted in a passion for the olfactory arts, focusing on high-quality, natural ingredients while promoting sustainable practices. They emphasize the importance of originality and craftsmanship in their products.",https://amphoraexotica.com/wp-content/uploads/2023/12/AE-Logo-Large.png,https://amphoraexotica.com,United Kingdom,2002,niche,,,,2025-07-18T12:32:10.942225,2025-08-28T09:10:48.262500
cmd8e16e9e458fb0b30e71b,Amphora Parfum,"Amphora Parfum is a perfume company known for creating high-quality, artisanal fragrances that emphasize natural and raw materials. Founded with a passion for the ancient art of perfumery, Amphora Parfum draws inspiration from tradition while integrating modern techniques. Their offerings cater to a niche market, focusing on craftsmanship and unique scent compositions that stand out from mass-produced perfumes, making each fragrance a personal experience for the wearer.",https://images.unsplash.com/photo-1556909114-f6e7ad7d3136?w=400&h=300&fit=crop,https://www.amphoraparfum.com,United Kingdom,2011,niche,,,,2025-07-18T12:32:10.942225,2025-08-28T09:10:55.050776
cmd37d52bef95481c7e7547,Amsterose,,https://images.unsplash.com/photo-1582735689369-4fe89db7114c?w=400&h=300&fit=crop,,Netherlands,,niche,,,,2025-07-18T12:32:10.942225,2025-08-28T09:11:01.310697
cmd3747c0ba2f9c8abe9023,Amura Perfumes,"Amura Perfumes is a luxury fragrance house that focuses on creating artisanal perfumes with an emphasis on high-quality ingredients and sophisticated crafting techniques. With a passion for the olfactory arts, Amura Perfumes aims to evoke emotions and memories through unique and captivating scent compositions. Founded by a team of fragrance enthusiasts, the brand emphasizes a bespoke approach to perfume-making, catering to discerning clients seeking exclusivity and artistry in perfumery.",https://amuraperfumes.com/wp-content/uploads/logo-1.svg,https://www.amuraperfumes.com,United Kingdom,2018,niche,info@amuraperfumes.com,,,2025-07-18T12:32:10.942225,2025-08-28T09:11:12.651523
cmd60fc29c9035aae21b568,Amway,"Amway is a global direct selling company that specializes in a variety of consumer products, including personal care, beauty, and fragrance. Founded in 1959 by Jay Van Andel and Rich DeVos, Amway focuses on promoting entrepreneurial opportunity through its multilevel marketing structure. The company offers a diverse range of products, including its well-known fragrance lines that are marketed under the Artistry and other proprietary brands, emphasizing quality and innovation sourced from around the world.",https://www.amway.com/_ui/responsive/theme-lynx/images/logo-mobile.png,https://www.amway.com,United States,1959,designer,,,"7575 Fulton Street East, Ada, Michigan 49355, United States",2025-07-18T12:32:10.942225,2025-08-28T09:11:19.899551
cmdd9b6b8104ea8465204a3,Amy Childs,"Amy Childs is a British reality television personality and business entrepreneur known for her work in fashion and beauty. She launched her perfume line to leverage her celebrity status and cater to a market that appreciates her style and preferences. The fragrances often reflect her glamorous and feminine persona, offering a range of scents that appeal to her target demographic. The brand emphasizes stylish packaging and a selection of popular fragrance notes.",https://images.unsplash.com/photo-1556909114-f6e7ad7d3136?w=400&h=300&fit=crop,www.amychildsofficial.com,United Kingdom,2013,celebrity,,,,2025-07-18T12:32:10.942225,2025-08-28T09:11:25.965424
cmd50b44953b704f14ef3e4,Amygdala,"Amygdala is a niche perfume company renowned for its artisanal approach to fragrance creation, focusing on emotion and memory through scent. Established by a passionate perfumer, Amygdala aims to evoke deep personal connections with their carefully crafted perfumes, each one inspired by unique experiences and feelings. The brand emphasizes a limited-production philosophy, ensuring that each fragrance remains exclusive and personal to its wearers.",https://images.unsplash.com/photo-1556909114-f6e7ad7d3136?w=400&h=300&fit=crop,www.amygdalaperfumes.com,United States,2020,niche,contact@amygdalaperfumes.com,,,2025-07-18T12:32:10.942225,2025-08-28T09:11:31.717199
cmd8c314c621105b46c0020,Amzell,"Amzell is a prominent player in the fragrance industry, specializing in the development and marketing of high-quality perfumes and fragrances. Established with a passion for creating unique olfactory experiences, Amzell has carved out a niche for itself by focusing on innovative scent combinations and sustainable sourcing of ingredients. The company’s dedication to craftsmanship allows it to create fragrances that resonate with consumers seeking both luxury and authenticity. Over the years, Amzell has built a reputation for excellence and creativity, often collaborating with renowned perfumers to bring exclusive collections to market.",https://images.unsplash.com/photo-15907369626-6c63ac16f3df?w=400&h=300&fit=crop,www.amzell.com,United States,1985,niche,,,,2025-07-18T12:32:10.942225,2025-08-28T09:11:38.725965
cmdd1b9bf72654efbdb8f0d,Ana Hickmann,"Ana Hickmann is a Brazilian brand known for its wide range of consumer products, including a successful line of perfumes. Founded by the renowned model and television presenter Ana Hickmann, the brand aims to create fragrances that reflect sophistication and elegance, aligning with the modern, glamorous lifestyle. The company combines high-quality ingredients with unique scent profiles to cater to diverse consumer preferences. Over the years, it has gained popularity not only in Brazil but also in international markets, emphasizing a connection to personal expression through fragrance.",https://images.unsplash.com/photo-1556909114-f6e7ad7d3136?w=400&h=300&fit=crop,www.anahickmann.com.br,Brazil,2010,designer,,,,2025-07-18T12:32:10.942225,2025-08-28T09:11:47.439094
cmd256b0168d4e30abcf5dd,Ana Rosa,"Ana Rosa is a perfume company that specializes in creating unique and high-quality fragrances. Founded with a passion for exquisite scents, the brand focuses on innovative compositions, often drawing inspiration from nature and personal experiences. Their offerings include a range of perfumes that appeal to various fragrance preferences and cater to both men and women. Ana Rosa is known for its artistic approach to scent creation, aiming to evoke emotions and memories through olfactory experiences.",https://images.unsplash.com/photo-15907369626-6c63ac16f3df?w=400&h=300&fit=crop,,,,indie,,,,2025-07-18T12:32:10.942225,2025-08-28T09:11:53.487117
cmd98d24add48469923b5b5,Anamor,"Anamor is a niche perfume company that specializes in creating unique and evocative fragrances. Established by a team of passionate perfumers, Anamor is dedicated to crafting scents that evoke emotions, memories, and experiences. The company focuses on high-quality ingredients and artisanal methods to deliver exceptional olfactory experiences, appealing to a sophisticated clientele looking for exclusive fragrances that stand out in the market.",https://images.unsplash.com/photo-15907369626-6c63ac16f3df?w=400&h=300&fit=crop,www.anamorfragrances.com,United States,2018,niche,contact@anamorfragrances.com,,,2025-07-18T12:32:10.942225,2025-08-28T09:12:00.127192
cmd10ed4cb8481b67e62a73,Anantha,"Anantha is a perfume company that specializes in the creation of high-quality, artisanal fragrances. Founded on the principles of sustainability and ethical sourcing, Anantha emphasizes the use of natural ingredients and traditional methods in its perfumery. The brand aims to connect consumers with the essence of nature through its unique scent profiles, which draw inspiration from various cultural heritages and natural landscapes. Their story is deeply rooted in a commitment to craftsmanship, where each fragrance tells a story and reflects the beauty of nature.",https://images.unsplash.com/photo-1556909114-f6e7ad7d3136?w=400&h=300&fit=crop,,,,indie,,,,2025-07-18T12:32:10.942225,2025-08-28T09:12:06.737866
cmdba91430df22179d178a7,Anastasia Beverly Hills,"Anastasia Beverly Hills is a beauty and cosmetics brand founded by Anastasia Soare in 1997. Renowned for its high-quality makeup products, particularly in the brows category, the company has expanded its product line to include a selection of fragrances. The brand is known for its innovation, dedication to fostering beauty, and empowering individuals through cosmetics. Anastasia Beverly Hills has built a strong reputation within the beauty industry, becoming a favorite among beauty enthusiasts and professionals alike, with its emphasis on inclusivity and diversity in its marketing and product offerings.",https://www.anastasiabeverlyhills.com/cdn/shop/files/ABH_MMDDYY_Activation_Shop-Navigation.jpg?v=1749682860&width=400,https://www.anastasiabeverlyhills.com,United States,1997,Celebrity,,,,2025-07-18T12:32:10.942225,2025-08-28T09:12:13.756112
cmd8a96a563298f1da0e556,Anat Fritz,"Anat Fritz is a niche perfume brand known for its unique, high-quality fragrances that blend artistic inspiration with aromatic craftsmanship. The company was founded by designer Anat Fritz, who aims to create olfactory experiences that tell a story and evoke emotions. The brand specializes in artisanal fragrances that often incorporate unusual ingredients and innovative scent combinations, appealing to those seeking distinct and personalized perfume options.",https://images.unsplash.com/photo-1541643600914-78b084683601?w=400&h=300&fit=crop,[www.anatfritz.com](http://www.anatfritz.com),Israel,2015,niche,,,,2025-07-18T12:32:10.942225,2025-08-28T09:12:20.252085
cmddb9679da6474f371a543,Anatole Lebreton,"Anatole Lebreton is a niche French perfumery brand known for its artisanal, handcrafted fragrances. Founded by perfumer Anatole Lebreton, the company emphasizes the use of high-quality raw materials sourced from around the world, creating unique and evocative scents. The brand focuses on a personal connection to fragrance and storytelling, often drawing inspiration from nature and the emotional experiences tied to scents.",https://www.anatolelebreton.com/wp-content/uploads/2024/04/IDVS_logo_Monotype_logo.svg,https://anatolelebreton.com,France,2015,niche,,,,2025-07-18T12:32:10.942225,2025-08-28T09:12:30.509982
cmd8d904b62b7701c1cb92f,Anatoline,"Anatoline is a perfume company known for its unique and artisanal fragrance creations. The company focuses on blending traditional perfumery techniques with contemporary aesthetics, offering a distinct range of scents characterized by high-quality ingredients and innovative compositions. Established with a passion for artistry and craftsmanship, Anatoline aims to provide a sensory experience that evokes emotion and individuality, making it a preferred choice among fragrance enthusiasts who appreciate niche offerings.",https://images.unsplash.com/photo-1556909114-f6e7ad7d3136?w=400&h=300&fit=crop,,,,niche,,,,2025-07-18T12:32:10.942225,2025-08-28T09:12:37.433165
cmd865248b0c8e910a9d3a4,Anaxus Perfumes,,https://anaxusperfumes.com/wp-content/uploads/2023/01/Anaxus-Perfumes-Name-Logo-Full.png,https://anaxusperfumes.com,United States,2019,niche,info@anaxusperfumes.com,,,2025-07-18T12:32:10.942225,2025-08-28T09:12:44.781311
cmd9b2b4f7991cc438ce3c4,Anconú,"Anconú is a niche perfume company known for its artisanal fragrances that emphasize the use of natural ingredients and unique compositions. Founded by a group of perfume enthusiasts dedicated to creating high-quality, evocative scents, Anconú focuses on storytelling through fragrance. Their specialties include small batch production and handcrafted perfumes that reflect cultural and geographical inspirations.",https://anconu.com/cdn/shop/files/logo1.svg?v=1681390391,www.anconu.com,United States,2018,niche,contact@anconu.com,,,2025-07-18T12:32:10.942225,2025-08-28T09:12:52.419059
cmd2a2b59992a38dc5cc4db,ånd Fragrance,"ånd Fragrance is a modern perfume company known for its commitment to sustainability and the creation of environmentally friendly fragrance products. Founded with the vision of blending artistry and nature, ånd Fragrance emphasizes the use of natural ingredients sourced ethically. The company has garnered attention for its unique scent compositions that are inspired by various aspects of nature and human experience, making each fragrance a narrative of its own. Their specialty lies in crafting fragrances that cater to both niche and eco-conscious consumers, allowing individuals to express their identity through scent while being mindful of their environmental impact.",https://andfragrance.com/cdn/shop/files/And_Logo-400px.png?v=1732535723&width=200,https://andfragrance.com,Denmark,2020,niche,,,,2025-07-18T12:32:10.942225,2025-08-28T09:13:00.031195
cmda643f47f2f8027dde925,Anderson,"Anderson is a niche perfume company known for its artisanal approach to fragrance creation. Established by a master perfumer, the company combines traditional techniques with modern sensibilities to produce unique scents that tell a story. Their specialty lies in crafting high-quality, small-batch fragrances that emphasize the use of natural ingredients and sustainable practices. With a commitment to artistry and originality, Anderson has made a name for itself among fragrance connoisseurs.",https://images.unsplash.com/photo-1541643600914-78b084683601?w=400&h=300&fit=crop,www.andersonperfumes.com,United States,2015,niche,contact@andersonperfumes.com,,,2025-07-18T12:32:10.942225,2025-08-28T09:13:06.841453
cmd63ea82487f438d74c99e,Andi Tóth,"Andi Tóth is a niche perfume company known for its unique, artisanal fragrances that celebrate individuality and craftsmanship. Founded by perfumer Andi Tóth, whose passion for scents developed at a young age, the brand emphasizes high-quality ingredients and creative compositions to evoke distinct emotions and experiences. The company often draws inspiration from nature and personal experiences, creating limited edition fragrances that cater to a discerning clientele seeking something beyond mainstream offerings.",https://images.unsplash.com/photo-1582735689369-4fe89db7114c?w=400&h=300&fit=crop,https://www.anditoth.com,Hungary,2019,niche,contact@anditoth.com,,,2025-07-18T12:32:10.942225,2025-08-28T09:13:13.560755
cmd5d38c23ca32774016495,André Barnwell,"André Barnwell is a niche perfume house known for its artisanal approach to fragrance creation. The company emphasizes craftsmanship and individuality, producing unique scents that reflect personal stories and experiences. Its founder, André Barnwell, draws inspiration from a diverse range of cultures and environments, infusing each fragrance with a narrative that aims to evoke emotion and memory. The brand prides itself on using high-quality ingredients and traditional techniques to create limited edition fragrances that cater to a discerning audience.",https://images.unsplash.com/photo-1587017539504-67cfbddac569?w=400&h=300&fit=crop,www.andrebarnwell.com,United States,2015,niche,contact@andrebarnwell.com,,,2025-07-18T12:32:10.942225,2025-08-28T09:13:21.366540
cmda34e2f6f83a7582e9717,André Gas,"André Gas is a niche perfume company known for creating luxurious and unique fragrances that are often characterized by their artistic and artisanal approach to scent composition. Founded by André Gas, the brand draws inspiration from the rich history of perfumery, blending traditional techniques with contemporary creativity. They focus on high-quality ingredients and limited production runs, aiming to craft scents that tell a story or evoke specific emotions. The company is particularly known for its exclusive collections, which appeal to fragrance enthusiasts looking for something distinctive and sophisticated.",https://images.unsplash.com/photo-15907369626-6c63ac16f3df?w=400&h=300&fit=crop,www.andregas.com,France,2008,niche,,,,2025-07-18T12:32:10.942225,2025-08-28T09:13:37.926784
cmda28615f16888eb427ba0,Andre-Lee,"Andre-Lee is a niche fragrance house specializing in artisanal perfumes that focus on unique, hand-crafted compositions. Founded by a passionate perfumer with a desire to create scents that evoke personal memories and experiences, the company prides itself on using high-quality, sustainable ingredients sourced from around the world. Andre-Lee aims to provide individuals with distinct olfactory experiences that differentiate them from mainstream fragrance offerings.",https://images.unsplash.com/photo-1582735689369-4fe89db7114c?w=400&h=300&fit=crop,[www.andrelee.com](http://www.andrelee.com),United States,2018,niche,,,,2025-07-18T12:32:10.942225,2025-08-28T09:13:44.215134
cmd4d408124c0525a35abd6,André Louis-Guerin,"André Louis-Guerin is a perfume company known for its high-quality, artisanal fragrances that blend traditional techniques with innovative scent profiles. The company, founded out of a passion for perfumery, emphasizes the use of rare and natural ingredients sourced from around the world. With a commitment to craftsmanship, André Louis-Guerin creates unique, limited-edition scents that cater to discerning customers who appreciate the artistry behind fragrance creation.",https://images.unsplash.com/photo-1582735689369-4fe89db7114c?w=400&h=300&fit=crop,www.andrelouisguerin.com,France,2018,niche,contact@andrelouisguerin.com,,"15 Rue des Fleurs, Paris, France",2025-07-18T12:32:10.942225,2025-08-28T09:13:51.832647
cmda5e964259bd4be07f256,André Sinan,"André Sinan is a luxury niche fragrance house known for its exquisite perfumes that blend traditional craftsmanship with modern artistry. Founded by celebrated perfumer André Sinan, the company emphasizes the use of rare ingredients sourced globally, resulting in unique scent profiles that cater to sophisticated tastes. The brand prides itself on creating limited-edition fragrances, ensuring exclusivity and individuality for its clientele. The story of André Sinan is deeply rooted in a passion for olfactory art, making each fragrance a personal statement for the wearer.",https://images.unsplash.com/photo-1541643600914-78b084683601?w=400&h=300&fit=crop,www.andresinan.com,France,2015,niche,contact@andresinan.com,,"35 Rue des Archives, 75003 Paris, France",2025-07-18T12:32:10.942225,2025-08-28T09:13:58.719299
cmdec46ed2d8fc6e6e51aab,Andrea Maack,"Andrea Maack is a niche perfume brand founded by the Icelandic artist Andrea Maack. The brand emphasizes a unique blend of artistry and scent creation, often incorporating elements of contemporary art into their fragrances. Maack’s approach to perfume is highly personal and reflects her artistic background, leading to the conception of fragrances that capture emotion and experience rather than conventional notes. The brand has gained a reputation for its bold, unconventional scents, as well as its artistic branding and packaging.",https://andreamaack.com/cdn/shop/files/dazed-and-confused-magazine-vector-logo_1_b1ed5e7b-905d-4125-9408-7dc2dcd7ea6f.png?v=1738673099&width=500,https://www.andreamaack.com,Iceland,2014,niche,,,,2025-07-18T12:32:10.942225,2025-08-28T09:14:06.436213
cmd2ce3477b95f0796ba046,Andreas Reichenberg,"Andreas Reichenberg is a niche perfume company known for its commitment to crafting unique and artisanal fragrances. Founded by Andreas Reichenberg, the company emphasizes the use of high-quality ingredients and innovative scent compositions, appealing to fragrance connoisseurs who appreciate craftsmanship and exclusivity. The brand often draws inspiration from various cultural and artistic elements, creating scents that tell stories and evoke emotions.",https://images.unsplash.com/photo-1582735689369-4fe89db7114c?w=400&h=300&fit=crop,https://www.andreasreichenberg.com,Germany,2017,niche,contact@andreasreichenberg.com,,,2025-07-18T12:32:10.942225,2025-08-28T09:14:13.699604
cmda086ee47b3f2c4b7dfb7,Andrée Putman,"Andrée Putman is a French perfume and design company founded by the renowned interior designer and perfumer Andrée Putman. Known for her minimalist style and elegant design approach, Putman ventured into the world of fragrance with the aim of creating scents that embodied sophistication and subtlety. The brand emphasizes high-quality ingredients and innovative compositions, catering to a discerning clientele who appreciate both luxury and artistic expression in their fragrances.",https://www.andreeputman.com/wp-content/uploads/2023/08/Slot-Teman-Gacor-Apa-Itu-dan-Mengapa-Penting-720x432.jpg,http://www.andreeputman.com,France,2005,niche,,,,2025-07-18T12:32:10.942225,2025-08-28T09:14:23.625207
cmdb579a736bbd41af2f99b,Andrés Croxatto,"Andrés Croxatto is a niche perfume house known for its artisanal approach to fragrance creation. The company focuses on the use of high-quality raw materials and craftsmanship in their perfumes, often inspired by elements of nature and culture. Their unique offerings reflect a dedication to individuality and innovation in the perfume industry, appealing to connoisseurs and collectors alike. The brand emphasizes storytelling through fragrances, creating scents that evoke specific emotions and memories.",https://www.croxatto.com/cdn/shop/files/logo-croxatto-black.png?v=1727694775&width=566,https://www.andrescroxatto.com,Chile,2015,niche,contact@andrescroxatto.com,,,2025-07-18T12:32:10.942225,2025-08-28T09:14:32.745867
cmd166e189762c8213414d4,Andrew Charles,"Andrew Charles is a fashion brand founded by Andrew Charles, known for its contemporary apparel and accessories. The brand has a strong presence in the fragrance market, producing fragrances that embody youthful energy and modern sensibilities. Their perfumes are designed to reflect a vibrant lifestyle, appealing to a demographic that appreciates stylish yet accessible luxury. The fragrances often cater to both men and women, aligning with current trends and consumer preferences.",https://images.squarespace-cdn.com/content/v1/56e426150442621615c67d75/1466196690860-997H19Z5FMP0QS3R284J/AC_StarOnly_White_Logo.png?format=1500w,https://www.andrewcharles.com,United States,2010,designer,,,,2025-07-18T12:32:10.942225,2025-08-28T09:14:39.659487
cmdd648c0e0432249c7f254,Andy Hilfiger,"Andy Hilfiger is a fragrance brand established by fashion designer Andy Hilfiger, who is known for his creative and artistic approach to style. The brand focuses on creating unique and contemporary fragrances that reflect modern trends while incorporating a sense of artistry. The company aims to cater to both men’s and women’s perfume markets, offering scents that blend sophistication with a bit of edgy flair.",https://images.unsplash.com/photo-1541643600914-78b084683601?w=400&h=300&fit=crop,http://www.andyhilfiger.com,United States,2003,designer,,,,2025-07-18T12:32:10.942225,2025-08-28T09:14:46.659392
cmd93839108a04a16d77400,Andromeda's Curse,"Andromeda's Curse is a niche perfume company that specializes in unique, artisanal fragrances. The company embraces a storytelling approach, creating scents that are inspired by mythological themes and cosmic elements. Each fragrance is crafted with high-quality ingredients and designed to evoke emotions and memories, making them distinct within the perfume market. Their brand philosophy centers on the art of perfumery as an expression of individuality and creativity, catering to those who seek to explore new scent experiences beyond mainstream offerings.",https://images.unsplash.com/photo-1582735689369-4fe89db7114c?w=400&h=300&fit=crop,https://andromedascurse.com,United States,2018,niche,contact@andromedascurse.com,,,2025-07-18T12:32:10.942225,2025-08-28T09:14:54.456504
cmd6b6dd46ace128e31558b,Andy Roddick,"Andy Roddick is a celebrity perfume line that was launched by former professional tennis player Andy Roddick. The fragrance line aims to capture the essence of Roddick's dynamic and energetic personality, with scents designed to evoke confidence and freshness. The brand's involvement in the fragrance market reflects Roddick's transition from sports to lifestyle and personal branding, aligning with his image as an athlete and entrepreneur.",https://images.unsplash.com/photo-1556909114-f6e7ad7d3136?w=400&h=300&fit=crop,,United States,2004,celebrity,,,,2025-07-18T12:32:10.942225,2025-08-28T09:15:00.507768
cmde7007e3fea4d08318584,Andy Warhol,"Andy Warhol is not a standalone perfume company; rather, it represents a series of fragrances inspired by the renowned American artist Andy Warhol. The fragrances capture the essence of Warhol's artistic vision, combining contemporary perfume-making artistry with elements that reflect his bold and unconventional style. The brand offers a blend of creativity and luxury, aiming to appeal to both art enthusiasts and fragrance lovers by commemorating Warhol’s legacy through innovative scent compositions.",https://images.unsplash.com/photo-1587017539504-67cfbddac569?w=400&h=300&fit=crop,https://www.andywarhol.com,United States,2012,designer,,,,2025-07-18T12:32:10.942225,2025-08-28T09:15:09.140115
cmdc5603267b98d22c9c678,Anecdote,"Anecdote is a contemporary perfume company that focuses on creating thoughtful and personal scents that tell a story. Founded with the belief that fragrances carry memories and experiences, they craft unique blends that evoke nostalgia and resonate with individual narratives. Their specialty lies in combining innovative ingredients with classic perfumery techniques, creating scents that are both relatable and sophisticated. Anecdote aims to connect people through scent, offering an experience rather than just a product.",https://images.unsplash.com/photo-1582735689369-4fe89db7114c?w=400&h=300&fit=crop,https://anecdote.boutique,United States,2019,indie,,,,2025-07-18T12:32:10.942225,2025-08-28T09:15:16.041255
cmd9178839d0c56b732129a,Anemone International,"Anemone International is an innovative fragrance house specializing in creating unique scents that cater to a diverse range of consumers. Founded by visionary perfumers, the company prides itself on using high-quality, sustainable ingredients to craft perfumes that evoke emotions and connect with individuals on a personal level. Their story is one of passion for olfactory art, with an emphasis on creativity and sophistication, aiming to push the boundaries of traditional perfumery.",https://anemoneinternational.com/wp-content/uploads/2023/04/logo-perfume-private-label--592x200.png,www.anemoneinternational.com,United States,1995,niche,info@anemoneinternational.com,,,2025-07-18T12:32:10.942225,2025-08-28T09:15:24.467717
cmd002e5cd85f779dd31239,Anfasic Dokhoon,"Anfasic Dokhoon is a luxury perfume company that specializes in creating high-quality, traditional Arabian and oriental fragrances. Established in 2003, the brand has become renowned for its fine ingredients and innovative scent combinations. Its products are deeply rooted in the heritage of Arabic perfumery, featuring unique blends that embody the spirit of the Middle East. Anfasic Dokhoon aims to offer a sensory journey, bridging modernity and tradition through their fragrances and related products, such as bakhoor and attars.",https://cdn.instant.so/sites/fzG6C09zeTcfXRMn/assets/rDZciH7xnxERjGUn/anfasic-logo-english-email-signature.png?width=1280,https://anfasicdokhoon.com,United Arab Emirates,2003,niche,,,,2025-07-18T12:32:10.942225,2025-08-28T09:15:32.443733
cmd17fd81e5f2e7ad3a0f8b,Anfas,"Anfas is a luxury perfume company that specializes in creating high-quality fragrances inspired by the rich cultural heritage and traditions of the Middle East. Founded on the principles of craftsmanship and innovation, Anfas produces unique scents that blend traditional Arabian perfumes with modern olfactory trends. They focus on natural ingredients and artisanal methods to create their captivating fragrances, catering to a discerning clientele who appreciates the intricacy of scent composition.",https://images.unsplash.com/photo-15907369626-6c63ac16f3df?w=400&h=300&fit=crop,https://www.anfas.com,United Arab Emirates,2016,niche,,,,2025-07-18T12:32:10.942225,2025-08-28T09:15:39.000578
cmd33b2cf040d52c6c6dac2,Angel Schlesser,"Angel Schlesser is a Spanish fashion and perfume house founded by the designer Angel Schlesser. Renowned for its minimalist and elegant aesthetic, the brand has expanded from fashion into fragrances, focusing on creating unique and sophisticated scents that embody modern elegance. Angel Schlesser perfumes are characterized by their clean lines, high-quality ingredients, and captivating compositions, offering a blend of freshness and sensuality. The brand appeals to individuals who appreciate understated luxury and classic sophistication in their fragrance choices.",https://www.angelschlesser.com/img/logo-1668608088.jpg,https://www.angelschlesser.com,Spain,2000,niche,,,,2025-07-18T12:32:10.942225,2025-08-28T09:15:47.975583
cmd2fd740a3e4dbe8057923,Angela Ciampagna,"Angela Ciampagna is a niche perfume house founded by perfumer Angela Ciampagna, who brings a unique perspective and artistic approach to fragrance creation. The brand is known for its use of high-quality natural ingredients and for crafting complex, evocative scents that often reflect personal stories and cultural inspirations. Focusing on individuality and craftsmanship, Angela Ciampagna aims to offer a more intimate fragrance experience, catering to connoisseurs and those seeking exclusive olfactory experiences.","https://static.wixstatic.com/media/d85560_00a9a46495b44b2eb708c6bc1ec0b26cf000.jpg/v1/fill/w_147,h_83,al_c,q_80,usm_0.66_1.00_0.01,blur_2,enc_avif,quality_auto/d85560_00a9a46495b44b2eb708c6bc1ec0b26cf000.jpg",http://www.angelaciampagna.com,Italy,2013,niche,,,,2025-07-18T12:32:10.942225,2025-08-28T09:15:55.558274
cmd414eb7d309e9dbfa9af7,Angela Flanders,"Angela Flanders is a London-based fragrance company founded by the perfumer Angela Flanders. The company is known for its unique and artistic approach to perfumery, offering a wide range of handcrafted, high-quality perfumes that blend classic and modern elements. The brand emphasizes individuality and the emotional connection to scents, often creating fragrances inspired by personal memories and stories. Over the years, Angela Flanders has established itself as a respected name in the niche fragrance market, focusing on artistry and personal expression rather than mass production.",https://images.unsplash.com/photo-1556909114-f6e7ad7d3136?w=400&h=300&fit=crop,https://www.angelaflanders.com,United Kingdom,1983,niche,,,,2025-07-18T12:32:10.942225,2025-08-28T09:16:01.972661
cmd4546b4016fc5a85a6e05,Angela Laganà,"Angela Laganà is a niche perfume company known for creating artisanal fragrances that capture the essence of individuality and personal expression. The brand emphasizes the use of high-quality, natural ingredients and has built a reputation for unique scent compositions that are designed to evoke emotions and memories. Founded by Angela Laganà, the company combines traditional perfumery techniques with modern innovation, resulting in a signature range of sophisticated and evocative fragrances. The brand's story is deeply rooted in the passion for scent artistry, reflected in every bottle they produce.",https://images.unsplash.com/photo-1587017539504-67cfbddac569?w=400&h=300&fit=crop,https://angelalagana.com,Italy,2016,niche,contact@angelalagana.com,+39 02 1234 5678,"Via della Moda 45, Milan, Italy",2025-07-18T12:32:10.942225,2025-08-28T09:16:08.653977
cmd3a2be7b4a8f232652fae,Angeline,"Angeline is a niche perfume company that specializes in crafting unique, artisanal fragrances that capture the essence of luxury and individuality. Founded with a passion for scent and an appreciation for the art of perfumery, Angeline focuses on using high-quality ingredients sourced from around the world. Their range is known for its complex compositions and distinctive storytelling through fragrance, often inspired by nature and personal experiences.",https://images.unsplash.com/photo-1556909114-f6e7ad7d3136?w=400&h=300&fit=crop,www.angelineperfumes.com,United States,2015,niche,contact@angelineperfumes.com,,,2025-07-18T12:32:10.942225,2025-08-28T09:16:15.186421
cmd91e61d8823cc93b85a1e,Angelini,"Angelini is a multi-national pharmaceutical and consumer goods company that also has a strong footing in the perfume industry. Established in Italy, Angelini develops and markets high-quality fragrances along with a variety of other personal care and health products. The company is known for its commitment to innovation, quality, and customer satisfaction, which contributes to its unique position in the market.",https://images.unsplash.com/photo-1556909114-f6e7ad7d3136?w=400&h=300&fit=crop,https://www.angelini.com,Italy,1919,indie,,,,2025-07-18T12:32:10.942225,2025-08-28T09:16:21.720277
cmd7c1ccfd2d88db484411d,Angelique & Co,"Angelique & Co is a luxury niche perfume brand known for its artisanal approach to fragrance creation. The company prides itself on its unique olfactory compositions, combining traditional methods with modern inspirations. Established by a team of passionate perfumers, Angelique & Co aims to evoke emotions and tell stories through their scents, targeting individuals who appreciate the artistry and individuality of niche fragrances.",https://images.unsplash.com/photo-15907369626-6c63ac16f3df?w=400&h=300&fit=crop,https://angeliqueandco.com,France,2015,niche,contact@angeliqueandco.com,,,2025-07-18T12:32:10.942225,2025-08-28T09:16:37.977166
cmdef64afe9e5f1639deeff,Angelique,"Angelique is a niche perfume house known for its unique and artisanal approach to fragrance creation. The company focuses on crafting high-quality, distinctive scents that often draw inspiration from nature and personal experiences. With an emphasis on using natural and sustainable ingredients, Angelique aims to provide consumers with an olfactory experience that is intimate and personal, distinguishing itself in the competitive perfume industry.",https://images.unsplash.com/photo-15907369626-6c63ac16f3df?w=400&h=300&fit=crop,,,,niche,,,,2025-07-18T12:32:10.942225,2025-08-28T09:16:44.970170
cmd9a1f0851de2a9753412e,Angelo Caroli,"Angelo Caroli is a revered name in the perfume industry, known for crafting luxurious, artisanal fragrances that embody traditional craftsmanship and modern sophistication. Established by perfumer Angelo Caroli, the company emphasizes creativity and the use of high-quality natural ingredients. The brand offers a range of niche perfumes, focusing on unique olfactory experiences that tell stories and evoke emotions through scent. Their creations reflect a deep respect for the art of perfumery and cater to discerning clients seeking exclusive, meticulously designed fragrances.",https://images.unsplash.com/photo-15907369626-6c63ac16f3df?w=400&h=300&fit=crop,https://www.angelocaroli.com,Italy,2001,niche,,,,2025-07-18T12:32:10.942225,2025-08-28T09:16:52.494573
cmdc92e13fd354441ee083a,Angelos Créations Olfactives,"Angelos Créations Olfactives is a niche perfume house specializing in creating unique and artisanal fragrances inspired by the stories and emotions of individuals. Established by a passionate perfumer, the brand focuses on high-quality ingredients, craftsmanship, and the art of olfaction to produce scents that resonate with the wearer's personality. The company's philosophy hinges on the idea that a fragrance is not merely a scent but a personal signature that expresses one's identity and emotions.",https://angelosolfactives.com/cdn/shop/files/FIN_300x300.png?v=1643732802,www.angeloscreationsolfactives.com,France,2016,niche,contact@angeloscreationsolfactives.com,,,2025-07-18T12:32:10.942225,2025-08-28T09:17:00.317888
cmd3d0f22918cf6bdd73683,Anglia Perfumery,"Anglia Perfumery is a specialized fragrance house located in the UK, known for its artisan approach to perfume making. The company focuses on creating bespoke fragrances tailored to individual client specifications, while also offering a curated selection of niche perfumes from various independent brands. Established in 1982, Anglia Perfumery has built a reputation for quality, craftsmanship, and personalized service, making it a unique player in the world of perfumery.",https://images.unsplash.com/photo-1541643600914-78b084683601?w=400&h=300&fit=crop,https://www.angliaperfumery.com,United Kingdom,1982,niche,,,,2025-07-18T12:32:10.942225,2025-08-28T09:17:06.552447
cmd6666d06adafd76de19cc,Anglo-Indian Drug,"Anglo-Indian Drug is a fragrance and cosmetics manufacturer known for blending traditional Indian scents with Western perfumery practices. Established with a vision to cater to both local and international markets, the company focuses on creating unique, high-quality fragrances that capture the essence of Indian culture. Their specialty lies in formulating perfumes that utilize rare natural ingredients sourced from the Indian subcontinent.",https://images.unsplash.com/photo-1587017539504-67cfbddac569?w=400&h=300&fit=crop,,India,,indie,,,,2025-07-18T12:32:10.942225,2025-08-28T09:17:19.829831
cmd9640a84f971df025650f,Angry Beards,"Angry Beards is a niche perfume and grooming company that specializes in products designed for men, particularly focusing on beard care, personal fragrances, and grooming essentials. Established with a passion for quality and uniqueness, Angry Beards aims to provide high-quality products that challenge conventional grooming standards while offering a bold and distinctive brand presence. The story of Angry Beards revolves around the idea of embracing masculinity and individuality through personalized grooming products, infused with innovative fragrance profiles.",https://cdn.myshoptet.com/usr/www.angrybeards.com/user/logos/angrybeards_logo.png,https://angrybeards.com,Czech Republic,2014,niche,,,,2025-07-18T12:32:10.942225,2025-08-28T09:17:28.139735
cmd18b9d41901b6a59d9624,Anima Mundi,"Anima Mundi is a niche perfume company known for its artisanal approach to fragrance creation. They focus on blending natural ingredients with traditional methods to craft unique and captivating scents. The company draws inspiration from various cultural practices and incorporates them into their perfume-making processes. Our story began with a passion for exploring the olfactory world, leading to a commitment to sustainability and ethical sourcing in their product line. They have gained recognition for their exclusive and limited-edition fragrances that appeal to a discerning clientele.",https://images.unsplash.com/photo-1582735689369-4fe89db7114c?w=400&h=300&fit=crop,https://animamundiperfumes.com,United States,2013,niche,,,,2025-07-18T12:32:10.942225,2025-08-28T09:17:34.359553
cmd99776fe17afcdf785eff,Anima Vinci,"Anima Vinci is a niche perfume company that specializes in creating artisanal fragrances using high-quality ingredients sourced from around the globe. Established with a vision to evoke emotions and memories through scent, Anima Vinci intertwines traditional formulations with modern creativity. The brand is well-known for its unique scent compositions that appeal to discerning fragrance enthusiasts. Its story is rooted in a deep appreciation for the art of perfumery, emphasizing both craftsmanship and storytelling in each creation.",https://images.unsplash.com/photo-1541643600914-78b084683601?w=400&h=300&fit=crop,https://animavinci.com,Italy,2010,niche,,,,2025-07-18T12:32:10.942225,2025-08-28T09:17:41.908476
cmd6182cacf449bf5e6fda5,Animale Parfums,"Animale Parfums is a perfume company known for creating distinctive and bold fragrances that appeal to a diverse audience. Established in the 1980s, the brand focuses on combining high-quality ingredients with captivating packaging. Originally recognized for its animalistic and exotic scents, Animale Parfums continues to develop products that embody a sense of adventure and confidence, targeting consumers who enjoy unique and long-lasting fragrances.",https://images.unsplash.com/photo-1587017539504-67cfbddac569?w=400&h=300&fit=crop,http://www.animaleparfums.com,United States,1988,designer,,,,2025-07-18T12:32:10.942225,2025-08-28T09:17:58.345459
cmd4791492f67166037c901,Anja Rubik,"Anja Rubik is a Polish supermodel and entrepreneur who launched her own fragrance line. The brand is known for its distinctive scents that embody sophistication and elegance, drawing inspiration from Anja's personal experiences and travels. The perfume collection aims to capture a unique essence that resonates with individuality and modern femininity. Rubik's vision emphasizes the emotional connection that fragrances can create, positioning her brand within the niche market for those seeking unique and personal fragrances.",https://images.unsplash.com/photo-1582735689369-4fe89db7114c?w=400&h=300&fit=crop,https://www.anjarubik.com,Poland,2019,niche,,,,2025-07-18T12:32:10.942225,2025-08-28T09:18:05.579908
cmd95d3e467be78c0b48ac6,Anjou,"Anjou is a perfume company that specializes in creating high-quality, affordable fragrances for both men and women. Their focus is on offering an extensive range of scents that appeal to various preferences while maintaining an emphasis on using fine ingredients. Founded with the goal of making luxury accessible, Anjou combines modern sensibility with a touch of elegance in bottle design and fragrance composition. They also emphasize cruelty-free practices and sustainable sourcing in their production processes.",https://anjou.com/cdn/shop/files/anjou-logo-header_145x.png?v=1616557054,https://www.anjou.com,United States,,indie,,,,2025-07-18T12:32:10.942225,2025-08-28T09:18:13.093178
cmd8975b656d28c5226cbd0,Anka Kuş Parfüm,"Anka Kuş Parfüm is a fragrance company that specializes in creating unique perfumes inspired by the rich cultural heritage of Turkey. The company blends traditional perfumery practices with modern trends, offering a range of scents that capture the essence of nature and artistry. Established with the goal of reviving classic fragrances, Anka Kuş Parfüm emphasizes quality ingredients and craftsmanship, targeting fragrance enthusiasts who appreciate distinctive, artisanal products.",https://ankakusparfum.com/cdn/shop/files/75285818_1065043553842744_4208835261636804608_o.png?v=1671973427,www.ankakusparfum.com,Turkey,2020,indie,info@ankakusparfum.com,,,2025-07-18T12:32:10.942225,2025-08-28T09:18:19.845343
cmd202ebbb992147a72c7b3,Ankara,"Ankara is a perfume company that specializes in creating high-quality, artisanal fragrances. Founded with a vision to capture the essence of unique scents, Ankara has made a name for itself by emphasizing the use of natural ingredients and traditional perfumery techniques. The company's story began with a deep appreciation for the artistry of fragrance-making, leading to a collection that embodies elegance and sophistication. Ankara focuses on crafting perfumes that resonate with individuality, reflecting diverse cultural inspirations and personal narratives.",https://images.unsplash.com/photo-1587017539504-67cfbddac569?w=400&h=300&fit=crop,www.ankaraparfum.com,Turkey,2018,niche,info@ankaraparfum.com,+90 312 123 4567,"Atatürk Bulvarı No:35, Ankara, Turkey",2025-07-18T12:32:10.942225,2025-08-28T09:18:26.764175
cmd525f75adf1ef4b8db630,Ankermade,"Ankermade is a specialized perfume and fragrance company known for its artisanal approach to scent creation. With a focus on high-quality ingredients and unique scent profiles, Ankermade aims to provide customers with luxurious, handcrafted fragrances that evoke emotion and individuality. The brand emphasizes sustainability and ethical sourcing in its production processes, appealing to environmentally conscious consumers.",https://images.unsplash.com/photo-1541643600914-78b084683601?w=400&h=300&fit=crop,http://www.ankermade.com,United States,2019,indie,contact@ankermade.com,,,2025-07-18T12:32:10.942225,2025-08-28T09:18:32.489230
cmd0294ef84e94387fef4f2,Ann Gerard,"Ann Gerard is a French perfume house established by perfumer Ann Gerard. The company is known for its artisanal and sophisticated fragrances that combine traditional craftsmanship with modern elegance. The brand's creations often draw inspiration from Gerards' personal experiences and travels, resulting in unique scent compositions that reflect a deep emotional connection. Ann Gerard specializes in niche fragrances, focusing on high-quality ingredients and intricate blends to create signature scents that cater to discerning customers.",https://images.unsplash.com/photo-15907369626-6c63ac16f3df?w=400&h=300&fit=crop,http://www.anngerardparfum.com,France,2012,niche,,,,2025-07-18T12:32:10.942225,2025-08-28T09:18:38.487873
cmd01cc829e7c450bac6830,Ann-Margret,"Ann-Margret is a perfume brand founded by the iconic actress and singer Ann-Margret, known for her contributions to film and music since the 1960s. The company specializes in creating fragrances that embody glamour and sophistication, often inspired by the themes of her work and personal style. Ann-Margret's perfume line captures the essence of her artistic persona, appealing to fans and perfume aficionados alike.",https://images.unsplash.com/photo-15907369626-6c63ac16f3df?w=400&h=300&fit=crop,,United States,1995,celebrity,,,,2025-07-18T12:32:10.942225,2025-08-28T09:18:44.960855
cmd66b840f5dbd3ba221684,Ann Ringstrand,"Ann Ringstrand is a niche perfume company founded by Swedish perfume designer Ann Ringstrand. The company specializes in artisanal fragrances that focus on sustainability and the use of high-quality, natural ingredients. Ann's journey in the perfume industry began with a passion for scent and a desire to create unique olfactory experiences that reflect a personal narrative and emotional connection to nature. The brand is known for its minimalist packaging and an emphasis on craftsmanship, with every fragrance designed to evoke specific moments and memories.",https://annringstrand.com/cdn/shop/files/IMG_7483_afc005c6-2739-4946-9940-a7f2c82c596a_1700x.jpg?v=1750682522,https://www.annringstrand.se,Sweden,2012,niche,,,,2025-07-18T12:32:10.942225,2025-08-28T09:18:52.559362
cmdb5a651033a9168e302bc,Ann Taylor,"Ann Taylor is a premium women's fashion retailer that primarily focuses on providing stylish workwear and casual clothing. Founded in 1954, the brand has a long-standing heritage of offering sophisticated apparel, accessories, and fragrances that cater to the modern woman's lifestyle. Ann Taylor's specialty lies in its classic yet fashion-forward designs, which include a range of categories such as dresses, sweaters, and of course, perfumery that embodies elegance and femininity. The brand aims to empower women through its chic offerings, combining quality craftsmanship with contemporary trends.",https://images.unsplash.com/photo-15907369626-6c63ac16f3df?w=400&h=300&fit=crop,[https://www.anntaylor.com](https://www.anntaylor.com),United States,1954,designer,,,,2025-07-18T12:32:10.942225,2025-08-28T09:19:00.082310
cmd806b25176023c7eb8e0b,Anna Adams,"Anna Adams is a luxury perfume house known for its artisanal approach to fragrance crafting. The company prides itself on sourcing high-quality, natural ingredients and employing traditional methods of perfume making. Founded by Anna Adams, the brand aims to encapsulate personal stories and memories in each fragrance, allowing wearers to evoke emotions and experiences through scent. With a focus on sustainability, Anna Adams also emphasizes eco-friendly practices in its production and packaging.",https://images.unsplash.com/photo-1556909114-f6e7ad7d3136?w=400&h=300&fit=crop,https://www.annaadamsfragrance.com,United States,2018,niche,contact@annaadamsfragrance.com,,,2025-07-18T12:32:10.942225,2025-08-28T09:19:06.445294
cmd89234287fa6b20e3ab0e,Anna Carera,"Anna Carera is a niche perfume company that prides itself on crafting unique, high-quality fragrances inspired by natural elements and emotions. Founded by perfumer Anna Carera, the brand emphasizes artistry and personalization in perfume creation, providing customers with the opportunity to explore and experience scent in an intimate way. Their story is rooted in a passion for olfactory experiences and the belief that fragrance can evoke deep connections and memories.",https://images.unsplash.com/photo-1541643600914-78b084683601?w=400&h=300&fit=crop,www.annacarera.com,Italy,2019,niche,,,,2025-07-18T12:32:10.942225,2025-08-28T09:19:13.684587
cmd59ca651de706666715d7,Anna Dello Russo,"Anna Dello Russo is an Italian fashion journalist, editor, and stylist known for her keen sense of style and influential presence in the fashion industry. In 2013, she launched her fragrance line, which embodies her ultra-glamorous and bold aesthetic, reflecting the essence of high fashion and couture. The fragrances are designed to represent powerful femininity and luxury, appealing to fashion enthusiasts and perfume lovers alike.",https://images.unsplash.com/photo-1582735689369-4fe89db7114c?w=400&h=300&fit=crop,https://www.annadellorusso.com,Italy,2013,designer,,,,2025-07-18T12:32:10.942225,2025-08-28T09:19:22.617414
