id,name,description,image,website,country,founded,type,email,phone,address,createdAt,updatedAt
cmd224eb4f0c40b268aee2a,French Connection,"French Connection, commonly referred to as FCUK, is a British fashion retailer that specializes in contemporary clothing, accessories, and fragrances. Founded in 1972, the brand is known for its edgy and youthful designs. The fragrance line, which includes various perfumes and colognes, reflects the brand's modern aesthetic, offering chic and trendy scents that appeal to a youthful demographic. The company has made a name for itself in both the fashion and fragrance markets by leveraging its distinct marketing strategies and unique branding approach.",https://www.frenchconnection.com/cdn/shop/files/AW25_Workwear_MM_077b8f10-8639-4a89-b45a-cff213db5df0.jpg?v=1754565198&width=300,https://www.frenchconnection.com,United Kingdom,1972,designer,,,,2025-07-18T12:32:10.942225,2025-08-28T15:30:22.669068
cmd9717218f43cd6f9ed293,French Fragrances Inc,,https://images.unsplash.com/photo-1582735689369-4fe89db7114c?w=400&h=300&fit=crop,www.frenchfragrancesinc.com,United States,2001,niche,contact@frenchfragrancesinc.com,,,2025-07-18T12:32:10.942225,2025-08-28T15:30:30.919435
cmd24d39c8b9ca3e9f2a515,Fresh Scents by Terri,,https://images.unsplash.com/photo-1582735689369-4fe89db7114c?w=400&h=300&fit=crop,www.freshscentsbyterri.com,United States,2015,indie,contact@freshscentsbyterri.com,,,2025-07-18T12:32:10.942225,2025-08-28T15:30:37.545277
cmd6342bdc0add4e3a9a0ec,Fresh Start Cosmetics,"Fresh Start Cosmetics is a modern fragrance company dedicated to creating clean, cruelty-free, and innovative perfumes. Founded with the vision of blending nature and science, they offer a broad range of fragrances that appeal to the environmentally-conscious consumer. Their products emphasize the use of natural ingredients and sustainable practices, making them a fresh alternative in the competitive perfume market. Through their storytelling and branding, Fresh Start Cosmetics aims to inspire personal expression through scents that resonate with individuality.",https://images.unsplash.com/photo-1582735689369-4fe89db7114c?w=400&h=300&fit=crop,www.freshstartcosmetics.com,United States,2019,indie,info@freshstartcosmetics.com,,,2025-07-18T12:32:10.942225,2025-08-28T15:30:43.616353
cmd2ef8da4aa78ddd67ed8a,Fresh,"Fresh is a skincare and fragrance company known for its commitment to using natural ingredients to create innovative and effective products. Founded by Lev Glazman and Alina Roytberg in 1991, Fresh started as a small shop in Boston selling innovative skincare formulations. Over the years, the company has expanded its product line to include a range of fragrances inspired by nature, emphasizing unique scents and artistry in each creation. Fresh’s philosophy centers around the blending of tradition and modernity, resulting in unique fragrances that resonate with a sense of freshness and vibrancy.",https://images.unsplash.com/photo-15907369626-6c63ac16f3df?w=400&h=300&fit=crop,https://www.fresh.com,United States,1991,indie,,,,2025-07-18T12:32:10.942225,2025-08-28T15:30:50.500453
cmde3ecb6851f569e272991,FreyWille,"FreyWille is an Austrian luxury brand known for its exquisite jewelry, but they also have a unique line of perfumes inspired by art and culture. Founded in 1951, the company focuses on high-quality craftsmanship and distinctive designs. Their fragrances often reflect artistic themes and are packaged in beautifully designed bottles, making them a collector’s delight.",https://images.unsplash.com/photo-1556909114-f6e7ad7d3136?w=400&h=300&fit=crop,https://www.freywille.com,Austria,1951,niche,,,,2025-07-18T12:32:10.942225,2025-08-28T15:30:57.277665
cmda86b59c6d095d624f903,Fribad,"Fribad is a perfume company known for its unique and artistic approach to fragrance creation. Established with a passion for olfactory experiences, the brand emphasizes the artistry behind scent composition, offering a range of niche perfumes that reflect diverse cultural inspirations and contemporary artistry. Their specialty lies in the meticulous selection of raw materials, aiming to craft fragrances that tell a story and evoke emotions. Fribad also focuses on sustainability and ethical sourcing in its production processes, aligning with modern consumers’ values.",https://images.unsplash.com/photo-15907369626-6c63ac16f3df?w=400&h=300&fit=crop,https://fribad.com,United States,2021,niche,contact@fribad.com,,,2025-07-18T12:32:10.942225,2025-08-28T15:31:03.592651
cmdfddb9d3cadfc2727dd73,Frida Kahlo Perfumes,"Frida Kahlo Perfumes is a niche perfume brand inspired by the life and art of the iconic Mexican artist, Frida Kahlo. The company aims to capture the essence of Kahlo's vibrant personality and her deep connection to nature and culture through uniquely crafted fragrances. Each scent is designed to evoke a sense of emotion and storytelling, reflecting her passion and spirit. The brand emphasizes artistry and handcrafted quality, with a commitment to sustainability and the use of natural ingredients.",https://images.unsplash.com/photo-1541643600914-78b084683601?w=400&h=300&fit=crop,https://www.fridakahloparfums.com,United States,2020,niche,,,,2025-07-18T12:32:10.942225,2025-08-28T15:31:09.953632
cmd5ddbaa42201810cbc7a7,Friedemodin,"Friedemodin is a niche perfume house known for its artisanal fragrances that blend traditional craftsmanship with modernity. Founded by perfumer Fabiola Valle, the brand aims to create unique olfactory experiences that evoke personal narratives and emotions through scent. Their perfumes often feature rare ingredients and environmentally-friendly practices, appealing to enthusiasts who appreciate distinct and evocative fragrances.",https://static.HugeDomains.com/images/hdv3-img/hd-header-logo-v3.svg,https://www.friedemodin.com,Germany,2016,niche,,,,2025-07-18T12:32:10.942225,2025-08-28T15:31:16.315845
cmdd99ae7e8a1937008b9e2,Friendly Fur,"Friendly Fur is a contemporary perfume company that specializes in creating unique and environmentally conscious fragrances. The brand was born out of a passion for both scent and sustainability, as it aims to provide luxurious perfume options that cater to ethical consumers. Friendly Fur focuses on using vegan ingredients and eco-friendly packaging, ensuring that their products have a minimal impact on the environment. They pride themselves on offering artisan scents that tell a story, resonating with a diverse audience who values creativity and sustainability in the fragrance industry.",https://images.unsplash.com/photo-1556909114-f6e7ad7d3136?w=400&h=300&fit=crop,www.friendlyfur.com,United States,2021,indie,info@friendlyfur.com,,,2025-07-18T12:32:10.942225,2025-08-28T15:31:23.136867
cmd9b2bb1356d138c3bf6f8,From Wilds,"From Wilds is a niche fragrance company that specializes in creating unique, nature-inspired perfumes. The company emphasizes sustainability and the use of natural ingredients, sourcing raw materials responsibly to formulate their signature scents. The brand's story is rooted in a passion for the wilderness and the aromatic profiles of the natural world, aiming to evoke emotions and memories through their carefully crafted fragrances.",https://images.unsplash.com/photo-1541643600914-78b084683601?w=400&h=300&fit=crop,https://fromwilds.com,United States,2016,niche,contact@fromwilds.com,,,2025-07-18T12:32:10.942225,2025-08-28T15:31:29.144253
cmd3ce01f205306df24cb04,Fruits and Passion,"Fruits and Passion is a Canadian company that specializes in creating and distributing high-quality personal care and home fragrance products, including perfumes. Founded in 1992, they focus on offering unique fragrances inspired by nature and designed to enhance the sensory experience of their customers. The company's philosophy revolves around a commitment to quality, sustainability, and innovation, with a strong emphasis on customer engagement through experiential retailing.",https://forsale.spaceship-cdn.com/static/version/0.20.4/assets/fonts/spaceship-logo.svg,https://www.fruitsandpassion.com,Canada,1992,indie,,,,2025-07-18T12:32:10.942225,2025-08-28T15:31:35.630190
cmd7035c3fa4132edc7eb97,Frutarom,"Frutarom is a global company specializing in the production and marketing of flavors, fragrances, and cosmetic ingredients. Founded in 1934, the company originally focused on natural extracts and has since expanded its product offerings to include a wide array of flavors and fragrance solutions for the food, beverage, personal care, and household products industries. Frutarom has a strong emphasis on innovation and sustainability, providing customized solutions to meet the specific needs of its clients worldwide.",https://images.unsplash.com/photo-15907369626-6c63ac16f3df?w=400&h=300&fit=crop,https://www.frutarom.com,Israel,1934,indie,,,,2025-07-18T12:32:10.942225,2025-08-28T15:31:42.140944
cmd65b0477d0208eedbf66f,Fruttini,"Fruttini is a fragrance brand that focuses on producing fruity and floral-inspired perfumes. Known for their vibrant and refreshing scents, Fruttini offers a variety of products that appeal particularly to a younger audience. The brand emphasizes fun and freshness, often incorporating playful packaging that reflects their lively ethos. Fruttini is recognized for creating affordable fragrances that capture the essence of summer and joy, making them a popular choice among casual perfume users.",https://fruttini.com/cdn/shop/files/Fruttini_logo_and_word_Marque.png?v=1730993684&width=600,https://www.fruttini.com,Germany,2003,drugstore,,,,2025-07-18T12:32:10.942225,2025-08-28T15:31:49.300545
cmd5bebf413a696e3b75bb8,FUBU,"FUBU, which stands for ""For Us By Us,"" is an American fashion brand that achieved significant fame in the 1990s primarily for its streetwear. Apart from apparel, FUBU has expanded its product line to include a range of fragrances that reflect the brand’s urban and youthful aesthetic. The company was formed with the goal of catering to the African-American community, promoting empowerment and self-expression through its products. FUBU's fragrance division embodies the confidence and unique style associated with the brand's histories in fashion and culture.",https://images.unsplash.com/photo-1556909114-f6e7ad7d3136?w=400&h=300&fit=crop,www.fubu.com,United States,1992,designer,,,,2025-07-18T12:32:10.942225,2025-08-28T15:31:55.725125
cmd34d07604c4c5f733bc0f,Fueguia 1833,"Fueguia 1833 is a luxury niche perfume company founded by Julian Bedel in Buenos Aires, Argentina. The brand is known for its artisanal approach to fragrance creation, utilizing a combination of natural ingredients sourced primarily from Argentina and other regions. Fueguia 1833 pays homage to the historical and cultural heritage of South America, often drawing inspiration from the region's diverse flora and fauna. Their collections feature a unique blend of traditional techniques and modern artistry, offering a range of olfactory experiences through a sophisticated and curated portfolio of perfumes. Each fragrance is designed to tell a story and evoke a sense of place, making Fueguia 1833 a celebrated name in the niche perfume sector.",https://images.unsplash.com/photo-15907369626-6c63ac16f3df?w=400&h=300&fit=crop,https://www.fueguia1833.com,Argentina,2010,niche,,,,2025-07-18T12:32:10.942225,2025-08-28T15:32:04.654575
cmd48b464733abcaa62bec5,Fugazzi,"Fugazzi is a niche perfume company that specializes in creating unique and artistic fragrances, often inspired by art and culture. Established in the early 2020s, the company focuses on offering luxurious scents crafted from high-quality ingredients. Fugazzi stands out in the market for its commitment to sustainability and promoting the narrative behind each fragrance, allowing consumers to connect emotionally with their products. The brand aims to redefine how people perceive and experience perfumes through innovative storytelling and carefully curated olfactory experiences.",https://images.unsplash.com/photo-1582735689369-4fe89db7114c?w=400&h=300&fit=crop,www.fugazziperfumes.com,United States,2021,niche,,,,2025-07-18T12:32:10.942225,2025-08-28T15:32:11.197866
cmd53fcaa5f9d4428ff6556,Fulton & Roark,"Fulton & Roark is a boutique fragrance company that specializes in solid perfumes and grooming products for men. Founded with a focus on creating high-quality, innovative scents, the company was born from a desire to provide an alternative to traditional liquid colognes, using a solid format that is convenient and travel-friendly. Their perfumes feature distinctive and sophisticated fragrances that are crafted with attention to detail and quality ingredients, aimed at providing a refined olfactory experience for modern men.",https://cdn.shopify.com/s/files/1/1335/1235/files/strat-logo.png?v=1704834464,https://fultonandroark.com,United States,2014,indie,,,,2025-07-18T12:32:10.942225,2025-08-28T15:32:18.027784
cmd61460c38ad68a64bb28d,Fūm,"Fūm is an innovative perfume company that focuses on creating unique, high-quality fragrances inspired by natural elements and contemporary culture. Founded by a team of fragrance enthusiasts and artisans, Fūm crafts its perfumes using sustainable ingredients and eco-friendly practices. They emphasize storytelling through scent, with each fragrance designed to evoke specific emotions or memories. The brand has garnered a following for their artistic approach to perfumery, often collaborating with various artists and designers to create limited-edition collections that push the boundaries of traditional fragrance design.",https://images.unsplash.com/photo-1556909114-f6e7ad7d3136?w=400&h=300&fit=crop,https://fumfragrance.com,United States,2020,niche,info@fumfragrance.com,,"123 Fragrance Lane, New York, NY, 10001, USA",2025-07-18T12:32:10.942225,2025-08-28T15:32:24.275161
cmdc24e87c0b76b1723efc6,FumeChat,"FumeChat is an innovative fragrance company that specializes in creating a personalized perfume experience for its customers. Founded with a vision to revolutionize how people choose and wear scents, FumeChat leverages technology to provide customized fragrance recommendations through an interactive online platform. Their unique approach combines user preferences, mood, and occasion to curate personalized scent profiles, appealing to a diverse clientele. The company's story began with a group of passionate perfumers and tech enthusiasts who aimed to bridge the gap between traditional perfumery and modern technology, making fragrance selection more accessible and enjoyable.",https://images.unsplash.com/photo-1587017539504-67cfbddac569?w=400&h=300&fit=crop,www.fumechat.com,United States,2021,indie,contact@fumechat.com,,,2025-07-18T12:32:10.942225,2025-08-28T15:32:33.090082
cmd7e5724a56f6d1a1b933a,Fumerie,"Fumerie is an independent fragrance retailer and boutique that specializes in niche and artisanal perfumes from various worldwide brands. They focus on curating a selective array of scents that emphasize quality and craftsmanship, offering personalized consultations to help customers find the perfect fragrance. Fumerie also engages in storytelling surrounding each fragrance, allowing their clientele to connect with the scents on a deeper level. Their aim is to provide an elevated shopping experience that celebrates the art of perfumery.",https://images.squarespace-cdn.com/content/v1/5627d634e4b0283fd034fdb0/7b0d821d-0347-4a82-8420-4695f78f5ab7/cardlogos.jpg,https://fumerie.com,United States,,indie,,,,2025-07-18T12:32:10.942225,2025-08-28T15:32:39.041478
cmd115f724bec5036ea0d86,FUMparFUM,"FUMparFUM is a unique fragrance house that emphasizes the art of scent creation, focusing on artisanal and niche perfumes that appeal to a discerning clientele. Founded by a group of passionate perfumers, the company seeks to blend traditional perfume-making techniques with modern sensibilities. Their story began with a dream to offer a personalized scent experience, allowing customers to explore a diverse range of fragrances that highlight emotional connections and personal stories. Specializing in small-batch, handcrafted scents, FUMparFUM prides itself on sourcing high-quality raw materials and promoting sustainable practices throughout its production process.",https://www.fumparfum.com/img/fumparfum-logo-1541585110.jpg,www.fumparfum.com,France,2018,niche,contact@fumparfum.com,+33 1 23 45 67 89,"45 Rue des Fragrances, 75002 Paris, France",2025-07-18T12:32:10.942225,2025-08-28T15:32:47.902932
cmd2b66d7c4daa427faa074,Fun & Basics,"Fun & Basics is a Spanish brand known for its vibrant and playful approach to fragrance. Established with a focus on affordability without sacrificing quality, the company has expanded its offerings to include not only perfumes but also other lifestyle products and accessories. Fun & Basics embodies a philosophy of fun, creativity, and accessibility, appealing to a diverse clientele looking for trendy and youthful scents. They emphasize unique and innovative packaging to complement their playful fragrances.",https://images.unsplash.com/photo-1541643600914-78b084683601?w=400&h=300&fit=crop,http://www.funandbasics.com,Spain,1995,indie,,,,2025-07-18T12:32:10.942225,2025-08-28T15:32:54.797682
cmd132e4252b3b65e9f51be,Funmi Monet,"Funmi Monet is a fragrance company that specializes in creating luxurious, artisan perfumes that blend unique and high-quality ingredients. The brand was founded with the vision of redefining personal fragrance, offering scents that resonate with individuality and personal expression. Their story emphasizes an artisanal approach, focusing on the craftsmanship of scent-making and the importance of using sustainable, ethically sourced materials. Funmi Monet aims to inspire confidence and authenticity through its unique scent profiles and personalized offerings.",https://images.unsplash.com/photo-1556909114-f6e7ad7d3136?w=400&h=300&fit=crop,https://www.funmimonet.com,United States,2020,indie,,,,2025-07-18T12:32:10.942225,2025-08-28T15:33:01.005278
cmdeb49c9f46b6da13e3e0b,Furla,"Furla is an Italian fashion brand known for its elegant and modern leather goods, accessories, and fragrances. Founded in 1927, the company started as a small shop in Bologna and has since grown into a global luxury brand. Their perfume line is known for its sophisticated and youthful scents, reflecting the brand's signature style and quality craftsmanship. Furla's fragrances often feature floral and fruity notes, appealing to a contemporary audience while embodying Italian luxury.",https://images.unsplash.com/photo-15907369626-6c63ac16f3df?w=400&h=300&fit=crop,https://www.furla.com,Italy,1927,designer,,,,2025-07-18T12:32:10.942225,2025-08-28T15:33:08.461266
cmd9a2c520264ddca586c68,Fusion Beauty,,https://images.unsplash.com/photo-1541643600914-78b084683601?w=400&h=300&fit=crop,https://www.fusionbeauty.com,United States,2005,indie,,,,2025-07-18T12:32:10.942225,2025-08-28T15:33:22.271511
cmd86cbf8f185ad46b90267,Fusion Brands America,"Fusion Brands America is a prominent fragrance company that specializes in developing and marketing a wide range of perfumes and personal care products. The company focuses on creating innovative fragrances that cater to both contemporary and classic tastes. They collaborate with various designers and brands to launch signature scents, primarily in the North American market. Fusion Brands America has built a reputation for quality and creativity in fragrance development, leveraging extensive industry expertise to ensure that their products resonate with consumers.",https://images.unsplash.com/photo-1556909114-f6e7ad7d3136?w=400&h=300&fit=crop,https://fusionbrands.com,United States,2001,designer,,,,2025-07-18T12:32:10.942225,2025-08-28T15:33:27.977973
cmd8cb54eac86ad886dec9e,Future Society,"Future Society is a cutting-edge perfume company that focuses on creating unique, sustainable fragrances inspired by the future of society and nature. Their story began with a vision of blending technology and artistry to redefine the fragrance experience. Specializing in eco-conscious ingredients and innovative scent profiles, Future Society aims to connect with consumers who are mindful of both elegance and environmental impact.",https://images.unsplash.com/photo-1587017539504-67cfbddac569?w=400&h=300&fit=crop,www.futuresocietyfragrance.com,United States,2021,indie,contact@futuresocietyfragrance.com,,,2025-07-18T12:32:10.942225,2025-08-28T15:33:34.401270
cmd57fd6ec114f8446cf9d6,Fwieha Fragranza ta' Malta,"Fwieha Fragranza ta' Malta is a niche perfume company that specializes in crafting unique fragrances inspired by the rich culture and natural beauty of Malta. Established with a vision to bring the essence of the Maltese islands into the world of perfumery, the company emphasizes artisanal craftsmanship and sustainability. Fwieha seeks to create scents that evoke memories and emotions tied to the distinct landscapes and heritage of Malta, offering a personalized fragrance experience to its customers.",https://images.unsplash.com/photo-1582735689369-4fe89db7114c?w=400&h=300&fit=crop,www.fwieha.com,Malta,2018,niche,contact@fwieha.com,,,2025-07-18T12:32:10.942225,2025-08-28T15:33:44.026003
cmd6c8ea377a1aaf356857a,Fyor,"Fyor is a contemporary perfume company that focuses on creating unique and high-quality fragrances. Established with a vision to blend artistry and craftsmanship, Fyor emphasizes the use of premium ingredients sourced from around the world. The brand is known for its innovative scent combinations and modern aesthetic, catering to fragrance enthusiasts who seek individuality and expression through scents.",https://images.unsplash.com/photo-15907369626-6c63ac16f3df?w=400&h=300&fit=crop,www.fyorfragrance.com,United States,2021,indie,contact@fyorfragrance.com,,"123 Fragrance Lane, Los Angeles, CA 90001, USA",2025-07-18T12:32:10.942225,2025-08-28T15:33:50.120452
cmdaf93551098528a8d945a,Fyrinnae,"Fyrinnae is a niche fragrance and cosmetic company that specializes in handcrafted, high-quality perfumes and beauty products. Originally founded in 2001, Fyrinnae is known for its unique, vibrant, and often whimsical scents. The company started out primarily as a cosmetics brand focusing on mineral makeup and has gradually expanded into the fragrance market, where it continues to blend creativity with high-quality ingredients. Its offerings are characterized by their imaginative names and artisanal approach, appealing to those who appreciate individuality and craftsmanship in fragrance.",https://fyrinnae.com/image/catalog/grnlogo.png,https://www.fyrinnae.com,United States,2001,niche,,,,2025-07-18T12:32:10.942225,2025-08-28T15:33:57.095452
cmdf411303128b397e29982,Fzotic,"Fzotic is a unique perfume company that specializes in crafting high-quality niche fragrances inspired by the beauty of nature and the vibrant interplay of scents. Founded by a group of fragrance enthusiasts, Fzotic aims to provide a personalized scent experience through carefully curated blends that evoke emotions and memories. The company's story is built on a commitment to artistry and craftsmanship, blending traditional techniques with modern innovations to create captivating perfumes that stand out in the fragrance market.",https://images.unsplash.com/photo-1582735689369-4fe89db7114c?w=400&h=300&fit=crop,www.fzotic.com,United States,2015,niche,contact@fzotic.com,,"123 Fragrance Lane, Scent City, CA 90210, USA",2025-07-18T12:32:10.942225,2025-08-28T15:34:04.303008
cmdd6e74368fbc94c000f30,Formerly Known as Haeckels,"Formerly Known as Haeckels is a perfume and skincare company based in Margate, Kent, UK, known for its sustainable and innovative approach to fragrance creation. The company was founded by Haeckel and is famed for its commitment to using locally sourced ingredients and foraged materials from its coastal environment, placing an emphasis on environmental responsibility. Their product line includes perfumes, candles, and skincare items that reflect the natural essence of their surroundings. The brand has gained recognition for its unique scents that evoke the spirit of the sea and the wild coastal flora of the UK.",https://www.haeckels.co.uk/cdn/shop/files/GROUP_EXPANDED.jpg?v=1730799410&width=4200,https://haeckels.co.uk,United Kingdom,2012,indie,,,"129 Northdown Road, Margate, Kent, CT9 2QN, United Kingdom",2025-07-18T12:32:10.942225,2025-08-28T15:34:12.004344
cmd44bb91266f0b75b29a91,Fragrance One,"Fragrance One is a company that specializes in creating high-quality, unique fragrances that cater to both men and women. Founded by YouTuber Jeremy Fragrance, the brand aims to blend accessibility with the art of fine perfumery. The company seeks to break the traditional barriers of the fragrance industry by offering fragrances that are marketed directly to consumers, often leveraging social media and online platforms for promotion. Their specialty lies in formulating scents that are not only appealing but also have a strong presence in the competitive fragrance market.",https://images.unsplash.com/photo-1582735689369-4fe89db7114c?w=400&h=300&fit=crop,https://fragranceone.com,United States,2019,indie,support@fragranceone.com,,,2025-07-18T12:32:10.942225,2025-08-28T15:34:20.157146
cmde9ef588c7f4b250efdf4,Ferragamo,"Salvatore Ferragamo S.p.A. is an Italian luxury goods company founded by the shoemaker Salvatore Ferragamo in 1928. The company is known for its high-quality footwear, leather goods, and ready-to-wear apparel, but its perfume line is a significant aspect of its offerings. Ferragamo's fragrance division started in the early 1990s and focuses on sophisticated and elegant scents that embody the brand's Italian craftsmanship and style. The company blends tradition with modernization, appealing to both classic and contemporary tastes in the luxury market.",https://images.unsplash.com/photo-1541643600914-78b084683601?w=400&h=300&fit=crop,https://www.ferragamo.com,Italy,1928,designer,,,"Via Tornabuoni, 2, 50123 Firenze FI, Italy",2025-07-18T12:32:10.942225,2025-08-28T15:34:27.057829
cmdbdf0f01f30647d9e28de,Goutal,"Goutal is a luxury perfume house founded by Annick Goutal in 1986, known for its poetic fragrances inspired by nature and memories. The brand emphasizes individuality and craftsmanship, using high-quality raw materials and traditional perfumery techniques. Goutal has a strong connection to French art and culture, often creating scents that evoke emotions and stories. Over the years, it has developed a niche following for its unique and personal approach to fragrance.",https://www.goutalparis.com/cdn/shop/products/Goutal22-Gamme-RosePompon-EDP-Flacon-100ml_DHD_copie_10x10_crop_center.jpg?v=1662373375,https://www.goutalparis.com,France,1986,niche,,,"18 Rue de l’Église, 75015 Paris, France",2025-07-18T12:32:10.942225,2025-08-28T15:34:34.116288
cmda336ec68b5aff2524c61,Groupe Bogart,"Groupe Bogart is a French perfume and cosmetics company that was founded in the 2000s. The company specializes in creating, developing, and distributing fragrance products under various brand names. It has a rich history in the fragrance industry, tracing its roots back to the 20th century, and is known for its innovative approach towards classic and modern scent profiles. Groupe Bogart focuses on creating fragrances that embody elegance and sophistication, catering primarily to the mid-range market segment, bridging the gap between luxurious and accessible fragrance options.",https://images.unsplash.com/photo-15907369626-6c63ac16f3df?w=400&h=300&fit=crop,https://www.groupe-bogart.com,France,2004,designer,,,,2025-07-18T12:32:10.942225,2025-08-28T15:34:41.357451
cmddc4b67f3052af3b90e5d,Gritti Venetia,"Gritti Venetia is a fine perfume house that specializes in creating artisanal fragrances inspired by the rich history and cultural heritage of Venice, Italy. The company emphasizes craftsmanship and quality, utilizing premium ingredients to produce unique and evocative scents. With a strong narrative essence, Gritti Venetia aims to transport consumers to the enchanting landscapes of Venice through their olfactory creations. Their perfumes are often characterized by intricate compositions that reflect both tradition and contemporary artistry.",https://images.unsplash.com/photo-1582735689369-4fe89db7114c?w=400&h=300&fit=crop,https://www.grittivenetia.com,Italy,2014,niche,,,,2025-07-18T12:32:10.942225,2025-08-28T15:34:47.458308
cmdc134b9d224cd5a707139,G. Knight,"G. Knight is a perfumery known for its unique and high-quality fragrance creations. The company specializes in crafting luxurious scents that blend traditional perfumery techniques with innovative ingredients. Since its inception, G. Knight has aimed to provide a sensory experience that reflects elegance and sophistication, drawing inspiration from various cultural influences and personal stories. Their perfumes often feature complex notes that evolve over time on the skin, making each scent a personal journey for the wearer.",https://images.unsplash.com/photo-1582735689369-4fe89db7114c?w=400&h=300&fit=crop,,,,niche,,,,2025-07-18T12:32:10.942225,2025-08-28T15:34:54.167022
cmdd1421291e9dfc48e117f,G.Nejman,"G.Nejman is a luxury niche perfume house known for its artisanal approach to fragrance creation. The company specializes in crafting unique and complex scents that evoke emotions and memories, often inspired by various cultures and natural elements. G.Nejman focuses on using high-quality ingredients and traditional methods to ensure their perfumes stand out in the market. Founded by perfumer and visionary Gábor Nejcik, G.Nejman has gained a reputation for exclusivity and artistic expression in perfumery, appealing to connoisseurs and fragrance aficionados around the world.",https://gnejman.com/wp-content/uploads/2023/09/LOGO-HERO-FOND-BLANC-3.png,https://gnejman.com,Hungary,2017,niche,contact@gnejman.com,,,2025-07-18T12:32:10.942225,2025-08-28T15:35:04.827493
cmd70e7302ee1467042efeb,G Parfums,"G Parfums is a fragrance company that focuses on creating high-quality perfumes with unique and captivating scents. Known for blending traditional perfumery techniques with modern inspirations, G Parfums offers a diverse range of fragrances that appeal to various customer preferences. The company prides itself on its artistry in scent creation and aims to evoke emotions through its carefully crafted collections.",https://images.unsplash.com/photo-1556909114-f6e7ad7d3136?w=400&h=300&fit=crop,,,,niche,,,,2025-07-18T12:32:10.942225,2025-08-28T15:35:10.857038
cmdeb428f08705ba858594a,Gabar,"Gabar is a fragrance company known for its innovative and diverse range of perfumes. Established with a vision to blend unique scent profiles with affordability, Gabar has carved out a niche in the fragrance market by offering exceptional quality products that cater to varied customer preferences. The brand often utilizes a mix of traditional perfumery techniques and modern inspirations to create their fragrances. Gabar emphasizes accessibility, aiming to provide luxurious scents without the high price tag typically associated with premium perfumes.",https://images.unsplash.com/photo-1587017539504-67cfbddac569?w=400&h=300&fit=crop,,,,indie,,,,2025-07-18T12:32:10.942225,2025-08-28T15:35:16.581858
cmd128a757f12c14603e765,Gabels,"Gabels is a fragrance company known for creating high-quality, luxurious perfumes. Founded on a passion for scent and craftsmanship, the company focuses on blending traditional perfumery techniques with innovative formulas. Gabels prides itself on using premium ingredients and creating unique, memorable scents that appeal to a discerning clientele. Their story is rooted in a commitment to artistry and excellence in fragrance design, positioning them as a prestigious name within the perfume industry.",https://images.unsplash.com/photo-15907369626-6c63ac16f3df?w=400&h=300&fit=crop,www.gabelsfragrance.com,France,2005,niche,contact@gabelsfragrance.com,,"45 Rue des Fragrances, Paris, France",2025-07-18T12:32:10.942225,2025-08-28T15:35:23.179848
cmd8ef608a6765f10d2e5ad,Gabilla,"Gabilla is a niche perfume company known for its artisanal approach to fragrance creation. Founded by passionate perfumers, the brand emphasizes the use of high-quality ingredients and unique scent compositions. Gabilla aims to evoke emotions and narratives through its fragrances, often inspired by cultural elements and personal stories. The company prides itself on crafting limited-edition scents that appeal to connoisseurs of fine perfumes.",https://images.unsplash.com/photo-1541643600914-78b084683601?w=400&h=300&fit=crop,www.gabilla.com,United States,2014,niche,contact@gabilla.com,,,2025-07-18T12:32:10.942225,2025-08-28T15:35:38.944271
cmd56c919873687309aa7b1,Gabriel et Valentin,"Gabriel et Valentin is a niche perfume house established in Paris, France. The company focuses on creating artisanal fragrances that capture the essence of elegance and sophistication, blending traditional craftsmanship with contemporary creativity. They emphasize the art of perfumery through unique scent compositions, allowing for a personalized fragrance experience. Each perfume is designed to evoke specific emotions and memories, appealing to discerning customers who appreciate high-quality, distinctive scents.",https://images.unsplash.com/photo-1587017539504-67cfbddac569?w=400&h=300&fit=crop,www.gabrieldetvalentin.com,France,2014,niche,,,,2025-07-18T12:32:10.942225,2025-08-28T15:35:44.994987
cmd7b3cb12455adbeda02b8,Gabriela Hearst,"Gabriela Hearst is a luxury fashion brand founded by Uruguayan designer Gabriela Hearst, known for its commitment to sustainability and craftsmanship in its apparel, accessories, and fragrance lines. The brand merges timeless elegance with modern designs, crafting high-quality products while prioritizing eco-friendly practices. Gabriela Hearst has gained recognition not only for its fashion collections but also for its signature perfumes that embody sophistication and individuality. The fragrances are carefully curated, utilizing premium ingredients with an environmental consciousness.",https://s3.global-e.com/merchantscontent/general/X.png,https://www.gabrielahearst.com,United States,2015,designer,,,"121 Grand Street, New York, NY 10013, United States",2025-07-18T12:32:10.942225,2025-08-28T15:35:51.725343
cmd9abbee8e2720c2ecc797,Gabriela Sabatini,"Gabriela Sabatini is a luxury fragrance brand that was created in partnership with former Argentine tennis player Gabriela Sabatini. The brand is known for its elegant and sophisticated fragrances that often reflect the grace and femininity of Sabatini herself. Since its inception, Gabriela Sabatini has crafted a variety of perfumes that cater to women's scents, often characterized by floral and fruity notes, combined with a modern touch of sophistication. Over the years, the brand has also expanded its product offerings to include body lotions and other scented products, establishing itself as a name associated with luxury and elegance in the perfume industry.",https://images.unsplash.com/photo-1582735689369-4fe89db7114c?w=400&h=300&fit=crop,www.gabrielasabatini.com,France,1991,designer,,,,2025-07-18T12:32:10.942225,2025-08-28T15:35:58.095996
cmda040715d192ea9c40154,Gabriele Strehle,"Gabriele Strehle is a niche perfume company known for its artisanal and innovative fragrance creations. Founded by German perfumer Gabriele Strehle, the company emphasizes the use of high-quality ingredients and sustainability in its products. Strehle's background in fashion and design influences her work, leading to unique and evocative scent profiles that capture a blend of elegance and modernity. The brand aims to create a sensory experience through its fragrances, appealing to discerning customers who appreciate craftsmanship and individuality in their scent selections.",https://images.unsplash.com/photo-1582735689369-4fe89db7114c?w=400&h=300&fit=crop,,Germany,1996,niche,,,,2025-07-18T12:32:10.942225,2025-08-28T15:36:06.027444
cmd2847d9712d2401dd5914,Gabriella Antosh,"Gabriella Antosh is a niche perfume house that specializes in creating sophisticated, artistic fragrances. The brand was established with a vision to provide olfactory experiences that embody elegance and individuality. Gabriella Antosh believes in crafting unique scents that reflect personal identity, often drawing inspiration from nature, art, and culture. The company focuses on using high-quality ingredients, ensuring that each fragrance tells a captivating story that resonates with its wearer.",https://images.unsplash.com/photo-15907369626-6c63ac16f3df?w=400&h=300&fit=crop,https://www.gabriellaantosh.com,United States,2017,niche,info@gabriellaantosh.com,,,2025-07-18T12:32:10.942225,2025-08-28T15:36:25.561866
cmdcb0d4604425cd43a02d8,Gabriella Chieffo,"Gabriella Chieffo is an Italian perfume house known for its niche fragrances that emphasize artistry and storytelling. Founded by Gabriella Chieffo, the brand focuses on creating perfumes that evoke emotions and memories, often inspired by nature and personal experiences. With a commitment to high-quality ingredients and craftsmanship, Gabriella Chieffo has cultivated a reputation for innovative and unique scent compositions that resonate with a discerning clientele. The brand embodies a philosophy that fragrances should tell a story and conjure specific feelings, appealing to both the senses and the imagination.",https://gabriellachieffo.com/wp-content/uploads/2022/04/logo-1-1400x295.png,https://www.gabriellachieffo.com,Italy,2014,niche,,,,2025-07-18T12:32:10.942225,2025-08-28T15:36:33.317321
cmd644d5768d1d7f81b0aff,Gaglewski Grasse,,https://images.unsplash.com/photo-1556909114-f6e7ad7d3136?w=400&h=300&fit=crop,https://gaglewskigrasse.com,France,2020,indie,contact@gaglewskigrasse.com,,,2025-07-18T12:32:10.942225,2025-08-28T15:36:41.178892
cmd9ada35645b97aba768c9,Gai Mattiolo,"Gai Mattiolo is a luxury perfume house based in Italy, well-known for its unique fragrances that combine art and high-quality ingredients. Founded by the designer Gai Mattiolo, the company initially made a name for itself in the fashion industry before venturing into the world of perfumes. The brand emphasizes creativity and elegance in its fragrance offerings, making each scent not only a product but also a form of self-expression for the wearer. Gai Mattiolo's perfumes are characterized by their distinct and sophisticated fragrance profiles, crafted for those who appreciate a blend of artistic ingenuity and sophisticated aromas.",https://images.unsplash.com/photo-1587017539504-67cfbddac569?w=400&h=300&fit=crop,http://www.gaistore.com,Italy,1986,niche,,,,2025-07-18T12:32:10.942225,2025-08-28T15:36:47.864653
cmd337ecb06a65454cd2c42,Gaia,"Gaia is a niche perfume company that focuses on creating unique and artisanal fragrances derived from natural ingredients. The brand emphasizes the importance of sustainability and environmentally friendly practices in the production of their scents. Gaia’s story begins with a passion for nature and a desire to craft perfumes that resonate with people on a deeper emotional level, often inspired by the beauty of the earth and its natural wonders. Each fragrance is designed not only to smell exceptional but also to tell a story, evoking memories and emotions tied to the natural world.",https://images.unsplash.com/photo-1556909114-f6e7ad7d3136?w=400&h=300&fit=crop,www.gaiaperfumes.com,France,2016,niche,contact@gaiaperfumes.com,,,2025-07-18T12:32:10.942225,2025-08-28T15:36:53.974131
cmd0144f20ac709d201fc2c,Gainsboro,"Gainsboro is a fragrance company known for its niche perfumes that combine unique ingredients with innovative designs. Established with a vision to redefine luxury scents, Gainsboro emphasizes craftsmanship, creativity, and the use of high-quality materials. The brand often draws inspiration from diverse cultures, art, and nature, creating an olfactory experience that is both enchanting and exclusive.",https://images.unsplash.com/photo-1556909114-f6e7ad7d3136?w=400&h=300&fit=crop,www.gainsboroscents.com,United States,2018,niche,contact@gainsboroscents.com,,,2025-07-18T12:32:10.942225,2025-08-28T15:36:59.573298
cmd237d771ecfd4e5bc4b83,Gal,"Gal is a niche perfume house known for its unique scent compositions that often blend traditional fragrance practices with contemporary elements. Founded by a team of passionate perfumers, the company focuses on artisanal craftsmanship and natural ingredients to create luxurious fragrances that tell a story. Their creations typically draw inspiration from various cultural and artistic influences, making each perfume a unique sensory experience.",https://images.unsplash.com/photo-1556909114-f6e7ad7d3136?w=400&h=300&fit=crop,www.galperfume.com,United States,2018,niche,contact@galperfume.com,,,2025-07-18T12:32:10.942225,2025-08-28T15:37:05.012936
cmd0520e04eeba662bb9b66,Galanos,"Galanos is a perfume company known for its luxurious fragrances that combine traditional craftsmanship with modern sensibilities. Founded by a visionary in the fragrance industry, the company specializes in creating unique and evocative scents that cater to an upscale clientele. Galanos focuses on high-quality ingredients and artistry in scent composition, aiming to create olfactory experiences that resonate deeply with consumers.",https://images.unsplash.com/photo-1541643600914-78b084683601?w=400&h=300&fit=crop,,,,niche,,,,2025-07-18T12:32:10.942225,2025-08-28T15:37:10.497802
cmd61ee378a7df4e9d1c3cf,Galaxy Perfume,"Galaxy Perfume is an innovative perfume company specializing in unique and captivating fragrances. Established with a vision of creating aromatic experiences that transport users to different realms, the company emphasizes craftsmanship and quality in each scent. They draw inspiration from celestial bodies and nature, aiming to evoke emotions through olfactory artistry. Galaxy Perfume has gained popularity for its distinctive and imaginative blends, appealing to fragrance enthusiasts who seek something beyond conventional offerings.",https://images.unsplash.com/photo-15907369626-6c63ac16f3df?w=400&h=300&fit=crop,www.galaxyperfume.com,United States,2015,indie,contact@galaxyperfume.com,,,2025-07-18T12:32:10.942225,2025-08-28T15:37:27.712366
cmd8314bbd8b0c4c5359eea,Gale Hayman,"Gale Hayman is a renowned perfume company specializing in creating unique and captivating fragrances. The company was founded by Gale Hayman, a significant figure in the fragrance industry, who leveraged her extensive experience to develop perfumes that stand out in the market. With a focus on quality and craftsmanship, Gale Hayman offers a variety of scents that cater to diverse consumer preferences, blending traditional and contemporary fragrance notes to create memorable olfactory experiences.",https://galehayman.com/cdn/shop/files/gale_2.jpg?v=1667334497&width=3840,http://www.galehayman.com,United States,1982,niche,,,,2025-07-18T12:32:10.942225,2025-08-28T15:37:34.693692
cmd91af2a69e632f0164d86,Galeries Lafayette,"Galeries Lafayette is a prestigious French department store chain, known for offering a wide range of luxury products including high-end perfumes among various other lifestyle items such as fashion, beauty, and home goods. Founded in 1894, it has become a cornerstone of Parisian shopping culture, attracting both locals and international tourists. The company emphasizes a curated selection of brands, including exclusive and luxury fragrance lines, positioned within its iconic flagship store on Boulevard Haussmann in Paris.",https://images.unsplash.com/photo-1556909114-f6e7ad7d3136?w=400&h=300&fit=crop,https://www.galerieslafayette.com,France,1894,designer,,+33 1 42 82 34 56,"40 Boulevard Haussmann, 75009 Paris, France",2025-07-18T12:32:10.942225,2025-08-28T15:37:41.912362
cmd7b84c17efccd54bbaabf,Galileo,"Galileo is a perfume company recognized for its innovative approach to fragrance creation, focusing on artisanal methods and unique scent compositions. The brand aims to blend science with perfumery, drawing inspiration from astronomy and nature to craft distinctive scents that appeal to a diverse clientele. Their story began with a passion for exploration and discovery, leading to the development of perfumes that evoke emotions and experiences through scent. Galileo specializes in creating high-quality niche fragrances that often feature unusual ingredients and complex layering techniques.",https://images.unsplash.com/photo-15907369626-6c63ac16f3df?w=400&h=300&fit=crop,www.galileoparfums.com,United States,2018,niche,contact@galileoparfums.com,,"123 Astral Way, Suite 100, Los Angeles, CA 90001, USA",2025-07-18T12:32:10.942225,2025-08-28T15:37:49.064745
cmd5808821fe33e96222758,Galimard,"Galimard is a renowned perfumery located in Grasse, the historical capital of perfumes. Established in 1806, it has a rich heritage of crafting high-quality fragrances, combining traditional methods with modern techniques. Galimard specializes in creating both personal and home fragrances and is known for their bespoke perfume service, allowing customers to create their unique scent. The company has evolved over the years, expanding its offerings and maintaining its reputation as one of France's premier perfume houses.",https://www.galimard.com/wp-content/themes/galimard/images/logo_galimard_white.svg,https://www.galimard.com,France,1806,niche,,,"73 Avenue Jean Medecin, 06130 Grasse, France",2025-07-18T12:32:10.942225,2025-08-28T15:37:59.691354
cmd45aea369de15cd2a5cbb,Galitzine,"Galitzine is a luxury niche fragrance house that specializes in creating unique and artisanal perfumes. The brand is known for its artistic approach to perfumery, combining traditional techniques with innovative ideas. Founded by designer and perfume connoisseur, Galitzine aims to evoke emotions and tell stories through its carefully crafted scents. The company emphasizes the use of high-quality ingredients and collaborates with perfumers to create exclusive fragrances that resonate with the artistic vision of the brand.",https://images.squarespace-cdn.com/content/v1/57da66901b631b43099f4715/1706568172149-HIO7ZJCNCXLR5BQSKIWJ/HGC_4287.jpg,https://galitzine.com,United Kingdom,2018,niche,,,,2025-07-18T12:32:10.942225,2025-08-28T15:38:06.978779
cmdc0a04f0bf31c13f96160,Gallagher Fragrances,"Gallagher Fragrances is a niche perfume house founded by perfumer and entrepreneur, T.S. Gallagher, known for its artistic approach to fragrance creation. The company emphasizes high-quality ingredients and unique scent compositions that often draw inspiration from personal experiences and the natural world. Gallagher Fragrances has gained a cult following due to its innovative fragrances that challenge traditional olfactory norms.",https://gallagherfragrances.com/cdn/shop/files/20250716_170556_1.jpg?v=1752941808&width=3840,https://gallagherfragrances.com,United States,2018,niche,,,,2025-07-18T12:32:10.942225,2025-08-28T15:38:13.315646
cmd6fd7580634a7f8ead932,Galleria Parfums,"Galleria Parfums is an independent perfume house specializing in high-quality niche fragrances. Founded with a passion for unique and artistic scent creations, the company focuses on crafting distinctive fragrances that cater to connoisseurs and aficionados of fine perfumes. Galleria Parfums emphasizes artisanal production methods, sourcing premium raw materials from around the world. Their collections often reflect a blend of cultural inspirations and creative storytelling, creating a sensory experience that transcends traditional perfumery.",https://galleriaparfums.com/wp-content/uploads/2020/09/Galleria-Parfums-logo.png,https://galleriaparfums.com,United States,,niche,,,,2025-07-18T12:32:10.942225,2025-08-28T15:38:20.102580
cmd5eaaf17032e7d4f964b7,Gallivant,"Gallivant is a niche perfume company that specializes in creating unique, travel-inspired fragrances. Founded by Nick Steward, the brand draws inspiration from various global destinations, capturing the essence of each in beautifully crafted scents. Gallivant prides itself on the use of high-quality ingredients and artisan production techniques, offering an eclectic range of options for perfume lovers. The brand's narrative is heavily influenced by travel, adventure, and the diverse cultures that influence fragrance composition, making each scent a storytelling experience.",https://images.unsplash.com/photo-1556909114-f6e7ad7d3136?w=400&h=300&fit=crop,https://gallivantfragrance.com,United Kingdom,2019,niche,hello@gallivantfragrance.com,,,2025-07-18T12:32:10.942225,2025-08-28T15:38:26.358679
cmd5c2b215d0ee23ac44836,Gallup Perfume,"Gallup Perfume is a niche fragrance company that specializes in creating unique and artistic perfumes. Established with a vision to redefine individual expression through scent, Gallup Perfume focuses on high-quality ingredients and artisanal craftsmanship. The brand emphasizes storytelling through its fragrances, making each scent a representation of an experience or emotion.",https://images.unsplash.com/photo-1541643600914-78b084683601?w=400&h=300&fit=crop,,,,niche,,,,2025-07-18T12:32:10.942225,2025-08-28T15:38:31.608615
cmdbadeee32daf7f948c6e2,Game On! Product Group,"Game On! Product Group is a perfume company that specializes in creating unique fragrances inspired by the gaming culture and lifestyle. They focus on blending playful concepts with distinctive scents, aiming to capture the essence of fun and nostalgia in their products. The company has garnered attention for its innovative approach to fragrance design, catering particularly to a younger audience and the gaming community.",https://images.unsplash.com/photo-1556909114-f6e7ad7d3136?w=400&h=300&fit=crop,https://gameonproductgroup.com,United States,2018,indie,,,,2025-07-18T12:32:10.942225,2025-08-28T15:38:37.502327
cmd23a28ca0817768d36576,Gamine,"Gamine is an independent fragrance house known for its unique and artistic approach to perfume creation. Founded by a passionate perfumer who sought to capture the spirit of youth and freedom, Gamine emphasizes the use of high-quality, sustainable ingredients to craft its scents. The brand aims to inspire individuality and self-expression through its carefully curated fragrances that evoke emotions and memories.",https://images.unsplash.com/photo-1556909114-f6e7ad7d3136?w=400&h=300&fit=crop,https://www.gaminefragrances.com,United States,2016,indie,contact@gaminefragrances.com,,,2025-07-18T12:32:10.942225,2025-08-28T15:38:43.125208
cmda9044d03afd582340508,Gammon,"Gammon is a boutique perfume company that specializes in artisanal fragrances. Known for its unique and evocative scent compositions, Gammon is passionate about creating high-quality and innovative perfumes that tell a story through scent. The company prides itself on using the finest raw materials, sourcing ingredients from sustainable and ethical suppliers. Hence, their products often reflect a blend of tradition and modernity, catering to fragrance enthusiasts who appreciate craftsmanship and originality.",https://images.unsplash.com/photo-1582735689369-4fe89db7114c?w=400&h=300&fit=crop,www.gammonfragrances.com,United States,2015,niche,contact@gammonfragrances.com,,,2025-07-18T12:32:10.942225,2025-08-28T15:38:49.572386
cmd1f47d2bc92e386c7bc36,Ganache Parfums,"Ganache Parfums is a niche perfume company that specializes in creating artisanal fragrances inspired by culinary ingredients and dessert-like concepts. Founded by a passionate perfumer, the brand emphasizes the use of high-quality materials and a gourmet approach to fragrance creation, aiming to evoke indulgent memories and experiences through their unique scents. Ganache Parfums combines artistry and craftsmanship to develop distinctive perfumes that stand out in the market, appealing to fragrance connoisseurs who appreciate creativity and originality in their olfactory experiences.",https://images.unsplash.com/photo-15907369626-6c63ac16f3df?w=400&h=300&fit=crop,https://ganacheparfums.com,United States,2015,niche,,,,2025-07-18T12:32:10.942225,2025-08-28T15:38:56.915044
cmdde23cafcee8f890e048c,Gandini 1896,"Gandini 1896 is a historic perfume house known for its artisanal, handcrafted fragrances that blend traditional perfumery techniques with contemporary sensibilities. Founded in 1896 by the Gandini family, the company has remained committed to quality and creativity, producing a range of signatures that evoke emotions and tell stories through scent. The brand emphasizes the use of high-quality raw materials sourced globally, focusing on unique formulations that reflect Italian heritage and craftsmanship.",https://images.unsplash.com/photo-1582735689369-4fe89db7114c?w=400&h=300&fit=crop,http://www.gandini1896.com,Italy,1896,niche,,,,2025-07-18T12:32:10.942225,2025-08-28T15:39:02.643952
cmdcf258f65a67a503ff6a8,Ganesha's Garden,"Ganesha's Garden is a niche perfume company that specializes in crafting natural, eco-friendly fragrances inspired by the rich traditions of Ayurveda. Founded on a commitment to holistic wellness and sustainability, the company creates perfumes that reflect the beauty of nature and the spiritual significance of fragrance in various cultures. Their unique formulations often incorporate essential oils and plant extracts, aligning with their ethos of promoting well-being and mindfulness through scent.",https://images.unsplash.com/photo-1541643600914-78b084683601?w=400&h=300&fit=crop,[www.ganeshasgarden.com](http://www.ganeshasgarden.com),United States,2007,niche,,,,2025-07-18T12:32:10.942225,2025-08-28T15:39:11.315246
cmdf113b05754f1e074e125,Gansonne,"Gansonne is a niche perfume company known for its artisanal approach to fragrance creation. Founded by a group of passionate perfumers, Gansonne combines natural ingredients with modern techniques to craft unique scents that resonate with individual experiences and emotions. Their collections often draw inspiration from nature and various cultural elements, positioning them as a brand that emphasizes both storytelling and originality in the world of fragrance.",https://images.unsplash.com/photo-1541643600914-78b084683601?w=400&h=300&fit=crop,www.gansonneparfums.com,France,2015,niche,contact@gansonneparfums.com,+33 1 23 45 67 89,"12 Rue des Fragrances, 75001 Paris, France",2025-07-18T12:32:10.942225,2025-08-28T15:39:17.250399
cmdb0c7d55ce3415f1ab81d,Gant USA,"Gant USA is a fashion brand that originated in the United States, known for its preppy aesthetic and high-quality products including clothing, accessories, and fragrances. Founded in 1949, Gant revolutionized casual wear and has since diversified into various lifestyle categories. The brand emphasizes a heritage of American sportswear while infusing contemporary style, appealing to a broad audience. Their perfume line complements their fashion offerings, reflecting the brand's overall ethos of sophisticated, casual elegance.",https://gant.com/dw/image/v2/BFLN_PRD/on/demandware.static/-/Library-Sites-Gant-Global/default/dw7c27788c/2025/AUGUST%20-%20FULL%20MONTH/hp-hero-FALLBACK.jpg?sw=1440,https://www.gant.com,United States,1949,designer,,,,2025-07-18T12:32:10.942225,2025-08-28T15:39:24.440261
cmd9df464de2dc7318687d0,Gap Bath and Body Division,"Gap Bath and Body Division is a subsidiary of Gap Inc., focusing on personal care and fragrance products. The division offers a range of bath and body products including perfumes, body lotions, and shower gels. Established to cater to a younger audience, the Gap Bath and Body line often reflects the brand's overall ethos of casual, contemporary style. The products are designed to complement the fashion offerings of Gap by providing fragrance and personal care solutions that match their youthful and modern aesthetic.",https://www.gap.com/Asset_Archive/GPWeb/content/0030/015/725/assets/logo/logo_gap--light.svg,https://www.gap.com/browse/category.do?cid=1002400,United States,,designer,,,,2025-07-18T12:32:10.942225,2025-08-28T15:39:32.042687
cmd8ee3c0be4041c02d5f90,Gap,"Gap Inc. is a global retailer known primarily for its clothing and accessories. The company was founded in 1969 and initially started as a retailer of denim and khakis. In addition to apparel, Gap also produces a range of fragrances under the Gap brand, focusing on casual, accessible scents that appeal to a wide demographic. The brand's casual wear and lifestyle image extend to its fragrance offerings, embodying a youthful and laid-back lifestyle. Over the years, they have launched various scents that align with their fashion collections, appealing to the modern consumer.",https://www.gap.com/Asset_Archive/GPWeb/content/0030/015/725/assets/logo/logo_gap--light.svg,https://www.gap.com,United States,1969,designer,,,"2 Folsom Street, San Francisco, CA 94105, United States",2025-07-18T12:32:10.942225,2025-08-28T15:39:38.853706
cmd08be1608a4754b91a0a5,Garden of Stars,"Garden of Stars is a niche perfume company that specializes in creating unique, artisanal fragrances inspired by the beauty of nature and the cosmos. They focus on sustainability and use high-quality natural ingredients, promoting eco-friendly practices in the perfume industry. The brand emphasizes storytelling through scent, offering a diverse range of perfumes that evoke emotions and memories tied to celestial themes. Their story blends artistry with a commitment to the environment, appealing to fragrance enthusiasts looking for exclusivity and depth in their perfume selections.",https://www.gardenofstars.com/hostinger-logo.svg,www.gardenofstars.com,United States,2018,niche,contact@gardenofstars.com,,,2025-07-18T12:32:10.942225,2025-08-28T15:39:47.040614
cmd6d84b13531872f618e53,Garden Pharmacy,"Garden Pharmacy specializes in the retail of health and beauty products, including a diverse range of perfumes. They focus on offering high-quality products to their customers. While they may not be exclusively a perfume company, their selection of fragrances reflects current trends and customer preferences, making them a niche player in the market.",https://images.unsplash.com/photo-1587017539504-67cfbddac569?w=400&h=300&fit=crop,,,,indie,,,,2025-07-18T12:32:10.942225,2025-08-28T15:39:52.832748
cmd97467f28fe28c2a8bddc,Garner James,"Garner James is a niche perfume company known for creating unique and exceptional fragrances that cater to individual expression and luxury. The brand started with a vision to distill emotions into scent and has a strong emphasis on artisanal craftsmanship, sourcing high-quality ingredients from around the globe. Garner James appeals to discerning customers who appreciate the art of perfumery, blending tradition with innovation.",https://images.unsplash.com/photo-1556909114-f6e7ad7d3136?w=400&h=300&fit=crop,www.garnerjames.com,United States,2015,niche,contact@garnerjames.com,,"123 Fragrance Lane, Los Angeles, CA, 90001",2025-07-18T12:32:10.942225,2025-08-28T15:39:59.032797
cmdc182af058eda07a1e64f,Gary Farn,"Gary Farn is a perfume company known for its artisanal fragrances that combine traditional craftsmanship with contemporary artistry. Founded with a vision to create unique scent experiences, the brand has established a reputation for using high-quality, ethically sourced ingredients. They focus on small-batch production, enabling them to maintain a level of exclusivity and personalization in their offerings. Their specialty lies in creating handcrafted perfumes inspired by diverse cultures and natural landscapes, emphasizing the olfactory journey and storytelling behind each scent.",https://images.unsplash.com/photo-1582735689369-4fe89db7114c?w=400&h=300&fit=crop,,,,indie,,,,2025-07-18T12:32:10.942225,2025-08-28T15:40:05.154641
cmdc1da4f22af2f403ed5fc,Gas,"Gas is a perfume company known for its unique and contemporary fragrance offerings that blend artistic creativity with olfactory science. Established in the late 20th century, Gas has built its reputation by focusing on quality and originality in its scents. The brand emphasizes modern lifestyle aesthetics and often collaborates with artists and designers to create distinct packaging and branding, appealing to a younger demographic. Their expertise lies in crafting fragrances that cater to diverse preferences, making them a popular choice among trend-conscious consumers.",https://images.unsplash.com/photo-1541643600914-78b084683601?w=400&h=300&fit=crop,http://www.gas.fragrance.com,Italy,2000,niche,,,,2025-07-18T12:32:10.942225,2025-08-28T15:40:11.013511
cmd150b8918b91d63031900,Gather Perfume,"Gather Perfume is a niche fragrance company that focuses on creating artisanal and indie perfumes. They emphasize a personal and intimate approach to fragrance development, often inspired by stories, memories, and nature. Their formulations are designed to evoke emotions and create connections between the wearer and their surroundings. Gather Perfume prides itself on using quality ingredients and sustainability in its production processes, aiming to offer unique scents that reflect individuality.",https://gatherperfume.com/cdn/shop/files/Triangle_Logo_w_Text_Black_300x300.png?v=1622820790,https://www.gatherperfume.com,United States,2015,niche,,,,2025-07-18T12:32:10.942225,2025-08-28T15:40:18.387162
cmdf93596028708eea7450b,Gatsby,"Gatsby is a popular brand primarily known for its men's grooming products, including a wide range of fragrances aimed at young adults. Originally established in Japan by the Mandom Corporation, Gatsby has become synonymous with trendy male grooming, offering products that cater to modern aesthetics and appeal. The Gatsby fragrance line features vibrant, energetic scents that align with the dynamic lifestyles of its target audience.",https://www.gatsby.jp/img/common/logo_mandom.svg,https://www.gatsby.jp,Japan,1982,drugstore,,,,2025-07-18T12:32:10.942225,2025-08-28T15:40:24.806258
cmdddf3a4d3e43283b7ce04,Gattinoni,"Gattinoni is a luxury fashion brand founded by the Italian designer Fernanda Gattinoni in 1946. The company originally gained fame for its haute couture clothing but later expanded into the fragrance market, creating a line of perfumes that embody elegance and sophistication. The fragrances are crafted with rich, high-quality ingredients, reflecting the Italian heritage of artistry and craftsmanship. Gattinoni specializes in perfumes that offer unique olfactory experiences, often inspired by the themes of culture, fashion, and art, distinguishing themselves through a blend of tradition and modernity.",https://gattinoni.com/cdn/shop/files/gattinoni-logo-1653665259.png?v=1674233757&width=300,https://www.gattinoni.com,Italy,1946,designer,,,,2025-07-18T12:32:10.942225,2025-08-28T15:40:32.262942
cmd0e977c34b5c6942b618d,Gazzaz,"Gazzaz is a prominent perfume company based in Saudi Arabia, specializing in the design and manufacturing of high-quality fragrances. Founded by the Gazzaz family, the company has built a reputation for creating unique scents that blend traditional Arabian perfumery techniques with modern trends. Gazzaz emphasizes luxury and exclusivity in its product offerings, often combining natural ingredients with sophisticated formulations. The company serves both local and international markets, reflecting the rich cultural heritage of Arabian perfumery.",https://images.unsplash.com/photo-15907369626-6c63ac16f3df?w=400&h=300&fit=crop,https://www.gazzaz.com,Saudi Arabia,1978,niche,,,,2025-07-18T12:32:10.942225,2025-08-28T15:40:46.790010
cmda680ea082a321f1573e4,Gebauer & Gebauer,"Gebauer & Gebauer is a family-owned company known for its expertise in the production and distribution of high-quality fragrances. The company places a strong emphasis on crafting unique and innovative scents, catering to both personal and home fragrance markets. They focus on utilizing high-quality raw materials and traditional perfumery techniques, blending them with modern technology to create distinctive fragrances. Founded in 1878, Gebauer & Gebauer has established a reputation for excellence, serving both retail and wholesale sectors, and developing private label fragrances for various brands.",https://images.unsplash.com/photo-15907369626-6c63ac16f3df?w=400&h=300&fit=crop,www.gebauer-gebauer.de,Germany,1878,niche,,,,2025-07-18T12:32:10.942225,2025-08-28T15:40:54.723921
cmdb4cfec814871d794669d,Geelong Fragrance Fair,Geelong Fragrance Fair is a local fragrance company that specializes in the creation and distribution of unique and high-quality perfumes. Their focus is on utilizing local ingredients and craftsmanship to create products that reflect the essence of the Geelong region. The company is dedicated to offering a personalized fragrance experience and supporting local artisans.,https://images.unsplash.com/photo-15907369626-6c63ac16f3df?w=400&h=300&fit=crop,,Australia,,indie,,,,2025-07-18T12:32:10.942225,2025-08-28T15:40:59.927852
cmdff73e77016cabc5caf9d,Geezers,"Geezers is a modern perfume company that focuses on creating unique and adventurous fragrances that resonate with the contemporary man. Founded on the belief that fragrances can express individuality and style, Geezers blends traditional perfumery with innovative ideas to captivate a diverse audience. The brand prides itself on using high-quality ingredients and sustainable practices, appealing to a generation seeking authenticity and sustainability in their grooming choices.",https://images.unsplash.com/photo-1556909114-f6e7ad7d3136?w=400&h=300&fit=crop,www.geezersfragrance.com,United States,2020,indie,contact@geezersfragrance.com,,"123 Fragrance Way, New York, NY, 10001, USA",2025-07-18T12:32:10.942225,2025-08-28T15:41:06.094752
cmda8a4e2a8dc74900dc414,Geir Ness,"Geir Ness is a niche fragrance company based in Norway, known for its unique scents inspired by the natural beauty and culture of the Scandinavian region. The brand was founded by Geir Ness, a Norwegian entrepreneur who wanted to capture the essence of Norway in fragrance. Specializing in high-quality perfumes, Geir Ness is particularly notable for their signature scent, ""Geir,"" which has garnered international acclaim. The company focuses on creating artisanal fragrances that reflect the pure and pristine landscapes of Norway, utilizing natural ingredients and traditional craftsmanship.",https://geirness.com/cdn/shop/files/geir-ness-logo_cacca4c7-9367-4bea-bb6f-47404f4f6a64.png?v=1725999113&width=320,https://www.geirness.com,Norway,2004,niche,,,,2025-07-18T12:32:10.942225,2025-08-28T15:41:19.429719
cmddb6f336efbfa6baa6966,Gellé Frères,"Gellé Frères is a French perfume company with a rich history dating back to the 19th century. The brand was initially established as a candle and perfume company, specializing in high-quality fragrance creations. Over the years, Gellé Frères has become known for its unique blend of artisanal craftsmanship and innovative scent compositions, often inspired by the natural beauty of flowers and plants. The company focuses on creating niche fragrances that evoke deep emotions and memories, offering an eclectic range of scents that cater to sophisticated tastes.",https://images.unsplash.com/photo-1556909114-f6e7ad7d3136?w=400&h=300&fit=crop,https://www.gellefreres.com,France,1826,niche,,,,2025-07-18T12:32:10.942225,2025-08-28T15:41:56.075530
cmd1db182b873b5dee0e4dc,Gemey Paris,"Gemey Paris is a renowned perfumery that specializes in creating a wide range of affordable and accessible fragrances. Known for its vibrant and youthful scents, the brand focuses on delivering high-quality perfumes that are inspired by contemporary trends and the essence of Parisian elegance. Gemey Paris combines a chic aesthetic with innovation, appealing largely to a younger audience who appreciates fashionable fragrances without the luxury price tag.",https://images.unsplash.com/photo-15907369626-6c63ac16f3df?w=400&h=300&fit=crop,,France,,drugstore,,,,2025-07-18T12:32:10.942225,2025-08-28T15:42:02.009271
cmdd3d91497edb18e1bb239,Gemini Cosmetics,"Gemini Cosmetics is a beauty and fragrance company specializing in high-quality perfumes that merge contemporary artistry with traditional fragrance-making techniques. Established with a vision to create unique scent experiences, the company prides itself on using carefully selected ingredients and innovative marketing strategies. Over the years, Gemini Cosmetics has steadily increased its presence in the global market by appealing to a diverse clientele that values sophistication and individuality in their fragrance choices.",https://images.unsplash.com/photo-1587017539504-67cfbddac569?w=400&h=300&fit=crop,www.gemini-cosmetics.com,United States,2010,indie,info@gemini-cosmetics.com,,,2025-07-18T12:32:10.942225,2025-08-28T15:42:08.495206
cmde0b624258005bb86e815,Gendarme,"Gendarme is an American fragrance company known for its unisex fragrances that challenge traditional gender norms in perfumery. Founded by former fashion designer Claude Dir, the brand focuses on producing high-quality scents that evoke a sense of timeless elegance. Gendarme's perfumes are distinguished by their clean, fresh, and contemporary formulations, making them popular among a diverse clientele. The company is also recognized for its dedication to ethical practices and quality ingredients.",https://gendarme.com/cdn/shop/files/Gendarme_Type_Logo_-_White.png?v=1678601236,https://www.gendarme.com,United States,1999,indie,,,,2025-07-18T12:32:10.942225,2025-08-28T15:42:15.044130
cmd99ca089bbc430fb54708,Genderfluid,"Genderfluid is a contemporary perfume company that specializes in creating gender-neutral fragrances. Their mission is to challenge traditional notions of gender in perfumery and promote inclusivity. Founded by a team of fragrance enthusiasts, Genderfluid aims to craft unique scents that resonate with individuals of all identities. The brand emphasizes the importance of self-expression through scent, offering a diverse range of perfumes that cater to various preferences and tastes. Each fragrance is thoughtfully designed to embody the fluidity of identity and promote personal empowerment.",https://images.unsplash.com/photo-1587017539504-67cfbddac569?w=400&h=300&fit=crop,https://www.genderfluid.com,United States,2020,indie,contact@genderfluid.com,,,2025-07-18T12:32:10.942225,2025-08-28T15:42:22.451276
cmd87a144f78bfe2430b951,Genesis International,"Genesis International is a perfume company that specializes in creating high-quality fragrances for various markets. The company focuses on innovative scent development and aims to cater to diverse customer preferences. With a commitment to excellence, Genesis International has built a reputation for producing unique and captivating fragrances that appeal to a wide audience. They also emphasize sustainable practices in their production processes, incorporating eco-friendly ingredients and packaging.",https://images.unsplash.com/photo-15907369626-6c63ac16f3df?w=400&h=300&fit=crop,,,,indie,,,,2025-07-18T12:32:10.942225,2025-08-28T15:42:28.048947
cmd3add16e6eb5eb85faa9a,Genesse,"Genesse is a luxury perfume company that prides itself on creating unique and exquisite fragrances inspired by the natural world. Established with a vision to evoke emotions and memories through scent, Genesse's story began with a deep passion for perfume-making and an appreciation for the art of olfactory design. The brand specializes in artisan fragrances that are crafted using high-quality ingredients sourced from around the globe. With a focus on sustainability and ethical sourcing, Genesse aims to provide consumers with luxury products that are both environmentally conscious and indulgently enjoyable.",https://images.unsplash.com/photo-1541643600914-78b084683601?w=400&h=300&fit=crop,www.genesseperfume.com,United States,2015,niche,info@genesseperfume.com,,,2025-07-18T12:32:10.942225,2025-08-28T15:42:34.501407
cmdd6ef5ce23494925e77c0,Genki Wear,"Genki Wear is a unique niche brand in the perfume industry that focuses on creating playful and vibrant scents inspired by Japanese culture and nature. The company aims to encapsulate the essence of joy and positivity, offering consumers a fresh perspective on fragrance through innovative designs and sustainable practices. Their specialty lies in blending traditional Japanese ingredients with modern fragrance crafting techniques to create uplifting and memorable perfumes. The brand emphasizes creativity, quality, and environmental responsibility in its product range, often appealing to the younger demographic seeking authenticity and uniqueness in their scent choices.",https://images.unsplash.com/photo-1541643600914-78b084683601?w=400&h=300&fit=crop,[www.genkWear.com](https://www.genkWear.com),Japan,2018,niche,,,,2025-07-18T12:32:10.942225,2025-08-28T15:42:41.140576
cmd405173b7b26cf0582f46,Genny,"Genny is an Italian fashion brand known primarily for its ready-to-wear collections and a selection of fragrances. Established in the 1980s, Genny has carved a niche in the luxury fashion market, offering elegant and sophisticated scents that complement their clothing lines. The brand emphasizes bold, feminine fragrances, often characterized by rich, floral and fruity notes. Genny’s perfume line reflects its dedication to craftsmanship and style, becoming a staple for consumers looking for luxurious yet accessible options in the fragrance sector.",https://images.unsplash.com/photo-1541643600914-78b084683601?w=400&h=300&fit=crop,https://www.genny.it,Italy,1985,designer,,,,2025-07-18T12:32:10.942225,2025-08-28T15:42:50.549452
cmd783d7e136463fbe928c4,Gentleman's Nod,"Gentleman's Nod is an indie fragrance house that specializes in creating high-quality, unique, and artisanal perfumes. Founded by a small team of passionate individuals, the company focuses on crafting scents that pay homage to classic fragrances while infusing modern twists. Their products are made using carefully selected ingredients, emphasizing craftsmanship and individuality. Gentleman's Nod is known for its dedication to the art of perfumery and strives to provide memorable olfactory experiences.",https://gentlemansnod.com/cdn/shop/files/GentlemansNod-Icon_Type-Color-WhiteType-560_2_280x@2x.png?v=1613528012,https://gentlemansnod.com,United States,2016,indie,,,,2025-07-18T12:32:10.942225,2025-08-28T15:42:57.095416
cmdf55c781f6428c162e8b5,Gentleman's Tonic,"Gentleman's Tonic is a luxury grooming and fragrance brand that offers a range of high-quality products for men. Founded with the vision of providing sophisticated grooming solutions, the company emphasizes traditional craftsmanship combined with modern sensibilities. They are known for their bespoke services and premium products, including shaving items, skincare, and a curated line of fragrances that reflect refined masculinity. The brand caters primarily to discerning gentlemen seeking elegance and exclusivity in their grooming ritual.",https://images.unsplash.com/photo-1587017539504-67cfbddac569?w=400&h=300&fit=crop,https://www.gentlemans-tonic.com,United Kingdom,2004,niche,,,,2025-07-18T12:32:10.942225,2025-08-28T15:43:03.242039
