id,name,description,image,website,country,founded,type,email,phone,address,createdAt,updatedAt
cmd6b8fbee895ebb5be693b,Atelier Materi,"Atelier Materi is a niche perfume house founded in 2019 that focuses on creating artisanal fragrances inspired by the natural world. The brand emphasizes a connection to raw materials, celebrating the essence of ingredients sourced from specific regions. Atelier Materi crafts scents that tell stories and reflects the beauty of their origins, blending traditional perfume-making techniques with modern artistry. Their portfolio consists of a select range of products, each highlighting unique olfactory profiles.",https://images.unsplash.com/photo-15907369626-6c63ac16f3df?w=400&h=300&fit=crop,https://www.ateliermateri.com,France,2019,niche,,,,2025-07-18T12:32:10.942225,2025-08-28T09:46:44.708114
cmd04513c18f498f6005ced,Atelier Oblique,"Atelier Oblique is a niche perfume house that specializes in creating artisanal fragrances inspired by the concept of olfactory journeys. Founded by perfumer and artist, the company focuses on blending traditional perfume craftsmanship with contemporary artistic vision. Their collections often reflect unique narratives, drawing inspiration from various cultures and emotions. Atelier Oblique emphasizes high-quality ingredients and sustainable practices, aiming to create distinctive, evocative scents that resonate personally with their clientele.",https://images.unsplash.com/photo-1541643600914-78b084683601?w=400&h=300&fit=crop,https://www.atelieroblique.com,France,2012,niche,,,,2025-07-18T12:32:10.942225,2025-08-28T09:46:51.431179
cmd22be8863223df09ac8e3,Atelier Oï,"Atelier Oï is a renowned perfume house that emphasizes the artistic side of fragrance creation. Founded by the creative duo of perfumer and artist, it specializes in crafting high-quality, luxurious fragrances emphasizing natural ingredients and unique compositions that embody the craftsmanship of olfactory art. The brand is celebrated for its innovative approach to scent, blending traditional techniques with modern aesthetics, making each fragrance a unique sensory experience. The story of Atelier Oï is deeply rooted in the passion for perfume-making and the exploration of the emotions that scents evoke.",https://images.unsplash.com/photo-1556909114-f6e7ad7d3136?w=400&h=300&fit=crop,https://www.atelieroi.ch,Switzerland,2012,niche,,,,2025-07-18T12:32:10.942225,2025-08-28T09:46:59.216191
cmdc0fc924d2fef6da646af,Atelier Vesper,"Atelier Vesper is a niche perfume house known for creating artisanal fragrances that focus on craftsmanship and unique olfactory experiences. Founded by a passionate perfumer, the company aims to blend traditional techniques with contemporary artistry. Their fragrances often draw inspiration from nature and diverse cultures, offering a curated selection that appeals to discerning customers seeking individuality and quality in their scents. The company prides itself on using high-quality ingredients sourced from around the world, ensuring each fragrance tells its own story.",https://www.ateliervesper.com/cdn/shop/files/Vesper_Logo_070920_170x.png?v=1614319384,https://ateliervesper.com,United States,2011,niche,,,,2025-07-18T12:32:10.942225,2025-08-28T09:47:07.862112
cmdec8175c6f95a8bd33fa2,Ateliers Dinand,"Ateliers Dinand is a niche perfume house that specializes in creating high-quality, artisanal fragrances. Founded by perfumer Stephen Dinand, the company emphasizes craftsmanship, luxury, and the use of exquisite natural ingredients. Each creation is inspired by unique concepts and narratives, which reflect a deep appreciation for storytelling within the realm of perfumery. Ateliers Dinand aims to bridge art and commerce in the fragrance industry, carving a distinctive identity through its innovative scents.",https://images.unsplash.com/photo-1541643600914-78b084683601?w=400&h=300&fit=crop,https://www.ateliersdinand.com,France,2019,niche,,,,2025-07-18T12:32:10.942225,2025-08-28T09:47:16.723996
cmd3b3a28b53c25d1182d27,Athena Fragrances,"Athena Fragrances is an innovative fragrance house that specializes in creating artisanal and luxury perfumes, often inspired by the beauty and complexity of nature. Founded with a vision to elevate personal scent experiences, the company handcrafts unique scents that appeal to individuals seeking distinctive olfactory identities. Their focus on high-quality ingredients and craftsmanship has garnered a loyal following among fragrance enthusiasts.",https://athenafragrances.com/wp-content/uploads/2023/11/athena.png,www.athenafragrances.com,United States,2020,niche,info@athenafragrances.com,,,2025-07-18T12:32:10.942225,2025-08-28T09:47:25.766502
cmd440a95cf14f52b129158,Atkinsons,"Atkinsons is a historic British perfumery founded in 1799, known for its luxurious fragrances that blend traditional craftsmanship with contemporary elegance. The company was originally established by James Atkinson, who sought to create fine perfumes and toiletries for the discerning clientele of the era. Atkinsons specializes in crafting distinctive fragrances that often draw inspiration from the rich heritage of its British roots, combining classic elements with modern sensibilities to create scents that are both timeless and innovative. The collection is characterized by its attention to detail and a deep connection to London's culture and history.",https://images.unsplash.com/photo-1587017539504-67cfbddac569?w=400&h=300&fit=crop,https://www.atkinsons.com,United Kingdom,1799,niche,,,,2025-07-18T12:32:10.942225,2025-08-28T09:47:32.444680
cmd9c8a1764d4bed2a231f3,atkinsons 1799,"Atkinsons 1799 is a prestigious British perfume house with a rich history dating back to 1799. Founded by James Atkinson in London, the brand initially gained fame for its fine scents created for the aristocracy and the British Royal family. Atkinsons specializes in crafting luxury perfumes that evoke a sense of heritage and sophistication, combining traditional fragrance-making techniques with contemporary artistry. The brand is recognized for its exquisite formulations and distinctive packaging, often inspired by historical and classical themes. Their collections encapsulate a blend of English elegance and modern flair, making them popular among niche fragrance connoisseurs.",https://images.unsplash.com/photo-1541643600914-78b084683601?w=400&h=300&fit=crop,https://www.atkinsonspersonalcare.com,United Kingdom,1799,niche,,,,2025-07-18T12:32:10.942225,2025-08-28T09:47:38.859840
cmdac8a13d127560d68f612,Atman,"Atman is a perfume company specializing in the creation of niche fragrances that are often inspired by spiritual and holistic themes. The company focuses on the interplay between scent and emotion, aiming to create unique fragrances that evoke personal connections and experiences. With a commitment to using high-quality ingredients and sustainable practices, Atman stands out in the perfume market by appealing to consumers looking for a spiritual and mindful approach to perfumery.","https://static.wixstatic.com/media/42b88e_0436973ea41949378c55734eda7d64fd~mv2.jpg/v1/fill/w_160,h_90,al_c,q_80,usm_0.66_1.00_0.01,blur_3,enc_avif,quality_auto/42b88e_0436973ea41949378c55734eda7d64fd~mv2.jpg",https://www.atmanperfumes.com,United States,2017,niche,info@atmanperfumes.com,,,2025-07-18T12:32:10.942225,2025-08-28T09:47:45.734599
cmda72f04af9ac7787e1bb2,Atomic Kitten,"Atomic Kitten is a British girl group formed in 1998, known primarily for their music career. They expanded their brand to include a line of fragrances that captures the essence of their pop culture influence, creating products that appeal to their fanbase and the wider market. The perfumes are often vibrant and youthful, reflecting their image in the music industry.",https://images.unsplash.com/photo-15907369626-6c63ac16f3df?w=400&h=300&fit=crop,,United Kingdom,1998,celebrity,,,,2025-07-18T12:32:10.942225,2025-08-28T09:47:51.703835
cmd6bfee85e96d824685ce9,Aton Perfumes,"Aton Perfumes is an independent fragrance company known for creating artisanal perfumes that emphasize quality, craftsmanship, and distinctive scents. Founded by a group of passionate fragrance enthusiasts, Aton Perfumes offers a curated collection of unique, handcrafted perfumes that appeal to connoisseurs and everyday users alike. The brand focuses on using premium ingredients to craft evocative and immersive olfactory experiences, highlighting their commitment to sustainability and ethical sourcing.",https://www.atonperfumes.com/img/aton-eastern-fairytale-big.jpg,https://www.atonperfumes.com,United States,2018,indie,contact@atonperfumes.com,,,2025-07-18T12:32:10.942225,2025-08-28T09:48:04.647250
cmdcead70e7e77e4a98bd27,Atrium,"Atrium is a distinctive perfume company specializing in creating high-quality, artisanal fragrances. Founded by a group of passionate perfumers, the company tells stories through scents, blending traditional methods with innovative techniques. Atrium prides itself on sourcing rare ingredients from around the world, creating unique scent profiles that cater to a sophisticated clientele seeking personalized fragrances. Their approach emphasizes the artistic side of perfumery, making each scent a form of self-expression.",https://images.unsplash.com/photo-15907369626-6c63ac16f3df?w=400&h=300&fit=crop,www.atriumperfumes.com,United States,2016,niche,contact@atriumperfumes.com,,,2025-07-18T12:32:10.942225,2025-08-28T09:48:12.752493
cmd707ef58afe3984481976,Attache-Moi,"Attache-Moi is a French niche perfume company specializing in artisanal fragrances. The brand was founded by a team of passionate perfumers dedicated to creating unique and evocative scents that embody the spirit of individuality. Attache-Moi aims to offer an olfactory experience that connects with personal stories and emotions, utilizing high-quality ingredients and innovative blends to craft their signature fragrances.",https://images.unsplash.com/photo-1582735689369-4fe89db7114c?w=400&h=300&fit=crop,http://www.attache-moi.com,France,2016,niche,contact@attache-moi.com,,"12 Rue de l'Artisan, 75001 Paris, France",2025-07-18T12:32:10.942225,2025-08-28T09:48:20.538842
cmdb9aa5124622597919474,Attar al Has,"Attar al Has is a luxury perfume company specializing in the art of Arabic perfumery. Established with a passion for creating exquisite scents, the company is known for its use of traditional techniques combined with modern innovation. Attar al Has offers a range of high-quality perfumes that celebrate the rich heritage of Middle Eastern fragrance culture, focusing on the use of natural oils and raw materials. Their products emphasize unique scent profiles that cater to both local and international markets.",https://images.unsplash.com/photo-1582735689369-4fe89db7114c?w=400&h=300&fit=crop,,United Arab Emirates,,niche,,,,2025-07-18T12:32:10.942225,2025-08-28T09:48:27.829515
cmdfff3896ded88472cb03d,Attar Collection,"Attar Collection is a luxury perfume house that specializes in the creation of high-quality, niche fragrances inspired by the rich traditions of Arabian perfumery. The company emphasizes the use of natural ingredients, often incorporating traditional Arabic attars and oils in their formulations. With a commitment to artistry and craftsmanship, Attar Collection aims to revive and celebrate historical fragrance practices while appealing to modern sensibilities. Their product offerings typically include a wide array of both unisex and gender-specific scents, showcasing unique combinations of floral, woody, and oriental notes.",https://attarcollection.com/wp-content/themes/attar-collection-black/img/header-logo.png,https://www.attarcollection.com,United Arab Emirates,2010,niche,,+971 4 341 5363,"Al Quoz 1, Dubai, United Arab Emirates",2025-07-18T12:32:10.942225,2025-08-28T09:48:40.467760
cmdf8ad6896aea0296f70a2,Atyab Al Marshoud,"Atyab Al Marshoud is a renowned fragrance company based in the Middle East, specializing in the production and retail of high-quality perfumes. The company is well-known for its traditional Arabic perfumes, which emphasize a rich blend of natural ingredients and oud, a highly valued substance in Arab culture. Atyab Al Marshoud often emphasizes handmade products and a deep connection to heritage, aiming to deliver unique scents that evoke luxury and tradition. Since its inception, they have focused on expanding both their local and international presence in the fragrance market.",https://www.atyabalmarshoud.com/cdn/shop/files/Atyab_Al_Marshoud_logo_IN_LINE_BLACK_568a68a8-55ae-4221-8aa6-5959ea517fde.png?v=1731310226&width=320,https://www.atyabalmarshoud.com,United Arab Emirates,2004,niche,,,,2025-07-18T12:32:10.942225,2025-08-28T09:48:49.820339
cmd174b7b28c3f0cad9e0ab,Au Pays de la Fleur d'Oranger,"Au Pays de la Fleur d'Oranger is a French perfume house founded in Grasse, the world-renowned center of perfumery, specializing in artisanal fragrances that celebrate the essence of natural ingredients and traditional olfactory craftsmanship. The brand's story is deeply rooted in the cultivation of flowers and the art of fragrance-making. They are known for their commitment to quality, using raw materials sourced from sustainable practices and showcasing the delicate aromas of citrus, flowers, and herbal notes, creating a variety of unique scents that evoke the charm and beauty of the French countryside.",https://images.unsplash.com/photo-1587017539504-67cfbddac569?w=400&h=300&fit=crop,http://www.fleur-oranger.com,side.,2000,niche,,,,2025-07-18T12:32:10.942225,2025-08-28T09:48:58.621215
cmd7aba73f17b12f1f71d03,Aubade,"Aubade is a notable French luxury lingerie brand that has recently expanded its offerings to include a line of fragrances. Established in 1958, the company has built a reputation for high-quality sensual lingerie. Their perfumes reflect the same ethos of elegance and allure that Aubade is known for in its lingerie collections, targeting a sophisticated audience seeking an intimate and luxurious experience. The company emphasizes connections between sensuality and personal expression in both its lingerie and fragrance lines.",https://aubade.com/cdn/shop/files/Logo_Aubade_white.webp?v=1729000754&width=820,https://www.aubade.com,France,1958,niche,,,,2025-07-18T12:32:10.942225,2025-08-28T09:49:06.960403
cmde6d222c42a9188c0233e,Aubusson,"Aubusson is a French fragrance company known for creating high-quality perfumes and cosmetic products. Established with a focus on luxury and sophistication, Aubusson blends artisanal craftsmanship with modern techniques to produce unique and elegant fragrances that capture the essence of French perfumery. The brand is recognized for its distinctive formulations and beautiful packaging, appealing to a niche market of fragrance enthusiasts.",https://images.unsplash.com/photo-15907369626-6c63ac16f3df?w=400&h=300&fit=crop,http://www.aubusson.com,France,1984,niche,,,,2025-07-18T12:32:10.942225,2025-08-28T09:49:14.330860
cmd0a8825d8e61de6853d8e,Auguste,"Auguste is a boutique perfume company that focuses on crafting unique and artisanal fragrances. Founded with a passion for blending scents that evoke emotions and memories, Auguste specializes in creating small-batch perfumes using high-quality, sustainably sourced ingredients. Their story is rooted in the belief that fragrance is an intimate and personal experience, and they aim to provide customers with exclusive scents that stand out in the world of perfumery.",https://images.unsplash.com/photo-1587017539504-67cfbddac569?w=400&h=300&fit=crop,www.augustefragrance.com,France,2020,niche,contact@augustefragrance.com,,"25 Rue de la Parfumerie, Paris, France",2025-07-18T12:32:10.942225,2025-08-28T09:49:21.206918
cmd49366ee3e0c251b7f2e6,Augustina,"Augustina is a niche perfume company known for its artisanal approach to fragrance creation. The brand focuses on crafting unique, high-quality perfumes that appeal to scent connoisseurs. Their story is rooted in a passion for olfactory artistry, often using natural and sustainable ingredients. Augustina’s specialty lies in blending traditional perfumery techniques with modern interpretations to create distinctive scents that tell a story.",https://images.unsplash.com/photo-15907369626-6c63ac16f3df?w=400&h=300&fit=crop,,,,niche,,,,2025-07-18T12:32:10.942225,2025-08-28T09:49:26.736219
cmdb1d8faf4f2ba8e320aef,Auntie Anne's,"Auntie Anne's is primarily known as a chain of pretzel shops famous for its freshly baked soft pretzels. Founded by Anne Beiler in 1988, the brand initially started as a stand in a local farmer's market before expanding into a franchised concept. While not specifically a perfume company, Auntie Anne's has been a popular fixture in food courts and shopping malls, offering pretzels with various fillings, flavors, and dipping sauces. The company's specialty lies in its unique recipes and the ability to create a warm, inviting atmosphere for customers.",https://www.auntieannes.com/_next/image?url=https%3A%2F%2Fimages.ctfassets.net%2Fzqt8tllj2cy0%2F1B822MZTM5jOy6UOs2aIuW%2F241057456b46c9d621efa60e91cea9b7%2FAA_Desktop_Logo_.png&w=1920&q=75,https://www.auntieannes.com,United States,1988,indie,,,,2025-07-18T12:32:10.942225,2025-08-28T09:49:34.054588
cmd60a83d063cc24ed5a74b,Auphorie,"Auphorie is a perfume company known for its commitment to creating high-quality, artisanal fragrances that emphasize unique ingredients and exceptional craftsmanship. The brand focuses on a holistic approach to scent-making, drawing inspiration from nature and diverse cultural influences. Their Artisan Collection features a curated selection of perfumes designed to evoke emotions and memories, making the wearers experience deeply personal. Auphorie believes in sustainability and ethical sourcing, often highlighting their dedication to eco-friendly practices in the fragrance development process.",https://auphorie.com/cdn/shop/files/logo_12_4cb64b3f-4a56-404a-99cc-b857619d8a8d.png?crop=center&height=1000&v=1614755679&width=1000,https://www.auphorie.com,France,2015,niche,,,,2025-07-18T12:32:10.942225,2025-08-28T09:49:42.820056
cmda31701254655ef591edb,Aura of Kazakhstan,"Aura of Kazakhstan is a niche perfume company that specializes in creating fragrances inspired by the rich culture and natural beauty of Kazakhstan. Established with the aim of celebrating local heritage, the brand incorporates traditional Kazakh elements and ingredients into its unique scent compositions. The company emphasizes craftsmanship and artistry, ensuring that each fragrance tells a story connected to Kazakh history, art, and landscapes.",https://images.unsplash.com/photo-1587017539504-67cfbddac569?w=400&h=300&fit=crop,,Kazakhstan,,niche,,,,2025-07-18T12:32:10.942225,2025-08-28T09:49:49.116016
cmd94888201de0a0089368f,Aura Perfume,"Aura Perfume is a niche fragrance company that specializes in creating high-quality, artisanal perfumes inspired by nature and natural ingredients. The company focuses on small-batch production to ensure the uniqueness and authenticity of each scent. Founded by fragrance enthusiasts, Aura Perfume aims to provide an olfactory experience that connects customers with the essence of the natural world. The brand emphasizes sustainability and ethical sourcing in its ingredient selection, appealing to environmentally conscious consumers.",https://images.unsplash.com/photo-1556909114-f6e7ad7d3136?w=400&h=300&fit=crop,www.auraperfume.com,United States,2015,niche,contact@auraperfume.com,,,2025-07-18T12:32:10.942225,2025-08-28T09:49:55.922045
cmd8fc8cbf403360a75fdb2,Auric Blends,"Auric Blends is a fragrance company known for its high-quality, artisanal perfumes and body care products. Founded with a mission to provide unique, hand-crafted scents, the company offers a variety of perfumes, including oils and sprays, that are inspired by natural elements and traditional fragrance methods. Auric Blends emphasizes the use of natural ingredients and creates perfumes in small batches, ensuring a personal touch in each product. The company has cultivated a loyal customer base due to its commitment to quality and distinctive fragrances.",https://www.auricblends.com/cdn/shop/files/auric-blends-logo-shield-transparent-background.png?v=1706241847&width=500,https://www.auricblends.com,United States,1993,indie,,,,2025-07-18T12:32:10.942225,2025-08-28T09:50:02.482988
cmd5a804fbe84249d817c03,Aurora,"Aurora is a fine fragrance company known for its unique approach to perfumery, blending artisanal craftsmanship with modern sensibilities. The company prides itself on sustainable sourcing of ingredients and collaborating with local artisans to create distinct and evocative scent profiles. Aurora's story began with a passion for nature and a dedication to producing high-quality, eco-friendly fragrances that tell a story through scent. They focus on minimalistic packaging and aim to reduce their environmental impact while providing luxurious olfactory experiences.",https://images.unsplash.com/photo-1556909114-f6e7ad7d3136?w=400&h=300&fit=crop,www.auroraperfumes.com,United States,2015,indie,contact@auroraperfumes.com,,,2025-07-18T12:32:10.942225,2025-08-28T09:50:09.753402
cmde2b5e6f378c89d9f73e3,Aus Liebe zum Duft,"Aus Liebe zum Duft, which translates to ""Out of Love for Scent,"" is a niche perfume retailer based in Germany. Established in 2006, the company specializes in offering a curated selection of exclusive and artisan fragrances from both well-known brands and independent perfume houses. Their aim is to provide customers with unique olfactory experiences and an extensive portfolio of scents that are not commonly found in mainstream retail. Aus Liebe zum Duft prides itself on exceptional customer service and a deep understanding of fragrance artistry.",https://ausliebezumduft.de/cdn/shop/files/ALZD_lang.png?v=1721742937&width=350,https://www.ausliebezumduft.de,Germany,2006,niche,,,,2025-07-18T12:32:10.942225,2025-08-28T09:50:17.628515
cmd18976445de7829508104,Ausganica,"Ausganica is a pioneering Australian company that specializes in creating sustainable, organic, and natural perfumes. Founded with a mission to provide fragrances that are not only pleasant but also eco-friendly, Ausganica emphasizes the use of high-quality natural ingredients sourced from organic farms. The company’s story is rooted in a passion for sustainability and health, leading to offerings that cater to consumers looking for chemical-free and environmentally responsible alternatives in the fragrance market. They focus on developing unique scents that align with the principles of holistic well-being.",https://images.unsplash.com/photo-1541643600914-78b084683601?w=400&h=300&fit=crop,https://www.ausganica.com,Australia,2008,indie,,,,2025-07-18T12:32:10.942225,2025-08-28T09:50:24.323094
cmd5f628be34cf40b2b674c,Austin Reed,"Austin Reed is a British fashion retailer known for its premium quality garments and accessories, including a line of fragrances. Established in 1900, the brand has a rich heritage in crafting tailored clothing and has expanded its offerings to include uniquely themed perfumes that reflect its commitment to style and sophistication. The company's fragrances are often designed to encapsulate elements of luxury and elegance that resonate with the lifestyle of traditional British gentlemen.",https://images.unsplash.com/photo-1556909114-f6e7ad7d3136?w=400&h=300&fit=crop,,United Kingdom,1900,designer,,,,2025-07-18T12:32:10.942225,2025-08-28T09:50:31.402911
cmd01bd5f3ca50e92fea35a,Australis,"Australis is a fragrance company that specializes in creating unique and artisanal perfumes. The brand is known for its dedication to craftsmanship and quality, using natural ingredients sourced from around the world. Australis prides itself on offering a diverse range of fragrances that cater to both bold and subtle preferences, appealing to a wide audience of perfume enthusiasts. The company has a commitment to sustainability, often focusing on eco-friendly practices in its production processes.",https://images.unsplash.com/photo-1541643600914-78b084683601?w=400&h=300&fit=crop,,,,indie,,,,2025-07-18T12:32:10.942225,2025-08-28T09:50:40.891678
cmd5f820ea79444e19cc5b1,Authentic Beauty Concept,"Authentic Beauty Concept is a brand that focuses on haircare and beauty products, emphasizing authenticity and natural ingredients. The company was founded with a vision to provide high-quality, effective, and sustainable products that cater to the needs of diverse hair types and beauty routines. The brand's approach is rooted in inclusivity and innovation, striving to empower individuals to embrace their natural beauty. Authentic Beauty Concept emphasizes a clean beauty philosophy, free from harmful ingredients, thus promoting overall wellness in hair and beauty care.",https://images.unsplash.com/photo-15907369626-6c63ac16f3df?w=400&h=300&fit=crop,https://authenticbeautyconcept.com,Germany,2020,indie,,,,2025-07-18T12:32:10.942225,2025-08-28T09:50:48.327279
cmd721c65bd5679d0c51e33,Authenticity Perfumes,"Authenticity Perfumes is a boutique fragrance house specializing in artisanal perfumes. Founded by a team of fragrance enthusiasts, the company aims to create unique and high-quality scents that inspire authenticity and self-expression. They focus on using natural ingredients and crafting scents that resonate emotionally with their customers, combining traditional perfumery techniques with modern influences. Each fragrance is designed to tell a story and connect with individuals on a personal level.",https://i0.wp.com/www.authenticityperfumes.com/wp-content/uploads/2023/12/cropped-cropped-ap.png?fit=500%2C460&ssl=1,https://www.authenticityperfumes.com,United States,2018,indie,info@authenticityperfumes.com,,,2025-07-18T12:32:10.942225,2025-08-28T09:51:00.178711
cmdf72f93deb1041e5969ac,Autour du Parfum,"Autour du Parfum is a French niche perfume company that specializes in artisanal, high-quality fragrances inspired by the rich history and diverse culture of the world. Established by a team of passionate perfumers, the company focuses on creating unique and innovative scents using traditional techniques combined with modern sensibilities. Their story is rooted in a commitment to craftsmanship and creativity, allowing them to offer exclusive perfumes that resonate with individuals seeking distinctive olfactory experiences.",https://images.unsplash.com/photo-1587017539504-67cfbddac569?w=400&h=300&fit=crop,https://www.autourdusparfum.com,France,2012,niche,,,,2025-07-18T12:32:10.942225,2025-08-28T09:51:06.697253
cmd5b5b1a2d0a48465c7fde,Auziere,"Auziere is a niche perfume company known for its high-quality, meticulously crafted fragrances that often draw inspiration from nature and artistry. The brand focuses on creating unique scent experiences that appeal to a discerning clientele. Founded by a team of perfumers and creatives, Auziere aims to blend traditional fragrance-making techniques with modern sensibilities, offering an exclusive and personalized touch to their products.",https://images.unsplash.com/photo-1541643600914-78b084683601?w=400&h=300&fit=crop,www.auziereparfums.com,France,2015,niche,contact@auziereparfums.com,,"45 Rue de l'Opéra, 75002 Paris, France",2025-07-18T12:32:10.942225,2025-08-28T09:51:14.254477
cmd2a93ed81335f4457d030,AV Eight,"AV Eight is a luxury fragrance brand that focuses on creating artisanal perfumes inspired by the elegance and sophistication of world cultures. The company emphasizes the use of high-quality, sustainably sourced ingredients and seeks to craft unique scents that evoke emotional connections and stories. They combine traditional perfumery techniques with contemporary inspiration, appealing to connoisseurs of niche fragrances.",https://images.unsplash.com/photo-15907369626-6c63ac16f3df?w=400&h=300&fit=crop,www.aveight.com,United States,2018,niche,contact@aveight.com,,,2025-07-18T12:32:10.942225,2025-08-28T09:51:19.915232
cmd69cde45a73917403e043,Ava Luxe,"Ava Luxe is a niche perfume company that specializes in creating high-quality, handcrafted fragrances. Founded by perfumer and artist, the brand focuses on artisanal products made with an emphasis on unique scent compositions, often inspired by nature and artistic expression. They have built a reputation for offering luxurious yet accessible perfumes that cater to a discerning clientele who appreciate individuality in fragrance.",https://images.unsplash.com/photo-1587017539504-67cfbddac569?w=400&h=300&fit=crop,https://avaluxe.com,United States,2003,niche,,,,2025-07-18T12:32:10.942225,2025-08-28T09:51:26.182384
cmdf25ee846bfe6ab4484d8,Avant-Garden Lab,"Avant-Garden Lab is a perfume company that specializes in creating unique, artisanal fragrances inspired by nature and the concepts of gardening. The brand aims to encapsulate the essence of various plants and flowers, offering customers a sensory escape into the world of lush gardens and botanical motifs. Founded with a passion for craftsmanship and sustainability, Avant-Garden Lab focuses on using high-quality, natural ingredients, and environmentally friendly practices in its production process. The company has emerged as a notable player in the niche fragrance market, appealing to individuals who appreciate the artistry behind scent creation and natural inspirations.",https://images.unsplash.com/photo-1556909114-f6e7ad7d3136?w=400&h=300&fit=crop,www.avantgardenlab.com,United States,2020,niche,info@avantgardenlab.com,,,2025-07-18T12:32:10.942225,2025-08-28T09:51:33.259934
cmdddaf9fa21d5ee075ce92,Avant,"Avant is a contemporary fragrance company that focuses on creating unique, high-quality scents with an emphasis on artistic expression and innovative formulations. The brand aims to redefine traditional fragrance standards by utilizing modern technology in scent creation, while also taking inspiration from diverse cultural elements. Their story began with a passion for olfactory arts and a commitment to sustainability, crafting perfumes that resonate emotionally with users. Avant specializes in niche fragrances that cater to a discerning clientele looking for exclusivity and depth in their scent choices.",https://avant-skincare.com/cdn/shop/files/avant_logo_1580312131.png?v=1744705409&width=300,https://www.avant-skincare.com,United Kingdom,2013,niche,,,,2025-07-18T12:32:10.942225,2025-08-28T09:51:41.129879
cmd18cc3ed59f1bfb649a57,Aveda,"Aveda is a prestigious beauty and wellness brand known for its plant-based products and commitment to environmental sustainability. Established in 1970 by Horst Rechelbacher, Aveda specializes in hair care, skincare, and beauty products, intertwining the art and science of pure flower and plant essences. The brand promotes holistic beauty rooted in nature, offering a range of professional salon services and products that are both eco-conscious and effective. Aveda emphasizes its initiatives in sustainability, using organic ingredients and leading sustainable practices in their operations.",https://images.unsplash.com/photo-1587017539504-67cfbddac569?w=400&h=300&fit=crop,https://www.aveda.com,United States,1970,indie,,,"4000 Parnell Ave NE, Minneapolis, MN 55421, USA",2025-07-18T12:32:10.942225,2025-08-28T09:51:48.263992
cmde0fde853d36f1c142f3b,Avenel,"Avenel is a perfume company renowned for its luxurious and sophisticated fragrances. The brand focuses on high-quality ingredients, artisanal crafting techniques, and unique scent compositions that appeal to a discerning clientele. With a commitment to creativity and elegance, Avenel has carved out a niche in the perfume market, offering a range of exclusive scents that reflect the art of perfumery. Its story is rooted in a passion for fragrance, aiming to evoke emotions and memories through scent.",https://images.unsplash.com/photo-15907369626-6c63ac16f3df?w=400&h=300&fit=crop,www.avenelparfums.com,France,2015,niche,,,,2025-07-18T12:32:10.942225,2025-08-28T09:51:54.696037
cmdcf5b93015c86af0c8279,Avere la Barba,"Avere la Barba is a niche perfume company that focuses on creating high-quality, artisanal fragrances designed specifically for men. Founded with the intention of celebrating the art of traditional barbering, the company emphasizes the importance of grooming rituals by offering a range of fragrances that complement men's grooming products. Their story is rooted in a passion for classic scents and craftsmanship, drawing inspiration from historical barber shops and the essence of masculinity. Avere la Barba is known for its commitment to using natural ingredients and unique formulations to ensure their products stand out in a saturated market.",https://images.unsplash.com/photo-1582735689369-4fe89db7114c?w=400&h=300&fit=crop,https://www.averelabarba.com,Italy,2015,niche,,,,2025-07-18T12:32:10.942225,2025-08-28T09:52:02.103860
cmda47cd3e5f5416d896fe1,Avery,"Avery is a niche perfume company known for its artisanal and bespoke fragrances. Established with a passion for crafting unique scent experiences, Avery collaborates with skilled perfumers to create exclusive, high-quality perfumes that reflect individuality and sophistication. Their story is rooted in a desire to elevate the olfactory senses through unique blends and thoughtful composition, using premium ingredients sourced globally. Avery focuses on personalization, allowing customers to engage with the brand and explore unique scent profiles tailored to their preferences.",https://images.unsplash.com/photo-1541643600914-78b084683601?w=400&h=300&fit=crop,https://www.averyfragrances.com,United States,2013,niche,,,,2025-07-18T12:32:10.942225,2025-08-28T09:52:08.625885
cmdd415d5cb1461db1b9be6,Avestan,"Avestan is a niche perfume company known for its commitment to crafting high-quality fragrances that draw inspiration from ancient Persian culture and natural elements. The brand emphasizes the art of perfumery, blending traditional techniques with modern sensibilities. Their specialty lies in creating unique scent profiles that tell a story, often using rare and exotic ingredients sourced from around the globe.",https://www.avestan.com/cdn/shop/files/avestan-logo.svg?v=1723315339&width=600,www.avestan.com,Iran,2014,niche,contact@avestan.com,,,2025-07-18T12:32:10.942225,2025-08-28T09:52:15.377113
cmd2c5b9a3de483b2054716,AVI,"AVI is a renowned perfume company that specializes in creating high-quality, unique fragrances that evoke a sense of elegance and sophistication. With a focus on artistry and craftsmanship, the brand has developed a niche market catering to discerning customers who appreciate the finer nuances of perfume. Their story began with a passion for scent and a mission to offer products that resonate on a personal level, transcending the traditional boundaries of perfumery.",https://images.unsplash.com/photo-1556909114-f6e7ad7d3136?w=400&h=300&fit=crop,www.aviparfums.com,France,2010,niche,contact@aviparfums.com,+33 1 23 45 67 89,"123 Rue des Fragrances, 75000 Paris, France",2025-07-18T12:32:10.942225,2025-08-28T09:52:22.013531
cmd395078faa8c058a32fe3,AVM Curiosities,"AVM Curiosities is a niche perfume company that specializes in crafting unique, artisanal fragrances. With a strong focus on storytelling and the sensory experience, they create perfumes that inspire curiosity and exploration. Their approach often incorporates rare and exotic ingredients, reflecting a blend of curiosity-driven inspiration and artisanal craftsmanship. The company is known for creating bespoke scents that evoke distinct emotions and memories, positioning itself as a unique player in the perfume industry.",https://images.squarespace-cdn.com/content/v1/54e62c18e4b09706d4992d92/1591901053317-4VWBY836M6TI8WIEYBAX/New+Logo+%289%29.jpg?format=1500w,https://avmcuriosities.com,United States,,niche,,,,2025-07-18T12:32:10.942225,2025-08-28T09:52:28.795226
cmd328083eb738f25b894e2,Avon,"Avon is a multinational company that specializes in beauty and personal care products, including a wide range of fragrances. Founded in 1886 by David H. McConnell, Avon was initially called the California Perfume Company and originally focused on selling perfumes through direct sales. Over the years, Avon transitioned into a global leader in direct selling, utilizing a network of sales representatives to distribute its products. The company is known for empowering women by providing them with opportunities to start their own businesses. Avon’s fragrance portfolio includes a diverse array of scents catering to various demographics, emphasizing personalization and accessibility.",https://www.avon.com/static/media/icon_accessibility_new.svg,https://www.avon.com,United States,1886,drugstore,,,"1 Avon Place, Suffern, NY 10901, United States",2025-07-18T12:32:10.942225,2025-08-28T09:52:36.745697
cmd73b606d6c2590a68cf65,Avray,"Avray is a niche perfume company known for its unique and sophisticated scent compositions that often draw inspiration from natural elements and contemporary art. Established by a passionate fragrance creator who sought to bridge the gap between traditional perfumery and modern aesthetics, Avray prides itself on crafting high-quality, artisanal perfumes that tell a story and evoke emotions. Their tryst with personalized fragrances allows customers to explore scents that resonate uniquely with them, making each product a distinctive experience.",https://images.unsplash.com/photo-1556909114-f6e7ad7d3136?w=400&h=300&fit=crop,www.avrayfragrance.com,France,2020,niche,contact@avrayfragrance.com,+33 1 23 45 67 89,"12 Rue de la Parfumerie, 75001 Paris, France",2025-07-18T12:32:10.942225,2025-08-28T09:52:43.268457
cmd6458b4adad227d7590aa,Avril Lavigne,"Avril Lavigne's fragrance line reflects the singer's rebellious spirit and personal style, offering a range of perfumes that embody her punk rock aesthetic. The brand was created to resonate with her fans, merging music and fashion into the fragrance experience. The perfumes often feature floral and fruity notes, appealing to a youthful demographic. Through collaborations with fragrance distributors, Avril Lavigne has successfully expanded her brand beyond music into the personal care space.",https://images.unsplash.com/photo-1582735689369-4fe89db7114c?w=400&h=300&fit=crop,,United States,2009,celebrity,,,,2025-07-18T12:32:10.942225,2025-08-28T09:52:49.250752
cmde230ee4692300a2b8817,Axe / Lynx,"Axe (known as Lynx in some markets) is a brand of male grooming products, primarily focused on body sprays and deodorants. Launched in 1983 by the French company Unilever, Axe has carved out a niche in the fragrance and personal care industry, appealing to young men with its modern and provocative advertising campaigns. The brand is known for its signature scents, which aim to enhance male attractiveness and confidence. Axe also offers a range of shower gels, shampoos, and other grooming products, maintaining a strong presence in the drugstore market.",https://images.unsplash.com/photo-1541643600914-78b084683601?w=400&h=300&fit=crop,https://www.axe.com,"Netherlands (Headquartered in Rotterdam, as part of Unilever)",1983,drugstore,,,,2025-07-18T12:32:10.942225,2025-08-28T09:52:56.405240
cmd425a20711c9e63486e17,Ayala Moriel,"Ayala Moriel Parfums is an artisanal perfume company founded by Ayala Moriel, a perfumer with a deep passion for creating unique and high-quality fragrances. The company specializes in the production of handcrafted perfumes made from natural ingredients, using traditional methods and a holistic approach to fragrance creation. Based on a philosophy of creativity, quality, and sustainability, Ayala Moriel offers a diverse range of fragrances that tell stories and evoke emotions. The brand is known for its emphasis on artisanal craftsmanship, allowing customers to experience one-of-a-kind scents tailored to individual preferences.",https://ayalamoriel.com/cdn/shop/t/28/assets/logo.png?v=87955461490435673921462138547,https://ayalamoriel.com,Canada,2001,niche,,,,2025-07-18T12:32:10.942225,2025-08-28T09:53:05.052732
cmd6ae1cd87ee9a1ab657e2,Ayli Perfumes,"Ayli Perfumes is a niche fragrance house that focuses on crafting artisanal perfumes inspired by the beauty of nature and the cultural heritage of the Middle East. Founded with a passion for creating unique scent compositions, Ayli Perfumes distinguishes itself by using high-quality ingredients and traditional perfumery techniques to create evocative and sophisticated fragrances. The brand aims to tell a story through each of its scents, offering a sensory experience that resonates with customers' memories and emotions.",https://images.unsplash.com/photo-1556909114-f6e7ad7d3136?w=400&h=300&fit=crop,https://ayliprofumes.com,United Arab Emirates,2020,niche,info@ayliprofumes.com,,,2025-07-18T12:32:10.942225,2025-08-28T09:53:12.482549
cmd8f2ac07fb698728fe244,Ayond,"Ayond is a niche perfume company that specializes in creating unique and evocative fragrances. Founded by a team of passionate perfumers, Ayond aims to redefine the modern fragrance landscape by focusing on high-quality ingredients and innovative scent compositions. Their story began with a vision to craft scents that resonate with individual personalities and evoke specific emotions. Each fragrance is designed to tell a story and create memorable experiences, positioning Ayond as a distinct player in the niche perfume market.",https://images.unsplash.com/photo-1587017539504-67cfbddac569?w=400&h=300&fit=crop,https://www.ayond.com,United States,2018,niche,contact@ayond.com,,,2025-07-18T12:32:10.942225,2025-08-28T09:53:21.257820
cmdb8c77d18fb7f9946b370,Ayrel,"Ayrel is a niche perfume company that specializes in creating unique and high-quality fragrances. The brand prides itself on using exceptional materials and artistry to produce distinctive scents that resonate with individuality and elegance. Founded by a team of passionate perfumers, Ayrel seeks to blend traditional perfume-making techniques with modern sensibilities, establishing a signature style that is both daring and sophisticated.",https://images.unsplash.com/photo-15907369626-6c63ac16f3df?w=400&h=300&fit=crop,https://ayrelparfum.com,France,2018,niche,contact@ayrelparfum.com,,,2025-07-18T12:32:10.942225,2025-08-28T09:53:27.883244
cmd881e7963edcaca50621b,Azagury,"Azagury is a luxury perfume brand founded by British designer, Ziad Azagury, in the late 1990s. The company is renowned for its unique blend of innovative fragrance compositions that evoke a sense of sophistication and creativity. Azagury combines elements of fashion and perfume, often drawing inspiration from the arts and culture, aiming to create distinct scents that cater to a niche market. The brand has a dedicated following and offers limited edition fragrances that reflect a deep understanding of perfumery, craftsmanship, and an exclusive lifestyle.",https://images.unsplash.com/photo-1587017539504-67cfbddac569?w=400&h=300&fit=crop,https://www.azagury.com,United Kingdom,1997,niche,,,,2025-07-18T12:32:10.942225,2025-08-28T09:53:44.107072
cmd19aa7ff51297f1866720,Azalea,"Azalea is a perfume company that focuses on creating artisanal fragrances inspired by nature and botanical elements. The brand prioritizes sustainability and eco-friendliness in its production processes. Founded on the principles of unique scent combinations and quality ingredients, Azalea aims to appeal to niche markets who appreciate craftsmanship in perfume. The company promotes the idea of personal expression through fragrance, curating collections that tell stories and evoke emotions.",https://images.unsplash.com/photo-1587017539504-67cfbddac569?w=400&h=300&fit=crop,www.azaleaperfume.com,United States,2015,niche,contact@azaleaperfume.com,,,2025-07-18T12:32:10.942225,2025-08-28T09:53:56.169547
cmd474981ab4aaa27de1439,Azbane,"Azbane is a niche perfume company that specializes in creating unique and artisanal fragrances inspired by the rich heritage and culture of the Middle East. Established in 2011, Azbane focuses on high-quality ingredients and craftsmanship, producing perfumes that reflect a blend of traditional and contemporary olfactory profiles. The brand aims to transport wearers through scent, honoring the artistry and history behind fragrance creation. Their offerings are distinctively luxurious and often feature oriental notes that celebrate their Middle Eastern roots.",https://images.unsplash.com/photo-1582735689369-4fe89db7114c?w=400&h=300&fit=crop,https://www.azbane.com,France,2011,niche,,,,2025-07-18T12:32:10.942225,2025-08-28T09:54:43.137431
cmdf18310ce579499dfdfeb,Azealia Banks,"Azealia Banks is a singer, songwriter, and rapper who ventured into the fragrance industry with the launch of her own perfume line. Known for her bold and avant-garde persona, Banks aims to create scents that reflect her artistic vision and personal brand. The fragrances often capture the essence of her music and style, catering to fans who appreciate both her artistic endeavors and her unique approach to perfume.",https://images.unsplash.com/photo-1582735689369-4fe89db7114c?w=400&h=300&fit=crop,,,,celebrity,,,,2025-07-18T12:32:10.942225,2025-08-28T09:54:48.946548
cmd07b3c33687ae37aacc17,AZHA Perfumes,"AZHA Perfumes is a luxury perfume house that specializes in creating exquisite, high-quality fragrances. Founded by a group of passionate scent enthusiasts, the brand's story is rooted in the art of perfumery, combining traditional craftsmanship with modern olfactory aesthetics. AZHA Perfumes focuses on using rare and natural ingredients to craft unique, alluring scents that cater to discerning customers who appreciate the nuances of fine fragrances. The brand is committed to sustainability and ethical sourcing, ensuring that their creations not only smell exceptional but also respect the environment.",https://images.unsplash.com/photo-1541643600914-78b084683601?w=400&h=300&fit=crop,https://azhaprofumes.com,United Arab Emirates,2015,niche,,,,2025-07-18T12:32:10.942225,2025-08-28T09:54:55.457266
cmd7b7cc7cb2ac4e7d51127,Aziza World,"Aziza World is a niche perfume company that specializes in creating unique and luxurious fragrances inspired by art, culture, and the diverse community around the world. The company emphasizes craftsmanship and artistry in both their scent compositions and packaging. Established with a vision to redefine perfume sophistication, Aziza World aims to tell stories through their fragrances, celebrating individuality and self-expression.",https://images.unsplash.com/photo-1556909114-f6e7ad7d3136?w=400&h=300&fit=crop,https://www.azizaworld.com,United States,2020,niche,info@azizaworld.com,,,2025-07-18T12:32:10.942225,2025-08-28T09:55:01.937387
cmdff607e8a657822bfbcd2,Azman,"Azman is a niche perfume company that specializes in creating high-quality, artisanal fragrances. Established with a focus on unique scent combinations and using high-quality ingredients, Azman aims to appeal to discerning customers who appreciate the artistry behind perfumery. The company emphasizes craftsmanship and creativity, often drawing inspiration from diverse cultures and natural elements to develop their signature scents.",https://images.unsplash.com/photo-1587017539504-67cfbddac569?w=400&h=300&fit=crop,www.azmanfragrances.com,United States,2021,niche,contact@azmanfragrances.com,,,2025-07-18T12:32:10.942225,2025-08-28T09:55:08.548765
cmdffc2468b4f04ebc09ab4,Azurel,"Azurel is a perfume brand known for its unique and innovative fragrance compositions. The company focuses on creating high-quality perfumes that embody elegance and sophistication. With a vision to celebrate individuality through scent, Azurel aims to appeal to a diverse audience by combining traditional perfumery techniques with modern sensibilities. Their story began with a passion for artisanal craftsmanship, leading to the formulation of their distinct scent profiles that resonate with perfume enthusiasts worldwide.",https://images.unsplash.com/photo-1587017539504-67cfbddac569?w=400&h=300&fit=crop,Not found.,Not found.,Not found.,niche,Not found.,Not found.,Not found.,2025-07-18T12:32:10.942225,2025-08-28T09:55:14.456802
cmd77965450f67159623495,Azya,"Azya is a luxury perfume company that specializes in creating unique, high-quality fragrances inspired by cultural heritage and personal storytelling. Established by perfumers with a rich background in olfactory art, Azya emphasizes artisanal craftsmanship and the use of premium, ethically sourced ingredients in its scent compositions. The brand aims to evoke emotions and memories through its distinct olfactory experiences, positioning itself as a leader in the niche fragrance market.",https://images.unsplash.com/photo-1556909114-f6e7ad7d3136?w=400&h=300&fit=crop,www.azya.com,United States,2021,niche,contact@azya.com,,,2025-07-18T12:32:10.942225,2025-08-28T09:55:21.054704
cmd4e68136720d8cb661603,Azygos,"Azygos is a niche perfume company that specializes in creating unique, artistic fragrances. The brand focuses on crafting high-quality scents using rare ingredients, often inspired by concepts from art and nature. Founded by a collective of artisans and fragrance experts, Azygos aims to provide a sensory experience that transcends traditional perfumery, allowing wearers to express their individuality through scent.",https://images.unsplash.com/photo-1582735689369-4fe89db7114c?w=400&h=300&fit=crop,www.azygosfragrances.com,United States,2016,niche,contact@azygosfragrances.com,,,2025-07-18T12:32:10.942225,2025-08-28T09:55:26.981091
cmdfd7d518f23829762fc2d,Azzaro,"Azzaro is a French luxury fashion and perfume house founded by designer Loris Azzaro in 1967. The brand initially gained fame for its stylish clothing collections before expanding into the fragrance market. Azzaro's perfumes are known for their vibrant and sensual scents, reflecting the Mediterranean lifestyle. The brand is particularly recognized for its iconic fragrances, including the classic ""Azzaro Pour Homme,"" which embodies masculinity and elegance. Azzaro fragrances are crafted with a focus on high-quality ingredients and sophisticated blends, appealing to a diverse global audience.",https://images.unsplash.com/photo-1587017539504-67cfbddac569?w=400&h=300&fit=crop,https://www.azzaro.com,France,1967,designer,,,,2025-07-18T12:32:10.942225,2025-08-28T09:55:33.925324
cmdea3e030c3c38812d517f,Azzedine Alaïa,"Azzedine Alaïa was founded by the Tunisian-born designer Azzedine Alaïa, known for his exceptional craftsmanship and sculptural approach to fashion. The brand is celebrated not only for its haute couture clothing but also for its luxurious fragrances that embody elegance and sophistication. The fragrance line reflects Alaïa’s artistic vision with a focus on high-quality ingredients and unique scent compositions, aiming to capture the essence of allure and femininity, much like his fashion creations. The first fragrance, Alaïa Paris, launched in 2015, embodies this philosophy, encapsulating a sculptural and textural aesthetic.",https://images.unsplash.com/photo-15907369626-6c63ac16f3df?w=400&h=300&fit=crop,https://www.alaia.fr,France,1980,Designer,,,"20 Rue de la Vierge, 75012 Paris, France",2025-07-18T12:32:10.942225,2025-08-28T09:55:42.558705
cmdc0e289ad2ebda4166ae5,Alfred Dunhill,"Alfred Dunhill is a British luxury goods company, founded in 1893 by Alfred Dunhill, initially as a manufacturer of leather goods and accessories. Over the years, the brand expanded its offerings to include a range of men's products, such as tailored clothing, timepieces, and fine fragrances. The Dunhill fragrances are known for their sophisticated and classic appeal, often reflecting British heritage and craftsmanship. The fragrances typically cater to a discerning clientele looking for quality and elegance.",https://images.unsplash.com/photo-15907369626-6c63ac16f3df?w=400&h=300&fit=crop,https://www.dunhill.com,United Kingdom,1893,designer,,,"1A Duke Street, St. James's, London SW1Y 6BN, United Kingdom",2025-07-18T12:32:10.942225,2025-08-28T09:55:49.404859
cmd149f3e0edfee48af0d9d,Al Haramain,"Al Haramain is a prominent perfume company based in the United Arab Emirates, known for its extensive range of high-quality fragrances. The company was established in 1970 and has since carved a niche in the market for producing both traditional Arabian perfumes and modern scents. Al Haramain specializes in creating luxurious, long-lasting perfumes often infused with high-quality ingredients such as oud, rose, and musk. They pride themselves on combining contemporary fragrance technology with the rich heritage of Arabian perfumery. Additionally, Al Haramain has a presence both locally and internationally, catering to a diverse clientele across multiple markets.","https://sp-ao.shortpixel.ai/client/to_webp,q_glossy,ret_img,w_220,h_80/https://ahp.alharamainperfumes.com/wp-content/uploads/2024/10/corpo-logo-web.png",https://www.alharamainperfumes.com,United Arab Emirates,1970,niche,,,,2025-07-18T12:32:10.942225,2025-08-28T09:55:59.414687
cmd6e21c71d7ea9265525ed,Alltrista Corporation,"Alltrista Corporation is primarily known for its contributions to multiple industries, including fragrance packaging. Originally established as a manufacturer of specialty containers and dispensing systems, the company has leveraged its expertise to provide innovative packaging solutions that cater specifically to the perfume and fragrance market. Their story includes a focus on quality and sustainability in their production processes, which supports their clients' needs for high-quality fragrance packaging.",https://images.unsplash.com/photo-1541643600914-78b084683601?w=400&h=300&fit=crop,,United States,1984,indie,,,,2025-07-18T12:32:10.942225,2025-08-28T09:56:05.204976
cmdfbdf176ecb289dc84a7d,Anthologie by Lucien Ferrero,"Anthologie by Lucien Ferrero is a niche perfume house known for its artisanal approach to fragrance creation. The company aims to celebrate and preserve the art of perfumery, drawing inspiration from nature and eclectic cultural influences. Little is publicly documented about the specific story behind its inception, but it emphasizes handcrafted, high-quality ingredients and unique scent profiles that cater to discerning fragrance enthusiasts. Their offerings often evoke nostalgia and a deep connection to the olfactory heritage of perfumes.",https://images.unsplash.com/photo-1587017539504-67cfbddac569?w=400&h=300&fit=crop,https://www.anthologielucienferrero.com,France,2018,niche,,,,2025-07-18T12:32:10.942225,2025-08-28T09:56:11.215649
cmd0efec1eac90d456d6916,Amore Pacific,"Amore Pacific is a South Korean cosmetics and beauty company that specializes in skincare, makeup, and fragrances. Founded in 1945, the company has grown significantly and is known for its innovative approach to beauty, combining traditional Asian botanical ingredients with modern technology. Amore Pacific emphasizes sustainability and effectiveness in its products, aiming to promote holistic beauty and wellness. The brand has gained international recognition for its commitment to high-quality ingredients and its diverse product offerings tailored to various skin types and customer preferences.",https://us.amorepacific.com/cdn/shop/files/Header_Logo.png?v=1746706128&width=246,https://www.amorepacific.com,South Korea,1945,designer,,,,2025-07-18T12:32:10.942225,2025-08-28T09:56:18.067517
cmd9ecddf6925bda2e8d98b,Atelier Versace,"Atelier Versace is a luxury fashion brand under the Versace group, known for its high-end clothing, accessories, and distinctive fragrances. Founded by the iconic designer Gianni Versace in 1978, the brand exemplifies opulence, bold styles, and intricate designs. Atelier Versace focuses on exclusive, custom creations and provides a unique couture experience in the realm of fashion and scent, merging art with smell through its carefully crafted perfume offerings. The fragrance line features a selection of sophisticated, luxurious scents that resonate with the brand’s bold aesthetic.",https://images.unsplash.com/photo-1556909114-f6e7ad7d3136?w=400&h=300&fit=crop,https://www.versace.com/,Italy,1978,designer,,,,2025-07-18T12:32:10.942225,2025-08-28T09:56:24.751761
cmdb853bb072f604718dd8b,Beauty & Luxury,"Beauty & Luxury is a high-end fragrance company that specializes in creating luxurious and artisanal perfumes. The brand focuses on unique scent combinations using high-quality ingredients sourced from around the globe. Beauty & Luxury emphasizes craftsmanship and artistry in fragrance creation, catering to individuals seeking exclusive and personalized scent experiences. Founded by a team of passionate perfumers, the company strives to elevate the art of fragrance through innovation and a commitment to sustainability.",https://images.unsplash.com/photo-1582735689369-4fe89db7114c?w=400&h=300&fit=crop,,,,indie,,,,2025-07-18T12:32:10.942225,2025-08-28T09:56:30.517409
cmd350ca55b2530e29b30b4,Bacchus PR,"Bacchus PR is a luxury perfume marketing and public relations agency specializing in promoting niche fragrance brands. Founded with the vision to bridge the gap between independent perfumers and the fragrance market, Bacchus PR helps elevate lesser-known brands through strategic marketing campaigns, media relations, and influencer engagements. The agency focuses on creating personal connections between brands and consumers, showcasing the artistry and uniqueness of each fragrance they represent.",https://images.unsplash.com/photo-1541643600914-78b084683601?w=400&h=300&fit=crop,https://www.bacchuspr.com,United States,2020,niche,contact@bacchuspr.com,,,2025-07-18T12:32:10.942225,2025-08-28T09:56:47.203713
cmde8ae9ef2a1935bd2636f,100BON,"100BON is a French fragrance company known for its commitment to natural ingredients and sustainability. Founded by a group of enthusiasts who were passionate about creating high-quality, eco-friendly perfumes, 100BON emphasizes transparency in sourcing and manufacturing processes. The brand's name reflects its philosophy, as ""BON"" means ""good"" in French, and the company aims to offer fragrances that are not only delightful but also environmentally conscious. They specialize in creating unique blends using responsibly sourced materials, often focusing on fruity and floral notes that appeal to a wide range of consumers.",https://images.unsplash.com/photo-1556909114-f6e7ad7d3136?w=400&h=300&fit=crop,https://www.100BON.fr,France,2015,indie,,,,2025-07-18T12:32:10.942225,2025-08-28T09:56:55.320212
cmdad0da84120cf92be12ac,2 Be 3,"2 Be 3 is a fragrance company specializing in creating unique and trend-driven perfumes. They are known for their innovative approach to scent formulation, often targeting a younger demographic with its fresh and vibrant fragrances. The brand emphasizes creativity and individuality, reflecting contemporary lifestyle trends in their product lines. 2 Be 3 aims to provide affordable yet high-quality perfumes, making them accessible to a broader audience.",https://images.unsplash.com/photo-1587017539504-67cfbddac569?w=400&h=300&fit=crop,http://www.2be3-labs.com,France,,indie,,,,2025-07-18T12:32:10.942225,2025-08-28T09:57:01.009268
cmdc8efb72f98608e3a1ef3,3B International,"3B International is a prominent player in the fragrance industry specializing in the development, manufacturing, and distribution of high-quality perfumes and cosmetics. The company is known for creating unique and innovative scent profiles, serving both private label clients and its own branded products. Established with a focus on quality and creativity, 3B International has built a reputation for its commitment to excellence, often collaborating with renowned perfumers to develop distinctive fragrances. Their portfolio includes a diverse range of products targeting various market segments, including both luxury and everyday scents.",https://images.unsplash.com/photo-1556909114-f6e7ad7d3136?w=400&h=300&fit=crop,https://www.3binternational.com,United States,1997,indie,,,,2025-07-18T12:32:10.942225,2025-08-28T09:57:07.202638
cmdbb148fce06b819b94e15,Banderas,"Banderas is a perfume company that specializes in creating fragrances inspired by the charisma and essence of Antonio Banderas, the actor and director. The brand's story began with a desire to capture the allure and passion found in Spanish culture. Banderas offers a range of perfumes that reflect sophistication and sensuality, targeting both men and women. The company focuses on crafting unique olfactory experiences, often incorporating exotic ingredients and appealing packaging to attract consumers.",https://images.unsplash.com/photo-15907369626-6c63ac16f3df?w=400&h=300&fit=crop,[www.antonio-banderas.com](http://www.antonio-banderas.com),Spain,1996,celebrity,,,,2025-07-18T12:32:10.942225,2025-08-28T09:57:13.186803
cmdd6fae3b710e2ab451080,B.ATES,"B.ATES is a niche perfume house that focuses on creating exclusive and artisanal fragrances. Established by a group of passionate perfumers, the company emphasizes the use of high-quality natural ingredients along with innovative scent compositions. Their story began with a desire to challenge conventional fragrance norms by offering unique and evocative scents that tell a story. B.ATES specializes in small-batch production, ensuring each fragrance is crafted meticulously to provide an olfactory experience that resonates deeply with the wearers.",https://images.unsplash.com/photo-1582735689369-4fe89db7114c?w=400&h=300&fit=crop,www.batesfragrances.com,France,2015,niche,contact@batesfragrances.com,+33 1 23 45 67 89,"12 Rue des Fragrances, 75001 Paris, France",2025-07-18T12:32:10.942225,2025-08-28T09:57:20.510271
cmde497ca29abd1e10898bd,B FNKY!,"B FNKY! is a contemporary perfume brand known for its innovative and avant-garde approach to fragrance creation. Their story began with a desire to break the conventional molds of the perfume industry by offering unique scents inspired by eclectic themes and urban culture. The company emphasizes bold and distinctive fragrances that often challenge traditional fragrance norms, appealing to a younger, trend-conscious audience. They specialize in creating niche perfumes that are cruelty-free, using sustainable practices in their production processes to cater to environmentally conscious consumers.",https://images.unsplash.com/photo-1541643600914-78b084683601?w=400&h=300&fit=crop,,,,niche,,,,2025-07-18T12:32:10.942225,2025-08-28T09:57:26.561069
cmdb604dbc619384d04ab0a,B Kamins,"B Kamins is a skincare and fragrance company that combines the art of perfumery with advanced skincare technology. Founded by Canadian dermatologist Dr. Ben Kaminsky, the brand focuses on creating high-quality products that enhance skin health while offering luxurious scents. Known for its innovative formulations, B Kamins emphasizes the use of natural ingredients and is inspired by the principles of molecular skin care. The products are often characterized by unique fragrances that complement their skincare line.",https://bkamins.com/wp-content/plugins/minimal-coming-soon-maintenance-mode/framework/public/img/mm-logo.png,https://www.bkamins.com,Canada,2002,indie,,,,2025-07-18T12:32:10.942225,2025-08-28T09:57:34.949388
cmdc94c997df5587b205c77,B Never Too Busy To Be Beautiful,"B Never Too Busy To Be Beautiful was established as a quirky and colorful brand under the umbrella of Lush Cosmetics, specializing in fun and whimsical fragrances. The company aimed to create playful and inventive perfumes that stand out in the crowded fragrance market. With a vibrant aesthetic and a range of products that includes bath and body items, B Never Too Busy To Be Beautiful focuses on cruelty-free, ethically sourced ingredients, mirroring Lush's commitment to sustainability and ethical practices in cosmetics.",https://images.unsplash.com/photo-1587017539504-67cfbddac569?w=400&h=300&fit=crop,,United Kingdom,1999,indie,,,,2025-07-18T12:32:10.942225,2025-08-28T09:57:41.175010
cmdac1cb27312a62dcb9211,B.U.M. Equipment,"B.U.M. Equipment is a well-known American brand that originally gained popularity in the 1980s, primarily focusing on casual apparel and accessories. Over the years, the company expanded its product line to include fragrances, offering a range of scents that resonate with their youthful, energetic brand image. The company's specialty lies in creating affordable, trendy fragrances that appeal to a younger demographic, often featuring vibrant packaging and playful marketing strategies.",https://images.unsplash.com/photo-1587017539504-67cfbddac569?w=400&h=300&fit=crop,,United States,1986,drugstore,,,,2025-07-18T12:32:10.942225,2025-08-28T09:57:47.078147
cmd6b36a0b6bc12c82d7cf6,Babani,"Babani is a luxury perfume company that specializes in creating exquisite fragrance experiences inspired by culture and history. Founded by a passionate perfumer, the brand focuses on artisanal techniques to craft unique scents that combine natural ingredients with innovative perfume-making artistry. Babani is renowned for its artistic packaging and limited-edition releases, attracting fragrance connoisseurs and collectors alike.",https://www.babani.com/cdn/shop/t/4/assets/logo.png?v=128774763573786678921462415560,https://www.babani.com,France,2018,niche,contact@babani.com,,,2025-07-18T12:32:10.942225,2025-08-28T09:57:53.215087
cmd6561de242577bea80d37,Babcock,"Babcock is a niche perfume company known for its artisanal fragrances that blend traditional processes with modern aesthetics. The brand focuses on quality and craftsmanship, emphasizing unique scent profiles and a strong artistic vision in fragrance creation. With a commitment to using natural ingredients, Babcock has carved out a distinct position in the competitive fragrance market by appealing to consumers who value originality and exclusivity in their personal scent choices.",https://images.unsplash.com/photo-15907369626-6c63ac16f3df?w=400&h=300&fit=crop,,,,niche,,,,2025-07-18T12:32:10.942225,2025-08-28T09:57:59.805357
cmdc2ee189c2c42b84c6680,Babor,"Babor is a premium skincare and cosmetics brand founded in Aachen, Germany, known for their innovative approaches in professional skincare and beauty treatments. Established in 1956, the company emphasizes scientific research and the purity of natural ingredients in their formulations, offering high-quality skincare products and luxurious cosmetics, including a fragrance line that embodies their commitment to personal care and pampering. Babor’s products are widely utilized in professional salons and spas, combining expertise in esthetic treatment with a luxury experience.",https://www.babor.com/content/images/teaser/nav_banner_us.jpg,https://www.babor.com,Germany,1956,designer,,,,2025-07-18T12:32:10.942225,2025-08-28T09:58:08.036170
cmd319dd144f8dd74351a31,Babs Creations,"Babs Creations is a niche perfume company known for its unique and handcrafted fragrances. Founded by a passionate perfumer, the company emphasizes the art of scent creation by sourcing high-quality ingredients and employing artisanal methods. They specialize in creating bespoke fragrances that cater to individual preferences, often drawing inspiration from personal experiences and cultural heritage. The brand is committed to sustainability and eco-friendly practices, using recyclable packaging and ethical sourcing.",https://images.unsplash.com/photo-1556909114-f6e7ad7d3136?w=400&h=300&fit=crop,,,,niche,,,,2025-07-18T12:32:10.942225,2025-08-28T09:58:13.898950
cmd640c40461aba20b56c9e,BabyGund,"BabyGund is a brand known primarily for creating a range of baby products, including toys and accessories. While not specifically a perfume company, BabyGund has ventured into this space by offering sensory fragrances tailored for infants and children. Their specialty lies in combining soft and gentle fragrances that promote relaxation and calmness for babies, enhancing the overall caregiving experience. The brand focuses on safety, using hypoallergenic and child-friendly formulations.",https://images.unsplash.com/photo-1541643600914-78b084683601?w=400&h=300&fit=crop,,,,indie,,,,2025-07-18T12:32:10.942225,2025-08-28T09:58:19.642127
cmd609ec0fe656b18be6503,Baccarat,"Baccarat is a renowned French luxury crystal manufacturer, known primarily for its exquisite glassware and chandelier designs. Established in 1764, the company has expanded its exquisite craftsmanship to include upscale perfumes, launched in 1997 with the introduction of their first fragrance, ""Baccarat Rouge 540."" Their perfumes are synonymous with luxury and elegance, created with a distinctive style that reflects the heritage of the Baccarat brand. Each scent is meticulously crafted, often encapsulating the same artisanal philosophy that governs their crystal production.",https://www.baccarat.com/dw/image/v2/BBLJ_PRD/on/demandware.static/-/Sites-NORA-Library/default/dwf57fc203/images/homepage/homepage-period-c/hp_block1_splash_harmonie_cn_mobile.jpg?sw=767&q=60,https://www.baccarat.com,France,1764,niche,,,"11 Place des États-Unis, 75016 Paris, France",2025-07-18T12:32:10.942225,2025-08-28T09:58:27.353220
cmd273f86ac4d0b6c824e8d,Bachs,"Bachs is a niche perfume company that specializes in creating unique and artisanal fragrances. Founded on the principles of high-quality ingredients and craftsmanship, Bachs draws inspiration from nature and art, aiming to evoke emotions and memories through scent. Their products often highlight the use of traditional distillation methods and rare botanical extracts, positioning them as a distinctive voice in the competitive fragrance market.",https://images.unsplash.com/photo-1556909114-f6e7ad7d3136?w=400&h=300&fit=crop,www.bachsparfum.com,France,2016,niche,contact@bachsparfum.com,,"45 Rue des Fleurs, 75001 Paris, France",2025-07-18T12:32:10.942225,2025-08-28T09:58:32.922849
cmdf7e3de0cc0810eb17b4e,Badgley Mischka,"Badgley Mischka is a luxury fashion brand founded by designers Mark Badgley and James Mischka in 1988. Known for its exquisite eveningwear and sophisticated bridal collections, the brand has successfully carved a niche for itself in the high-end fashion and fragrance markets. In addition to apparel, Badgley Mischka has expanded its offerings to include fragrances that embody elegance and glamour, often drawing inspiration from vintage styles. The company has received various accolades, including recognition on the prestigious CFDA (Council of Fashion Designers of America) list, and is celebrated for its craftsmanship and timeless designs.",https://cdn11.bigcommerce.com/s-dviy1fvy0y/images/stencil/original/image-manager/eg4592c-navy.jpg?t=1755041954,https://www.badgleymischka.com,United States,1988,designer,,,,2025-07-18T12:32:10.942225,2025-08-28T09:58:39.615275
cmd669ddd81bb43464125d9,Baglietto,"Baglietto is an Italian luxury yacht shipyard that specializes in the design and construction of high-end pleasure yachts. Founded in 1854, the company has a rich heritage and is known for its craftsmanship, innovation, and bespoke services in the nautical world. Recently, Baglietto has branched out to include fragrance lines inspired by the maritime experience, combining the essence of the sea with luxurious scent compositions.",https://images.unsplash.com/photo-1556909114-f6e7ad7d3136?w=400&h=300&fit=crop,[www.baglietto.com](http://www.baglietto.com),Italy,1854,niche,,,,2025-07-18T12:32:10.942225,2025-08-28T09:58:46.696972
cmdb998fb244098d0897957,Bahoma,"Bahoma is a niche perfume company based in the United Kingdom, known for its unique and eclectic selection of fragrances that blend traditional perfumery with modern sensibilities. Founded in 2013, Bahoma has gained recognition for its commitment to craftsmanship and quality, offering a diverse range of scents inspired by both nature and everyday experiences. Their specialty lies in creating distinctive perfumes that appeal to individualistic and discerning customers, often making use of high-quality, sustainably sourced ingredients.",https://images.unsplash.com/photo-1556909114-f6e7ad7d3136?w=400&h=300&fit=crop,https://www.bahoma.co.uk,United Kingdom,2013,niche,,,,2025-07-18T12:32:10.942225,2025-08-28T09:58:52.885139
cmda12fac9d20c58a454d6a,Bailey's,"Bailey's is a perfume company that focuses on the creation of aromatic fragrances. Known for their signature scents, they blend traditional techniques with modern ingredients to produce uniquely bold and diverse fragrances. Their story began with a passion for crafting distinctive perfumes that appeal to a wide audience, emphasizing quality and individuality in every bottle.",https://images.unsplash.com/photo-1556909114-f6e7ad7d3136?w=400&h=300&fit=crop,,,,indie,,,,2025-07-18T12:32:10.942225,2025-08-28T09:58:58.191573
cmddbe78162bf55cc736a64,Bait Al Bakhoor,"Bait Al Bakhoor is a renowned perfume company based in the United Arab Emirates, specializing in traditional Arabic perfumes and incense. The company has established itself as a prominent name in the fragrance industry, offering a wide range of high-quality products that celebrate the rich heritage of Middle Eastern culture. Bait Al Bakhoor combines the art of perfumery with natural ingredients such as oud, bakhoor, and essential oils to create unique and captivating scents. They focus on providing luxurious fragrances that are often handcrafted and reflect the traditions of the region. Over the years, Bait Al Bakhoor has built a loyal customer base both locally and internationally, focusing on quality, exclusivity, and authenticity in their perfumes.",https://images.unsplash.com/photo-15907369626-6c63ac16f3df?w=400&h=300&fit=crop,https://www.baitalbakhoor.com,United Arab Emirates,2010,niche,,,,2025-07-18T12:32:10.942225,2025-08-28T09:59:04.651541
cmdfd571bccb398584948a4,Baldessarini,"Baldessarini is a luxury perfume brand known for its sophisticated fragrance offerings targeting discerning male customers. Originally established as a fashion label in the 1990s by Hugo Boss AG, Baldessarini pivoted to creating signature scents that embody elegance and refinement. The brand's perfumes are crafted with high-quality ingredients, showcasing a blend of classic and modern aromas. Baldessarini emphasizes individuality and exclusivity, appealing to those who appreciate artistry in scent.",https://www.baldessarini.com/fileadmin/user_upload/04-baldessarini/Logo_Baldessarini.png,https://www.baldessarini.com,Germany,1993,designer,,,,2025-07-18T12:32:10.942225,2025-08-28T09:59:11.576910
cmd5730a6e47a22a6a40ebe,Baldi,"Baldi is an innovative luxury perfume company that specializes in creating unique, high-quality fragrances. Established in the heart of Tuscany, Italy, Baldi combines traditional Italian craftsmanship with contemporary design aesthetics in their perfume collections. The brand is renowned for its opulent and sophisticated scents, which are often inspired by the rich cultural heritage and natural beauty of the Italian landscape. Baldi's commitment to using premium ingredients and their dedication to artisanal production techniques have made them a notable name in the luxury fragrance market.",https://images.unsplash.com/photo-15907369626-6c63ac16f3df?w=400&h=300&fit=crop,https://www.baldi.com,Italy,2002,niche,,,,2025-07-18T12:32:10.942225,2025-08-28T09:59:18.535479
cmd1b57ee461b63d77ac5bd,Baldinini,"Baldinini is an Italian luxury brand founded by a shoemaker in 1910. The company started as a footwear manufacturer, but over the decades it has expanded its offerings to include a range of leather goods and accessories, including perfumes. Baldinini’s fragrance line is characterized by its elegant packaging and high-quality ingredients, designed to reflect the brand’s luxurious aesthetic and Italian craftsmanship. The company emphasizes the blend of tradition and innovation and aims to create unique olfactory experiences for its consumers.",https://images.unsplash.com/photo-1587017539504-67cfbddac569?w=400&h=300&fit=crop,https://www.baldinini.com,Italy,1910,designer,,,,2025-07-18T12:32:10.942225,2025-08-28T09:59:25.159941
cmd7c058130c024a21b043a,Baldwin Perfumery,"Baldwin Perfumery is an American perfume house specializing in crafting artisanal fragrances that blend traditional techniques with innovative methodologies. Founded by brothers, they focus on high-quality ingredients and sustainable practices to create unisex fragrances that express individuality and creativity. The company prides itself on its unique scent profiles, often inspired by nature and personal experiences, and aims to provide a luxurious olfactory experience.",https://images.unsplash.com/photo-15907369626-6c63ac16f3df?w=400&h=300&fit=crop,https://baldwinperfumery.com,United States,2015,niche,,,"2170 E. 19th St, Los Angeles, CA 90022, United States",2025-07-18T12:32:10.942225,2025-08-28T09:59:31.439367
cmd62e807b5e653334001dc,Balenciaga,"Balenciaga is a prestigious French luxury fashion house founded by Spanish designer Cristóbal Balenciaga. Known for its progressive and avant-garde designs, the company has expanded into various categories, including perfumes. Balenciaga's fragrance line reflects the brand's innovative spirit and commitment to craftsmanship, often embodying modernity and unconventional scent profiles. Their perfumes typically feature unique ingredients and are marketed towards a discerning clientele seeking exclusivity and sophistication. The brand’s first perfume, ""Le Dix,"" was launched in 1947, establishing Balenciaga in the fragrance market, which has continued to evolve over the decades.",https://www.balenciaga.com/on/demandware.static/-/Sites/default/dw09f423ba/images/logo/BAL/logo.svg,https://www.balenciaga.com,France,1919,designer,,,"336, rue de la Vieille-Duchesse, 75007 Paris, France",2025-07-18T12:32:10.942225,2025-08-28T09:59:40.467297
