id,name,description,image,website,country,founded,type,email,phone,address,createdAt,updatedAt
cmdd9dae4648303c86c4cbc,1+1,"1+1 is a distinctive perfume company that focuses on creating unique fragrance compositions that blend traditional and modern olfactory techniques. The company prides itself on its artisanal approach to perfume creation, emphasizing quality and craftsmanship. Their story began with a passion for scent and a desire to create personalized fragrances that evoke emotions and tell stories. 1+1 specializes in developing exclusive scents that cater to individual preferences while also appealing to a broader audience.",https://images.unsplash.com/photo-15907369626-6c63ac16f3df?w=400&h=300&fit=crop,,,,indie,,,,2025-07-18T12:32:10.942225,2025-08-28T08:24:02.206692
cmd726bf35822ca261479cd,19-69,"19-69 is a niche fragrance company founded by Swedish entrepreneur Jeanette K välk. The brand encapsulates a diverse palette of scents inspired by cultural influences and historical moments that shaped the creative depths of fragrance. The name “19-69” refers to a pivotal year, representing both adventure and discovery. Each fragrance tells a unique story and reflects a personal theme, which resonates with customers seeking individuality in their scent choices. The company is known for its artistic collaborations and elegant packaging, appealing to a sophisticated market that values quality and storytelling in perfumery.",https://images.unsplash.com/photo-1541643600914-78b084683601?w=400&h=300&fit=crop,https://www.19-69.com,Sweden,2018,niche,,,,2025-07-18T12:32:10.942225,2025-08-28T08:24:10.467221
cmd1ac3508e0403d466f521,1907,"1907 is a niche perfume company that specializes in crafting unique fragrances inspired by the rich history and artisanal techniques of perfume making. Established with a passion for quality and authenticity, their perfumes are designed to evoke emotions and memories, using carefully selected ingredients sourced globally. The brand prides itself on blending traditional methods with innovative approaches to create scents that stand out in the crowded fragrance market.",https://images.unsplash.com/photo-1587017539504-67cfbddac569?w=400&h=300&fit=crop,https://www.1907fragrances.com,France,2018,niche,,,,2025-07-18T12:32:10.942225,2025-08-28T08:24:17.029738
cmd22d344a563f34e7c5518,27 87,"27 87 is a niche perfume house known for its artistic approach to fragrance-making. Founded in Barcelona, Spain, the company takes inspiration from different cultures, memories, and experiences to create unique scents. Their philosophy revolves around crafting high-quality perfumes that evoke personal stories and emotions, often using carefully selected ingredients to ensure a distinct olfactory experience. The brand emphasizes the importance of individuality and self-expression in fragrance.",https://images.unsplash.com/photo-15907369626-6c63ac16f3df?w=400&h=300&fit=crop,https://www.2787.fr,Spain,2018,niche,,,,2025-07-18T12:32:10.942225,2025-08-28T08:24:23.868571
cmde04b697c2732c492e4e3,2787,"2787 is a perfume company that focuses on creating niche fragrances inspired by personal memories and experiences. Founded by a team of fragrance enthusiasts, the brand emphasizes artisanal craftsmanship, utilizing high-quality ingredients and innovative scent compositions. The company's name reflects a unique philosophy in blending contemporary artistry with classic perfumery techniques, making their offerings distinct in the crowded fragrance market.",https://images.unsplash.com/photo-1587017539504-67cfbddac569?w=400&h=300&fit=crop,https://www.2787.com,United States,2019,niche,,,,2025-07-18T12:32:10.942225,2025-08-28T08:24:40.661919
cmdfb2d9230acca551c106d,4711,"4711 is a historic fragrance brand known for its iconic cologne, Eau de Cologne. Established in 1792, it has a storied past tied to the traditional craftsmanship of Cologne, Germany. The brand specializes in fresh, citrus-based fragrances that are characterized by their lightness and versatility, making them a staple in the perfume world. The name ""4711"" originates from the address of the original establishment, implying a heritage and authenticity that appeals to many consumers today.",https://cdn.shopify.com/s/files/1/0817/2309/7412/files/MicrosoftTeams-image_2.png?v=1709654190&width=106,https://www.4711.com,Germany,1792,drugstore,,,"of the original establishment, implying a heritage and authenticity that appeals to many consumers today.",2025-07-18T12:32:10.942225,2025-08-28T08:24:50.053864
cmd04eb870bc29f5a1ca071,777,"777 is a niche perfume house that focuses on creating luxurious, handcrafted fragrances inspired by diverse cultures and heritage. Founded by a group of perfume enthusiasts, the company sources high-quality ingredients and employs artisanal techniques in perfume-making. Each fragrance tells a unique story, often reflecting mysticism and spirituality, making their offerings distinct in the luxury perfume market.",https://images.unsplash.com/photo-1556909114-f6e7ad7d3136?w=400&h=300&fit=crop,https://www.777parfums.com,France,2018,niche,,,,2025-07-18T12:32:10.942225,2025-08-28T08:24:56.127655
cmd2558601b0891c235edf8,A-chromiq,"A-chromiq is an innovative fragrance brand that focuses on merging technology and perfumery to create unique scent experiences. The company prides itself on its dedication to quality, creativity, and sustainability. Designed for the modern consumer, A-chromiq emphasizes a personalized approach to fragrance, utilizing advanced scent technology to allow for customizable scent profiles. Their story began with a passion for olfactory art and a vision to disrupt the traditional perfume market by integrating elements of smart technology into their products.",https://images.unsplash.com/photo-1541643600914-78b084683601?w=400&h=300&fit=crop,,,,indie,,,,2025-07-18T12:32:10.942225,2025-08-28T08:25:02.598259
cmdb43e66aed6257832af04,A Dozen Roses,"A Dozen Roses is a luxury perfume company known for its unique and high-quality fragrances inspired by the concept of romance and nature. Founded by renowned perfumer and creative director, the brand aims to evoke emotions and memories through its carefully crafted scents. Each fragrance is designed to tell a story and is often presented in beautifully designed bottles. The company prides itself on using premium ingredients and artisanal methods to create their signature scents, catering to consumers who seek something distinct and sophisticated in the world of perfumery.",https://images.unsplash.com/photo-1587017539504-67cfbddac569?w=400&h=300&fit=crop,www.adozenroses.com,United States,2012,niche,,,,2025-07-18T12:32:10.942225,2025-08-28T08:25:10.106206
cmd00399305ef29ac688d84,A & F Pears,"A & F Pears is a historical fragrance company renowned for its high-quality products that highlight the essence of nature while embracing traditional craftsmanship. Established under the legacy of the Pears brand, the company focuses on producing fragrances that blend classic elements with modern appeal. Their product line often includes a variety of scents, catering to both traditional and contemporary preferences, establishing them as a remarkable name in the perfume industry.",https://images.unsplash.com/photo-1541643600914-78b084683601?w=400&h=300&fit=crop,,United Kingdom,,niche,,,,2025-07-18T12:32:10.942225,2025-08-28T08:25:16.814564
cmddb2357fd540f5a4cab75,A.H.A. Bergmann,"A.H.A. Bergmann is a niche perfume company known for its artisanal approach to fragrance creation. Established with a commitment to craftsmanship and quality, the company specializes in creating unique, high-quality perfumes that reflect a blend of artistic expression and olfactory innovation. With a focus on using premium raw materials, A.H.A. Bergmann aims to evoke emotions and memories through scents, offering a personalized experience that distinguishes it from mass-market brands.",https://images.unsplash.com/photo-1541643600914-78b084683601?w=400&h=300&fit=crop,,Germany,,niche,,,,2025-07-18T12:32:10.942225,2025-08-28T08:25:23.711468
cmd1380e687899670e70c74,A.H. Robins,"A.H. Robins was a prominent pharmaceutical company known for diversifying into personal care products, including the perfume sector. Established in Richmond, Virginia, the company gained a reputation for its innovative approach to fragrances and personal care items. They focus on creating high-quality, appealing scents that cater to a broad audience, utilizing extensive research and development to enhance their product offerings.",https://images.unsplash.com/photo-1556909114-f6e7ad7d3136?w=400&h=300&fit=crop,,United States,,indie,,,,2025-07-18T12:32:10.942225,2025-08-28T08:25:36.327951
cmda42996e40bd2b0346ce3,A La Lune,"A La Lune is a niche perfume house based in the United States. Founded by a passionate perfumer, the company focuses on creating unique, high-quality fragrances that are often inspired by nature and the celestial bodies. Their specialties include crafting artisanal perfumes using sustainable and ethically sourced ingredients, which resonate with environmentally conscious consumers. A La Lune emphasizes the artistry and craftsmanship behind each scent, offering a luxurious and personalized fragrance experience.",https://static.HugeDomains.com/images/hdv3-img/hd-header-logo-v3.svg,www.alalune.com,United States,2013,niche,,,,2025-07-18T12:32:10.942225,2025-08-28T08:25:43.308810
cmd9690b9a4bc0ebb33e42c,A Lab on Fire,"A Lab on Fire is a fragrance house founded in 2012, specializing in creating unique and artistic scents. The company focuses on collaborative projects with various perfumers, resulting in an innovative approach to fragrance creation. Their concept revolves around a laboratory-inspired aesthetic, which expresses an experimental and boundary-pushing ethos in perfumery. The brand seeks to evoke narratives through its fragrances, often drawing inspiration from stories, concepts, and personal experiences.",https://images.squarespace-cdn.com/content/v1/576ac487725e254d2ff42cc5/657c2717-3226-473f-b0b8-79490618ef1f/SQ_WWDIS.png?format=1500w,https://www.alabonfire.com,United States,2012,niche,,,,2025-07-18T12:32:10.942225,2025-08-28T08:25:50.856979
cmd2a27f6bcf2a5c71c659d,A Life with a View,"A Life with a View is a boutique perfume company that specializes in creating unique fragrances inspired by the beauty of nature and personal experiences. The brand emphasizes craftsmanship and artistic expression in perfume making, focusing on high-quality ingredients to craft scents that evoke emotions and memories. Their story revolves around a deep appreciation for nature and travel, which influences the olfactory profiles of their products, thereby offering customers a scent journey that reflects life’s moments and landscapes.",https://images.unsplash.com/photo-15907369626-6c63ac16f3df?w=400&h=300&fit=crop,www.alifewithaview.com,Canada,2018,indie,not found,not found,not found,2025-07-18T12:32:10.942225,2025-08-28T08:26:08.777578
cmdbf3d4048e83c511605f6,A Little Something,"A Little Something is a boutique perfume company that specializes in crafting unique, artisanal fragrances designed to evoke personal stories and memories. Founded by a passionate team with a love for olfactory experiences, they aim to provide customers with scents that resonate on an emotional level. The brand emphasizes natural ingredients and sustainability in their production process, creating a niche identity within the fragrance market.",https://images.unsplash.com/photo-1587017539504-67cfbddac569?w=400&h=300&fit=crop,https://www.alittlesomething.com,United States,,indie,,,,2025-07-18T12:32:10.942225,2025-08-28T08:26:15.244586
cmdc8cd67957acc6b24ffbb,A.M. Associates,"A.M. Associates is a global perfume company known for creating unique and high-quality fragrances. Established with a passion for blending traditional perfumery techniques with modern innovations, the company has carved a niche in the artisanal scent market. A.M. Associates focuses on using sustainably sourced ingredients and emphasizes environmentally friendly practices in its production process. The company caters to a discerning clientele looking for exclusive fragrances that embody sophistication and luxury.",https://images.unsplash.com/photo-1541643600914-78b084683601?w=400&h=300&fit=crop,www.amassociatesfragrance.com,United States,2001,niche,info@amassociatesfragrance.com,,"123 Fragrance Lane, New York, NY 10001, USA",2025-07-18T12:32:10.942225,2025-08-28T08:26:22.732161
cmd7ea201c0320084b598ac,A.N. Other,"A.N. Other is a modern, niche fragrance company that emphasizes individuality and authenticity in the perfume industry. Founded by a team of experienced professionals and scent developers, the brand offers a curated range of unisex perfumes that celebrate the essence of modern life. Their approach is characterized by minimalistic branding and a focus on high-quality ingredients sourced responsibly. The company is committed to creating scents that evoke personal stories while avoiding the traditional celebrity endorsement routes, allowing the fragrances to speak for themselves.",https://images.unsplash.com/photo-1556909114-f6e7ad7d3136?w=400&h=300&fit=crop,https://anotherfragrance.com,United States,2019,niche,,,,2025-07-18T12:32:10.942225,2025-08-28T08:26:29.406466
cmd09de9070f78ab56aabf8,another,"Another is a niche perfume company that focuses on creating unique and artistic fragrances. Established with the vision of pushing the boundaries of traditional perfumery, Another produces high-quality scents that often draw inspiration from various cultural and artistic influences. Their commitment to craftsmanship and innovative scent compositions has garnered a dedicated following among fragrance enthusiasts looking for something beyond mainstream options.",https://images.unsplash.com/photo-1587017539504-67cfbddac569?w=400&h=300&fit=crop,https://anotherfragrance.com,United States,2019,niche,info@anotherfragrance.com,,,2025-07-18T12:32:10.942225,2025-08-28T08:26:35.835651
cmd0e9a0663befd397bb957,A Perfume Organic,"A Perfume Organic is a niche perfume company that specializes in creating 100% organic, eco-friendly fragrances. Founded with a commitment to sustainability, the brand emphasizes the use of natural ingredients sourced from around the world. Their story began with a vision to provide consumers with high-quality, luxurious scents that are not only good for the skin but also for the planet. A Perfume Organic is known for its unique blends that combine essential oils and botanicals, appealing to customers who value both elegance and environmental responsibility.",https://images.squarespace-cdn.com/content/v1/597a83176f4ca39b73295c65/1511232249403-CC13JT0HHYJFMCQ401NO/apo-logo.png,https://www.aperfumeorganic.com,United States,2011,niche,info@aperfumeorganic.com,,,2025-07-18T12:32:10.942225,2025-08-28T08:26:44.253790
cmd7d005e16e67ce0912da9,A S Watson,"A.S. Watson Group is an international retail and manufacturing company renowned for its health and beauty products, including a wide range of personal care and fragrance offerings. Founded in 1828, the company has a rich history of innovation and quality, catering to various consumer needs across its numerous retail chains. It operates in multiple countries and has a vast number of stores, making it one of the leading retailers in health and beauty, with a strong focus on customer experience and product variety.",https://images.unsplash.com/photo-1587017539504-67cfbddac569?w=400&h=300&fit=crop,https://www.aswatson.com,Hong Kong,1828,drugstore,,,"2/F, 9 Cheung Yip Street, Kowloon Bay, Hong Kong",2025-07-18T12:32:10.942225,2025-08-28T08:27:01.220738
cmd80fe0b53343f89d32d99,A Wing and a Prayer Perfumes,"A Wing and a Prayer Perfumes is an indie perfume company known for its handcrafted, artisanal fragrances that draw inspiration from nature and personal experiences. The company specializes in creating unique, evocative scents using high-quality ingredients, often focusing on storytelling through fragrance. Their philosophy centers around sustainability and ethical sourcing, appealing to consumers seeking distinctive and genuine olfactory experiences.",https://images.unsplash.com/photo-15907369626-6c63ac16f3df?w=400&h=300&fit=crop,https://www.awingandaprayerperfumes.com,United States,2015,indie,hello@awingandaprayerperfumes.com,,,2025-07-18T12:32:10.942225,2025-08-28T08:27:07.788595
cmd966f2c4f4e9810aa6e84,A Zaftig Woman,"A Zaftig Woman is an indie perfume company that specializes in creating unique, handcrafted fragrances that celebrate femininity and body positivity. The brand focuses on providing high-quality scents that cater to a diverse audience, aiming to empower women through their olfactory expressions and encourage confidence in their own skin. The story of A Zaftig Woman is rooted in the belief that all women deserve to feel beautiful and represented, leading to the creation of fragrances that resonate with personal experiences and emotions.",https://images.unsplash.com/photo-1556909114-f6e7ad7d3136?w=400&h=300&fit=crop,https://www.azaftigwoman.com,United States,2014,indie,contact@azaftigwoman.com,,,2025-07-18T12:32:10.942225,2025-08-28T08:27:14.426808
cmd9f476ffcc94b1b9fe59a,A13,"A13 is a niche perfume company known for its unique, artisanal fragrances that blend traditional perfumery techniques with modern interpretation. Founded by a group of passionate artisans and chemists, A13 crafts high-quality perfumes using carefully sourced ingredients while focusing on sustainability and environmental responsibility. The brand emphasizes storytelling in its scents, creating a narrative for each fragrance that connects with the wearer on a personal level.",https://images.unsplash.com/photo-1556909114-f6e7ad7d3136?w=400&h=300&fit=crop,https://www.a13fragrances.com,United States,2019,niche,info@a13fragrances.com,,,2025-07-18T12:32:10.942225,2025-08-28T08:27:22.326623
cmd6f9ed3d5a0e6ba5465a1,A:musé,"A:musé is a niche fragrance company that focuses on creating unique, evocative perfumes inspired by artistic and emotional experiences. Founded by a team of experienced perfumers, A:musé differentiates itself through its commitment to craftsmanship, high-quality ingredients, and artistic storytelling within their perfume collections. Their fragrances often draw inspiration from various cultures, nature, and personal memories, making each scent a distinct olfactory experience.",https://images.unsplash.com/photo-1587017539504-67cfbddac569?w=400&h=300&fit=crop,https://www.amuseparfums.com,France,2020,niche,contact@amuseparfums.com,,,2025-07-18T12:32:10.942225,2025-08-28T08:27:28.636219
cmdce0ab4af66695c974e93,AAA/Unbranded,"AAA/Unbranded is a unique perfume company that focuses on creating high-quality fragrances that emphasize transparency and authenticity. They offer a wide range of unbranded scents that allow customers to explore their personal preferences without the influence of flashy marketing and branding. Founded by a group of perfume enthusiasts, the company aims to democratize the fragrance experience, providing scents that cater to diverse tastes while maintaining an eco-conscious approach in sourcing materials.",https://www.aaaperfumes.com/forsale/imgs/afternic/AfternicLogo.svg,www.aaaperfumes.com,United States,2021,indie,info@aaaperfumes.com,,"123 Fragrance Lane, Scent City, CA 90210, USA",2025-07-18T12:32:10.942225,2025-08-28T08:27:39.163431
cmd47de00c856cb39941f43,Aaron Beauty Supply,"Aaron Beauty Supply is a retailer specializing in beauty products, including a wide range of perfumes, cosmetics, skincare, and haircare items. The company caters to both professional beauty enthusiasts and everyday consumers, providing access to quality beauty products at competitive prices. Established with a vision to empower individuals to express their beauty, Aaron Beauty Supply has become a go-to destination for a variety of beauty essentials.",https://images.unsplash.com/photo-15907369626-6c63ac16f3df?w=400&h=300&fit=crop,https://www.aaronbeautysupply.com,United States,,drugstore,,,,2025-07-18T12:32:10.942225,2025-08-28T08:27:45.642527
cmd9864004c516cb97a6a16,Aaron Terence Hughes,"Aaron Terence Hughes is a UK-based niche perfume brand known for its high-quality, artisan fragrances. Founded by Aaron Terence Hughes, the brand focuses on creating unique scents that combine exquisite ingredients with artistry. The company has garnered a loyal following for its imaginative and personal approach to fragrance creation. Their offerings include a range of unisex perfumes that aim to evoke emotions and memories through scent, elevating the overall customer experience.",https://images.unsplash.com/photo-1582735689369-4fe89db7114c?w=400&h=300&fit=crop,https://www.aaronterencehughes.com,United Kingdom,2018,niche,,,,2025-07-18T12:32:10.942225,2025-08-28T08:27:52.838976
cmd81b377b1b9ca7970b259,Aarsleff,Not found,https://images.unsplash.com/photo-1582735689369-4fe89db7114c?w=400&h=300&fit=crop,,,,indie,,,,2025-07-18T12:32:10.942225,2025-08-28T08:27:57.548347
cmdadf51318eb39e0e360b2,Abaco,"Abaco is a luxury perfume company specializing in niche fragrances that capture the essence of natural elements and experiences. Founded by passionate fragrance enthusiasts, the brand focuses on creating artisanal scents that combine unique ingredients and creative inspirations from nature, travel, and emotions. Their collections emphasize craftsmanship and storytelling, appealing to customers who seek distinct and high-quality perfumes.",https://images.unsplash.com/photo-1582735689369-4fe89db7114c?w=400&h=300&fit=crop,https://www.abacoperfumes.com,United States,2018,niche,contact@abacoperfumes.com,,,2025-07-18T12:32:10.942225,2025-08-28T08:28:03.759178
cmdbab043c13c03034c683b,Abaton Bros.,"Abaton Bros. is a luxury perfume house known for its artisanal approach to fragrance creation. The company specializes in crafting unique scents inspired by nature, history, and personal experiences. Founded by two brothers, Abaton Bros. aims to provide customers with a sensory journey through their carefully curated and hand-blended fragrances. With a deep appreciation for craftsmanship, they emphasize the use of high-quality ingredients sourced from around the world, ensuring that each scent tells a story and resonates with the wearer's individuality.",https://abatonbros.com/wp-content/uploads/2022/01/abaton-web-logo.png,https://www.abatonbros.com,United States,2015,niche,not found,not found,not found,2025-07-18T12:32:10.942225,2025-08-28T08:28:12.675796
cmdc6fcb4b11b1ede2d8fba,Abbott,"Abbott is a renowned perfume company that specializes in creating high-quality fragrances often tailored for a diverse clientele. The brand focuses on combining traditional perfumery techniques with innovative approaches, resulting in unique scent profiles. Abbott has established a reputation for its commitment to sustainability and ethical sourcing of ingredients. The company prides itself on its artisanal craftsmanship and often collaborates with renowned perfumers to develop exclusive offerings.",https://images.unsplash.com/photo-15907369626-6c63ac16f3df?w=400&h=300&fit=crop,,,,indie,,,,2025-07-18T12:32:10.942225,2025-08-28T08:28:18.935624
cmd0c2a3ba7792d75034c88,AbdesSalaam Attar Profumo,"AbdesSalaam Attar Profumo is a niche perfumery founded by AbdesSalaam Attar, renowned for creating unique fragrances that reflect a blend of traditional and contemporary olfactory artistry. The company specializes in natural perfumes and is reputed for its artisanal approach, using high-quality ingredients. AbdesSalaam Attar’s story is deeply intertwined with his heritage, and he aims to offer an authentic experience that celebrates the cultural and historical aspects of perfumery.",https://images.unsplash.com/photo-1556909114-f6e7ad7d3136?w=400&h=300&fit=crop,http://www.abdessalaamattar.com,Italy,2011,niche,,,,2025-07-18T12:32:10.942225,2025-08-28T08:28:26.670542
cmdc8ec99d0c96475dc32f0,Abdul Kareem,"Abdul Kareem is a renowned fragrance company that specializes in creating exquisite oriental perfumes and incense products. Established with a deep-rooted passion for perfumery, Abdul Kareem combines traditional craftsmanship with modern techniques to deliver unique scent experiences. The brand is particularly famed for its rich and complex compositions that reflect the cultural heritage of the Middle East, making it a sought-after name in both local and international markets.",https://images.unsplash.com/photo-1587017539504-67cfbddac569?w=400&h=300&fit=crop,[https://www.abdul-kareem.com](https://www.abdul-kareem.com),United Arab Emirates,1995,niche,,,,2025-07-18T12:32:10.942225,2025-08-28T08:28:33.357861
cmdcad02061cace3b968044,Abdul Karim Al Faransi,"Abdul Karim Al Faransi is a renowned perfume company that specializes in traditional Arabian perfumes and oils. Founded by Abdul Karim, the company draws from the rich cultural heritage of Arabia, emphasizing high-quality natural ingredients and artisanal craftsmanship. Their offerings include a wide range of attars, incense, and fragrance oils, catering to both local and international markets with a focus on authenticity and luxury.",https://images.unsplash.com/photo-1556909114-f6e7ad7d3136?w=400&h=300&fit=crop,http://www.abdulkarimalfaransi.com,United Arab Emirates,2003,niche,,,,2025-07-18T12:32:10.942225,2025-08-28T08:28:39.830825
cmd81ec7d8ece634c01b481,Abdul Samad Al Qurashi,"Abdul Samad Al Qurashi is a high-end perfumery company known for its luxury Arabic fragrances. Established in 1852, the company specializes in traditional Arabian perfumes, using natural ingredients such as oud, musk, and various floral notes. The brand emphasizes craftsmanship and heritage, creating unique, artisanal scents that reflect the rich cultural history of the Middle East. Over the years, Abdul Samad Al Qurashi has expanded its offerings to include a diverse range of perfume products, catering to a global market while maintaining a commitment to quality and tradition.",https://images.unsplash.com/photo-1541643600914-78b084683601?w=400&h=300&fit=crop,https://www.asqperfumes.com,Saudi Arabia,1852,niche,,,,2025-07-18T12:32:10.942225,2025-08-28T08:28:47.569812
cmd692682d7cf4a37ab21bf,Abel,"Abel is a niche perfume company that focuses on creating natural and sustainable fragrances. Founded by Frances Shoemack in 2013, Abel aims to redefine the norms of the perfume industry by using only high-quality, plant-based ingredients and avoiding synthetic chemicals. The brand is dedicated to environmental sustainability and ethical sourcing, offering an alternative to conventional perfumes that often contain harmful substances. Their story emphasizes transparency and craftsmanship, which is reflected in their unique scent compositions that cater to those seeking artisanal fragrances.",https://images.unsplash.com/photo-15907369626-6c63ac16f3df?w=400&h=300&fit=crop,https://abelodor.com,Netherlands,2013,niche,,,,2025-07-18T12:32:10.942225,2025-08-28T08:29:14.664032
cmda1103f98fe068fbc4e8b,Abercrombie & Fitch,"Abercrombie & Fitch is an American retailer that focuses on casual wear for young consumers. Founded in 1892, the company has a rich heritage that began as an elite hunting and fishing outfitter. Over the decades, Abercrombie & Fitch has transformed into a leading lifestyle brand recognized for its trendy apparel and fragrances. They specialize in creating aspirational, laid-back perfume collections that complement their fashion lines, often marketed towards a younger audience through distinctive branding and in-store experiences that evoke a sense of premium lifestyle.",https://images.unsplash.com/photo-1587017539504-67cfbddac569?w=400&h=300&fit=crop,https://www.abercrombie.com,United States,1892,designer,,,"6301 Fitch Path, New Albany, OH 43054, United States",2025-07-18T12:32:10.942225,2025-08-28T08:29:22.210595
cmd7188b48c684a49e4aa52,Abietson,"Abietson is a niche fragrance house known for crafting high-quality, artisanal perfumes that incorporate unique and natural ingredients. Founded by a passionate perfumer with a vision to create distinctive scents that tell a story, the brand focuses on limited-edition releases and exclusive collaborations. Their specialty lies in blending traditional perfumery techniques with modern aesthetics to produce evocative olfactory experiences.",https://images.unsplash.com/photo-1541643600914-78b084683601?w=400&h=300&fit=crop,,,,niche,,,,2025-07-18T12:32:10.942225,2025-08-28T08:29:29.005549
cmd103be577e40596fb45d9,Abinoam,"Abinoam is a niche perfume company that specializes in creating high-quality, handcrafted fragrances. The brand is dedicated to using natural ingredients and promoting an artisanal approach to perfume-making. With a focus on sustainability and authenticity, Abinoam's products are designed to express individuality and provoke emotion through scent. The company emphasizes a connection between fragrance and identity, making each perfume a unique representation of the wearer's personality.",https://images.unsplash.com/photo-1556909114-f6e7ad7d3136?w=400&h=300&fit=crop,,,,niche,,,,2025-07-18T12:32:10.942225,2025-08-28T08:29:35.446487
cmd1c6521808cb324a2c830,Abraham & Straus,"Abraham & Straus was originally a department store founded in the 19th century, primarily known for its wide variety of merchandise, including cosmetics and perfumes. In the late 20th century, the brand expanded its offerings to include a fragrance line under the guidance of established perfumers. The company has a rich history tied to providing quality products with a focus on accessibility and customer service, catering notably to a diverse customer base.",https://images.unsplash.com/photo-1556909114-f6e7ad7d3136?w=400&h=300&fit=crop,,United States,1865,drugstore,,,,2025-07-18T12:32:10.942225,2025-08-28T08:29:41.571974
cmd823ec5efdcfad217a5de,Absentia Aromatics,"Absentia Aromatics is a unique perfume company that specializes in creating artisanal fragrances inspired by the beauty of nature and the complexity of human emotions. With a focus on high-quality, sustainable ingredients, their offerings are handcrafted to evoke vivid memories and rich experiences. The company has a strong commitment to both artistry and environmental responsibility, making it a notable player in the niche fragrance market. Their story began with a passion for olfactory experiences that transform everyday moments into artistic expressions.",https://images.unsplash.com/photo-1541643600914-78b084683601?w=400&h=300&fit=crop,https://absentiaalchemists.com,United States,2018,niche,contact@absentiaalchemists.com,,,2025-07-18T12:32:10.942225,2025-08-28T08:29:48.541368
cmd6a50ec01eca5fccac915,Absolument,"Absolument is a French perfume company known for its artistic approach to fragrance creation. Founded by a team of passionate perfumers and creatives, the company aims to capture the essence of emotions and experiences through unique and high-quality scents. Their specialty lies in crafting niche fragrances that often tell a story or evoke specific memories, utilizing rare ingredients and innovative compositions. The brand places a strong emphasis on authenticity and artistry, making each fragrance a work of art.",https://images.unsplash.com/photo-1556909114-f6e7ad7d3136?w=400&h=300&fit=crop,https://www.absolumentparfums.com,France,2013,niche,contact@absolumentparfums.com,,"20 Rue du Faubourg Montmartre, 75002 Paris, France",2025-07-18T12:32:10.942225,2025-08-28T08:29:55.490756
cmd4a284562a0a9c7f5b9ef,Absolut,,https://images.unsplash.com/photo-1541643600914-78b084683601?w=400&h=300&fit=crop,https://www.absolut.com,Sweden,1879,designer,,,,2025-07-18T12:32:10.942225,2025-08-28T08:30:02.643610
cmdf90f09f78dac801186c3,Abstraction Paris,"Abstraction Paris is a niche perfume house based in Paris, known for its artistic and innovative approach to fragrance creation. The brand emphasizes the interplay of art and olfaction, often drawing inspiration from artistic movements and avant-garde concepts. Each scent is crafted with a focus on originality and character, catering to a discerning audience that values unique and luxurious perfumes. Their story is rooted in a desire to transcend traditional perfume-making by using unconventional ingredients and techniques, creating compositions that tell a story or evoke a specific emotional response.",https://images.unsplash.com/photo-1582735689369-4fe89db7114c?w=400&h=300&fit=crop,https://abstraction.paris,France,2020,niche,,,,2025-07-18T12:32:10.942225,2025-08-28T08:30:11.128130
cmd40cbf50bc269e85f28c5,Abu Haashir,"Abu Haashir is a renowned perfume company specializing in the creation of luxury Arabic and oriental fragrances. The brand has a rich heritage that reflects the art of perfumery deeply rooted in Middle Eastern culture. Their product line is distinguished by the use of high-quality ingredients sourced from around the world, aiming to capture the essence of tradition while catering to modern tastes. Notably, Abu Haashir is recognized for its craftsmanship in blending traditional notes with contemporary elements, creating unique scents that resonate globally.",https://images.unsplash.com/photo-1582735689369-4fe89db7114c?w=400&h=300&fit=crop,www.abuhashir.com,United Arab Emirates,,niche,,,,2025-07-18T12:32:10.942225,2025-08-28T08:30:18.038120
cmdb223c088ed1fe72562b1,Acca Kappa,"Acca Kappa is an Italian company that specializes in the production of fine fragrances, body care products, and home fragrances. Established in 1869, the brand is recognized for its commitment to craftsmanship, high-quality materials, and an emphasis on artisanal production. Acca Kappa is particularly noted for its signature fragrance line, which blends traditional Italian perfume-making techniques with contemporary sensibilities, focusing on natural ingredients and eco-friendly practices. The brand also produces grooming products and cosmetics, highlighting its dedication to personal care and luxury.",https://www.accakappa.com/static/version1743586775/frontend/bluesky/bluesky_accakappa_default/it_IT/images/logo-accakappa__big.svg,https://www.accakappa.com,Italy,1869,niche,,,"Via P. S. D’Antonio, 18, 31100 Treviso TV, Italy",2025-07-18T12:32:10.942225,2025-08-28T08:30:29.134828
cmdc057bf60fb16ea2fafd9,Accendis,"Accendis is a fragrance house known for creating high-quality niche perfumes that engage the senses and evoke emotional connections. Founded on a passion for blending art and science, Accendis emphasizes the craftsmanship in perfumery by utilizing rare and luxurious raw materials. Their fragrances often reflect a deep appreciation for both contemporary and traditional olfactory artistry, making them stand out in the competitive perfume market. The company aims to provide a unique olfactory experience to its customers, tailored for individual preferences.",https://images.unsplash.com/photo-1556909114-f6e7ad7d3136?w=400&h=300&fit=crop,https://www.accendis.com,Portugal,2006,niche,,,,2025-07-18T12:32:10.942225,2025-08-28T08:30:45.750197
cmdb5d0359ef3dbc4ab74c1,Accessorize,"Accessorize is a UK-based fashion accessories retailer known for offering a range of products including jewelry, bags, and fragrances. Founded in 1984, Accessorize aims to provide stylish and affordable accessories inspired by global trends, with a focus on feminine and playful designs. The brand has built a reputation for its wide variety of unique and vibrant scents, utilizing appealing packaging and engaging marketing strategies. Positioned in the competitive accessories market, Accessorize strives to cater to a diverse demographic, focusing on quality and design in its fragrance offerings.",https://www.accessorize.com/on/demandware.static/-/Library-Sites-accessorize-content-global/default/dw95665514/global/logo.svg,https://www.accessorize.com,United Kingdom,1984,designer,,,,2025-07-18T12:32:10.942225,2025-08-28T08:30:53.841872
cmdc6c80bb7f6017d67fbd7,Accord Parfait,"Accord Parfait is a niche perfume house that specializes in creating unique and luxurious fragrances. Established by a team of passionate perfumers, the company combines artistry and science to formulate perfumes that are inspired by emotions and memories. The brand is known for its commitment to quality ingredients and innovative formulations, bringing a distinct touch to the fragrance market.",https://images.unsplash.com/photo-1587017539504-67cfbddac569?w=400&h=300&fit=crop,https://www.accordparfait.com,France,2017,niche,,,,2025-07-18T12:32:10.942225,2025-08-28T08:30:59.819006
cmd98f8793dd8723c261c3b,Aceite,"Aceite is a niche perfume company renowned for its artisanal approach to fragrance creation. The company specializes in crafting high-quality, unique scents using natural ingredients, drawing inspiration from nature and traditional perfumery techniques. Founded by a team of passionate fragrance enthusiasts, Aceite aims to evoke emotions and memories through intricate scent compositions. Their focus on limited production runs allows for a personalized experience, appealing to connoisseurs of fine fragrances who appreciate authenticity and craftsmanship.",https://images.unsplash.com/photo-15907369626-6c63ac16f3df?w=400&h=300&fit=crop,www.aceiteparfum.com,Spain,2015,niche,info@aceiteparfum.com,+34 912 345 678,"Calle Aroma 12, 28001 Madrid, Spain",2025-07-18T12:32:10.942225,2025-08-28T08:31:06.912943
cmdf0e1876a90c6f903d28e,Ach. Brito,"Ach. Brito is a Portuguese company specializing in traditional soaps, fragrances, and toiletries. Established in 1918, this family-owned business has built a reputation for its high-quality products and artisanal craftsmanship. The company is particularly known for its vintage-style packaging and nostalgic scents, drawing inspiration from traditional Portuguese culture. Ach. Brito’s products often reflect regional characteristics, making them beloved not only locally but also in international markets. Their commitment to quality and tradition sets them apart in the competitive fragrance industry.",https://loja.e-couto.net/pt/wp-content/uploads/2020/08/achbrito-logotipo.png,https://www.achbrito.com/,Portugal,1918,indie,,,,2025-07-18T12:32:10.942225,2025-08-28T08:31:15.522253
cmd78d747b1db98fad461f9,Achilles,"Achilles is a niche perfume company known for its unique and artistic fragrance creations. Founded by a group of passionate perfumers, Achilles combines traditional craftsmanship with modern sensibilities, offering an array of scents that tell compelling stories through their compositions. Their specialty lies in crafting limited-edition fragrances, often inspired by various cultural and historical themes, allowing them to stand out in the competitive perfume industry.",https://images.unsplash.com/photo-1587017539504-67cfbddac569?w=400&h=300&fit=crop,www.achillesfragrances.com,France,2019,niche,contact@achillesfragrances.com,,,2025-07-18T12:32:10.942225,2025-08-28T08:31:22.051229
cmd67685893b27f92217187,Acne Studios,"Acne Studios is a Swedish fashion house founded in 1996, known for its eclectic collections that combine contemporary design with an avant-garde approach. Originally focusing on denim, the company has expanded its offerings to include ready-to-wear clothing, accessories, and fragrance. The brand emphasizes creativity, craftsmanship, and a modern aesthetic, aiming to challenge traditional fashion norms. Their perfumes often reflect the same innovative spirit found in their clothing lines.",https://www.acnestudios.com/on/demandware.static/Sites-acne_us-Site/-/default/dw5665fa0a/icons/clear.svg,https://www.acnestudios.com,Sweden,1996,designer,,,,2025-07-18T12:32:10.942225,2025-08-28T08:31:30.163050
cmdaef052ae2a49220943b6,Acorelle,"Acorelle is a French company that specializes in creating natural and organic perfumes, as well as other scented products. The brand was established with a commitment to using high-quality, eco-friendly ingredients, aiming to provide alternatives to synthetic fragrances. Acorelle's story began with a focus on personal care and well-being, emphasizing the importance of reducing the use of chemical substances in perfumery. The company stands out due to its unique approach to scent creation, combining artistic expression with a commitment to sustainability and health.",https://images.unsplash.com/photo-15907369626-6c63ac16f3df?w=400&h=300&fit=crop,https://www.acorelle.com,France,2004,indie,contact@acorelle.com,,,2025-07-18T12:32:10.942225,2025-08-28T08:31:38.011128
cmd089dcfb31e1a24cdce82,Acousticjus,"Acousticjus is a niche fragrance house that specializes in crafting unique and artistic perfumes inspired by various musical and sensory experiences. Founded by a team of passionate perfumers and musicians, the brand seeks to evoke emotions and memories through scent, merging the worlds of music and fragrance. Each perfume is designed to tell a story, often accompanied by creative packaging and branding that reflects the artistic vision behind the scent.",https://images.unsplash.com/photo-1556909114-f6e7ad7d3136?w=400&h=300&fit=crop,,,,niche,,,,2025-07-18T12:32:10.942225,2025-08-28T08:31:44.268644
cmd5471055007501f149f29,Acqua Alpes,"Acqua Alpes is a luxury perfume house that draws inspiration from the pristine Alpine regions of the Alps. Established with a focus on incorporating natural ingredients sourced from this unique environment, the company emphasizes quality and craftsmanship in its fragrance creation. The brand aims to evoke the essence of the Alpine experience, encapsulating the fresh, crisp air and the breathtaking landscapes of the region within each scent. Their offerings often reflect the beauty and purity of nature, appealing to consumers who value artisanal craftsmanship and environmental consciousness in fragrance.",https://acquaalpes.com/cdn/shop/files/Shopify_Mobile_OverlayLogo_600x200px_Zeichenflaeche_1_410x.png?v=1651244871,http://www.acquaalpes.com,Italy,2012,niche,,,,2025-07-18T12:32:10.942225,2025-08-28T08:31:52.897699
cmddad8a442094320ea4504,Acqua degli Dei,"Acqua degli Dei is an Italian perfume company renowned for its high-quality fragrances that celebrate the essence of natural ingredients and the beauty of Italian landscapes. The brand draws inspiration from the island of Pantelleria, known for its rich history, vibrant culture, and unique flora. Their specialty lies in creating artisanal perfumes that evoke the spirit of nature, combining traditional craftsmanship with modern sensibilities. Each fragrance is designed to capture a moment in time, evoking emotions and memories, grounding the wearer in an experience that transcends ordinary scent.",https://images.unsplash.com/photo-1556909114-f6e7ad7d3136?w=400&h=300&fit=crop,https://www.acquadidei.com,Italy,2008,niche,,,,2025-07-18T12:32:10.942225,2025-08-28T08:32:05.026649
cmd749b5ca65383529bb1ff,Acqua del Garda,"Acqua del Garda is a niche perfume company known for its high-quality, artisanal fragrances inspired by the idyllic surroundings of Lake Garda in Italy. Established in 2014, the brand focuses on creating unique scents that capture the essence of the region’s natural beauty and cultural heritage. Their products reflect a commitment to craftsmanship and the use of premium raw materials, offering a luxurious olfactory experience that embodies the lifestyle and spirit of Lake Garda.",https://images.unsplash.com/photo-1556909114-f6e7ad7d3136?w=400&h=300&fit=crop,https://www.acquadelgarda.com,Italy,2014,niche,,,,2025-07-18T12:32:10.942225,2025-08-28T08:32:11.873152
cmdfffcce954aaee2db97af,Acqua delle Langhe,"Acqua delle Langhe is a niche perfume company that specializes in creating high-quality fragrances inspired by the natural beauty and cultural heritage of the Langhe region in Italy. The company was founded by a group of artisans with a passion for perfumery and a deep connection to their homeland. They combine traditional craftsmanship with contemporary design to produce unique scents that reflect the rich aromas and landscapes of the Langhe area, known for its wines, truffles, and stunning scenery.",https://images.unsplash.com/photo-1541643600914-78b084683601?w=400&h=300&fit=crop,https://www.acquadellelanghe.com,Italy,2017,niche,,,,2025-07-18T12:32:10.942225,2025-08-28T08:32:18.181019
cmd90b3516171a19e2f9d07,Acqua dell'Elba,"Acqua dell'Elba is an Italian perfume brand that specializes in creating high-quality fragrances inspired by the natural beauty and elements of the Elba Island in Tuscany. Founded in 2008, the brand draws on the island’s rich history and landscape, incorporating local ingredients and artisanal techniques in their perfumery. They offer a range of products including perfumes, home fragrances, and bath and body care items, reflecting the essence of the Mediterranean. The brand places a strong emphasis on craftsmanship and the heritage of the region, aiming to evoke the sensations of the island through their scents.",https://www.acquadellelba.com/app/Imgs/logotop-2.png,https://www.acquadellelba.com,Italy,2008,niche,,,,2025-07-18T12:32:10.942225,2025-08-28T08:32:25.829287
cmddfb0ea70fa3e9278afe4,Acqua di Baviera,"Acqua di Baviera is a niche perfume company specializing in high-quality fragrances that embody the essence of Italy's tradition and elegance. The brand was founded with a vision to create scents inspired by the historical significance and cultural richness of the Bavarian region, blending classic perfumery techniques with modern artistry. Acqua di Baviera is known for its artisanal approach, using rare ingredients to craft unique fragrances that tell a story and evoke emotions.",https://images.unsplash.com/photo-15907369626-6c63ac16f3df?w=400&h=300&fit=crop,[www.acquadibaviera.com](http://www.acquadibaviera.com),Italy,2011,niche,,,,2025-07-18T12:32:10.942225,2025-08-28T08:32:32.373005
cmd175664058aa2b00c415c,Acqua di Biella,"Acqua di Biella is an Italian fragrance house known for its artisanal perfumes made using traditional methods and high-quality ingredients. The company draws inspiration from the natural beauty of the Biella region and aims to capture the essence of local flora in its products. Established in 2008, Acqua di Biella embraces a philosophy of craftsmanship and authenticity, combining modern techniques with a deep respect for historical perfumery practices. They specialize in creating both classic and contemporary scents, catering to a niche market that appreciates unique and sophisticated fragrances.",https://www.acquadibiella.com/pagine/sfondi/LogoTop.png,https://www.acquadibiella.com,Italy,2008,niche,,,,2025-07-18T12:32:10.942225,2025-08-28T08:32:40.023320
cmdc12a61850073d55fc8cf,Acqua di Genova,"Acqua di Genova is a historic perfume house that originated in 1853 in Genoa, Italy. Renowned for its artisanal fragrances, the company draws inspiration from the rich maritime culture of its hometown and its vibrant botanical heritage. They specialize in creating high-quality, handcrafted fragrances that evoke the essence of the Italian Riviera, using traditional methods and premium ingredients. Acqua di Genova has been celebrated for its unique blends that cater to both male and female consumers, emphasizing elegance and sophistication in each scent.",https://images.unsplash.com/photo-1587017539504-67cfbddac569?w=400&h=300&fit=crop,https://www.acquadigenova.com,Italy,1853,niche,,,,2025-07-18T12:32:10.942225,2025-08-28T08:32:47.656279
cmdd551aaf038a263915480,Acqua di Hamburg,"Acqua di Hamburg is a luxury perfume house known for its exceptional craftsmanship and high-quality ingredients in fragrance creation. The company has deep roots in Hamburg, Germany, and specializes in producing niche perfumes that embody the spirit of the city, intertwining local culture and heritage into their scent formulations. Acqua di Hamburg combines traditional craftsmanship with modern fragrance trends, offering a curated selection of unique olfactory experiences that appeal to connoisseurs and casual users alike.",https://images.unsplash.com/photo-1541643600914-78b084683601?w=400&h=300&fit=crop,https://www.acquadihamburg.com,Germany,2012,niche,,,,2025-07-18T12:32:10.942225,2025-08-28T08:32:55.697708
cmd8c2f9513628d0b54d26c,Acqua di Noto,"Acqua di Noto is an Italian perfume company known for creating artisanal fragrances that embody the essence of Noto, a Sicilian city rich in culture and history. The brand emphasizes natural ingredients, blending traditional Italian craftsmanship with contemporary olfactory art. Their perfumes are inspired by the landscapes, flora, and cultural heritage of Sicily, aiming to evoke a strong sense of place through their unique scent compositions.",https://images.unsplash.com/photo-1582735689369-4fe89db7114c?w=400&h=300&fit=crop,https://www.acquadinoto.com,Italy,2017,niche,,,,2025-07-18T12:32:10.942225,2025-08-28T08:33:03.123439
cmd171526273a429fc485a6,Acqua di Parma,"Acqua di Parma is a luxury fragrance and personal care brand that represents the essence of Italian craftsmanship and style. Founded in 1916, the company started with the creation of Colonia, a refreshing cologne that gained immediate acclaim for its quality and unique blend of citrus and floral notes. The brand has since expanded its product offerings to include a diverse range of perfumes, home fragrances, and personal care products, all characterized by their elegance, artisanal production, and authentic Italian heritage. Acqua di Parma has become synonymous with luxury, and its sophisticated fragrances convey a deep sense of tradition blended with modernity.",https://images.unsplash.com/photo-1587017539504-67cfbddac569?w=400&h=300&fit=crop,https://www.acquadiparma.com,Italy,1916,niche,,,"Via S. Barbara, 9, 43121 Parma PR, Italy",2025-07-18T12:32:10.942225,2025-08-28T08:33:12.358255
cmdb8b8cfd6c0b0bbf25030,Acqua di Portofino,"Acqua di Portofino is a luxury fragrance brand inspired by the picturesque Italian village of Portofino. The company aims to encapsulate the essence of Italian summer, the Mediterranean lifestyle, and the enchanting scenery of its namesake. Known for its high-quality ingredients and sophisticated aromas, Acqua di Portofino creates scents that evoke memories of sunlit coasts, vibrant nature, and Italian elegance, appealing to connoisseurs of niche perfumes.",https://images.unsplash.com/photo-1587017539504-67cfbddac569?w=400&h=300&fit=crop,https://www.acquadimportofino.com,Italy,2014,niche,,,,2025-07-18T12:32:10.942225,2025-08-28T08:33:19.438583
cmdca8d37f09db259e598d0,Acqua di Sardegna,"Acqua di Sardegna is a luxury fragrance brand inspired by the enchanting landscapes and rich traditions of Sardinia. The company specializes in creating perfumes that capture the essence of the island, using high-quality ingredients to evoke the scents of the Mediterranean environment. Their story is rooted in authenticity and a deep connection to local culture, reflecting the artisanal craftsmanship and natural beauty of Sardinia in each product.",https://www.acquadisardegna.com/feedaty_logo_h15.svg,http://www.acquadisardegna.com,Italy,2012,niche,,,,2025-07-18T12:32:10.942225,2025-08-28T08:33:27.347265
cmdebb03094429cee073cd7,Acqua di Stresa,"Acqua di Stresa is a luxury perfume brand that draws its inspiration from the natural beauty and rich heritage of the Italian Lake District, specifically Lake Maggiore. Established to evoke the essence of the Italian landscape, their fragrances often feature notes reflective of the flora and fauna found in this picturesque region. The company prides itself on artisanal craftsmanship, blending traditional perfumery techniques with high-quality ingredients to create unique and evocative scents that transport users to serene Italian moments.",https://images.unsplash.com/photo-15907369626-6c63ac16f3df?w=400&h=300&fit=crop,https://www.acquadistresa.com,Italy,2014,niche,,,,2025-07-18T12:32:10.942225,2025-08-28T08:33:35.089249
cmde189d40bac1b7ca56ebc,Acqua di Taormina,"Acqua di Taormina is a luxury perfume house that draws inspiration from the natural beauty and rich heritage of Taormina, a picturesque town on the Sicilian coast. Founded with the aim of capturing the essence of this enchanting locale, Acqua di Taormina specializes in creating unique and sophisticated fragrances that evoke the vivid landscapes, aromas, and spirit of Sicily. The company focuses on offering high-quality artisanal perfumes, often made with rare and natural ingredients, reflecting both traditional craftsmanship and contemporary sensibilities.",https://i0.wp.com/acquaditaormina.com/wp-content/uploads/2024/01/logo-adt-header.png?fit=500%2C85&ssl=1,https://www.acquaditaormina.com,Italy,2013,niche,,,,2025-07-18T12:32:10.942225,2025-08-28T08:33:50.255814
cmda3174ede782923ab2d07,Acqua Flor,"Acqua Flor is a niche perfume company based in Florence, Italy, known for creating high-quality, handcrafted fragrances that celebrate the tradition of Italian perfumery. Established in 2009, Acqua Flor focuses on artisanal methods and uses only the finest ingredients sourced from around the world. The company has established its reputation for creating sophisticated, long-lasting scents that reflect the beauty and culture of Florence, often incorporating elements inspired by the city's rich history and art. By combining traditional techniques with innovative compositions, Acqua Flor aims to offer unique olfactory experiences that resonate emotionally with their clientele.",https://images.unsplash.com/photo-1556909114-f6e7ad7d3136?w=400&h=300&fit=crop,https://www.acquaflor.com,Italy,2009,niche,,,,2025-07-18T12:32:10.942225,2025-08-28T08:33:58.134036
cmdf386d2e0667c69ce41b6,Acqua Reale,"Acqua Reale is a perfume company known for its luxury fragrances that capture the essence of water and nature. Their products are often inspired by the natural landscapes of Italy, where the company was founded. Acqua Reale specializes in crafting high-quality, artisanal perfumes using natural ingredients, aiming to evoke emotions and memories tied to water and its purity. The brand focuses on sustainability and eco-friendly practices in their production processes, highlighting their commitment to environmental preservation.",https://images.unsplash.com/photo-1587017539504-67cfbddac569?w=400&h=300&fit=crop,www.acquareale.com,Italy,2018,niche,,,,2025-07-18T12:32:10.942225,2025-08-28T08:34:05.131169
cmd5e3be5b92a6ad149d7c4,Acque di Italia,"Acque di Italia is a niche perfume company that draws inspiration from Italy's rich history, culture, and natural beauty to create unique, high-quality fragrances. Established by a team of passionate perfumers, the brand focuses on artisanal craftsmanship and the fine art of perfumery, ensuring that each product encapsulates the essence of Italian heritage. Their specialty lies in blending traditional techniques with contemporary aesthetics, resulting in distinctive scents that tell a story and evoke memories of Italy's diverse landscapes.",https://images.unsplash.com/photo-1587017539504-67cfbddac569?w=400&h=300&fit=crop,https://www.acquediitalia.com,Italy,2013,niche,info@acquediitalia.com,,,2025-07-18T12:32:10.942225,2025-08-28T08:34:12.911627
cmdc02571d44c54e83b0d32,Actien-Gesselschaft Für Anilin,"Actien-Gesselschaft Für Anilin, originally known for its production of aniline dyes, has diversified into the fragrance industry, focusing on the creation of high-quality perfumes. The company has a rich history that intertwines with the development of synthetic scents and has established itself as a reputable name in the perfume sector. Their specialty lies in blending traditional craftsmanship with modern technology to produce unique scent profiles that appeal to a diverse audience.",https://images.unsplash.com/photo-1582735689369-4fe89db7114c?w=400&h=300&fit=crop,,Germany,1860,indie,,,,2025-07-18T12:32:10.942225,2025-08-28T08:34:19.574567
cmd9f7a11f16f196c605652,Acton,"Acton is a niche perfume company known for its innovative and evocative fragrances that blend traditional crafting techniques with contemporary concepts. Established by a group of perfumers passionate about aroma artistry, Acton aims to push the boundaries of scent creation, offering unique olfactory experiences. The company's dedication to quality and creativity has garnered it a dedicated following among fragrance enthusiasts and connoisseurs.",https://images.unsplash.com/photo-1541643600914-78b084683601?w=400&h=300&fit=crop,www.actonperfumes.com,United States,2018,niche,contact@actonperfumes.com,,,2025-07-18T12:32:10.942225,2025-08-28T08:34:25.594689
cmd50813edcd4a8bd81da14,Adam Grooming Atelier,"Adam Grooming Atelier is a niche fragrance company that specializes in creating artisanal perfumes for the modern man. Established with a vision to blend tradition and contemporary design, the brand focuses on meticulous craftsmanship, utilizing the highest quality ingredients sourced from around the world. Their story is rooted in the desire to redefine male grooming products, providing sophisticated scents that evoke a sense of identity and style. Adam Grooming Atelier aims to deliver a fragrance experience that reflects individuality and modern aesthetics.",https://d1xq4g101mwn8d.cloudfront.net/uploads/_headerMobile/ADAM_THEPOORHOMME_TEST_5-cropped.jpg?mtime=20200819165806&focal=none&tmtime=20250519112950,https://www.adamgroomingatelier.com,Australia,2016,niche,,,,2025-07-18T12:32:10.942225,2025-08-28T08:35:03.619614
cmd506a869e4b7f4451ec81,Adam Levine,"Adam Levine Fragrances is a line of perfumes launched by the American musician and Maroon 5 lead singer Adam Levine. The fragrance line debuted in 2013 and has gained popularity due to its appealing scents that reflect Levine's personal style and creative influences. The perfumes often aim to combine sophistication with a modern, approachable vibe, catering to both men and women. Levine’s involvement in the creation of these scents helps to emphasize authenticity and personal expression through fragrance.",https://images.unsplash.com/photo-1556909114-f6e7ad7d3136?w=400&h=300&fit=crop,https://www.adamlevine.com,United States,2013,celebrity,,,,2025-07-18T12:32:10.942225,2025-08-28T08:35:15.272342
cmdf4b500824c6a04635451,Adam,"Adam is a niche perfume company known for its artisan approach to fragrance creation. The company prides itself on blending traditional perfumery techniques with modern inspirations to craft unique scents. Adam emphasizes the use of high-quality, sustainable ingredients, aiming to offer a personal olfactory experience that speaks to individual preferences. The brand has garnered a reputation for its distinct character and attention to detail in scent composition.",https://images.unsplash.com/photo-15907369626-6c63ac16f3df?w=400&h=300&fit=crop,,,,niche,,,,2025-07-18T12:32:10.942225,2025-08-28T08:35:21.009599
cmd0aff3ad76f438b63261e,Adamo Parfum,"Adamo Parfum is a specialized niche perfume company that focuses on creating high-quality, artisanal fragrances. The brand emphasizes craftsmanship and unique scent profiles, often inspired by rich cultural narratives and personal stories. Their dedication to the art of perfumery allows them to offer bespoke scents and limited-edition releases, appealing to connoisseurs looking for originality in their fragrance experiences.",https://images.unsplash.com/photo-15907369626-6c63ac16f3df?w=400&h=300&fit=crop,,,,niche,,,,2025-07-18T12:32:10.942225,2025-08-28T08:35:26.840342
cmdd151a7b1b3f029f72ab9,Adams Laboratories,"Adams Laboratories specializes in the development and manufacture of high-quality fragrance products, focusing on innovative formulations that cater to diverse consumer preferences. The company is known for its commitment to sustainability and ethical sourcing of raw materials, establishing a strong reputation in the perfume industry.",https://images.unsplash.com/photo-1582735689369-4fe89db7114c?w=400&h=300&fit=crop,www.adamslaboratories.com,United States,1992,indie,,,,2025-07-18T12:32:10.942225,2025-08-28T08:35:33.482210
cmdad160fa73f882ecf79dd,Adams Perfumes,"Adams Perfumes is a fragrance company that specializes in creating unique and high-quality perfumes. Established with a passion for scent and artistry, the company has carved a niche for itself by focusing on blending traditional perfumery techniques with contemporary inspirations. Their philosophy emphasizes craftsmanship and individuality, catering to customers seeking distinctive olfactory experiences.",https://images.unsplash.com/photo-1587017539504-67cfbddac569?w=400&h=300&fit=crop,www.adamsperfumes.com,United States,2010,niche,contact@adamsperfumes.com,,,2025-07-18T12:32:10.942225,2025-08-28T08:35:40.037713
cmd2eb2e0a6117d4e1c1835,Addis,"Addis is a perfume company that specializes in creating unique and culturally inspired fragrances. The brand draws from the rich heritage of Ethiopia, infusing traditional ingredients and scents native to the region into their collections. Founded by passionate creators who aimed to share Ethiopian scents with the world, Addis focuses on sustainability, quality, and craftsmanship in their products. They are known for their artisanal approach to perfume-making, often incorporating natural elements and aromas that evoke the essence of Ethiopia.",https://images.unsplash.com/photo-1541643600914-78b084683601?w=400&h=300&fit=crop,www.addisperfume.com,Ethiopia,2018,indie,info@addisperfume.com,,,2025-07-18T12:32:10.942225,2025-08-28T08:35:46.700347
cmd44c824c4e826cbf80f8e,Addison Rae,"Addison Rae's perfume line is an extension of the brand created by the popular social media influencer and actress, known for her vibrant personality and influence in the beauty industry. The company focuses on creating fragrances that resonate with a youthful, modern audience, capturing elements of fun and accessibility in its offerings. Addison Rae has leveraged her fame to penetrate the fragrance market, providing a fresh and relatable approach to perfume, appealing especially to her followers.",https://images.unsplash.com/photo-1541643600914-78b084683601?w=400&h=300&fit=crop,https://addisonraefragrances.com,United States,2021,celebrity,,,,2025-07-18T12:32:10.942225,2025-08-28T08:35:53.746659
cmd6cccac64b0c63fcb823e,Addy van den Krommenacker,"Addy van den Krommenacker is a Dutch fashion designer who has ventured into the fragrance industry, becoming known for creating perfumes that reflect his unique design aesthetic. The brand combines high fashion with olfactory artistry, offering a selection of fragrances that cater to both men and women. Addy is celebrated for his vibrant and bold styles, which extend into his perfume line, aiming to embody the spirit of luxury and sophistication in each scent.",https://images.unsplash.com/photo-15907369626-6c63ac16f3df?w=400&h=300&fit=crop,https://addyvandenkrommenacker.com,Netherlands,2006,niche,,,,2025-07-18T12:32:10.942225,2025-08-28T08:36:00.536082
cmd1228368c27771901909a,Aden Parfum,"Aden Parfum is a niche perfume company known for creating unique and high-quality fragrances inspired by different cultures and experiences. They emphasize craftsmanship and artistry in their products, often utilizing rare and natural ingredients. Established by a team of perfumers and artists, Aden Parfum's story revolves around the idea of capturing emotion and nostalgia through scent, making each bottle a personal journey for the wearer. Their specialty lies in creating artisanal fragrances that appeal to discerning customers looking for something distinct from mainstream offerings.",https://images.unsplash.com/photo-1582735689369-4fe89db7114c?w=400&h=300&fit=crop,https://adenparfum.com,France,2014,niche,contact@adenparfum.com,,"89 Rue du Faubourg Saint-Antoine, 75011 Paris, France",2025-07-18T12:32:10.942225,2025-08-28T08:36:07.593404
cmd1811472b24f2d6a85ace,Adi ale Van,"Adi ale Van is a niche perfume company known for its artistic and unique fragrance compositions. The company specializes in crafting high-quality perfumes that blend rare ingredients and innovative olfactory experiences. Founded by a group of fragrance enthusiasts, Adi ale Van has quickly gained recognition for its commitment to sustainability and ethical sourcing of materials. Their story is rooted in a passion for scent that transcends traditional fragrance boundaries, making them a significant player in the niche perfume market.",https://www.adialevan.com/wp-content/uploads/2022/05/logo-Adi-ale-Van-200px-invert-simple.png,www.adialevan.com,France,2015,niche,contact@adialevan.com,+33 1 23 45 67 89,"12 Rue de la Parfumerie, Paris, 75001, France",2025-07-18T12:32:10.942225,2025-08-28T08:36:18.569829
cmdbe28f50b18978016ab89,Adidas,"Adidas is a globally recognized company primarily known for its athletic footwear, apparel, and accessories. Founded in Germany in 1949, it has diversified its offerings to include a range of lifestyle products, including fragrances. The Adidas fragrance line embodies the brand's commitment to sporting excellence and lifestyle, often targeting active individuals who appreciate both function and style. The fragrances reflect the brand's identity, incorporating fresh, vibrant scents that resonate with its sporting philosophy and culture.",https://images.unsplash.com/photo-1541643600914-78b084683601?w=400&h=300&fit=crop,[https://www.adidas.com](https://www.adidas.com),Germany,1949,designer,,,,2025-07-18T12:32:10.942225,2025-08-28T08:36:28.075490
cmdf9d46fc27ece9a56f46c,Adjiumi,"Adjiumi is a niche perfume company specializing in artisanal, high-quality fragrances that reflect unique personal stories and cultural influences. Founded with the vision of creating distinctive scents that resonate on a personal level, Adjiumi blends traditional perfumery methods with innovative approaches to fragrance creation. The company emphasizes a commitment to sustainability and artisanal craftsmanship, sourcing rare and authentic materials from around the world to create its signature fragrances.",https://images.unsplash.com/photo-1556909114-f6e7ad7d3136?w=400&h=300&fit=crop,www.adjiumi.com,United States,2018,niche,contact@adjiumi.com,,,2025-07-18T12:32:10.942225,2025-08-28T08:36:34.505768
cmdd1dee3b10f7b2f0ee80f,ADN Musc,"ADN Musc is a niche perfume company known for its unique approach to fragrance creation, emphasizing the natural essence of musk. The brand focuses on high-quality ingredients and artisanal craftsmanship, resulting in signature scents that embody a sensual and luxurious experience. Founded by a passionate perfumer, ADN Musc aims to celebrate the power of musk in its purest form, catering to a discerning clientele looking for exclusive and distinctive perfumes.",https://www.adn-musc.com/img/logo-1692367690.jpg,https://www.adn-musc.com,France,2012,niche,,,,2025-07-18T12:32:10.942225,2025-08-28T08:36:44.143340
cmdeacac4acc5efc5bb85f5,Adnan B.,"Adnan B. is a perfume company that specializes in creating high-quality, exclusive fragrances. Known for its unique blends, Adnan B. aims to deliver a sensory experience that resonates with individuals who appreciate luxury and sophistication in personal scents. The company focuses on using premium ingredients, often inspired by various cultural influences, which allows them to craft distinctive and memorable perfumes.",https://images.unsplash.com/photo-1582735689369-4fe89db7114c?w=400&h=300&fit=crop,,,,niche,,,,2025-07-18T12:32:10.942225,2025-08-28T08:36:50.346629
cmd38395595d3d9cb2fb3ac,Adolfo Dominguez,"Adolfo Dominguez is a Spanish fashion brand that is widely recognized for its elegant clothing lines, accessories, and fragrances. Founded by designer Adolfo Dominguez in 1981, the company gained prominence for its commitment to quality and craftsmanship, showcasing contemporary designs that reflect the essence of timeless elegance. The perfume line, launched subsequently, emphasizes unique compositions and is an extension of the brand’s identity, connecting closely with its fashion roots and appealing to a sophisticated clientele.",https://images.unsplash.com/photo-1541643600914-78b084683601?w=400&h=300&fit=crop,https://www.adolfodominguez.com,Spain,1981,designer,,,,2025-07-18T12:32:10.942225,2025-08-28T08:36:58.095117
cmdcfe2b5fde52b55ee8f41,Adonis,"Adonis is a fragrance brand known for its unique and captivating scents, often inspired by the dichotomy of nature and urban life. Established to provide an exceptional olfactory experience, Adonis aims to capture the essence of modern masculinity and femininity within their collections. The brand combines traditional perfumery techniques with contemporary design to create high-quality and accessible perfumes, offering a variety of options that cater to diverse preferences.",https://images.unsplash.com/photo-1587017539504-67cfbddac569?w=400&h=300&fit=crop,,,,indie,,,,2025-07-18T12:32:10.942225,2025-08-28T08:37:04.300378
cmd427c533a9d3a64249e36,Adopt',"Adopt' is a French perfume company known for its innovative approach to fragrance creation. Founded in 2012, the brand focuses on producing unique and accessible perfumes that reflect individuality and creativity. Adopt' emphasizes the importance of scent as a form of self-expression, offering a wide range of products that cater to different preferences and personal styles. The company is also recognized for its commitment to sustainability and eco-friendly practices, using cruelty-free ingredients and recyclable packaging.",https://adopt.twic.pics/static/version6292/frontend/Adopt/hyva/en_GB/images/logo.svg?twic=v1,https://www.adopt.com,France,2012,indie,,,,2025-07-18T12:32:10.942225,2025-08-28T08:37:12.892196
cmda9c68fc9cc8cad0a2e1b,Adorée,"Adorée is a luxury fragrance house that specializes in creating exquisite and artisanal perfumes. Founded by a team of passionate perfumers, the company is dedicated to crafting scents that evoke emotions and tell stories through their unique blends of high-quality ingredients. Adorée focuses on sustainability and ethical sourcing, ensuring that each fragrance is not only a sensory delight but also environmentally responsible. The brand has a rich history rooted in the art of perfumery and continues to innovate with modern creations while honoring traditional techniques.",https://images.unsplash.com/photo-15907369626-6c63ac16f3df?w=400&h=300&fit=crop,https://www.adoreefragrances.com,France,2018,niche,contact@adoreefragrances.com,,"45 Rue de la Fragrance, Paris, France",2025-07-18T12:32:10.942225,2025-08-28T08:37:19.369145
cmd0ff4239496782515a0a3,Adorn,"Adorn is a perfume company known for its commitment to creating luxurious and artisanal fragrances that evoke emotions and memories. Founded by a group of passionate perfumers, the brand aims to elevate the art of scent through high-quality ingredients, unique formulations, and an attention to detail that reflects their love for craftsmanship. Specializing in bespoke and limited edition fragrances, Adorn takes pride in offering customers personalized experiences and standout scents that cater to individual preferences.",https://images.unsplash.com/photo-1556909114-f6e7ad7d3136?w=400&h=300&fit=crop,www.adornperfumes.com,United States,2018,indie,contact@adornperfumes.com,,,2025-07-18T12:32:10.942225,2025-08-28T08:37:26.670140
cmdc6392646d1dce00dd754,Adoro,"Adoro is a distinctive perfume company that specializes in creating high-quality, artisanal fragrances that are designed to evoke emotions and memories. Founded on the principles of creativity and passion for scent, Adoro focuses on blending traditional perfumery techniques with modern sensibilities. The company prides itself on using premium ingredients to craft intricate scent profiles that cater to a diverse clientele. As a brand, Adoro aims to enhance personal expression through fragrance, thus becoming a beloved choice among perfume enthusiasts globally.",https://images.unsplash.com/photo-1541643600914-78b084683601?w=400&h=300&fit=crop,www.adoroperfumes.com,United States,2015,niche,contact@adoroperfumes.com,,,2025-07-18T12:32:10.942225,2025-08-28T08:37:33.486149
cmde8233f34d799a65b840f,Adrian,"Adrian is a luxury perfume brand known for its exclusive fragrance offerings and artisanal approach to scent creation. The company focuses on blending high-quality ingredients sourced from around the world, reflecting a dedication to craftsmanship and olfactory artistry. Established with a vision to create signature scents that evoke emotions and personal stories, Adrian has carved a niche in the high-end market, particularly appealing to fragrance connoisseurs and those seeking unique olfactory experiences.",https://images.unsplash.com/photo-1587017539504-67cfbddac569?w=400&h=300&fit=crop,www.adrianfragrances.com,United States,2015,niche,contact@adrianfragrances.com,,"123 Fragrance Lane, New York, NY 10001, USA",2025-07-18T12:32:10.942225,2025-08-28T08:37:40.545405
cmd0cd6e1bd8971302b4bd4,Adrien Arpel,"Adrien Arpel is a renowned fragrance company that specializes in creating luxurious perfumes and body care products. Founded by Adrien Arpel, the brand is known for its innovative approach to scent creation, focusing on high-quality ingredients and sophisticated fragrance compositions. Adrien Arpel's story began with a vision to offer unique olfactory experiences that cater to both men and women, effectively blending artistry and science in their perfume formulations. The company has built a reputation for its elegant packaging and refined scents, appealing to a diverse clientele seeking both classic and contemporary fragrances.",https://adrienarpel.com/cdn/shop/files/Arpel-Logo.jpg?v=1665749993,https://adrienarpel.com,United States,1980,designer,,,,2025-07-18T12:32:10.942225,2025-08-28T08:37:48.705010
cmdb715bc9dda5db786f9f6,Adrienne Landau,"Adrienne Landau is a luxury lifestyle brand known for its exquisite craftsmanship and attention to detail, primarily focusing on accessories and fragrances. Founded by Adrienne Landau, the company gained prominence for its signature fur and leather goods, eventually expanding into the perfume market. Their fragrances are designed to embody sophistication and elegance, bringing an olfactory expression of style and luxury that complements their fashion offerings. The brand's ethos centers around high-quality materials and design that resonates with modern elegance and timeless appeal.",https://cdn.shopify.com/s/files/1/0615/0157/1311/files/klever_cookie_logo.png?v=1676075952,www.adriennelandau.com,United States,1987,niche,,,,2025-07-18T12:32:10.942225,2025-08-28T08:37:56.635728
cmdf3df94e0065ba92e95e5,Adrienne Vittadini,"Adrienne Vittadini is a fashion brand known for its chic and sophisticated women’s apparel and accessories, including a distinct line of fragrances. The company was founded by designer Adrienne Vittadini in the 1970s and rose to prominence for its elegant designs that fused American and European styles. Over the years, Adrienne Vittadini expanded its product offerings to include a variety of fragrances that encapsulate the essence of its fashion ethos, focusing on elegance and timeless appeal.",https://images.squarespace-cdn.com/content/v1/59fc9bee64b05f6207ef2591/1509727662689-CISZ0VE5HD36R48IGRHZ/AV_Main_Logo_Black.png?format=1500w,http://www.adriennevittadini.com,United States,1979,designer,,,,2025-07-18T12:32:10.942225,2025-08-28T08:38:13.897703
cmde31f310ba02587899531,Adscenture,"Adscenture is a niche perfume company specializing in unique and artisanal fragrances that aim to capture the essence of various emotions and experiences. Founded by a group of perfume enthusiasts, Adscenture seeks to push the boundaries of traditional perfumery by using unconventional ingredients and methods. Their story began with a passion for storytelling through scent, allowing customers to embark on olfactory journeys that resonate with their personal experiences.",https://images.unsplash.com/photo-1582735689369-4fe89db7114c?w=400&h=300&fit=crop,www.adscenture.com,United States,2018,niche,contact@adscenture.com,,,2025-07-18T12:32:10.942225,2025-08-28T08:38:21.158024
cmdedd6d31e793268b56ef0,Advent International,"Advent International is a global private equity firm specializing in investments across various sectors, including consumer products, which encompasses the perfume and fragrance industry. Founded in 1984, the firm has a rich history of acquiring and growing companies, leveraging its expertise to enhance brands in their portfolio, including those within the beauty and personal care segments. Advent focuses on driving innovation and scalability, aiming to elevate the companies it partners with through strategic investments and operational enhancements.",https://images.unsplash.com/photo-1556909114-f6e7ad7d3136?w=400&h=300&fit=crop,https://www.adventinternational.com,United States,1984,indie,,,,2025-07-18T12:32:10.942225,2025-08-28T08:38:28.049230
cmd1a530072f3882fbb964f,Aedes de Venustas,"Aedes de Venustas is a niche perfume house known for its high-quality fragrances that blend artistry with meticulous craftsmanship. Founded by Robert Gerstner and Jeremy Bensimon in 2012, the brand originated from the renowned Aedes de Venustas boutique in New York City, which has been a destination for perfume enthusiasts since its inception in 1995. The company specializes in creating original scents that evoke emotions and experiences, often inspired by art, culture, and the beauty of nature. Each fragrance is carefully curated using premium ingredients, and the brand is celebrated for both its unique compositions and sophisticated packaging.",https://www.aedes.com/cdn/shop/files/aedes_logo_web.png?v=1675363842&width=1737,https://www.aedes.com,United States,2012,niche,,,,2025-07-18T12:32:10.942225,2025-08-28T08:38:36.068397
cmddc6bd321086a5f4b5272,Aeir,"Aeir is a contemporary perfume company that focuses on creating unique, sensory experiences through fragrance. The brand was founded with the vision of crafting high-quality scents that bridge the gap between nature and modernity. Aeir prides itself on using sustainably sourced ingredients and innovative fragrance technology, creating perfumes that evoke personal connections and memories. The story of Aeir is centered around the concept of abstract and evolving scents that resonate with individual personalities, emphasizing the art and craft of perfumery.",https://images.unsplash.com/photo-1582735689369-4fe89db7114c?w=400&h=300&fit=crop,,,,niche,,,,2025-07-18T12:32:10.942225,2025-08-28T08:38:42.997432
cmd128e075b790d83d5560b,Æmium,"Æmium is a niche perfume company known for its artisanal approach to fragrance creation. The brand emphasizes natural ingredients and sustainability, crafting unique and evocative scents that tell a story. Founded by a team of passionate perfumers, Æmium combines traditional techniques with modern innovation to create high-quality perfumes that cater to a discerning clientele looking for individuality and authenticity in their fragrance choices.","https://static.wixstatic.com/media/820b61_ecc5cb036cad443a9d0a99deba6277b2~mv2.png/v1/crop/x_0,y_17,w_1016,h_445/fill/w_178,h_78,al_c,q_85,usm_0.66_1.00_0.01,enc_avif,quality_auto/logo%20ajust%C3%A9.png",https://www.aemium.com,United States,2020,niche,contact@aemium.com,,,2025-07-18T12:32:10.942225,2025-08-28T08:38:51.283340
cmdca7de31580336529620a,Aeon Perfume,"Aeon Perfume is a niche fragrance house known for its unique and artistic scent compositions. The brand focuses on creating high-quality perfumes that blend traditional perfumery techniques with modern inspirations. Established by a team of passionate fragrance enthusiasts, Aeon Perfume emphasizes the importance of storytelling in their scents, aiming to evoke emotions and memories through carefully crafted fragrances. The company prides itself on using premium ingredients and often collaborates with renowned perfumers to deliver innovative and captivating fragrances that stand out in the market.",https://images.unsplash.com/photo-1541643600914-78b084683601?w=400&h=300&fit=crop,www.aeonperfume.com,United States,2018,niche,contact@aeonperfume.com,,,2025-07-18T12:32:10.942225,2025-08-28T08:38:58.444884
cmdc8ccfc017e1ea51030fe,Aer Scents,"Aer Scents is a niche perfume brand known for its innovative approach to scent-making, emphasizing high-quality, sustainable ingredients. The company aims to craft unique fragrances that evoke emotions and memories, drawing inspiration from nature and art. Founded by a team of passionate fragrance designers, Aer Scents focuses on artisanal production methods and exclusive scent profiles, catering to an audience looking for distinctive and personalized olfactory experiences.",https://images.squarespace-cdn.com/content/v1/60893f6f7791636e0f08a071/1621328307347-XBQ11C406SNBD6A59H0B/AER.png?format=1500w,https://aerscents.com,United States,2017,niche,info@aerscents.com,,,2025-07-18T12:32:10.942225,2025-08-28T08:39:05.338731
cmd6844e332cf5a58c0b2f5,Aerin,"Aerin is a heritage brand founded by Aerin Lauder, the granddaughter of Estée Lauder. The company specializes in luxurious fragrances and lifestyle products that draw inspiration from Aerin's personal experiences and travels. Aerin’s perfumery art is characterized by an emphasis on quality and a feminine aesthetic, blending classic elegance with modern sophistication. The brand aims to create signature scents that evoke memories and emotions, appealing to individuals seeking both luxury and timeless style.",https://www.aerin.com/static/version1753702803/frontend/Aerin/theme/en_US/images/logo.svg,https://www.aerin.com,United States,2013,designer,,,,2025-07-18T12:32:10.942225,2025-08-28T08:39:11.884438
cmd4dde0d3e9778dc03e3ca,Aeronot,"Aeronot is a contemporary perfume house known for its innovative approach to fragrance creation, intertwining modern perfumery techniques with inspirations drawn from the natural world and aeronautics. The brand focuses on crafting unique scents that evoke emotions and memories, utilizing high-quality ingredients sourced sustainably. Their story began with a vision to bring the art of perfumery to new heights, combining both science and creativity to deliver olfactory experiences that are both memorable and sophisticated.",https://images.unsplash.com/photo-1541643600914-78b084683601?w=400&h=300&fit=crop,,,,indie,,,,2025-07-18T12:32:10.942225,2025-08-28T08:39:18.407514
cmd97e40f7d5f9d6797affd,Aeropostale,"Aeropostale, Inc. is an American retail company that is primarily known for its trendy casualwear, accessories, and fragrances aimed at young adults and teenagers. Founded in 1987, the brand caters to a youthful audience with a focus on comfort and style. They have developed a range of fragrances that reflect the fun and vibrant nature of the Aeropostale brand, appealing to their target market through fresh, youthful scents.",https://images.unsplash.com/photo-1582735689369-4fe89db7114c?w=400&h=300&fit=crop,https://www.aeropostale.com,United States,1987,designer,,,,2025-07-18T12:32:10.942225,2025-08-28T08:39:26.610846
cmddef7da4f24090094baee,Aesop,"Aesop is an Australian skincare company renowned for its high-quality botanical-based skin, hair, and body care products. Founded in Melbourne in 1987, Aesop has garnered a reputation for its commitment to using plant-based ingredients, essential oils, and no artificial fragrances in its formulations. The company emphasizes sustainability and ethical sourcing of materials, producing items that are not only effective but also environmentally friendly. Aesop is also known for its minimalistic and aesthetically pleasing packaging, along with its distinctive store designs that reflect a unique brand identity. Over the years, Aesop has expanded its product line to include a curated selection of fragrances, further showcasing its expertise in scent creation while maintaining its focus on quality and design.",https://www.aesop.com/u1nb1km7t5q7/5eeO1SfsevMNKIXcesn9eK/dc75354f429ed9f43f175d9762241069/Apple_Pay_logo.svg,https://www.aesop.com,Australia,1987,niche,,,,2025-07-18T12:32:10.942225,2025-08-28T08:39:35.244266
cmd0c07bc5be56ab815b345,Aether Arts,"Aether Arts is a perfume company that specializes in crafting niche fragrances that incorporate natural and sustainable ingredients. The company focuses on artisanal perfume creation, blending traditional techniques with innovative olfactory exploration. Their story reflects a commitment to artistry in fragrance, often inspired by the olfactory experiences of nature and everyday life. Aether Arts aims to create unique scent experiences that resonate with personal identity and emotional connection.",https://images.unsplash.com/photo-1587017539504-67cfbddac569?w=400&h=300&fit=crop,https://aetherarts.com,United States,2014,niche,,,,2025-07-18T12:32:10.942225,2025-08-28T08:39:42.617227
cmda86548de938fe1f7444a,Aether,"Aether is a niche perfume company that specializes in crafting high-quality, artisanal fragrances. The brand focuses on using natural ingredients to create unique scent profiles that evoke emotions and memories. Founded by a team of passionate fragrance enthusiasts, Aether prides itself on its commitment to sustainability and ethical sourcing practices. The company’s story is rooted in a desire to promote the art of perfumery, celebrating the creativity and craftsmanship behind each fragrance.",https://images.unsplash.com/photo-1582735689369-4fe89db7114c?w=400&h=300&fit=crop,https://www.aetherperfume.com,United States,2017,niche,,,,2025-07-18T12:32:10.942225,2025-08-28T08:39:49.598294
cmd005777140621bf3b7d23,Aether Parfums,"Aether Parfums is a niche perfume house based in the United States known for its innovative and artistic approach to fragrance creation. Founded by perfumer and entrepreneur, the brand aims to merge the art of perfumery with sustainability and unique storytelling. Aether Parfums focuses on crafting high-quality, original scents that often draw inspiration from nature and the emotions tied to various experiences. Their fragrances are characterized by the use of natural ingredients and an emphasis on ethical sourcing.",https://aetherparfums.com/cdn/shop/files/aether-parfums-logo-white-on-transparent.svg?v=1719561305&width=600,https://aetherparfums.com,United States,2018,niche,,,,2025-07-18T12:32:10.942225,2025-08-28T08:39:56.368137
cmdea865be7dd143d15ffe2,Affinessence,"Affinessence is a niche perfume house established to create luxurious and artistic fragrances that emphasize the quality of raw materials and the expertise of artisans. The brand focuses on small-scale production, allowing for unique, personalized creations that tell a story through scent. Founded by a passionate perfumer, Affinessence aims to bridge the gap between traditional perfumery and contemporary design, catering to discerning customers who appreciate individuality and craftsmanship.",https://www.affinessence.com/wp-content/themes/Bodega/images/logo-affinessence-black.svg,https://www.affinessence.com,France,2010,niche,,,,2025-07-18T12:32:10.942225,2025-08-28T08:40:05.326487
cmdb056274ef34a6f981bc0,Affliction,"Affliction is an American lifestyle brand known for its roots in the tattoo and motorcycle culture, initially gaining popularity through their graphic t-shirts and apparel. The brand has expanded into the fragrance industry, offering a line of perfumes that reflect its edgy, rebellious spirit. Affliction's fragrances are characterized by bold, distinctive scents aimed at individuals who enjoy expressing their individuality and lifestyle through their choice of fragrance.",https://www.afflictionclothing.com/cdn/shop/files/AFFLICTION-PORT-BLK.png?v=1740685558&width=500,https://www.afflictionclothing.com,United States,2005,indie,,,,2025-07-18T12:32:10.942225,2025-08-28T08:40:12.967510
cmd5489946cb65a4ddfd8db,Afnan,"Afnan Perfumes is a Middle Eastern fragrance company that specializes in creating high-quality, unique perfumes inspired by Arabian and oriental fragrance traditions. Established in 2005, the brand combines traditional perfume-making techniques with modern elements, offering a range of eau de parfums, oil-based fragrances, and more. Afnan has gained recognition for its distinctive scents that reflect the rich cultural heritage of the region, catering to a clientele that appreciates luxurious and exotic fragrances.",https://images.unsplash.com/photo-1556909114-f6e7ad7d3136?w=400&h=300&fit=crop,https://www.afnanperfumes.com,United Arab Emirates,2005,niche,,,,2025-07-18T12:32:10.942225,2025-08-28T08:40:22.199645
cmdca00cc608545a75bd8ce,African Pride,"African Pride is a perfume company that specializes in creating fragrances that celebrate African heritage and culture. The brand focuses on using natural ingredients sourced from the African continent to craft unique scents. They aim to tell stories through their fragrances, highlighting the richness of African traditions and landscapes. African Pride also emphasizes sustainability and supports local communities through ethical sourcing practices.",https://images.unsplash.com/photo-1587017539504-67cfbddac569?w=400&h=300&fit=crop,https://africanpride.com,South Africa,2012,indie,,,,2025-07-18T12:32:10.942225,2025-08-28T08:40:32.591125
cmd2e00090c3219ab376a8f,Afrique Parfum,"Afrique Parfum is a perfume company that focuses on crafting high-quality fragrances inspired by the rich cultural heritage and diverse ingredients of Africa. The brand aims to celebrate African identity through unique scents that reflect the continent's natural beauty and traditions. Afrique Parfum began with a vision to offer both luxury and affordable options, bringing a sense of exotic elegance to the global perfume market.",https://images.unsplash.com/photo-1582735689369-4fe89db7114c?w=400&h=300&fit=crop,,,,indie,,,,2025-07-18T12:32:10.942225,2025-08-28T08:40:38.951504
cmd46dd63fbc3bde4868e39,Afta,"Afta is a contemporary perfume company that specializes in creating unique and affordable fragrances. Established with a belief that luxury scents should be accessible to everyone, Afta focuses on providing high-quality products made with carefully selected ingredients. The brand combines traditional perfumery techniques with modern design aesthetics, appealing to today's fragrance enthusiasts seeking both distinctiveness and affordability.",https://images.unsplash.com/photo-1541643600914-78b084683601?w=400&h=300&fit=crop,www.afta.com,United States,2021,indie,contact@afta.com,,,2025-07-18T12:32:10.942225,2025-08-28T08:40:45.593246
cmd207d6362383e6a4691e6,Aftelier,"Aftelier is a niche perfume company founded by Mandy Aftel, who is a pioneer in the field of natural perfumery. The company specializes in crafting artisanal fragrances using high-quality natural ingredients, emphasizing individuality and authenticity. Aftelier focuses on creating unique scent experiences that are both evocative and deeply personal. The story of Aftelier began in the late 1990s when Mandy began exploring the world of scent creation, leading to her passion for developing perfumes that celebrate the essence of nature. The company also publishes educational materials on natural perfumery, further establishing its role as a leader in the fragrance community.",https://www.aftelier.com/v/vspfiles/assets/images/newcc_logos.png,https://www.aftelier.com,United States,1997,niche,,,,2025-07-18T12:32:10.942225,2025-08-28T08:40:54.143670
cmd9606979746dc03dd91d2,After Six,"After Six is a perfume company that specializes in creating unique and high-quality fragrances that embody elegance and sophistication. The brand has carved a niche in the fragrance market by focusing on artisanal production and the use of luxurious ingredients, appealing to discerning customers looking for distinctive scents. Their story is characterized by a commitment to quality and craftsmanship, often inspired by classic themes and modern aesthetics.",https://images.unsplash.com/photo-1582735689369-4fe89db7114c?w=400&h=300&fit=crop,,,,indie,,,,2025-07-18T12:32:10.942225,2025-08-28T08:41:00.525300
cmd8fb06b3672c4c660a899,Agar Aura,"Agar Aura is a specialized perfume company that focuses on creating high-quality, artisanal fragrances, primarily leveraging the unique qualities of agarwood (oud). Founded by enthusiasts of traditional Eastern perfumery, the company emphasizes natural ingredients and sustainability. Their story revolves around the deep cultural heritage of oud and the art of crafting perfumes that evoke both tradition and modernity. Agar Aura prides itself on producing complex and luxurious scents that cater to a niche market, featuring unique blends that celebrate the rich, woody character of agarwood.",https://www.agaraura.com/images/navlogo.png,https://www.agaraura.com,United States,2014,niche,,,,2025-07-18T12:32:10.942225,2025-08-28T08:41:07.574244
cmdfee8a2748e787ec66ced,Agar Olfactory,"Agar Olfactory is a niche perfume house known for creating unique and evocative scents that incorporate high-quality raw materials. The company emphasizes artisanal craftsmanship and seeks to create fragrances that tell a story and evoke a sense of place. Established by a collective of passionate perfumers, Agar Olfactory aims to resonate with connoisseurs of fragrance who appreciate the complexities and subtleties of scent. Their specialty lies in the exploration of rich, exotic ingredients, particularly agarwood (oud), which is at the heart of many of their compositions.",https://images.unsplash.com/photo-1556909114-f6e7ad7d3136?w=400&h=300&fit=crop,https://www.agarolfactory.com,United States,2018,niche,contact@agarolfactory.com,,,2025-07-18T12:32:10.942225,2025-08-28T08:41:14.803259
cmd6759d94d66088ccca617,Agarscents Bazaar,"Agarscents Bazaar is a perfume company specializing in the creation of high-quality, unique fragrance blends. Founded with the intent to promote the rich tradition of agarwood, or oud, the company sources its ingredients from sustainable practices and offers a diverse range of perfumes that cater to various preferences. Agarscents Bazaar takes pride in its artisanal craftsmanship and aims to elevate the fragrance experience by combining traditional methods with contemporary sensibilities.",https://www.agarscentsbazaar.com/cdn/shop/files/header-slide_ecd4ff26-c195-4ef0-a2de-8377e16b6982.jpg?v=1613667179&width=3840,http://www.agarscentsbazaar.com,United States,2012,niche,,,,2025-07-18T12:32:10.942225,2025-08-28T08:41:22.358802
cmd21bd78596fdb90959f0d,Agarthi,"Agarthi is a niche perfume house specializing in luxury fragrances crafted from high-quality, natural ingredients. Founded with the mission to create artisanal perfumes that embody the essence of cultural heritage and tradition, Agarthi draws inspiration from diverse sources, including nature and ancient practices. Each fragrance is meticulously created to evoke emotions and tell a unique story, offering a sensory experience that transports wearers to distinct places and times.",https://images.unsplash.com/photo-1541643600914-78b084683601?w=400&h=300&fit=crop,www.agarthi-perfumes.com,France,2018,niche,contact@agarthi-perfumes.com,,"47 Rue de la Parfumerie, Paris, France",2025-07-18T12:32:10.942225,2025-08-28T08:41:29.531480
cmdc808cd4828d5b3636f59,Agatha Brown,"Agatha Brown is a niche perfume company known for creating unique and artisanal fragrances inspired by natural elements and personal experiences. The company focuses on small-batch production, allowing for a high level of craftsmanship and individuality in each scent. Established by a passionate perfumer, Agatha Brown aims to evoke specific memories and emotions through their thoughtfully crafted perfume collections, catering to customers who appreciate distinct fragrances with a story behind them.",https://images.unsplash.com/photo-1582735689369-4fe89db7114c?w=400&h=300&fit=crop,www.agathabrownfragrances.com,United States,2018,niche,info@agathabrownfragrances.com,,,2025-07-18T12:32:10.942225,2025-08-28T08:41:37.741940
cmd4f325f00cdbc06e6ee73,Agatha Paris,"Agatha Paris is a French fashion and accessories brand known for its elegant and whimsical designs. Established in the heart of Paris, the company cleverly merges the worlds of jewelry and fragrance, offering a unique collection of perfumes that reflect the brand's stylish ethos. Agatha Paris first gained popularity with its jewelry lines and began expanding into the fragrance market to complement its existing accessories, providing customers with a complete sensory experience tied to the brand's aesthetic. Their specialty lies in creating perfumes that embody the charm and spirit of Paris, often inspired by the lifestyle and culture associated with the city.",https://www.agathaparis.com/on/demandware.static/Sites-AG-COM-Site/-/default/dw9356b8dc/images/logo-agatha.svg,https://www.agathaparis.com,France,1974,designer,,,,2025-07-18T12:32:10.942225,2025-08-28T08:41:45.827524
cmd6ecbd757fab49867a70c,Agatha Ruiz de la Prada,"Agatha Ruiz de la Prada is a Spanish fashion designer known for her vibrant, whimsical designs and unique style. Founded in the early 1980s, the company initially gained recognition in the fashion industry, expanding into fragrances in the 1990s. The brand is celebrated for its playful use of color and patterns, and its perfumes often reflect the same joyful aesthetic found in her clothing collections, capturing a spirit of happiness and creativity.",https://www.agatharuizdelaprada.com/cdn/shop/files/logo4.png?v=1742472817&width=836,https://www.agatharuizdelaprada.com,Spain,1980,designer,,,,2025-07-18T12:32:10.942225,2025-08-28T08:41:53.481946
cmd572e0968372e18ded003,Agatho,"Agatho is a niche perfume house that focuses on creating unique, artisan fragrances inspired by nature and various cultural elements. Founded by a passionate perfumer with a vision to offer high-quality scents, Agatho emphasizes craftsmanship and artistry in scent formulation. Their collections often feature rare ingredients, and each fragrance tells a story, connecting the wearer to different experiences and emotions. The brand's identity is deeply rooted in a commitment to sustainability and ethical sourcing, making it a favored choice among eco-conscious consumers and perfume enthusiasts alike.",https://static.HugeDomains.com/images/hdv3-img/hd-header-logo-v3.svg,www.agatho.com,France,2015,niche,contact@agatho.com,,,2025-07-18T12:32:10.942225,2025-08-28T08:42:00.790138
cmd609fb96d6e9225831000,Agence de Parfum,"Agence de Parfum is a niche perfume company that specializes in crafting unique, high-quality fragrances with a focus on artistic expression and innovative scent profiles. Founded by a team of fragrance designers and olfactory specialists, the company aims to connect consumers with the emotional and sensory experiences of perfume. Their story is rooted in a passion for perfumery as an art form and a commitment to using premium ingredients, often drawing inspiration from diverse cultures and nature. Agence de Parfum is known for its limited-edition releases and collaborations with renowned artisans.",https://images.unsplash.com/photo-1587017539504-67cfbddac569?w=400&h=300&fit=crop,https://www.agencedeparfum.com,France,,niche,,,,2025-07-18T12:32:10.942225,2025-08-28T08:42:09.678773
cmdeffddb81c401b6bd90f5,Agence LOVE,"Agence LOVE is a contemporary perfume company that specializes in creating unique, artisanal fragrances inspired by emotions and experiences. Founded with the vision of combining art and scent, their approach emphasizes storytelling and personal connection through olfactory experiences. The brand has gained recognition for its innovative scent compositions, often collaborating with artists and creatives to develop fragrances that resonate on a personal level.",https://images.unsplash.com/photo-1541643600914-78b084683601?w=400&h=300&fit=crop,www.agencelove.com,France,2017,niche,contact@agencelove.com,,,2025-07-18T12:32:10.942225,2025-08-28T08:42:16.535223
cmdcd1071da31f4dec59852,Agent Provocateur,"Agent Provocateur is a luxury lingerie and fragrance brand founded in 1994 by Joseph Corré and Serena Rees. The brand is renowned for its provocative and playful designs, aiming to celebrate femininity and sensuality. Agent Provocateur expanded from lingerie into the fragrance market in the early 2000s, creating a line of sophisticated and seductive perfumes that align with their brand ethos. Their fragrances prominently feature rich, exotic notes and are designed to evoke sensual experiences, offering a distinctive olfactory signature that complements their lingerie products.",https://images.unsplash.com/photo-1541643600914-78b084683601?w=400&h=300&fit=crop,https://www.agentprovocateur.com,United Kingdom,1994,niche,,,,2025-07-18T12:32:10.942225,2025-08-28T08:42:24.488460
cmd1d701cd3769f194b7074,Aggarwal Group,,https://static.HugeDomains.com/images/hdv3-img/hd-header-logo-v3.svg,http://www.aggarwalgroup.com,India,1997,niche,,,,2025-07-18T12:32:10.942225,2025-08-28T08:42:33.273740
cmd8bbcc5b3262176ec7f06,Agilex,"Agilex is a leading fragrance development company specializing in the creation and manufacturing of high-quality fragrance products. Founded in 1996, Agilex operates in the fragrance supply chain, offering services that include aroma chemical production, custom fragrance creation, and packaging solutions. The company aims to meet the evolving demands of the perfume industry while maintaining a commitment to innovation and sustainability. Agilex prides itself on its expertise in using cutting-edge technology and sourcing raw materials from ethical suppliers.",https://images.unsplash.com/photo-1556909114-f6e7ad7d3136?w=400&h=300&fit=crop,https://www.agilexflavors.com,United States,1996,indie,,,,2025-07-18T12:32:10.942225,2025-08-28T08:42:40.143901
cmddcb9f104f9d2d59c4add,Agnel,"Agnel is a niche perfume company that focuses on creating distinctive and high-quality fragrances. Founded by a group of passionate perfumers, the brand places emphasis on craftsmanship and the art of perfume-making. Their creations are characterized by unique scent profiles that often incorporate natural ingredients and innovative compositions, catering to a discerning clientele looking for both luxury and individuality in their fragrance choices. The story of Agnel is rooted in a commitment to olfactory artistry and an exploration of rare and exotic materials.",https://images.unsplash.com/photo-15907369626-6c63ac16f3df?w=400&h=300&fit=crop,www.agnelparfums.com,France,2015,niche,contact@agnelparfums.com,+33 1 23 45 67 89,"12 Rue des Fragrances, 75001 Paris, France",2025-07-18T12:32:10.942225,2025-08-28T08:42:47.421301
cmd2e29f5a4c32b92eaff9a,Agnès b.,"Agnès b. is a French fashion designer and businesswoman known for her casual elegance and unique blend of art and fashion. The company was founded in 1983 and is renowned for its high-quality garments and accessories inspired by the arts. Agnès b. has expanded into the world of fragrances, creating scents that capture the essence of the brand's innovative spirit and aesthetic style. The fragrances often reflect a blend of modern and classic elements, resonating with those who appreciate artistic design.",https://www.agnesb.com/on/demandware.static/Sites-Agnesb-eu-Site/-/default/dw28ad40de/images/logo-small.svg,https://www.agnesb.com,France,1983,designer,,,"6 Rue de la Verrerie, 75004 Paris, France",2025-07-18T12:32:10.942225,2025-08-28T08:42:56.078269
cmd48d366e691d715c56ca2,Agnes,"Agnes is a French perfume house known for creating unique and artisanal fragrances that emphasize quality and craftsmanship. Established on principles of creativity and individual expression, the company focuses on blending traditional perfumery techniques with modern inspirations to create memorable scents. Agnes often collaborates with various artists and designers to produce limited edition fragrances that reflect contemporary culture and art.",https://images.unsplash.com/photo-1556909114-f6e7ad7d3136?w=400&h=300&fit=crop,www.agnesparfums.com,France,2015,niche,,,,2025-07-18T12:32:10.942225,2025-08-28T08:43:02.586751
cmd159d0a2157b3b624a8d2,Agonist,"Agonist is a Swedish niche perfume house that was founded in 2008 by creative duo Niclas Lydeen and Jeremy C. G. Rømer. Specializing in unique and artistic fragrances, Agonist aims to create perfumes that are inspired by the beauty of nature and the rich history of Sweden. Their collections focus on high-quality craftsmanship, with an emphasis on sustainability and intriguing storytelling behind each scent. They have gained recognition for their innovative approach to fragrance design and have a loyal following among perfume enthusiasts.",https://images.unsplash.com/photo-1587017539504-67cfbddac569?w=400&h=300&fit=crop,https://www.agonistperfumes.com,Sweden,2008,niche,,,,2025-07-18T12:32:10.942225,2025-08-28T08:43:10.477481
cmd9e2a54f03200f6c4337e,Agra,"Agra is a perfume company known for its unique and diverse range of fragrances. Established by a group of passionate perfumers, Agra focuses on blending cultural influences with high-quality ingredients to create distinctive scents that resonate with various demographics. The company emphasizes sustainability and ethical sourcing in its production processes, ensuring that every fragrance reflects a commitment to environmental responsibility. Additionally, Agra has gained recognition for its innovative approach to fragrance layering and personalization, allowing consumers to tailor scents to their individual preferences.",https://images.unsplash.com/photo-1541643600914-78b084683601?w=400&h=300&fit=crop,,,,indie,,,,2025-07-18T12:32:10.942225,2025-08-28T08:43:17.430590
cmdc74456c405b4f7615ab3,Agraria,"Agraria is a premium home fragrance company founded in San Francisco in 1970. The brand specializes in luxurious, high-quality fragrances for both home and personal use, including diffusers, candles, and body products. Agraria is well-known for its unique blend of aromatic scents sourced from around the world, with a focus on craftsmanship and attention to detail. Their story is rooted in a passion for bringing the richness of nature's fragrances into everyday spaces.",https://agrariahome.com/cdn/shop/files/Logo.jpg?v=1616041724,https://www.agrariahome.com,United States,1970,niche,,,,2025-07-18T12:32:10.942225,2025-08-28T08:43:25.532541
cmd49bf9d20b663bda1a4ea,Agua de Baleares,"Agua de Baleares is a niche perfume company that draws inspiration from the natural beauty and cultural heritage of the Balearic Islands in Spain. The company focuses on creating unique and high-quality fragrances that evoke the scents and experiences of the Mediterranean landscape. Their specialty lies in blending traditional perfumery techniques with modern artistry, resulting in signature scents that reflect the essence of the islands. Founded by artisans passionate about their culture, Agua de Baleares aims to offer a sensory journey through their carefully crafted perfumes.",https://aguadebaleares.com/wp-content/uploads/2022/05/logo3-2.png,http://www.aguadebaleares.com,Spain,2015,niche,,,,2025-07-18T12:32:10.942225,2025-08-28T08:43:37.250467
cmd161950062cec9dad7984,Água de Cheiro,"Água de Cheiro is a Brazilian perfume company that specializes in creating a wide range of fragrances, body care products, and cosmetics. Founded in the 1980s, the brand has established itself by emphasizing the use of high-quality ingredients and unique scents that cater to the Brazilian market. Their products are known for their vibrant packaging and have a focus on both luxury and accessibility. Água de Cheiro has developed a reputation for offering innovative, diverse fragrance options that resonate particularly well with local consumers and celebrate Brazilian culture.",https://img.irroba.com.br/filters:fill(transparent):quality(80)/aguaeiaa/catalog/banners-absinto-feminino/absinto-fem-desktop.png ,https://www.aguadecheiro.com.br,Brazil,1984,indie,,,,2025-07-18T12:32:10.942225,2025-08-28T08:43:51.363445
cmd8e7518ac0de0078c1174,Agustin Davila,"Agustin Davila is a niche perfume company renowned for creating artisanal fragrances that draw inspiration from diverse cultures and personal experiences. The brand emphasizes craftsmanship and quality, utilizing carefully selected ingredients to produce unique scent profiles. Founded by Agustin Davila, the company seeks to tell stories through each fragrance, encouraging wearers to connect on a deeper level with the essence of their chosen scent.",https://images.unsplash.com/photo-15907369626-6c63ac16f3df?w=400&h=300&fit=crop,https://www.agustindavila.com,United States,2020,niche,,,,2025-07-18T12:32:10.942225,2025-08-28T08:43:58.781746
cmd3736bae730adfadb37a7,Agustin Reyes,"Agustin Reyes is a niche perfume brand known for its exquisite fragrances that strive to capture the essence of natural ingredients. With a focus on artisanal production techniques and a deep appreciation for olfactory artistry, the brand offers a curated selection of perfumes that are unique and often inspired by the personal journey and experiences of its founder, Agustin Reyes. The company emphasizes quality over quantity and aims to provide a luxurious sensory experience through its scents.",https://images.squarespace-cdn.com/content/v1/5207d48de4b0f09210e945d8/1448741411830-I67TCDIUX06G1TOKMJ4X/ARlogo1-01.png?format=1500w,www.agustinreyes.com,United States,2015,niche,,,,2025-07-18T12:32:10.942225,2025-08-28T08:44:06.301644
cmd35f4cbd6964559e1e217,Ahava,"Ahava is a skincare and cosmetic company that specializes in products derived from the minerals and natural resources of the Dead Sea in Israel. Founded in 1988, Ahava focuses on producing high-quality skincare products, utilizing the therapeutic properties of mineral-rich mud and salt from the Dead Sea. The brand is well known for its commitment to environmental sustainability and offers a range of products that include face creams, body lotions, and facial cleansers. Ahava emphasizes a natural approach, with many of its products being free from certain harsh chemicals, making them suitable for sensitive skin.",https://www.ahava.com/cdn/shop/files/Menu_Banners.png?crop=center&height=214&v=1717322385&width=308,https://www.ahava.com,Israel,1988,indie,,,,2025-07-18T12:32:10.942225,2025-08-28T08:44:14.490779
cmda2cca5448b44dd3f1943,Ahmed al Maghribi,"Ahmed al Maghribi is a renowned perfume company that specializes in creating high-quality Arabic fragrances. Founded with a mission to express the rich heritage of Middle Eastern perfumery, the company combines traditional methods with modern techniques to craft unique scent profiles. They focus on using natural ingredients, often drawing inspiration from the diverse culture and history of the Arab world. Ahmed al Maghribi has established itself as a significant name in the niche perfume market, catering to both local and international clients who appreciate luxury and authenticity in fragrance.",https://www.ahmedalmaghribi.com/_next/image?url=%2Fassets%2Fimages%2Fabout%2Fahmed-logo.png&w=256&q=75,www.ahmedalmaghribi.com,Morocco,2014,niche,info@ahmedalmaghribi.com,,,2025-07-18T12:32:10.942225,2025-08-28T08:44:24.963662
cmd6270a46afcaf704fc3c7,Ahmed Soliman,"Ahmed Soliman is a perfume company that specializes in creating fine fragrances and traditional Arabian oud. Established with a passion for perfumery, the company draws upon the rich heritage of Arabic scent-making, blending classic techniques with modern innovation to craft unique, high-quality perfumes. Their product offerings often include bespoke services, allowing customers to create personalized fragrances that resonate with individual tastes and cultural significance.",https://images.unsplash.com/photo-1582735689369-4fe89db7114c?w=400&h=300&fit=crop,,,,niche,,,,2025-07-18T12:32:10.942225,2025-08-28T08:44:31.771116
cmda933798854f875668881,Aholic,"Aholic is a niche perfume company that focuses on creating unique, artisanal scents inspired by cultural and natural elements. Founded by a group of fragrance enthusiasts, the brand emphasizes quality and craftsmanship, curating a collection that reflects personal stories and emotions. Their specialty lies in offering limited-edition perfumes that often feature rare ingredients, and they are dedicated to sustainable practices in sourcing and production.",https://images.unsplash.com/photo-1541643600914-78b084683601?w=400&h=300&fit=crop,www.aholicperfumes.com,United States,2020,niche,hello@aholicperfumes.com,,,2025-07-18T12:32:10.942225,2025-08-28T08:44:38.758811
cmd1e49faedaf8fd600ba63,Ahsan,"Ahsan is a perfume company known for its commitment to creating high-quality fragrances that blend traditional elements with modern sensibilities. The company specializes in crafting unique scents inspired by various cultures and experiences. Ahsan emphasizes the use of natural ingredients and artisanal methods in its production process, appealing to connoisseurs who appreciate bespoke fragrances and the stories behind them.",https://assets.superlander.com/newimages/mu-logo.png,https://www.ahsan.com,United Arab Emirates,2010,niche,,,,2025-07-18T12:32:10.942225,2025-08-28T08:44:47.272082
cmdcbd97609edca24b6e7ed,Ahuja,"Ahuja is a perfume company known for its unique and high-quality fragrance offerings. Their journey began with a dedication to capturing the essence of life through scent, focusing on carefully sourced ingredients and traditional perfumery techniques. Ahuja specializes in creating elegant and luxurious perfumes that cater to a diverse clientele, blending artistry with craftsmanship to produce captivating scents. They emphasize individuality and creativity, making their fragrances distinct in a saturated market.",https://images.unsplash.com/photo-1582735689369-4fe89db7114c?w=400&h=300&fit=crop,,,,indie,,,,2025-07-18T12:32:10.942225,2025-08-28T08:44:53.683725
cmdca1e0c775eac3fc09d6d,Ai Monasteri,"Ai Monasteri is a niche perfume house that specializes in creating artisanal fragrances inspired by historical and culturally rich themes. Their story begins with a passion for combining exceptional quality ingredients with ancient craftsmanship, leading to unique scent profiles that tell a story. Each fragrance is meticulously crafted, embodying the essence of its intended concept, making the brand a favorite among enthusiasts seeking authenticity and depth in their scent choices.",https://images.unsplash.com/photo-15907369626-6c63ac16f3df?w=400&h=300&fit=crop,https://www.aimonasteri.com,Italy,2020,niche,,,,2025-07-18T12:32:10.942225,2025-08-28T08:45:01.580831
cmd6d9df1d48c39052c46fd,Aid Laboratories,"Aid Laboratories is a perfume company that specializes in the development and production of fragrance products. The company is known for its commitment to innovative formulations and high-quality ingredients, focusing on creating scents that cater to a variety of preferences and occasions. Established with the intention to bridge science and art in perfumery, Aid Laboratories seeks to provide both original and inspired scents for consumers, while emphasizing sustainability and ethical practices in their production processes.",https://images.unsplash.com/photo-15907369626-6c63ac16f3df?w=400&h=300&fit=crop,,,,indie,,,,2025-07-18T12:32:10.942225,2025-08-28T08:45:08.630077
cmd43d6fd7901c13aa215bb,Aidees,"Aidees is a perfume brand that specializes in creating unique and innovative fragrances tailored to modern consumers. With a strong focus on quality and craftsmanship, Aidees offers a range of artisanal perfumes that embody sophistication and individuality. The company prides itself on using high-quality ingredients and sustainable practices, catering to an audience that values both luxury and environmental consciousness. The brand aims to evoke emotions and memories through its scent creations, ensuring each fragrance tells a story.",https://images.unsplash.com/photo-1582735689369-4fe89db7114c?w=400&h=300&fit=crop,www.aidees.com,United States,2021,niche,contact@aidees.com,,,2025-07-18T12:32:10.942225,2025-08-28T08:45:15.797988
cmd12ea9178791cca7bb71a,Aigner,"Aigner is a luxury fashion brand known for its high-quality leather goods, accessories, and perfumes. Founded by designer Etienne Aigner in 1950 in Germany, the brand has made a name for itself in the luxury segment, combining craftsmanship with sophisticated design. Aigner’s fragrance line includes distinct scents that reflect the brand's elegant and classic style, appealing to a discerning clientele.",https://images.unsplash.com/photo-1556909114-f6e7ad7d3136?w=400&h=300&fit=crop,https://www.aigner.com,Germany,1950,designer,,,,2025-07-18T12:32:10.942225,2025-08-28T08:45:22.728068
cmdfff2ecd19444846acdb1,Aime,"Aime is a French perfume company that emphasizes natural ingredients and artisanal craftsmanship in the creation of its fragrances. Founded with a vision of offering clean, luxurious scents, Aime blends tradition with modern sensibilities, appealing to consumers who prioritize both quality and sustainability. The company prides itself on forming strong connections between the fragrance experience and the emotions they evoke, ensuring each scent tells a unique story.",https://images.unsplash.com/photo-1582735689369-4fe89db7114c?w=400&h=300&fit=crop,https://www.aime.fr,France,2019,indie,,,,2025-07-18T12:32:10.942225,2025-08-28T08:45:30.125982
cmd1afb8535a898994b4d69,Aimée de Mars,"Aimée de Mars is a French niche fragrance house founded in 2016 by Aimée de Mars, who was inspired by her love for nature and art. The company specializes in creating luxurious, handcrafted perfumes using high-quality ingredients, often drawing from organic sources. Each fragrance is a reflection of Aimée's personal philosophy of perfumery, focusing on individuality, emotional expression, and the beauty of natural elements. Their offerings include a range of unique and evocative scents that appeal to an audience looking for something beyond mainstream fragrances.",https://images.unsplash.com/photo-15907369626-6c63ac16f3df?w=400&h=300&fit=crop,https://www.aiméedemars.com,France,2016,niche,,,,2025-07-18T12:32:10.942225,2025-08-28T08:45:37.617996
cmdc8bdeea2f1163cfbdd35,Aimee PR,"Aimee PR is a modern perfume company that specializes in creating unique and innovative fragrances. Known for blending art and science, the company crafts perfumes that reflect individuality and personal expression. Aimee PR's story began with a vision to make quality fragrances accessible to everyone, emphasizing artisanal methods and sustainable practices in sourcing ingredients. Their specialty lies in launching limited-edition scents and collaborating with emerging artists to promote creativity in the perfume industry.",https://images.unsplash.com/photo-1541643600914-78b084683601?w=400&h=300&fit=crop,https://www.aimeepr.com,United States,2019,indie,,,,2025-07-18T12:32:10.942225,2025-08-28T08:45:45.205016
cmd98b29af76550cb68ee5b,Aoiro,"Aoiro is a niche perfume company known for its artisanal approach to fragrance creation. The brand draws inspiration from nature and culture, crafting unique scents that aim to evoke emotions and memories. Aoiro prides itself on using high-quality, sustainable ingredients and emphasizes an eco-conscious philosophy in both production and packaging. The company focuses on a small, curated collection of fragrances that resonate with perfume connoisseurs looking for individuality and artistry in their scents.",https://images.unsplash.com/photo-1587017539504-67cfbddac569?w=400&h=300&fit=crop,www.aoirofragrances.com,Japan,2019,niche,contact@aoirofragrances.com,,,2025-07-18T12:32:10.942225,2025-08-28T08:45:53.311254
cmdd4a647bdafb4d3626006,Air Company,"Air Company is a pioneering brand in the perfume industry that specializes in producing fragrances derived from carbon dioxide, a process that links sustainability and innovation. Founded by former NASA engineer Gregory Kato and entrepreneur Dr. Ben Parker, the company aims to create perfumes that not only smell good but also utilize technology to combat climate change by reducing CO2 emissions. The brand emphasizes the use of renewable energy and clean technology in its production methods, setting a new standard for eco-friendly luxury within the fragrance market.",https://images.ctfassets.net/57fahiw4uj5z/lHinjAzJZfB3oIlPvnhOi/bcead6bb3ad752b7070abb5feff1cac8/Feature.jpg?fm=webp&w=80&q=40,https://www.aircompany.com,United States,2019,niche,,,,2025-07-18T12:32:10.942225,2025-08-28T08:46:00.949095
cmdb0560ff396c00dfb8ff3,Air Stocking,"Air Stocking is a pioneering company that specializes in producing unique cosmetic products designed to enhance the skin appearance by providing a sheer, leg-baring effect. Initially launched in Japan, the brand combines aspects of body care with aesthetic appeal, allowing users to experience a 'stocking' effect without the need for traditional hosiery. The company's innovative approach has garnered a loyal customer base and recognition in the beauty and cosmetic industry for its practical and visually enhancing products.",https://www.airstocking.com/common/img/footer_logo_S.png,https://www.airstocking.com,Japan,2004,indie,,,,2025-07-18T12:32:10.942225,2025-08-28T08:46:08.682859
cmdae2e598a639572a6e874,Air Val International,"Air Val International is a dynamic company specializing in the creation and distribution of children's and teen fragrances. It was founded in 1997 and has carved a niche in the fragrance market by associating its brands with popular licenses, including television shows, movies, and various pop culture phenomena, appealing to younger audiences. With a focus on innovation and quality, Air Val International continuously develops new products that resonate with current trends, making them a notable player in the industry.",https://images.unsplash.com/photo-1587017539504-67cfbddac569?w=400&h=300&fit=crop,http://www.airval.com,Spain,1997,drugstore,,,,2025-07-18T12:32:10.942225,2025-08-28T08:46:15.784377
cmd8b6cdbb77d9543cd5e43,Air Wick,"Air Wick is a brand known for providing home fragrance products, including air fresheners, scented oils, and candles. Established by the Reckitt Benckiser group, the company focuses on creating innovative scents that enhance the ambiance of living spaces. It offers a variety of fragrances that cater to different preferences and is recognized for its commitment to freshness and quality in home fragrance solutions. The brand began its journey in the 1940s, evolving over the decades to meet consumer demands for effective and pleasant scents in homes around the world.",https://images.unsplash.com/photo-1556909114-f6e7ad7d3136?w=400&h=300&fit=crop,https://www.airwick.com,United Kingdom,1943,drugstore,,,,2025-07-18T12:32:10.942225,2025-08-28T08:46:33.634972
cmda916839d6b29450a992f,Aire De Sevilla,"Aire De Sevilla is a fragrance brand based in Spain, known for its vibrant and expressive perfumes that capture the essence of Andalusian culture and lifestyle. The company focuses on creating affordable yet high-quality fragrances that appeal to a broad market, emphasizing the use of rich scents and unique combinations. Aire De Sevilla represents a blend of creativity and tradition, often inspired by the magical atmosphere of Seville and its surroundings. The brand has gained popularity for providing cheerful and lively fragrances suitable for various occasions.",https://www.airedesevilla.com/sites/default/files/AIRE-logo-horizontalV2.png,https://www.airedesevilla.com,Spain,2009,indie,,,,2025-07-18T12:32:10.942225,2025-08-28T08:46:42.385728
cmd0dbbfd8ae305932b417f,Airness,"Airness is a French company that specializes in developing and marketing perfumes and fragrances. Established with a passion for creativity and innovation, Airness combines artistic expression with olfactory artistry to create unique scent experiences. The brand is well-known for its vibrant and youthful character, often positioning itself within the lifestyle and street culture segments. Their collections appeal to a wide audience, drawing inspiration from sports and urban environments which resonate with a modern, energetic clientele.",https://www.airness.com/media/logo/stores/2/logo_airness_1.png,http://www.airness.com,France,2002,indie,,,,2025-07-18T12:32:10.942225,2025-08-28T08:46:49.836907
cmde4dd944c8370e4d30c4a,AJ Arabia,"AJ Arabia is a luxury perfume house renowned for its unique offerings that blend traditional Arabic fragrance artistry with contemporary techniques. The company originated from the rich heritage of Arabian perfumery, focusing on crafting high-quality scents that embody the essence of Arabian culture. Their portfolio includes a wide range of products that feature distinct compositions, often incorporating exotic ingredients like oud, amber, and a variety of florals. AJ Arabia is dedicated to the art of perfumery, maintaining a strong emphasis on intricate craftsmanship and authenticity in their scents.",https://www.widian.com/wp-content/uploads/2023/04/widian-logo.svg,https://www.ajarabia.com,United Arab Emirates,2011,niche,,,,2025-07-18T12:32:10.942225,2025-08-28T08:46:57.316878
cmd3cd20b8d89cb5dba9754,Ajent Communications,"Ajent Communications is a marketing and communications agency specializing in brand management and digital advertising for the perfume and fragrance industry. They focus on enhancing brand visibility and connecting clients with their target demographics through strategic marketing initiatives and creative campaigns. Their expertise encompasses various aspects of communications, from public relations to social media management, tailored specifically for niche fragrance brands.",https://images.unsplash.com/photo-1587017539504-67cfbddac569?w=400&h=300&fit=crop,,,,indie,,,,2025-07-18T12:32:10.942225,2025-08-28T08:47:04.239614
cmd06f38347b78ffb06c706,Ajmal,"Ajmal is a renowned perfume company that specializes in the production and distribution of a wide range of fragrances, including oriental and Arabic perfumes. Established in 1951 in the United Arab Emirates, Ajmal has built a reputation for quality and innovation in the fragrance industry. The company focuses on creating unique scents that reflect Middle Eastern culture and traditions, often using traditional methods and high-quality ingredients. Over the decades, Ajmal has expanded its presence globally, catering to diverse markets through a blend of traditional artistry and modern fragrance technology.",https://images.unsplash.com/photo-1541643600914-78b084683601?w=400&h=300&fit=crop,https://www.ajmalperfume.com,United Arab Emirates,1951,niche,,+971 6 532 8272,"Ajmal Group, P.O. Box 20533, Sharjah, United Arab Emirates",2025-07-18T12:32:10.942225,2025-08-28T08:47:11.840071
cmd13ca178f1f4f1ca0f292,Ajne,"Ajne is a niche fragrance house known for its artisanal approach to perfume making. Founded by the husband and wife duo, Ajne aims to create unique, hand-crafted scents inspired by nature and personal experiences. Their offerings include a range of luxurious perfumes and body products that celebrate natural ingredients, with an emphasis on sustainability and the use of organic materials. The company is dedicated to the allure of personal fragrance, forging a connection between scent and emotion, reflecting a narrative through each olfactory creation.",https://ajne.com/image/catalog/logo-s-g2.png,https://ajne.com,United States,2016,niche,hello@ajne.com,,"10775 West 4000 South, Suite 100, South Jordan, UT 84095, United States",2025-07-18T12:32:10.942225,2025-08-28T08:47:19.408260
cmd55ffd5203287a982abbe,Ajyad,"Ajyad is a perfume company that specializes in creating luxurious and high-quality fragrances inspired by traditional Middle Eastern scents. Founded on the principles of craftsmanship and heritage, Ajyad aims to merge modern perfumery techniques with classic aromatic profiles, offering a unique sensory experience. The company focuses on utilizing premium ingredients to develop scents that cater to a diverse clientele, enhancing personal style and expressing individuality through fragrance.",https://images.unsplash.com/photo-1541643600914-78b084683601?w=400&h=300&fit=crop,,United Arab Emirates,,niche,,,,2025-07-18T12:32:10.942225,2025-08-28T08:47:26.251481
cmd27a11474e1a420317d2e,Akon,"Akon is a fragrance line launched by the internationally renowned musician Akon, whose real name is Aliaune Thiam. The brand aims to blend luxury with accessibility, paying tribute to Akon's African heritage and reflecting his personal style. The fragrances offer a mix of contemporary and traditional scent profiles that appeal to a broad audience, encapsulating the vibrant spirit of his music and cultural background.",https://images.unsplash.com/photo-1541643600914-78b084683601?w=400&h=300&fit=crop,https://www.akonscent.com,United States,2020,celebrity,,,,2025-07-18T12:32:10.942225,2025-08-28T08:47:33.073066
cmdb825da961837f38c5297,Al Aneeq,"Al Aneeq is a prominent perfume company based in the Middle East, specializing in high-quality oriental and Arabic-inspired fragrances. The company is known for its dedication to traditional perfumery techniques, utilizing a blend of natural ingredients and essential oils to create distinctive scents. Al Aneeq has carved a niche in the perfume market by offering unique, handcrafted perfumes that reflect the rich heritage and culture of the region. Their collections include a variety of attars, sprays, and oil-based perfumes, catering to a diverse clientele that values authenticity and luxury in fragrance.",https://images.unsplash.com/photo-1582735689369-4fe89db7114c?w=400&h=300&fit=crop,https://www.al aneeq.com,United Arab Emirates,2010,niche,,,,2025-07-18T12:32:10.942225,2025-08-28T08:47:40.003130
cmd5c393b8dc3fe489f7844,Al Attar,"Al Attar is a prominent perfume company based in the Middle East, renowned for its high-quality Arabian and oriental fragrances. Founded on the rich heritage of traditional perfumery, the company specializes in crafting luxurious and unique perfumes that cater to a diverse clientele. Al Attar prides itself on using the finest natural ingredients, including traditional oils and unique blends, to create scents that represent the rich cultural tapestry of the region. The company has a reputation for artisanal craftsmanship and offers a wide range of products, including oil-based perfumes, alcohol-based fragrances, and various scented products that reflect the luxury and tradition of Middle Eastern perfumery.",https://images.unsplash.com/photo-1582735689369-4fe89db7114c?w=400&h=300&fit=crop,https://www.alattar.com,United Arab Emirates,1980,niche,,,,2025-07-18T12:32:10.942225,2025-08-28T08:47:48.985399
cmde5be7503a52e2d3b2f74,Al-Aziz,"Al-Aziz is a fragrance company that specializes in creating high-quality Arabic perfumes and attars. The company has built its reputation on crafting traditional and contemporary scents that embody the rich heritage of Middle Eastern perfumery. Al-Aziz aims to provide customers with unique fragrances that are both luxurious and deeply rooted in cultural significance, often using natural ingredients and traditional distillation methods.",https://images.unsplash.com/photo-1556909114-f6e7ad7d3136?w=400&h=300&fit=crop,,,,niche,,,,2025-07-18T12:32:10.942225,2025-08-28T08:47:56.541346
cmde09b2aecd2d0e54301d1,Al Hashimi,"Al Hashimi is a prominent luxury perfume manufacturer known for its artisanal approach to fragrance creation. The company specializes in crafting traditional Middle Eastern perfumes, utilizing high-quality natural ingredients and oud, a key element in many of its fragrances. Established to preserve and promote the rich heritage of Arabian perfumery, Al Hashimi blends modern techniques with age-old traditions to create unique scents that evoke cultural significance and emotional resonance.",https://images.unsplash.com/photo-15907369626-6c63ac16f3df?w=400&h=300&fit=crop,https://www.alhashimiperfumes.com,United Arab Emirates,2007,niche,,,,2025-07-18T12:32:10.942225,2025-08-28T08:48:04.980344
cmdd334f6c8c806f53ba83f,Al Khayam Zafron,"Al Khayam Zafron is a perfume company that specializes in creating a range of high-quality fragrances inspired by traditional Arabian scents. They focus on crafting unique fragrances that blend oriental and modern elements, resulting in sophisticated perfumes. The company emphasizes the use of natural ingredients and artisanal methods to produce their products, ensuring a luxurious and authentic fragrance experience. Al Khayam Zafron has gained recognition for its commitment to quality and creativity in the perfume industry.",https://images.unsplash.com/photo-1582735689369-4fe89db7114c?w=400&h=300&fit=crop,,United Arab Emirates,,niche,,,,2025-07-18T12:32:10.942225,2025-08-28T08:48:12.312618
cmd136801b7f95c685d7295,Al Kimiya,"Al Kimiya is a prominent perfume company that specializes in creating high-quality, bespoke fragrances inspired by traditional Arabian perfumery. The company is known for its dedication to craftsmanship and artistry, combining unique scent profiles with rich cultural heritage. Al Kimiya aims to provide customers with a personalized fragrance experience, focusing on using natural ingredients and innovative blending techniques. Their story reflects a deep appreciation for the art of perfume-making, and they often draw upon historical influences to create modern scents that resonate with both local and international markets.",https://images.unsplash.com/photo-1541643600914-78b084683601?w=400&h=300&fit=crop,https://www.alkimiya.com,United Arab Emirates,2015,niche,info@alkimiya.com,,,2025-07-18T12:32:10.942225,2025-08-28T08:48:21.612383
cmd8a84e181f79c3a62b8dc,Al Musbah,"Al Musbah is a prominent fragrance company headquartered in Saudi Arabia, specializing in the creation and distribution of high-quality perfumes and scents. The company was established to provide a diverse range of traditional and modern fragrances that resonate with the rich cultural heritage of the Arabian Peninsula. Al Musbah combines artisanal craftsmanship with contemporary aesthetics, offering a wide assortment of perfumes that cater to both local and international markets. They emphasize the use of premium materials and traditional methods in their fragrance production, establishing themselves as a key player in the Middle Eastern perfume industry.",https://www.almusbah.com/wp-content/uploads/2017/02/logo.png,https://www.almusbah.com/,Saudi Arabia,,designer,,,,2025-07-18T12:32:10.942225,2025-08-28T08:48:30.954947
cmdd6ace0d59369a5012091,Al Rehab,"Al Rehab is a prominent perfume manufacturer based in Saudi Arabia, known for creating a diverse range of high-quality Arabian and oriental perfumes. The company was established in 1975 and has earned a reputation for its excellent craftsmanship and unique fragrance profiles, utilizing a blend of traditional Arabian perfumery techniques and modern innovations. Al Rehab specializes in producing non-alcoholic perfumes, which appeals to a market that values halal and natural products.",https://images.unsplash.com/photo-1587017539504-67cfbddac569?w=400&h=300&fit=crop,https://www.alrehab.com,Saudi Arabia,1975,indie,,,,2025-07-18T12:32:10.942225,2025-08-28T08:48:49.989796
cmd4744cd3f7a07a3de2c6e,Al Shareef Oudh,"Al Shareef Oudh is a distinguished perfume company that specializes in creating high-quality, artisanal perfumes infused with traditional oriental fragrance notes. Founded by a passionate family with deep roots in perfumery, they have built a reputation for crafting unique and luxurious oudh-based scents that reflect the rich cultural heritage of the Middle East. Their products often emphasize natural ingredients, quality craftsmanship, and a commitment to preserving traditional fragrance-making techniques, appealing to both niche scent enthusiasts and a broader market seeking authenticity in fragrance.",https://images.unsplash.com/photo-1582735689369-4fe89db7114c?w=400&h=300&fit=crop,[www.alshareefoudh.com](http://www.alshareefoudh.com),Saudi Arabia,2007,niche,,,,2025-07-18T12:32:10.942225,2025-08-28T08:48:56.961859
cmda05faebd6772c737f70c,Al-Shaya,"Al-Shaya is a leading retail franchise operator in the Middle East and North Africa, specializing in bringing luxury brands to the region, including well-known perfume and cosmetics brands. Founded in Kuwait in 1890, the company has grown significantly and expanded its portfolio to include various industries, such as food and beverage, fashion, and health and beauty. Al-Shaya's perfume division focuses on distributing a range of prestigious fragrances and beauty products from major international brands, providing customers with diverse options and premium shopping experiences.",https://images.unsplash.com/photo-1556909114-f6e7ad7d3136?w=400&h=300&fit=crop,https://www.alshaya.com,Kuwait,1890,designer,,,,2025-07-18T12:32:10.942225,2025-08-28T08:49:06.053217
cmd6ae94bb552b24ad3aac5,Al Wataniah,"Al Wataniah is a renowned perfume manufacturer based in the Middle East, specializing in traditional Arabian and oriental fragrances. Established with the aim of preserving and promoting the rich heritage of Arabian perfumery, the company offers a diverse range of high-quality perfumes crafted from natural ingredients. Their expertise lies in creating unique scent blends that reflect cultural significance and local traditions, appealing to clientele seeking authenticity and luxury in fragrance.",https://images.unsplash.com/photo-1582735689369-4fe89db7114c?w=400&h=300&fit=crop,http://www.alwataniah.com,United Arab Emirates,1975,niche,,+971 4 224 2929,"Al Wataniah Building, Sheikh Zayed Road, Dubai, UAE",2025-07-18T12:32:10.942225,2025-08-28T08:49:13.859678
cmd7f43e8deb6c8ca1557f5,Aladdin Fragrances,"Aladdin Fragrances specializes in creating high-quality perfumes inspired by Middle Eastern traditions. The company focuses on crafting unique and exotic fragrance blends that often incorporate natural ingredients and essential oils, resonating with fans of oriental and oudh scents. With a commitment to authenticity and cultural richness, Aladdin Fragrances aims to provide its customers with a sensory experience that reflects the depth and beauty of Arabian heritage.",https://images.unsplash.com/photo-1582735689369-4fe89db7114c?w=400&h=300&fit=crop,https://www.aladdinfragrances.com,United States,,niche,,,,2025-07-18T12:32:10.942225,2025-08-28T08:49:20.943695
cmd0e2cca56dd3fa23f9ad1,Alain Daniel,"Alain Daniel is a bespoke perfume company specializing in the creation of unique and tailored fragrances. Founded by a passionate perfumer who combines traditional crafting techniques with modern olfactory art, the brand aims to cater to individual preferences by offering personalized scent experiences. Their story is rooted in a commitment to quality and artistry, with a focus on utilizing fine ingredients sourced globally to create unforgettable and luxurious scents.",https://images.unsplash.com/photo-1556909114-f6e7ad7d3136?w=400&h=300&fit=crop,www.alain-daniel.com,France,2015,niche,contact@alain-daniel.com,+33 1 23 45 67 89,"32 Rue de la Parfumerie, 75001 Paris, France",2025-07-18T12:32:10.942225,2025-08-28T08:49:27.559919
cmd08824beada6d3eb3c534,Alain Delon,"Alain Delon is a French perfume company that leverages the legacy of its founder, renowned actor Alain Delon, who established the brand to reflect elegance and sophistication. The company specializes in fragrances that evoke a sense of luxury, often drawing inspiration from the glamour of classic cinema and the lifestyle associated with it. Their perfume collections are designed to appeal to both men and women, focusing on quality ingredients and artistry in scent creation. The brand aims to create niche fragrances that stand out in the competitive perfume market.",https://images.unsplash.com/photo-1587017539504-67cfbddac569?w=400&h=300&fit=crop,https://www.alaindelon.fr,France,1998,designer,,,,2025-07-18T12:32:10.942225,2025-08-28T08:49:34.567086
cmdbd611c8cdf9c36c4e76c,Alan Bray,"Alan Bray is a niche perfume company that specializes in creating artisanal fragrances inspired by various themes and experiences. Founded by fragrance enthusiast Alan Bray, the company aims to provide customers with unique olfactory experiences that are both personal and memorable. Their limited production runs and commitment to high-quality ingredients ensure that each scent is distinctive and offers a storytelling element, catering to fragrance lovers who appreciate individuality in their choices.",https://images.unsplash.com/photo-15907369626-6c63ac16f3df?w=400&h=300&fit=crop,,,,niche,,,,2025-07-18T12:32:10.942225,2025-08-28T08:49:40.804650
cmd836522343efdd3b7bce0,Alan Cumming,"Alan Cumming is an American actor, author, and activist who launched his own fragrance line, embodying his vibrant personality and artistic vision. The company is known for creating unique and expressive scents, with a focus on innovative ingredients that reflect Cumming's multifaceted interests in art and culture. Their specialty lies in combining storytelling with fragrance, allowing users to experience emotions and narratives through scent.",https://images.squarespace-cdn.com/content/v1/53de7aaee4b0f7ce895694f9/6a389c24-fac8-40c9-bc87-fb56b9b94b13/who+i+am.jpg,https://www.alancumming.com,United States,2016,celebrity,,,,2025-07-18T12:32:10.942225,2025-08-28T08:49:47.655741
cmd7cf7984701596a2548e3,Alba Botanica,"Alba Botanica is a personal care brand that specializes in creating natural and eco-friendly beauty products, including a range of perfumes. Established as part of the Avalon Organics family, Alba Botanica emphasizes the use of botanical ingredients and is committed to sustainable practices. Their product offerings include body care, skin care, and sun care, reflecting a philosophy of providing quality products without harmful chemicals. The brand is well-regarded for its cruelty-free practices and commitment to the environment, appealing to consumers who seek wholesome and ethical alternatives in their personal care regimen.",https://s38167.pcdn.co/wp-content/uploads/2021/04/Alba-Botanica-2020-1.svg,https://www.albabotanica.com,United States,1979,drugstore,,,,2025-07-18T12:32:10.942225,2025-08-28T08:49:56.168977
cmdce43a5fd69f8f1eb3112,Alber Elbaz,"Alber Elbaz was a notable fashion designer who transitioned into the fragrance industry with the launch of his perfume brand. The company is recognized for its artistic approach to fragrance creation, reflecting Elbaz's passion for storytelling and innovative design. Known for combining modern and classic elements, the brand's fragrances often encapsulate emotions and memories, similar to Elbaz's fashion philosophy. His dedication to quality and creativity has established Alber Elbaz as a respected name in the niche perfume market.",https://images.unsplash.com/photo-1587017539504-67cfbddac569?w=400&h=300&fit=crop,https://www.alberelbaz.com,France,2021,niche,,,,2025-07-18T12:32:10.942225,2025-08-28T08:50:04.816377
cmdfcf15f041dffa563edf7,Alberscheim,"Alberscheim is a niche perfume company that specializes in creating unique, artisanal fragrances crafted from high-quality ingredients. The company is known for its commitment to traditional perfume-making techniques, offering a range of signature scents that reflect both contemporary and classic inspirations. Established with a vision to bring bespoke fragrances to the market, Alberscheim emphasizes personalization and exclusivity, catering to discerning customers who appreciate fine perfumery.",https://images.unsplash.com/photo-1587017539504-67cfbddac569?w=400&h=300&fit=crop,www.alberscheim.com,United States,2015,niche,contact@alberscheim.com,,"123 Perfume Lane, Fragrance City, CA 90210, USA",2025-07-18T12:32:10.942225,2025-08-28T08:50:13.348337
cmd295c934f15dea171ce05,Albert & Berman,"Albert & Berman is a niche perfume company known for its artisanal approach to fragrance creation. Founded by experts in olfactory artistry, the company emphasizes high-quality ingredients and unique scent combinations. Each fragrance is carefully crafted to evoke specific emotions and tell a story. Their offerings often reflect a deep understanding of the art of perfumery, characterized by innovation and a commitment to sustainability.",https://images.unsplash.com/photo-1587017539504-67cfbddac569?w=400&h=300&fit=crop,www.albertandberman.com,United States,2010,niche,contact@albertandberman.com,,,2025-07-18T12:32:10.942225,2025-08-28T08:50:21.751305
cmdb0cc4c70366c7c522aea,Albert Nipon,"Albert Nipon is a renowned fragrance brand that was established by American fashion designer Albert Nipon. The company is known for creating elegant and sophisticated perfumes that reflect the ethos of style and luxury. Albert Nipon has made a significant mark in the fashion and beauty industries, often blending the aesthetic sensibilities of high fashion with the allure of fine fragrances. The brand’s unique offerings often cater to those who appreciate a sensuous and refined scent profile.",https://images.unsplash.com/photo-1582735689369-4fe89db7114c?w=400&h=300&fit=crop,,United States,1978,designer,,,,2025-07-18T12:32:10.942225,2025-08-28T08:50:28.987657
cmd1ef760d946ac8a71cec1,Alberta Ferretti,"Alberta Ferretti is an Italian fashion designer brand known for its exclusive and luxurious fashion collections. Founded in 1980, the brand has gained recognition for its elegant evening wear and feminine designs, enriched with romantic themes and delicate details. Alberta Ferretti also has a perfume line that embodies the essence of their fashion aesthetic, offering scents that resonate with sophistication and artistry reflective of their couture heritage. The brand emphasizes craftsmanship and quality, making it a sought-after name in both the fashion and fragrance industries.",https://images.unsplash.com/photo-1582735689369-4fe89db7114c?w=400&h=300&fit=crop,[https://www.albertaferretti.com](https://www.albertaferretti.com),Italy,1980,designer,,,,2025-07-18T12:32:10.942225,2025-08-28T08:50:37.114138
cmdd7064f88c6b039b249ad,Alberto Allegretti,"Alberto Allegretti is a perfumer and fragrance house known for its handcrafted, artisanal perfumes. The company focuses on the use of high-quality natural ingredients and traditional methods, catering to a niche market that appreciates unique and exclusive scents. Founded by Alberto Allegretti, the brand emphasizes creativity and customization in fragrance design, often collaborating directly with clients to develop bespoke perfumes.",https://images.unsplash.com/photo-15907369626-6c63ac16f3df?w=400&h=300&fit=crop,www.albertoallegretti.com,Italy,2015,niche,,,,2025-07-18T12:32:10.942225,2025-08-28T08:50:45.211911
cmd493c3c6411bfd45361bf,Alberto Culver,"Alberto Culver was a prominent manufacturer of personal care and beauty products, which included a wide range of fragrances. The company was founded in 1955 by Alberto Culver and initially focused on hair care products before expanding into other personal care segments, including perfumes. They had a reputation for producing affordable and effective products for the mass market. Throughout the years, Alberto Culver developed various fragrance lines that were typically available in drugstores, emphasizing value and accessibility. The company was later acquired by Unilever in 2011.",https://images.unsplash.com/photo-15907369626-6c63ac16f3df?w=400&h=300&fit=crop,,United States,1955,drugstore,,,,2025-07-18T12:32:10.942225,2025-08-28T08:50:54.111368
cmd699bb60f91eb0d0fc7ec,Alberto VO5,"Alberto VO5 is a brand known primarily for its hair care products, including shampoos, conditioners, and styling products. While Alberto VO5 is more associated with hair care, the brand has developed a series of personal care products that include fragrances, mostly aimed at the mass market. The VO5 line was initially created by the Alberto-Culver Company in the 1950s, emphasizing affordability and effectiveness in personal grooming. Specializing in providing quality products at accessible price points, Alberto VO5 has become a staple in many households.",https://images.unsplash.com/photo-15907369626-6c63ac16f3df?w=400&h=300&fit=crop,https://www.alberto.com/,United States,1955,drugstore,,,,2025-07-18T12:32:10.942225,2025-08-28T08:51:02.397760
cmdb16a35345f22f3df7b24,Alberto,"Alberto is a well-known perfume company that specializes in creating a wide range of fragrances. Established in the fragrance industry for its innovative approach, Alberto is recognized for its blend of traditional and modern perfume making techniques. The brand has a rich history of crafting scents that appeal to diverse audiences, focusing on quality and unique formulations.",https://images.unsplash.com/photo-1556909114-f6e7ad7d3136?w=400&h=300&fit=crop,,France,1947,designer,,,,2025-07-18T12:32:10.942225,2025-08-28T08:51:08.246965
cmd6dd748db5c8149382586,Albin du Roy,"Albin du Roy is a luxurious perfume houses known for its high-quality fragrances that capture the essence of tradition and modernity. It specializes in crafting unique scents that blend traditional perfumery techniques with contemporary artistry, offering a range of sophisticated and elegant perfumes. Founded by Albin du Roy, a passionate perfumer with a deep appreciation for aromatic creations, the brand emphasizes the use of fine ingredients and meticulous craftsmanship in each of its offerings.",https://images.unsplash.com/photo-1541643600914-78b084683601?w=400&h=300&fit=crop,www.albinduroy.com,France,2016,niche,contact@albinduroy.com,,"12 Rue de la Parfumerie, 75001 Paris, France",2025-07-18T12:32:10.942225,2025-08-28T08:51:16.879775
cmd72a6239b05a4a565f468,Alchemy,"Alchemy is a niche perfume company known for its artisanal approach to fragrance creation. They focus on crafting high-quality, unique scents that embody creativity and luxury. The company is dedicated to using natural ingredients and sustainable practices, attracting those who appreciate craftsmanship and individuality in their perfumes. Founded by a group of fragrance enthusiasts, Alchemy aims to provide an olfactory experience that resonates on a personal level.",https://www.alchemyperfumes.com/images/logo.png,www.alchemyperfumes.com,United States,2018,niche,contact@alchemyperfumes.com,,,2025-07-18T12:32:10.942225,2025-08-28T08:51:24.579286
